{"type": "Feature","bbox": [-110.443,53.822,-110.2471,53.9263],"geometry": {"type": "MultiPolygon","coordinates": [[[[-110.259,53.8749,639.8969],[-110.2589,53.8788,618.9509],[-110.2471,53.8788,625.8488],[-110.2472,53.8831,614.1415],[-110.2584,53.8831,605.0698],[-110.2623,53.8861,603.3629],[-110.2958,53.8863,576.3196],[-110.2986,53.8827,574.0387],[-110.3089,53.8782,580.494],[-110.3249,53.8652,575.1596],[-110.3349,53.8547,577.7571],[-110.334,53.8534,582.5553],[-110.3439,53.8521,579.5714],[-110.3515,53.844,584.9265],[-110.3515,53.8506,573.6595],[-110.3581,53.8607,587.3636],[-110.3571,53.8809,578.077],[-110.3471,53.8849,573.447],[-110.3547,53.8857,569.9536],[-110.3614,53.9107,583.6902],[-110.3664,53.9178,582.84],[-110.3818,53.9231,620.4395],[-110.3826,53.9263,610.4167],[-110.443,53.9262,638.6129],[-110.443,53.8921,612.6606],[-110.4386,53.892,619.159],[-110.4388,53.8321,606.0925],[-110.414,53.832,573.8053],[-110.414,53.834,584.4488],[-110.411,53.834,578.1248],[-110.4107,53.8319,586.0699],[-110.3537,53.8319,593.6096],[-110.3576,53.8295,593.0834],[-110.3573,53.8223,579.2605],[-110.2681,53.822,656.8785],[-110.268,53.8314,645.0204],[-110.2591,53.8314,660.8398],[-110.259,53.8749,639.8969]]]]}
,"properties": {"GID_3": "CAN.1.3.24_1","GID_0": "CAN","country": "Canada","GID_1": "CAN.1_1","province": "Alberta","NL_NAME_1": "NA","GID_2": "CAN.1.3_1","county": "DivisionNo.12","NL_NAME_2": "NA","city": "Unipouheos121","VARNAME_3": "NA","NL_NAME_3": "NA","TYPE_3": "RéserveIndienne","ENGTYPE_3": "IndianReserve","CC_3": "NA","HASC_3": "NA","name": "Unipouheos121.city","area_km2": 90.85253,"hist_schema_id": "Elevation0-9000","hist_area_km2": {"575": 16.91168,"600": 21.55533,"625": 33.70992,"650": 16.93924,"675": 1.73636}}}