{"type":"Feature","properties":{"GID_3":"CAN.11.41.19_1","GID_0":"CAN","country":"Canada","GID_1":"CAN.11_1","province":"Québec","NL_NAME_1":"NA","GID_2":"CAN.11.41_1","county":"LaMitis","NL_NAME_2":"NA","city":"Sainte-Flavie","VARNAME_3":"NA","NL_NAME_3":"NA","TYPE_3":"MunicipalitéDeParoisse","ENGTYPE_3":"ParishMunicipality","CC_3":"NA","HASC_3":"NA","name":"Sainte-Flavie.city"},
"geometry":{"type": "MultiPolygon","coordinates": [[[[-68.2185,48.5737,149.2263],[-68.203,48.5807,99.6849],[-68.2073,48.5836,87.8935],[-68.2052,48.5845,81.3029],[-68.218,48.5921,48.7249],[-68.2083,48.5979,50.489],[-68.2212,48.6055,33.9591],[-68.2011,48.62,27.7268],[-68.2068,48.623,6.8447],[-68.2378,48.6072,4.328],[-68.2942,48.5837,3.3121],[-68.2521,48.5592,78.494],[-68.2185,48.5737,149.2263]]],
[[[-68.1448,48.6317,21.0992],[-68.1489,48.6347,0.9859],[-68.1472,48.6361,0.0],[-68.15,48.6378,0.0],[-68.1489,48.6411,0.5687],[-68.1514,48.6415,6.1084],[-68.1507,48.638,0.0],[-68.1559,48.6358,20.069],[-68.1637,48.6405,1.6748],[-68.1881,48.6319,3.2882],[-68.2055,48.6238,0.0],[-68.1947,48.6194,30.9081],[-68.1956,48.6185,39.7246],[-68.181,48.6101,72.8718],[-68.1944,48.6039,58.2037],[-68.1943,48.6024,62.104],[-68.1997,48.6017,56.379],[-68.1965,48.5999,57.0947],[-68.1933,48.6028,62.104],[-68.1752,48.5924,84.3458],[-68.1458,48.6066,51.835],[-68.1478,48.6107,39.9202],[-68.1448,48.6204,30.1441],[-68.1448,48.6317,21.0992]]]]}}