{"type":"Feature","properties":{"GID_3":"CAN.2.21.1_1","GID_0":"CAN","country":"Canada","GID_1":"CAN.2_1","province":"BritishColumbia","NL_NAME_1":"NA","GID_2":"CAN.2.21_1","county":"Okanagan-Similkameen","NL_NAME_2":"NA","city":"Alexis9","VARNAME_3":"NA","NL_NAME_3":"NA","TYPE_3":"RéserveIndienne","ENGTYPE_3":"IndianReserve","CC_3":"NA","HASC_3":"NA","name":"Alexis9.city"},
"geometry":{"type": "MultiPolygon","coordinates": [[[[-119.908,49.2128,428.1815],[-119.9073,49.223,973.6392],[-119.932,49.2231,494.4817],[-119.933,49.2132,514.0022],[-119.9165,49.2073,674.7738],[-119.9063,49.2057,576.1006],[-119.908,49.2128,428.1815]]]]}}