{"type": "Feature","bbox": [-122.0294,52.0864,-121.954,52.1256],"geometry": {"type": "MultiPolygon","coordinates": [[[[-121.9882,52.0884,655.3549],[-121.9578,52.0864,670.3318],[-121.954,52.1233,768.4971],[-122.0076,52.1241,720.265],[-122.0078,52.1254,720.265],[-122.0141,52.1256,684.8882],[-122.0141,52.1242,662.9257],[-122.0294,52.1245,763.3176],[-122.0294,52.1175,584.5123],[-122.0235,52.1163,568.6211],[-122.0197,52.1123,568.1185],[-122.0247,52.1118,567.2458],[-122.0264,52.109,566.8436],[-122.0291,52.1089,566.5],[-122.029,52.1014,693.8419],[-122.009,52.0923,674.8563],[-122.0057,52.093,599.8218],[-122.0024,52.0893,585.7043],[-121.9882,52.0884,655.3549]]]]}
,"properties": {"GID_3": "CAN.2.4.89_1","GID_0": "CAN","country": "Canada","GID_1": "CAN.2_1","province": "BritishColumbia","NL_NAME_1": "NA","GID_2": "CAN.2.4_1","county": "Cariboo","NL_NAME_2": "NA","city": "WilliamsLake1","VARNAME_3": "NA","NL_NAME_3": "NA","TYPE_3": "RéserveIndienne","ENGTYPE_3": "IndianReserve","CC_3": "NA","HASC_3": "NA","name": "Williams_Lake1.city","area_km2": 18.21793,"hist_schema_id": "Elevation0-9000","hist_area_km2": {"575": 3.81565,"600": 1.84915,"625": 1.36721,"650": 2.03146,"675": 2.13578,"700": 2.59164,"725": 1.53664,"750": 1.11984,"775": 0.7161,"800": 0.3515,"825": 0.35149,"850": 0.20829,"875": 0.11716,"900": 0.02603}}}