{"type": "Feature","bbox": [-112.2533,60.0,-111.7997,60.0837],"geometry": {"type": "MultiPolygon","coordinates": [[[[-111.7997,60.0,169.4789],[-111.8356,60.0187,174.0485],[-111.8577,60.0206,180.8693],[-111.8795,60.0304,167.5321],[-111.9019,60.0364,164.9576],[-111.9198,60.0381,164.4813],[-111.939,60.0429,164.091],[-111.957,60.0455,188.4102],[-111.9823,60.0475,203.4355],[-111.996,60.0475,208.9647],[-112.001,60.0412,164.0],[-112.0159,60.0398,164.0],[-112.0489,60.04,164.0],[-112.1049,60.0278,164.0],[-112.1223,60.0226,164.0],[-112.131,60.0227,164.0],[-112.14,60.0261,164.0],[-112.1458,60.0306,175.8476],[-112.1491,60.0369,176.3601],[-112.1478,60.0427,185.2249],[-112.1523,60.0526,190.8152],[-112.1583,60.058,193.191],[-112.1837,60.0716,164.0],[-112.1985,60.0837,181.0799],[-112.2533,60.0818,185.3981],[-112.2529,60.0,188.412],[-111.7997,60.0,169.4789]]]]}
,"properties": {"GID_3": "CAN.6.1.7_1","GID_0": "CAN","country": "Canada","GID_1": "CAN.6_1","province": "NorthwestTerritories","NL_NAME_1": "NA","GID_2": "CAN.6.1_1","county": "FortSmith","NL_NAME_2": "NA","city": "FortSmith","VARNAME_3": "NA","NL_NAME_3": "NA","TYPE_3": "Town","ENGTYPE_3": "Town","CC_3": "NA","HASC_3": "NA","name": "Fort_Smith.city","area_km2": 119.23189,"hist_schema_id": "Elevation0-9000","hist_area_km2": {"175": 54.15484,"200": 60.21294,"225": 4.86411}}}