{"type": "Feature","bbox": [-68.2898,47.3547,-68.0869,47.52],"geometry": {"type": "MultiPolygon","coordinates": [[[[-68.1536,47.3547,201.1841],[-68.1295,47.3825,443.6935],[-68.1313,47.3846,433.4458],[-68.0869,47.4015,302.101],[-68.187,47.52,291.1457],[-68.1977,47.5073,194.8027],[-68.1991,47.4922,195.3601],[-68.2032,47.4872,216.3898],[-68.1952,47.4812,190.3881],[-68.1963,47.4787,207.6594],[-68.203,47.4795,194.4126],[-68.2077,47.4772,191.2953],[-68.2189,47.4768,188.9442],[-68.2223,47.4739,207.2888],[-68.2199,47.472,182.2088],[-68.2201,47.4692,189.7365],[-68.226,47.4676,182.1045],[-68.2189,47.4543,236.4926],[-68.2237,47.4526,174.4913],[-68.2219,47.4488,178.1026],[-68.2598,47.4358,385.892],[-68.2898,47.3964,221.0663],[-68.2319,47.3759,274.097],[-68.2282,47.3811,309.4713],[-68.1536,47.3547,201.1841]]]]}
,"properties": {"GID_3": "CAN.4.7.13_1","GID_0": "CAN","country": "Canada","GID_1": "CAN.4_1","province": "NewBrunswick","NL_NAME_1": "NA","GID_2": "CAN.4.7_1","county": "Madawaska","NL_NAME_2": "NA","city": "Saint-Basile","VARNAME_3": "NA","NL_NAME_3": "NA","TYPE_3": "Parish","ENGTYPE_3": "Parish","CC_3": "NA","HASC_3": "NA","name": "Saint-Basile.city","area_km2": 130.5382,"hist_schema_id": "Elevation0-9000","hist_area_km2": {"150": 2.0384,"175": 8.1924,"200": 6.5274,"225": 9.1236,"250": 10.6443,"275": 14.6616,"300": 21.8067,"325": 21.6617,"350": 16.1923,"375": 11.7886,"400": 5.822,"425": 1.6633,"450": 0.3728,"475": 0.0431}}}