{"type": "Feature","bbox": [-114.6367,50.3096,-113.4899,50.9214],"geometry": {"type": "MultiPolygon","coordinates": [[[[-114.5158,50.3971,1444.0181],[-114.5107,50.4029,1434.5425],[-114.5043,50.4025,1422.8536],[-114.499,50.4048,1427.1154],[-114.4934,50.4046,1438.7112],[-114.4934,50.4101,1412.2524],[-114.4806,50.412,1403.0653],[-114.4752,50.4203,1396.5381],[-114.4414,50.4362,1374.9312],[-114.4298,50.4484,1360.4238],[-114.4216,50.4633,1354.9777],[-114.4141,50.4628,1391.6621],[-114.4143,50.4263,1520.7352],[-114.437,50.4263,1463.807],[-114.483,50.3972,1450.7373],[-114.5058,50.3971,1451.9792],[-114.506,50.3682,1678.876],[-114.4602,50.3682,1480.9849],[-114.4604,50.3246,1566.321],[-114.3914,50.3243,1439.4595],[-114.3916,50.3099,1593.2902],[-114.2078,50.3096,1390.0493],[-114.2081,50.3972,1224.7507],[-114.0036,50.3964,1109.3379],[-113.9997,50.3983,1117.9148],[-113.8266,50.3985,1028.7731],[-113.8269,50.4115,1032.7788],[-113.565,50.4117,979.0302],[-113.5759,50.4237,990.657],[-113.5766,50.4293,985.7659],[-113.5826,50.4367,994.2762],[-113.58,50.4408,981.2414],[-113.5836,50.4464,984.7251],[-113.5889,50.4469,994.77],[-113.5985,50.4517,983.7878],[-113.5981,50.572,1019.6625],[-113.4899,50.5724,1009.9083],[-113.4902,50.7962,931.2578],[-113.4973,50.7945,980.4669],[-113.5141,50.7959,978.175],[-113.5313,50.804,949.6692],[-113.5397,50.8056,944.0145],[-113.5513,50.8024,966.0095],[-113.5581,50.7956,994.3128],[-113.5682,50.7909,1005.8607],[-113.597,50.7919,1015.5853],[-113.615,50.7892,1022.722],[-113.6245,50.7909,1024.0325],[-113.6363,50.7971,1000.5039],[-113.657,50.7972,1024.6431],[-113.6665,50.7989,978.6606],[-113.6754,50.8054,981.3431],[-113.6864,50.8065,952.1523],[-113.7008,50.8003,1036.9944],[-113.7087,50.8004,1037.8267],[-113.7476,50.8098,1017.3621],[-113.7608,50.8147,951.9631],[-113.7669,50.815,955.3622],[-113.7758,50.8141,952.7361],[-113.7771,50.8094,964.7119],[-113.7835,50.8066,951.6974],[-113.7943,50.796,960.5367],[-113.7957,50.8019,991.9555],[-113.7937,50.8065,958.6287],[-113.784,50.8113,977.887],[-113.7862,50.8154,1012.9761],[-113.8111,50.8215,1020.4489],[-113.8148,50.8246,1020.6514],[-113.8173,50.8379,994.5927],[-113.8203,50.8411,983.0182],[-113.8305,50.8431,999.7789],[-113.8412,50.8384,1016.0132],[-113.8476,50.8391,1016.3201],[-113.8523,50.8413,994.2654],[-113.8589,50.8502,972.252],[-113.8844,50.8575,964.9402],[-113.8957,50.8574,972.8383],[-113.9054,50.8531,980.6348],[-113.9057,50.8605,1022.4376],[-113.9217,50.8526,973.0214],[-113.9361,50.8535,979.8052],[-113.9551,50.8457,978.4949],[-113.9645,50.8515,977.8243],[-113.9778,50.8558,986.6909],[-113.9833,50.8597,986.7784],[-113.9933,50.8774,993.4149],[-114.0939,50.8771,1086.3763],[-114.0938,50.8886,1084.1937],[-114.1119,50.8885,1115.7383],[-114.112,50.8866,1114.0],[-114.1221,50.8867,1139.7224],[-114.1223,50.8884,1131.2106],[-114.1403,50.8889,1155.7782],[-114.1403,50.8918,1162.1455],[-114.2097,50.8918,1140.2888],[-114.2098,50.9213,1137.8014],[-114.6239,50.9214,1377.1759],[-114.6236,50.9066,1394.4727],[-114.6367,50.9065,1412.4756],[-114.6366,50.8993,1437.4209],[-114.625,50.8994,1416.968],[-114.6248,50.8921,1460.7749],[-114.5559,50.8926,1418.9824],[-114.5562,50.8191,1408.8815],[-114.5328,50.8192,1392.5498],[-114.5328,50.8118,1358.4215],[-114.5446,50.8119,1372.4791],[-114.5445,50.8046,1375.1572],[-114.5329,50.8047,1361.2979],[-114.5331,50.7029,1414.9418],[-114.4638,50.7029,1416.792],[-114.464,50.6012,1513.8141],[-114.4407,50.6011,1441.088],[-114.4407,50.5719,1530.793],[-114.4837,50.5724,1554.8915],[-114.4833,50.5431,1474.5037],[-114.5295,50.5433,1506.0142],[-114.5289,50.4554,1583.335],[-114.5059,50.4554,1495.5554],[-114.506,50.411,1443.2623],[-114.5288,50.4109,1546.5685],[-114.5288,50.3971,1434.0425],[-114.5158,50.3971,1444.0181]],
[[-114.2215,50.686,1188.9991],[-114.2215,50.681,1189.9016],[-114.2325,50.681,1191.5916],[-114.2325,50.6741,1196.2097],[-114.2438,50.6742,1195.2788],[-114.2436,50.6785,1188.6885],[-114.2394,50.6799,1187.3611],[-114.244,50.6844,1176.6342],[-114.2268,50.7019,1162.5922],[-114.2236,50.7027,1160.3185],[-114.2218,50.7027,1166.2002],[-114.2215,50.686,1188.9991]],
[[-114.2307,50.47,1220.2223],[-114.2194,50.4698,1204.7208],[-114.2195,50.4625,1240.8173],[-114.2322,50.4625,1215.01],[-114.2326,50.4551,1231.4739],[-114.2534,50.455,1270.119],[-114.254,50.4773,1293.1825],[-114.2421,50.4773,1229.7687],[-114.2419,50.484,1242.875],[-114.231,50.4841,1242.7771],[-114.2307,50.47,1220.2223]],
[[-113.8756,50.5952,1035.989],[-113.8749,50.5867,1038.8507],[-113.8746,50.5892,1039.0061],[-113.873,50.5893,1039.0061],[-113.872,50.5867,1038.6854],[-113.8279,50.5868,1035.8376],[-113.8278,50.5721,1038.1497],[-113.8322,50.5721,1038.8623],[-113.8278,50.5693,1037.6973],[-113.8278,50.5647,1040.0509],[-113.85,50.5647,1036.5073],[-113.85,50.572,1036.0867],[-113.9048,50.572,1048.2698],[-113.905,50.5938,1047.0742],[-113.8799,50.594,1036.2634],[-113.8756,50.5952,1035.989]],
[[-114.2309,50.5363,1244.231],[-114.2309,50.5351,1243.3014],[-114.2272,50.5352,1245.9308],[-114.2273,50.5292,1238.443],[-114.224,50.5267,1235.6685],[-114.2322,50.5267,1232.8252],[-114.2348,50.5234,1190.1332],[-114.2363,50.5237,1190.1332],[-114.2395,50.5265,1191.5498],[-114.2379,50.5306,1222.1393],[-114.2424,50.5335,1194.103],[-114.2424,50.5358,1234.6609],[-114.2339,50.5358,1243.0171],[-114.2338,50.538,1245.1395],[-114.2309,50.5379,1246.7104],[-114.2309,50.5363,1244.231]],
[[-113.9634,50.7469,1119.4634],[-113.9634,50.7392,1098.9562],[-113.9285,50.7393,1095.5563],[-113.9285,50.725,1068.939],[-113.9417,50.7249,1067.4791],[-113.9415,50.714,1039.2456],[-113.9486,50.715,1041.9955],[-113.9512,50.7137,1047.7175],[-113.9449,50.7097,1048.3047],[-113.9282,50.7098,1033.317],[-113.9275,50.703,1043.4949],[-113.9861,50.7037,1085.0104],[-113.986,50.7151,1080.2505],[-113.9875,50.7175,1072.4055],[-114.0018,50.7176,1098.459],[-114.0019,50.7289,1062.6215],[-113.9937,50.7245,1059.2742],[-113.9866,50.7246,1059.3236],[-113.9869,50.7321,1082.9812],[-114.0019,50.7319,1060.5055],[-114.0019,50.739,1094.126],[-113.9991,50.7391,1094.2816],[-113.9991,50.7429,1102.1182],[-113.9806,50.7428,1102.3961],[-113.9805,50.7469,1109.6649],[-113.9634,50.7469,1119.4634]],
[[-114.2662,50.6771,1200.2075],[-114.2553,50.6773,1192.0941],[-114.2556,50.6595,1216.884],[-114.2896,50.66,1234.4767],[-114.2897,50.6625,1212.001],[-114.2932,50.6635,1222.1964],[-114.2925,50.6652,1217.9045],[-114.2899,50.6653,1219.5634],[-114.2899,50.6731,1240.9756],[-114.2923,50.673,1292.0283],[-114.2944,50.6756,1247.3817],[-114.2899,50.6757,1238.2312],[-114.2901,50.6807,1226.8765],[-114.2668,50.6806,1220.5364],[-114.2662,50.6771,1200.2075]]]]}
,"properties": {"GID_3": "CAN.1.16.12_1","GID_0": "CAN","country": "Canada","GID_1": "CAN.1_1","province": "Alberta","NL_NAME_1": "NA","GID_2": "CAN.1.16_1","county": "DivisionNo.6","NL_NAME_2": "NA","city": "FoothillsNo.31","VARNAME_3": "NA","NL_NAME_3": "NA","TYPE_3": "MunicipalDistrict","ENGTYPE_3": "MunicipalDistrict","CC_3": "NA","HASC_3": "NA","name": "Foothills_No.31.city","area_km2": 3704.818,"hist_schema_id": "Elevation0-9000","hist_area_km2": {"950": 1.876,"975": 13.929,"1000": 153.449,"1025": 428.037,"1050": 392.74,"1075": 288.46,"1100": 216.089,"1125": 224.332,"1150": 218.64,"1175": 170.035,"1200": 162.617,"1225": 183.004,"1250": 169.737,"1275": 164.323,"1300": 153.203,"1325": 162.052,"1350": 152.459,"1375": 122.315,"1400": 79.699,"1425": 57.556,"1450": 46.037,"1475": 39.963,"1500": 33.208,"1525": 25.51,"1550": 18.876,"1575": 10.978,"1600": 6.605,"1625": 4.471,"1650": 2.162,"1675": 1.094,"1700": 0.54,"1725": 0.337,"1750": 0.243,"1775": 0.189,"1800": 0.054}}}