{"type": "Feature","bbox": [-115.4234,55.9181,-115.3297,55.9406],"geometry": {"type": "MultiPolygon","coordinates": [[[[-115.3305,55.9313,649.2703],[-115.3297,55.939,651.3955],[-115.4234,55.9406,654.3708],[-115.4202,55.931,639.0],[-115.4036,55.9226,639.0],[-115.3909,55.9207,639.0],[-115.3748,55.9218,639.0],[-115.3316,55.9181,639.0],[-115.3305,55.9313,649.2703]]]]}
,"properties": {"GID_3": "CAN.1.8.42_1","GID_0": "CAN","country": "Canada","GID_1": "CAN.1_1","province": "Alberta","NL_NAME_1": "NA","GID_2": "CAN.1.8_1","county": "DivisionNo.17","NL_NAME_2": "NA","city": "UtikoomakLake155A","VARNAME_3": "NA","NL_NAME_3": "NA","TYPE_3": "RéserveIndienne","ENGTYPE_3": "IndianReserve","CC_3": "NA","HASC_3": "NA","name": "Utikoomak_Lake155_A.city","area_km2": 11.307281,"hist_schema_id": "Elevation0-9000","hist_area_km2": {"650": 10.13159,"675": 1.175691}}}