{"type":"Feature","properties":{"GID_3":"CAN.11.8.10_1","GID_0":"CAN","country":"Canada","GID_1":"CAN.11_1","province":"Québec","NL_NAME_1":"NA","GID_2":"CAN.11.8_1","county":"Avignon","NL_NAME_2":"NA","city":"Ristigouche-Partie-Sud-Est","VARNAME_3":"NA","NL_NAME_3":"NA","TYPE_3":"MunicipalitéDeCanton","ENGTYPE_3":"CantonMunicipality","CC_3":"NA","HASC_3":"NA","name":"Ristigouche-Partie-Sud-Est.city"},
"geometry":{"type": "MultiPolygon","coordinates": [[[[-66.8387,48.0006,3.8725],[-66.8082,47.9946,0.0],[-66.8017,47.9951,5.4722],[-66.801,47.9921,0.7331],[-66.7994,47.9915,0.0],[-66.7869,47.9919,0.0],[-66.7817,47.9942,0.9224],[-66.7824,47.9962,9.2787],[-66.779,47.9958,12.0032],[-66.7703,47.999,2.9786],[-66.7658,48.0031,0.5096],[-66.7612,48.0041,0.0],[-66.7611,48.007,0.0],[-66.7558,48.0112,5.1672],[-66.751,48.0105,3.4064],[-66.7779,48.053,163.995],[-66.7815,48.052,90.535],[-66.7877,48.0455,143.4563],[-66.7926,48.0438,85.7641],[-66.804,48.0346,43.8623],[-66.799,48.026,60.7845],[-66.7997,48.0234,183.5776],[-66.8074,48.0245,239.6182],[-66.8183,48.0291,122.3493],[-66.8286,48.0458,124.4381],[-66.8278,48.0512,70.9977],[-66.831,48.0574,182.0635],[-66.8677,48.0475,243.7001],[-66.8687,48.0493,207.9358],[-66.8912,48.0434,300.5729],[-66.883,48.0303,295.1366],[-66.8933,48.0275,101.2655],[-66.8892,48.0248,82.597],[-66.8902,48.0217,74.8567],[-66.8891,48.0141,50.2391],[-66.8865,48.0125,54.3132],[-66.8837,48.0136,125.0254],[-66.8741,48.0011,11.4011],[-66.8726,47.9953,3.0],[-66.8563,48.0007,5.7911],[-66.8387,48.0006,3.8725]]]]}}