{"type":"Feature","properties":{"GID_3":"CAN.2.11.2_1","GID_0":"CAN","country":"Canada","GID_1":"CAN.2_1","province":"BritishColumbia","NL_NAME_1":"NA","GID_2":"CAN.2.11_1","county":"EastKootenay","NL_NAME_2":"NA","city":"Cassimayooks(Mayook)5","VARNAME_3":"NA","NL_NAME_3":"NA","TYPE_3":"RéserveIndienne","ENGTYPE_3":"IndianReserve","CC_3":"NA","HASC_3":"NA","name":"Cassimayooks(Mayook)5.city"},
"geometry":{"type": "MultiPolygon","coordinates": [[[[-115.5709,49.495,823.1511],[-115.5708,49.4878,825.5251],[-115.5596,49.4878,828.8597],[-115.56,49.495,838.3199],[-115.5709,49.495,823.1511]]]]}}