{"type":"Feature","properties":{"GID_3":"CAN.9.30.10_1","GID_0":"CAN","country":"Canada","GID_1":"CAN.9_1","province":"Ontario","NL_NAME_1":"NA","GID_2":"CAN.9.30_1","county":"Middlesex","NL_NAME_2":"NA","city":"SouthwestMiddlesex","VARNAME_3":"NA","NL_NAME_3":"NA","TYPE_3":"Township","ENGTYPE_3":"Township","CC_3":"NA","HASC_3":"NA","name":"Southwest_Middlesex.city"},
"geometry":{"type": "MultiPolygon","coordinates": [[[[-81.8308,42.6047,205.7324],[-81.8222,42.607,206.1287],[-81.8042,42.6059,211.3687],[-81.795,42.6164,206.4902],[-81.7803,42.6254,208.4053],[-81.7772,42.6313,197.462],[-81.7789,42.6355,191.4959],[-81.7731,42.6399,197.8914],[-81.7717,42.6433,192.2657],[-81.7571,42.6423,208.1236],[-81.7475,42.6484,207.3591],[-81.7431,42.6492,207.7488],[-81.7341,42.6563,193.7556],[-81.7282,42.6566,190.4339],[-81.7232,42.6505,192.8477],[-81.7183,42.6481,190.1777],[-81.7157,42.6451,192.2852],[-81.7153,42.6396,202.1563],[-81.7126,42.6377,211.0805],[-81.7011,42.6371,209.4158],[-81.6982,42.6453,200.9252],[-81.6994,42.6467,196.1097],[-81.709,42.6474,197.979],[-81.7086,42.6561,191.5594],[-81.7146,42.6609,196.3403],[-81.7036,42.6704,198.5286],[-81.6881,42.6693,207.6224],[-81.6815,42.6701,211.2891],[-81.6783,42.6725,208.4998],[-81.6775,42.6755,208.3112],[-81.6814,42.6859,196.4933],[-81.6811,42.6902,193.6132],[-81.6707,42.6998,199.1443],[-81.6496,42.6924,195.7719],[-81.6392,42.682,209.0569],[-81.6272,42.6803,210.5721],[-81.6154,42.6928,214.3994],[-81.6161,42.6963,193.9704],[-81.6079,42.7061,206.1586],[-81.596,42.7067,216.1928],[-81.5932,42.7124,206.7407],[-81.5959,42.7209,198.7001],[-81.5942,42.7248,200.0955],[-81.5811,42.7249,216.8507],[-81.5713,42.7285,214.4054],[-81.561,42.7349,212.0018],[-81.5651,42.7398,198.781],[-81.5634,42.7423,197.9214],[-81.5554,42.7411,192.917],[-81.5457,42.7349,212.2398],[-81.5395,42.7345,216.6772],[-81.5268,42.7456,220.7472],[-81.5208,42.7477,214.3608],[-81.5262,42.7513,204.2853],[-81.5276,42.755,198.4269],[-81.5221,42.7592,201.7432],[-81.5145,42.7615,205.2376],[-81.5036,42.7606,203.6543],[-81.495,42.7534,226.2111],[-81.4698,42.7529,217.2533],[-81.4693,42.7543,216.5642],[-81.6346,42.8778,219.7288],[-81.7606,42.7856,221.5605],[-81.8355,42.8433,219.0071],[-81.8351,42.6091,201.1047],[-81.8308,42.6047,205.7324]],
[[-81.7973,42.6756,211.2223],[-81.8104,42.6855,211.9935],[-81.800299999999993,42.6933,213.5256],[-81.7873,42.6836,229.4398],[-81.7973,42.6756,211.2223]]],
[[[-81.4689,42.7553,217.0869],[-81.4688,42.7556,214.3769],[-81.4693,42.7543,216.5642],[-81.4689,42.7553,217.0869]]]]}}