{"type": "Feature","bbox": [-56.127,49.4858,-56.0009,49.5301],"geometry": {"type": "MultiPolygon","coordinates": [[[[-56.0788,49.49,0.0],[-56.0764,49.4903,0.0],[-56.0724,49.4858,11.8053],[-56.0686,49.4858,17.2021],[-56.0651,49.4876,1.7082],[-56.0631,49.4911,0.0],[-56.0659,49.4912,7.8138],[-56.0677,49.493,15.9593],[-56.064,49.4997,0.0],[-56.0651,49.5013,1.363],[-56.0572,49.5015,0.0],[-56.053,49.5052,0.0],[-56.0385,49.5092,3.6935],[-56.0198,49.5119,0.0],[-56.0035,49.5209,5.9121],[-56.0058,49.525,47.5349],[-56.0009,49.5289,62.1567],[-56.0031,49.5301,66.2509],[-56.1053,49.5209,22.849],[-56.1223,49.5113,18.0304],[-56.127,49.5107,22.0057],[-56.1237,49.5102,21.2678],[-56.1187,49.5036,26.3968],[-56.1036,49.5037,9.0112],[-56.0858,49.4911,8.254],[-56.0788,49.49,0.0]]]]}
,"properties": {"GID_3": "CAN.5.10.55_1","GID_0": "CAN","country": "Canada","GID_1": "CAN.5_1","province": "NewfoundlandandLabrador","NL_NAME_1": "NA","GID_2": "CAN.5.10_1","county": "DivisionNo.8","NL_NAME_2": "NA","city": "Springdale","VARNAME_3": "NA","NL_NAME_3": "NA","TYPE_3": "Town","ENGTYPE_3": "Town","CC_3": "NA","HASC_3": "NA","name": "Springdale.city","area_km2": 19.91985,"hist_schema_id": "Elevation0-9000","hist_area_km2": {"0": 1.79004,"25": 6.93874,"50": 2.78072,"75": 2.31256,"100": 3.46878,"125": 2.16103,"150": 0.46799}}}