{"type": "Feature","bbox": [-71.308,48.1893,-71.0017,48.3735],"geometry": {"type": "MultiPolygon","coordinates": [[[[-71.1832,48.3735,152.3198],[-71.2089,48.3487,192.0],[-71.2206,48.3544,201.1032],[-71.2455,48.327,182.5679],[-71.308,48.2668,342.3476],[-71.1549,48.1893,378.2581],[-71.0337,48.3062,166.2002],[-71.0207,48.3003,223.6014],[-71.0017,48.3192,148.8284],[-71.0137,48.3257,158.6059],[-71.0055,48.3343,156.0964],[-71.0172,48.3399,153.3772],[-71.0114,48.3455,147.1248],[-71.0238,48.351,144.9001],[-71.0251,48.3497,144.957],[-71.0647,48.3673,168.6053],[-71.0978,48.3352,157.8607],[-71.1116,48.3413,161.7329],[-71.1395,48.3111,151.3502],[-71.1383,48.3106,152.0275],[-71.1339,48.3151,149.2517],[-71.1149,48.3068,158.3891],[-71.1165,48.3049,161.1776],[-71.1127,48.3042,162.0196],[-71.1169,48.3019,159.0154],[-71.1141,48.303,160.4684],[-71.1018,48.2973,185.1591],[-71.1236,48.2758,226.2415],[-71.1485,48.2869,172.1466],[-71.1457,48.2898,172.0885],[-71.1551,48.2953,172.7623],[-71.1506,48.2982,168.372],[-71.152,48.2988,160.9596],[-71.1493,48.2997,153.9504],[-71.1506,48.3002,166.5728],[-71.1451,48.3049,160.9471],[-71.1463,48.3053,161.4907],[-71.1121,48.3416,161.7329],[-71.1832,48.3735,152.3198]]]]}
,"properties": {"GID_3": "CAN.11.53.11_1","GID_0": "CAN","country": "Canada","GID_1": "CAN.11_1","province": "Québec","NL_NAME_1": "NA","GID_2": "CAN.11.53_1","county": "LeFjord-du-Saguenay","NL_NAME_2": "NA","city": "Laterrière","VARNAME_3": "NA","NL_NAME_3": "NA","TYPE_3": "Ville","ENGTYPE_3": "Ville","CC_3": "NA","HASC_3": "NA","name": "Laterrière.city","area_km2": 234.2804,"hist_schema_id": "Elevation0-9000","hist_area_km2": {"125": 0.2677,"150": 57.346,"175": 24.0665,"200": 24.9975,"225": 18.1247,"250": 16.8481,"275": 16.6386,"300": 14.299,"325": 16.2774,"350": 20.8135,"375": 18.2739,"400": 5.7202,"425": 0.6074}}}