{"type":"Feature","properties":{"GID_3":"CAN.12.10.55_1","GID_0":"CAN","country":"Canada","GID_1":"CAN.12_1","province":"Saskatchewan","NL_NAME_1":"NA","GID_2":"CAN.12.10_1","county":"DivisionNo.1","NL_NAME_2":"NA","city":"WhiteBear70","VARNAME_3":"NA","NL_NAME_3":"NA","TYPE_3":"RéserveIndienne","ENGTYPE_3":"IndianReserve","CC_3":"NA","HASC_3":"NA","name":"White_Bear70.city"},
"geometry":{"type": "MultiPolygon","coordinates": [[[[-102.168,49.7848,738.5434],[-102.1674,49.7989,717.1354],[-102.1651,49.7989,721.6223],[-102.1653,49.8062,720.5398],[-102.2336,49.8062,769.9525],[-102.2335,49.8013,761.5085],[-102.2549,49.8014,742.1824],[-102.2551,49.8065,746.2025],[-102.335,49.8063,774.7365],[-102.3386,49.7171,748.0123],[-102.1699,49.7153,707.6979],[-102.168,49.7848,738.5434]]]]}}