{"type": "Feature","bbox": [-125.0479,49.6121,-124.9942,49.6327],"geometry": {"type": "MultiPolygon","coordinates": [[[[-125.0479,49.6324,166.9556],[-125.0479,49.6156,161.5419],[-125.0181,49.6157,151.1595],[-125.0182,49.6126,190.51],[-124.9942,49.6121,137.9104],[-124.9943,49.6254,125.3977],[-124.9971,49.6259,127.9461],[-124.9977,49.6327,111.7137],[-125.0479,49.6324,166.9556]]]]}
,"properties": {"GID_3": "CAN.2.9.19_1","GID_0": "CAN","country": "Canada","GID_1": "CAN.2_1","province": "BritishColumbia","NL_NAME_1": "NA","GID_2": "CAN.2.9_1","county": "Comox-Strathcona","NL_NAME_2": "NA","city": "Cumberland","VARNAME_3": "NA","NL_NAME_3": "NA","TYPE_3": "Village","ENGTYPE_3": "Village","CC_3": "NA","HASC_3": "NA","name": "Cumberland.city","area_km2": 7.815237,"hist_schema_id": "Elevation0-9000","hist_area_km2": {"125": 1.016304,"150": 4.628715,"175": 1.538366,"200": 0.618114,"225": 0.013738}}}