{"type":"Feature","properties":{"GID_3":"CAN.9.9.2_1","GID_0":"CAN","country":"Canada","GID_1":"CAN.9_1","province":"Ontario","NL_NAME_1":"NA","GID_2":"CAN.9.9_1","county":"Essex","NL_NAME_2":"NA","city":"Essex","VARNAME_3":"NA","NL_NAME_3":"NA","TYPE_3":"Town","ENGTYPE_3":"Town","CC_3":"NA","HASC_3":"NA","name":"Essex.city"},
"geometry":{"type": "MultiPolygon","coordinates": [[[[-83.0005,42.0128,170.0],[-82.9701,41.9986,170.0],[-82.9329,41.9779,170.0],[-82.9155,41.9731,170.0],[-82.8998,41.9744,170.0],[-82.8895,41.98,170.0],[-82.8269,41.9861,170.0],[-82.8139,42.1643,193.9357],[-82.8112,42.1662,196.1072],[-82.8063,42.1639,197.4931],[-82.8044,42.1654,195.4434],[-82.8122,42.1717,195.6167],[-82.8039,42.1773,193.436],[-82.8059,42.1773,194.0883],[-82.806,42.1791,196.2201],[-82.8118,42.1779,198.6001],[-82.816,42.1809,193.9314],[-82.818,42.1794,194.0765],[-82.8229,42.1795,195.0409],[-82.8257,42.1817,194.5132],[-82.8276,42.1805,195.0182],[-82.8324,42.1845,195.6561],[-82.8342,42.1835,194.3958],[-82.8289,42.1781,196.6428],[-82.9674,42.1829,187.7669],[-82.9751,42.0581,187.5241],[-82.9981,42.0589,190.0577],[-83.0005,42.0128,170.0]]]]}}