{"type":"Feature","properties":{"GID_3":"CAN.11.20.27_1","GID_0":"CAN","country":"Canada","GID_1":"CAN.11_1","province":"Québec","NL_NAME_1":"NA","GID_2":"CAN.11.20_1","county":"Communauté-Urbaine-de-Montréal","NL_NAME_2":"NA","city":"Verdun","VARNAME_3":"NA","NL_NAME_3":"NA","TYPE_3":"Ville","ENGTYPE_3":"Ville","CC_3":"NA","HASC_3":"NA","name":"Verdun.city"},
"geometry":{"type": "MultiPolygon","coordinates": [[[[-73.554,45.4304,11.0],[-73.5451,45.4377,10.5],[-73.5388,45.4465,10.0],[-73.5369,45.4572,9.5],[-73.5264,45.4612,9.0],[-73.5301,45.4768,7.5],[-73.5377,45.4769,8.0],[-73.5549,45.4683,9.9755],[-73.569,45.4744,18.27],[-73.5727,45.4743,18.6282],[-73.5722,45.4663,17.146],[-73.5773,45.4678,21.2206],[-73.5805,45.4666,19.8575],[-73.582,45.4552,21.9205],[-73.5996,45.4375,28.7594],[-73.554,45.4304,11.0]]]]}}