{"type": "Feature","bbox": [-110.0913,53.248,-110.0059,53.3146],"geometry": {"type": "MultiPolygon","coordinates": [[[[-110.0059,53.248,653.5255],[-110.0059,53.3072,640.1151],[-110.0511,53.3073,653.1796],[-110.0546,53.3093,653.0942],[-110.0546,53.3144,654.7512],[-110.0913,53.3146,667.965],[-110.0911,53.3073,668.2742],[-110.0597,53.3073,656.4301],[-110.0546,53.3038,655.7324],[-110.0544,53.2854,663.4565],[-110.0659,53.2853,663.5803],[-110.0659,53.2707,664.0087],[-110.0543,53.2707,663.4502],[-110.0542,53.248,665.0012],[-110.0059,53.248,653.5255]]]]}
,"properties": {"GID_3": "CAN.1.1.21_1","GID_0": "CAN","country": "Canada","GID_1": "CAN.1_1","province": "Alberta","NL_NAME_1": "NA","GID_2": "CAN.1.1_1","county": "DivisionNo.10","NL_NAME_2": "NA","city": "Lloydminster(Part)","VARNAME_3": "NA","NL_NAME_3": "NA","TYPE_3": "Cité","ENGTYPE_3": "City","CC_3": "NA","HASC_3": "NA","name": "Lloydminster(Part).city","area_km2": 24.51686,"hist_schema_id": "Elevation0-9000","hist_area_km2": {"625": 0.02534,"650": 17.91168,"675": 6.57984}}}