{"type": "Feature","bbox": [-74.1879,45.4472,-73.9729,45.5412],"geometry": {"type": "MultiPolygon","coordinates": [[[[-74.1442,45.5195,46.9311],[-74.1453,45.5203,46.9311],[-74.1879,45.4919,20.0],[-74.1707,45.4842,20.0],[-74.1526,45.4824,20.0],[-74.1457,45.4714,20.0],[-74.1312,45.4655,20.0],[-74.1271,45.4658,20.0],[-74.1199,45.4632,20.0],[-74.1193,45.4598,20.0],[-74.104,45.4556,20.0],[-74.1027,45.4532,20.0],[-74.0976,45.4513,20.0],[-74.0732,45.4553,20.0],[-74.0674,45.4526,20.0],[-74.0404,45.4472,20.0],[-74.0299,45.4523,20.0],[-74.0094,45.4563,20.0],[-74.0017,45.4524,20.0],[-73.9729,45.4744,20.0],[-74.0328,45.5192,148.8027],[-74.0415,45.5128,109.34],[-74.0807,45.5412,67.366],[-74.084,45.539,71.3182],[-74.0672,45.5267,101.2514],[-74.0717,45.5236,100.4736],[-74.0721,45.5205,111.4075],[-74.0671,45.5169,110.8384],[-74.0743,45.5111,105.2383],[-74.082,45.5166,103.8006],[-74.0741,45.5219,106.5296],[-74.0907,45.5342,66.2217],[-74.1157,45.5167,205.6749],[-74.1117,45.5136,167.0508],[-74.1207,45.5072,127.1107],[-74.1282,45.5054,88.3647],[-74.129,45.5021,66.0853],[-74.1312,45.5021,70.3875],[-74.1306,45.504,88.7176],[-74.1376,45.5072,86.8204],[-74.1425,45.5081,55.3655],[-74.1393,45.5067,73.2934],[-74.1411,45.5038,70.1724],[-74.1382,45.5015,48.1472],[-74.1438,45.495,20.0],[-74.1483,45.4972,28.1419],[-74.1565,45.4968,21.5936],[-74.1565,45.5041,29.4854],[-74.1451,45.5051,59.4752],[-74.1429,45.5079,55.3655],[-74.1483,45.5125,34.3605],[-74.1455,45.5175,42.0208],[-74.1404,45.5164,48.6374],[-74.1442,45.5195,46.9311]],
[[-74.0875,45.46,20.0],[-74.0878,45.4597,20.0],[-74.0887,45.4606,28.5273],[-74.0882,45.4608,28.5273],[-74.0875,45.46,20.0]],
[[-74.0916,45.461,28.7727],[-74.0922,45.4595,22.4454],[-74.0931,45.4598,22.4454],[-74.0927,45.4614,28.6692],[-74.0916,45.461,28.7727]],
[[-74.0851,45.461,23.691],[-74.0856,45.4607,23.691],[-74.0868,45.4617,26.5835],[-74.0862,45.462,26.5835],[-74.0851,45.461,23.691]],
[[-74.0843,45.4613,23.691],[-74.0847,45.4612,23.691],[-74.0852,45.4619,23.691],[-74.0848,45.462,23.691],[-74.0843,45.4613,23.691]],
[[-74.0856,45.4629,29.0679],[-74.086,45.4627,29.5166],[-74.0868,45.4637,29.5166],[-74.0864,45.4639,34.3574],[-74.0856,45.4629,29.0679]],
[[-74.0814,45.4639,33.1263],[-74.082,45.4637,29.3632],[-74.0829,45.4648,33.4033],[-74.0824,45.4651,33.4033],[-74.0814,45.4639,33.1263]],
[[-74.117,45.4686,52.9765],[-74.116,45.468,58.5554],[-74.1169,45.4661,22.8828],[-74.1176,45.4666,22.8828],[-74.117,45.4686,52.9765]],
[[-74.1257,45.4727,52.3158],[-74.1282,45.4725,39.0243],[-74.1256,45.474,59.7946],[-74.1282,45.4773,54.6689],[-74.1258,45.4776,61.1214],[-74.1226,45.4749,66.0262],[-74.1257,45.4727,52.3158]],
[[-74.1163,45.4912,55.3361],[-74.111,45.4925,77.439],[-74.1069,45.4907,108.6526],[-74.1074,45.4878,82.1882],[-74.1112,45.4858,74.5974],[-74.1074,45.4845,79.53],[-74.1045,45.486,85.2349],[-74.1028,45.4829,78.6779],[-74.1051,45.4835,81.0244],[-74.1062,45.4804,63.705],[-74.1008,45.4811,75.0102],[-74.0978,45.4779,70.088],[-74.0974,45.4742,62.9509],[-74.106,45.4708,64.9711],[-74.1129,45.4716,57.674],[-74.1149,45.4674,58.5554],[-74.1138,45.4718,57.674],[-74.1177,45.4736,64.1083],[-74.1141,45.4765,70.4202],[-74.1143,45.4794,72.9757],[-74.1202,45.4782,71.112],[-74.1216,45.4825,58.2756],[-74.1292,45.4812,42.1294],[-74.1302,45.4826,31.5731],[-74.1355,45.4828,21.0582],[-74.1248,45.4852,42.9169],[-74.125,45.4874,41.4649],[-74.1321,45.4878,20.4675],[-74.1325,45.4897,21.6076],[-74.1271,45.4923,40.5621],[-74.1239,45.4902,42.6072],[-74.1216,45.4906,44.2929],[-74.1197,45.4883,49.6691],[-74.1163,45.4892,59.3251],[-74.1163,45.4912,55.3361]],
[[-74.1247,45.5001,53.8926],[-74.1287,45.4965,42.1455],[-74.1277,45.4949,39.4498],[-74.1334,45.4914,21.5348],[-74.1357,45.4924,27.312],[-74.1305,45.5,47.8197],[-74.1263,45.5014,53.8166],[-74.1247,45.5001,53.8926]],
[[-74.1356,45.4974,46.9289],[-74.1382,45.4919,20.4029],[-74.1423,45.4938,24.138],[-74.1362,45.5017,48.8767],[-74.1336,45.5014,51.4639],[-74.1356,45.4974,46.9289]]],
[[[-74.1245,45.5165,118.9875],[-74.1366,45.5261,55.9793],[-74.1433,45.5216,51.7604],[-74.131,45.5122,152.9258],[-74.1245,45.5165,118.9875]]]]}
,"properties": {"GID_3": "CAN.11.24.3_1","GID_0": "CAN","country": "Canada","GID_1": "CAN.11_1","province": "Québec","NL_NAME_1": "NA","GID_2": "CAN.11.24_1","county": "Deux-Montagnes","NL_NAME_2": "NA","city": "Oka","VARNAME_3": "NA","NL_NAME_3": "NA","TYPE_3": "Municipalité","ENGTYPE_3": "Municipality","CC_3": "NA","HASC_3": "NA","name": "Oka.city","area_km2": 85.23147,"hist_schema_id": "Elevation0-9000","hist_area_km2": {"25": 34.92437,"50": 11.5506,"75": 11.48827,"100": 13.32957,"125": 7.28112,"150": 3.52183,"175": 2.0954,"200": 1.02545,"225": 0.01486}}}