{"type": "Feature","bbox": [-107.0211,52.5796,-106.4333,52.9302],"geometry": {"type": "MultiPolygon","coordinates": [[[[-106.4333,52.9302,485.887],[-106.5095,52.9289,514.7593],[-106.778,52.9294,527.7048],[-106.778,52.9222,527.375],[-106.8026,52.9222,520.3161],[-106.8028,52.9291,517.7291],[-107.0201,52.9292,576.2472],[-107.0211,52.6672,586.463],[-107.0113,52.6673,585.9925],[-107.0126,52.6093,503.0],[-107.0113,52.5802,530.0057],[-106.8752,52.5796,475.5687],[-106.8727,52.5909,508.8982],[-106.8744,52.595,477.2844],[-106.8721,52.6001,482.414],[-106.8654,52.6091,467.5015],[-106.8578,52.6149,464.7536],[-106.8562,52.6194,446.4918],[-106.8499,52.6271,473.0911],[-106.8367,52.6373,506.8315],[-106.8272,52.6549,506.9226],[-106.8271,52.6629,468.8949],[-106.8214,52.6697,450.1595],[-106.8128,52.6747,441.2171],[-106.8049,52.6748,463.0895],[-106.7911,52.6781,493.4698],[-106.7896,52.6803,492.4789],[-106.7712,52.6878,505.9077],[-106.7652,52.6938,475.6685],[-106.7535,52.7119,472.6134],[-106.7205,52.732,492.6909],[-106.7114,52.7395,486.5497],[-106.7019,52.7518,455.7932],[-106.6858,52.7621,484.7331],[-106.6838,52.7654,489.0475],[-106.6529,52.7827,473.2807],[-106.6441,52.7845,488.0142],[-106.6404,52.7892,478.8388],[-106.6178,52.8017,498.2488],[-106.6056,52.8056,505.0597],[-106.5962,52.8128,500.5469],[-106.5844,52.8239,485.7274],[-106.5843,52.8271,468.2457],[-106.5813,52.8272,480.9576],[-106.5812,52.8302,477.7953],[-106.5673,52.8496,483.3786],[-106.5547,52.86,457.798],[-106.5399,52.8679,441.5489],[-106.5174,52.8716,482.8181],[-106.4807,52.8888,490.2331],[-106.476,52.8938,484.112],[-106.4544,52.9088,480.1643],[-106.4333,52.9302,485.887]],
[[-106.8756,52.8349,520.8734],[-106.8685,52.8347,518.9677],[-106.8702,52.8276,517.5513],[-106.8751,52.8267,518.0681],[-106.8751,52.8201,516.5884],[-106.8868,52.8199,518.8182],[-106.8868,52.8232,520.3021],[-106.8824,52.8242,520.9998],[-106.8836,52.8261,521.4003],[-106.8875,52.8255,521.9553],[-106.8874,52.8273,523.6258],[-106.8939,52.8274,522.3729],[-106.8891,52.8301,523.6868],[-106.8891,52.8345,524.8784],[-106.8756,52.8362,521.4965],[-106.8756,52.8349,520.8734]]]]}
,"properties": {"GID_3": "CAN.12.7.7_1","GID_0": "CAN","country": "Canada","GID_1": "CAN.12_1","province": "Saskatchewan","NL_NAME_1": "NA","GID_2": "CAN.12.7_1","county": "DivisionNo.16","NL_NAME_2": "NA","city": "BlaineLakeNo.434","VARNAME_3": "NA","NL_NAME_3": "NA","TYPE_3": "RuralMunicipality","ENGTYPE_3": "RuralMunicipality","CC_3": "NA","HASC_3": "NA","name": "Blaine_Lake_No.434.city","area_km2": 874.658,"hist_schema_id": "Elevation0-9000","hist_area_km2": {"425": 26.2093,"450": 27.3066,"475": 23.6126,"500": 276.3136,"525": 439.7194,"550": 39.2789,"575": 20.0727,"600": 14.6695,"625": 5.639,"650": 1.8236,"675": 0.0128}}}