{"type":"Feature","properties":{"featurecla":"River","scalerank":12,"rivernum":20323,"dissolve":"20323River","name":"Rivire du Chef","name_alt":null,"note":"ID is link back to CEC data","name_full":"Rivire du Chef","min_zoom":7.0,"strokeweig":0.2,"uident":1706301,"min_label":8.0},
"geometry":{"type": "LineString","coordinates": [[-73.6991267568954,49.933050848431527,408.5641],[-73.676096157937067,49.922430731244027,401.0587],[-73.642689582416239,49.882391668744027,405.2345],[-73.6361384756454,49.863959051556527,412.0081],[-73.648548957416239,49.831122137494027,413.4125],[-73.6483455068954,49.8101667338482,402.2162],[-73.620920376687067,49.783270574994027,422.5887],[-73.612619595437067,49.7767194682232,393.1534],[-73.601633267312067,49.748806056764863,433.1267],[-73.586008267312067,49.6976179057232,434.277],[-73.571278449603739,49.665716864056527,378.7598],[-73.545236782937067,49.642401434369027,423.086],[-73.5350642568954,49.6407331400982,360.3193],[-73.494130012103739,49.634833074994027,348.7043],[-73.470204230853739,49.614203192181527,382.5022]]}}