{"type": "Feature","bbox": [-79.3581,48.8787,-79.1271,49.0105],"geometry": {"type": "MultiPolygon","coordinates": [[[[-79.1277,48.9082,300.5862],[-79.1451,48.9082,294.6058],[-79.1452,48.9374,306.8337],[-79.1794,48.9373,321.0632],[-79.1793,48.9666,312.4114],[-79.2291,48.9664,314.5099],[-79.2281,48.9959,321.8765],[-79.175299999999993,48.996,286.252],[-79.1775,49.0037,285.5521],[-79.1768,49.0081,285.0938],[-79.179,49.01,285.0324],[-79.2992,49.0105,305.7296],[-79.2989,48.937,306.4061],[-79.358,48.9372,321.7271],[-79.3581,48.9079,294.0408],[-79.3291,48.908,284.6127],[-79.3299,48.8787,292.4345],[-79.1271,48.8787,301.386],[-79.1277,48.9082,300.5862]]]]}
,"properties": {"GID_3": "CAN.11.1.4_1","GID_0": "CAN","country": "Canada","GID_1": "CAN.11_1","province": "Québec","NL_NAME_1": "NA","GID_2": "CAN.11.1_1","county": "Abitibi-Ouest","NL_NAME_2": "NA","city": "Clermont","VARNAME_3": "NA","NL_NAME_3": "NA","TYPE_3": "MunicipalitéDeCanton","ENGTYPE_3": "CantonMunicipality","CC_3": "NA","HASC_3": "NA","name": "Clermont.city","area_km2": 157.2835,"hist_schema_id": "Elevation0-9000","hist_area_km2": {"275": 9.2955,"300": 110.7297,"325": 37.1887,"350": 0.0696}}}