{"type": "Feature","bbox": [-124.4868,49.3354,-124.3812,49.3632],"geometry": {"type": "MultiPolygon","coordinates": [[[[-124.3831,49.3556,0.0],[-124.3906,49.3556,0.92],[-124.4006,49.3589,0.0],[-124.41,49.3592,9.2618],[-124.4158,49.3611,0.0],[-124.4442,49.3556,0.0],[-124.4584,49.3543,1.6164],[-124.4743,49.3632,0.7642],[-124.4758,49.3604,10.4091],[-124.4813,49.3613,10.4457],[-124.4814,49.3593,17.2686],[-124.4868,49.3592,31.9145],[-124.4867,49.3557,46.2976],[-124.4759,49.3556,38.604],[-124.4762,49.353,49.9304],[-124.4826,49.3517,58.4598],[-124.4823,49.3452,83.1193],[-124.4761,49.3453,87.8141],[-124.476,49.3406,88.6688],[-124.4208,49.3394,74.6331],[-124.4207,49.3354,93.8935],[-124.41,49.3356,74.606],[-124.4103,49.3497,69.6482],[-124.4044,49.3503,57.3587],[-124.4024,49.3499,49.2093],[-124.4025,49.3481,53.027],[-124.3991,49.3479,49.3946],[-124.3991,49.3492,43.6005],[-124.3837,49.346,35.2313],[-124.3812,49.3472,19.3776],[-124.3814,49.3497,18.7651],[-124.3841,49.3504,20.0369],[-124.3831,49.3556,0.0]]]]}
,"properties": {"GID_3": "CAN.2.18.17_1","GID_0": "CAN","country": "Canada","GID_1": "CAN.2_1","province": "BritishColumbia","NL_NAME_1": "NA","GID_2": "CAN.2.18_1","county": "Nanaimo","NL_NAME_2": "NA","city": "QualicumBeach","VARNAME_3": "NA","NL_NAME_3": "NA","TYPE_3": "Town","ENGTYPE_3": "Town","CC_3": "NA","HASC_3": "NA","name": "Qualicum_Beach.city","area_km2": 12.679408,"hist_schema_id": "Elevation0-9000","hist_area_km2": {"0": 0.870018,"25": 3.093597,"50": 4.281689,"75": 3.384271,"100": 0.994578,"125": 0.055256}}}