{"type": "Feature","bbox": [-104.268,52.0679,-104.2441,52.0749],"geometry": {"type": "MultiPolygon","coordinates": [[[[-104.2444,52.0748,539.3976],[-104.2678,52.0749,539.1945],[-104.268,52.0681,537.1631],[-104.2441,52.0679,538.0199],[-104.2444,52.0748,539.3976]]]]}
,"properties": {"GID_3": "CAN.12.1.50_1","GID_0": "CAN","country": "Canada","GID_1": "CAN.12_1","province": "Saskatchewan","NL_NAME_1": "NA","GID_2": "CAN.12.1_1","county": "DivisionNo.10","NL_NAME_2": "NA","city": "QuillLake","VARNAME_3": "NA","NL_NAME_3": "NA","TYPE_3": "Village","ENGTYPE_3": "Village","CC_3": "NA","HASC_3": "NA","name": "Quill_Lake.city","area_km2": 1.1990007,"hist_schema_id": "Elevation0-9000","hist_area_km2": {"525": 0.2345991,"550": 0.9644016}}}