{"type":"Feature","properties":{"featurecla":"River","scalerank":10,"rivernum":20000,"dissolve":"20000River","name":"Milk","name_alt":null,"note":"ID is link back to CEC data","name_full":"Milk River","min_zoom":6.0,"strokeweig":0.2,"uident":1785901,"min_label":7.0},
"geometry":{"type": "LineString","coordinates": [[-112.55992591054122,49.018744207806527,1198.0354],[-112.54637610585372,49.033514715619027,1182.8723],[-112.54369055897872,49.047796942181527,1180.9969],[-112.52904212147872,49.061590887494027,1171.8441],[-112.51178951731205,49.066839910931527,1167.4177],[-112.47093665272872,49.083197332806527,1164.0439],[-112.43781490793705,49.098089910931527,1166.8157],[-112.41454016835372,49.102728582806527,1137.6793],[-112.40050208241622,49.116970119264863,1128.5529],[-112.38548743397872,49.1502546244732,1135.0254],[-112.35309811106205,49.162787176556527,1141.0234],[-112.3280330068954,49.160671291139863,1139.0966],[-112.2528376943954,49.168890692181527,1121.9442],[-112.16584225168705,49.167507228639863,1089.6174],[-112.11253821522872,49.163519598431527,1088.869],[-112.07811438710372,49.154811916139863,1065.6044],[-112.05134029856205,49.138128973431527,1048.082],[-112.0194392568954,49.1209577494732,1045.376],[-112.0023494131454,49.1182722025982,1042.9136],[-111.9710994131454,49.121405340619027,1048.5172],[-111.94151770741622,49.110296942181527,1032.9521],[-111.91795813710372,49.106268621869027,1016.6057],[-111.87315833241622,49.124538478639863,995.2595],[-111.83332272043705,49.133571681764863,989.0032],[-111.7848201162704,49.126532293744027,941.0323],[-111.74876868397872,49.128200588014863,963.3502],[-111.72565670481205,49.122137762494027,962.6033],[-111.72557532460372,49.122137762494027,962.6033],[-111.6986384756454,49.111883856244027,957.8054],[-111.6690974600204,49.1002057963482,943.0392],[-111.65282141835372,49.096625067181527,933.8347],[-111.6266169912704,49.097967840619027,930.5422],[-111.58942623606205,49.1011823588482,912.316],[-111.56403561106205,49.1043561869732,912.5275],[-111.5419001943954,49.110866603639863,906.7504],[-111.52863522043705,49.119655666139863,927.0225],[-111.51378333241622,49.129421291139863,930.786],[-111.49054928293705,49.1353620463482,926.5347],[-111.45221920481205,49.145941473431527,927.0145],[-111.4281306631454,49.150091864056527,923.6831],[-111.4066462881454,49.1434186869732,915.3904],[-111.38927161366622,49.141913153119027,927.9825],[-111.37336178293705,49.1465925150982,909.1553],[-111.3375544912704,49.157294012494027,910.1545],[-111.31818600168705,49.163275457806527,909.802],[-111.28050696522872,49.1729597025982,902.6725],[-111.24754798085372,49.176052150514863,911.7582],[-111.22052975168705,49.168972072389863,897.6375],[-111.19074459543705,49.161078192181527,899.3992],[-111.15904700429122,49.153509832806527,899.0881],[-111.1339412100204,49.152614650514863,913.1888],[-111.09504147043705,49.153998114056527,921.799],[-111.06834876210372,49.156561590619027,889.827],[-111.03575598866622,49.149115301556527,912.6063],[-110.99909420481205,49.1487897807232,915.6194],[-110.91136634022872,49.144110418744027,923.4187],[-110.85265051991622,49.140326239056527,931.7412],[-110.80296790272872,49.131781317181527,988.9694],[-110.7323298818954,49.091742254681527,953.2373],[-110.68285071522872,49.050116278119027,878.7332],[-110.65575110585372,49.030585028119027,889.7187],[-110.63703365793705,49.022731838014863,927.6687],[-110.61827551991622,49.019964910931527,931.851],[-110.58381100168705,49.027614650514863,842.0212],[-110.56639563710372,49.027899481244027,913.756],[-110.55964107981205,49.026922918744027,912.2238],[-110.53966223866622,49.018988348431527,908.4589]]}}