{"type":"Feature","properties":{"GID_3":"CAN.9.36.5_1","GID_0":"CAN","country":"Canada","GID_1":"CAN.9_1","province":"Ontario","NL_NAME_1":"NA","GID_2":"CAN.9.36_1","county":"Oxford","NL_NAME_2":"NA","city":"South-WestOxford","VARNAME_3":"NA","NL_NAME_3":"NA","TYPE_3":"Township","ENGTYPE_3":"Township","CC_3":"NA","HASC_3":"NA","name":"South-West_Oxford.city"},
"geometry":{"type": "MultiPolygon","coordinates": [[[[-80.7619,42.8465,246.6945],[-80.7507,42.8481,241.3956],[-80.7609,42.8843,269.7491],[-80.7234,42.8896,248.3376],[-80.7176,42.8698,230.7017],[-80.705,42.8701,229.3924],[-80.7465,43.0239,304.4214],[-80.7237,43.0274,308.8554],[-80.7434,43.0826,296.8903],[-80.7483,43.0841,296.0241],[-80.7511,43.092,302.9167],[-80.7575,43.0974,312.4355],[-80.7626,43.1163,323.3626],[-80.7653,43.1145,334.3285],[-80.7743,43.1214,294.0943],[-80.8038,43.1044,312.2973],[-80.8134,43.103,280.0984],[-80.8228,43.0941,299.2512],[-80.8243,43.0989,276.8069],[-80.8306,43.0947,273.1714],[-80.8323,43.0987,301.5388],[-80.839,43.0966,308.5334],[-80.8376,43.0936,288.9446],[-80.8436,43.0915,308.1855],[-80.8416,43.087,279.8534],[-80.8482,43.0788,272.5337],[-80.8452,43.0764,271.472],[-80.8646,43.0489,288.9292],[-80.8691,43.0466,290.5997],[-80.8567,43.0381,291.9036],[-80.8609,43.035,286.9637],[-80.8508,43.0299,289.5775],[-80.8558,43.0289,294.7741],[-80.8559,43.0265,292.8126],[-80.8587,43.0244,291.2456],[-80.8743,43.0145,287.6666],[-80.878,43.0148,288.2314],[-80.8774,43.0126,288.0985],[-80.8809,43.0104,285.7207],[-80.8943,43.021,284.5847],[-80.8977,43.0188,281.4475],[-80.9081,43.0271,265.0026],[-80.921,43.018,276.2798],[-80.9279,43.0171,270.7993],[-80.9412,43.01,263.2869],[-80.9435,43.0067,265.2789],[-80.9338,42.9994,270.9985],[-80.9228,43.0009,279.9339],[-80.8771,42.8295,237.5504],[-80.7619,42.8465,246.6945]]]]}}