{"type":"Feature","properties":{"GID_3":"CAN.12.2.10_1","GID_0":"CAN","country":"Canada","GID_1":"CAN.12_1","province":"Saskatchewan","NL_NAME_1":"NA","GID_2":"CAN.12.2_1","county":"DivisionNo.11","NL_NAME_2":"NA","city":"ColonsayNo.342","VARNAME_3":"NA","NL_NAME_3":"NA","TYPE_3":"RuralMunicipality","ENGTYPE_3":"RuralMunicipality","CC_3":"NA","HASC_3":"NA","name":"Colonsay_No.342.city"},
"geometry":{"type": "MultiPolygon","coordinates": [[[[-106.0044,51.8819,525.3475],[-105.6878,51.8817,537.5518],[-105.6876,51.9692,545.0095],[-105.7172,51.9692,533.0358],[-105.7173,52.1438,572.965],[-106.0029,52.1438,556.001],[-106.0044,51.8819,525.3475]],
[[-105.8599,51.9703,534.996],[-105.8599,51.9692,534.996],[-105.8839,51.9692,531.1306],[-105.8836,51.9837,533.8663],[-105.8598,51.9837,537.0736],[-105.8599,51.9703,534.996]],
[[-105.7533,52.101,538.329],[-105.7649,52.0989,538.2747],[-105.7649,52.1147,540.4967],[-105.7533,52.1147,541.2609],[-105.7533,52.101,538.329]]]]}}