{"type":"Feature","properties":{"GID_3":"CAN.3.18.8_1","GID_0":"CAN","country":"Canada","GID_1":"CAN.3_1","province":"Manitoba","NL_NAME_1":"NA","GID_2":"CAN.3.18_1","county":"DivisionNo.4","NL_NAME_2":"NA","city":"PilotMound","VARNAME_3":"NA","NL_NAME_3":"NA","TYPE_3":"Town","ENGTYPE_3":"Town","CC_3":"NA","HASC_3":"NA","name":"Pilot_Mound.city"},
"geometry":{"type": "MultiPolygon","coordinates": [[[[-98.885,49.2071,465.7063],[-98.9069,49.2072,461.5974],[-98.9068,49.1924,467.8133],[-98.8842,49.1924,468.1916],[-98.885,49.2071,465.7063]]]]}}