{"type": "Feature","bbox": [-120.9025,50.0107,-120.8152,50.0559],"geometry": {"type": "MultiPolygon","coordinates": [[[[-120.8153,50.0489,790.4791],[-120.8152,50.0554,743.8187],[-120.8541,50.0559,831.1799],[-120.8544,50.0504,728.2526],[-120.8681,50.0503,865.6189],[-120.8685,50.0396,740.0062],[-120.8907,50.0399,942.7603],[-120.8911,50.0324,873.9355],[-120.9025,50.0324,997.886],[-120.9025,50.0145,778.9688],[-120.8834,50.0142,696.788],[-120.883,50.0107,800.0736],[-120.8706,50.0108,933.9877],[-120.871,50.0179,758.1951],[-120.8551,50.0178,866.0261],[-120.8548,50.023,805.4708],[-120.8324,50.0228,897.8643],[-120.8319,50.0338,868.4292],[-120.8157,50.0338,974.4169],[-120.8153,50.0489,790.4791]]]]}
,"properties": {"GID_3": "CAN.2.28.14_1","GID_0": "CAN","country": "Canada","GID_1": "CAN.2_1","province": "BritishColumbia","NL_NAME_1": "NA","GID_2": "CAN.2.28_1","county": "Thompson-Nicola","NL_NAME_2": "NA","city": "Coldwater1","VARNAME_3": "NA","NL_NAME_3": "NA","TYPE_3": "RéserveIndienne","ENGTYPE_3": "IndianReserve","CC_3": "NA","HASC_3": "NA","name": "Coldwater1.city","area_km2": 18.71218,"hist_schema_id": "Elevation0-9000","hist_area_km2": {"650": 0.63988,"675": 2.16522,"700": 2.76467,"725": 2.38327,"750": 1.86578,"775": 1.68877,"800": 1.57981,"825": 1.53894,"850": 1.48456,"875": 0.99423,"900": 0.77632,"925": 0.61283,"950": 0.16342,"975": 0.02724,"1000": 0.02724}}}