{"type": "Feature","bbox": [-71.9329,46.7198,-71.7147,46.8371],"geometry": {"type": "MultiPolygon","coordinates": [[[[-71.7733,46.7354,60.712],[-71.7963,46.752,69.8658],[-71.7807,46.7571,83.0219],[-71.8042,46.7748,73.4918],[-71.7977,46.7793,91.3403],[-71.7767,46.7875,90.3805],[-71.758,46.7916,103.9238],[-71.7488,46.7855,92.6809],[-71.7471,46.7869,78.4526],[-71.743,46.7857,74.8678],[-71.7432,46.7878,79.545],[-71.7409,46.7893,88.5657],[-71.7389,46.7892,88.9772],[-71.7376,46.7868,94.9396],[-71.7368,46.795,106.7453],[-71.7415,46.7968,107.4506],[-71.7407,46.7989,102.4357],[-71.7419,46.7998,102.4357],[-71.7457,46.8002,107.0394],[-71.7477,46.8051,101.8612],[-71.7449,46.8057,109.3672],[-71.7392,46.8108,121.4211],[-71.7303,46.8098,126.9659],[-71.7269,46.808,122.1589],[-71.7189,46.814,137.5371],[-71.7147,46.815,138.9117],[-71.7234,46.8222,249.3541],[-71.724,46.8333,219.8075],[-71.7294,46.8371,164.1843],[-71.8695,46.8061,162.6002],[-71.8988,46.8263,157.4899],[-71.9,46.8161,147.9899],[-71.9194,46.8143,150.0059],[-71.9156,46.8115,146.2705],[-71.9329,46.8008,124.224],[-71.8828,46.7667,129.7807],[-71.8863,46.7671,144.4815],[-71.8439,46.7198,79.9003],[-71.8382,46.7204,74.1001],[-71.8285,46.7255,66.8048],[-71.8188,46.7251,66.7231],[-71.8095,46.7267,64.7371],[-71.8086,46.7255,64.7371],[-71.8055,46.7272,61.8766],[-71.8065,46.7296,60.9396],[-71.8038,46.7302,61.3349],[-71.807,46.7327,60.0544],[-71.7733,46.7354,60.712]]]]}
,"properties": {"GID_3": "CAN.11.87.15_1","GID_0": "CAN","country": "Canada","GID_1": "CAN.11_1","province": "Québec","NL_NAME_1": "NA","GID_2": "CAN.11.87_1","county": "Portneuf","NL_NAME_2": "NA","city": "Saint-Basile","VARNAME_3": "NA","NL_NAME_3": "NA","TYPE_3": "Ville","ENGTYPE_3": "Ville","CC_3": "NA","HASC_3": "NA","name": "Saint-Basile.city","area_km2": 98.12832,"hist_schema_id": "Elevation0-9000","hist_area_km2": {"0": 0.04359,"25": 0.13076,"50": 9.24138,"75": 17.60436,"100": 18.59774,"125": 30.04486,"150": 14.04901,"175": 3.99105,"200": 2.46679,"225": 1.37842,"250": 0.58035}}}