{"type":"Feature","properties":{"GID_3":"CAN.9.25.7_1","GID_0":"CAN","country":"Canada","GID_1":"CAN.9_1","province":"Ontario","NL_NAME_1":"NA","GID_2":"CAN.9.25_1","county":"Lambton","NL_NAME_2":"NA","city":"Petrolia","VARNAME_3":"NA","NL_NAME_3":"NA","TYPE_3":"Town","ENGTYPE_3":"Town","CC_3":"NA","HASC_3":"NA","name":"Petrolia.city"},
"geometry":{"type": "MultiPolygon","coordinates": [[[[-82.1236,42.8943,204.0864],[-82.1234,42.9,196.9839],[-82.1459,42.9004,208.0488],[-82.1461,42.8942,205.0279],[-82.1613,42.8946,203.0118],[-82.1616,42.8808,202.0312],[-82.1652,42.8809,197.9579],[-82.1658,42.8694,200.5271],[-82.1626,42.8694,202.4455],[-82.1617,42.8592,192.1146],[-82.1531,42.861,200.4388],[-82.1502,42.8633,198.2343],[-82.1516,42.867,190.4835],[-82.15,42.8688,193.5831],[-82.1468,42.869,194.4536],[-82.1462,42.8673,201.4535],[-82.1351,42.8637,193.3007],[-82.1347,42.8694,201.7395],[-82.1164,42.8692,197.4562],[-82.1158,42.8935,206.8031],[-82.1236,42.8943,204.0864]]]]}}