{"type": "Feature","bbox": [-127.9433,49.5135,-125.6872,50.3399],"geometry": {"type": "MultiPolygon","coordinates": [[[[-126.6092,49.6089,0.0],[-126.61,49.6117,17.3028],[-126.6153,49.6108,5.0637],[-126.6147,49.6094,1.035],[-126.6092,49.6089,0.0]]],
[[[-126.8308,49.6154,0.0],[-126.827,49.6159,0.0],[-126.8289,49.6172,0.0],[-126.8356,49.6165,0.4161],[-126.8347,49.6161,0.4161],[-126.8308,49.6154,0.0]]],
[[[-126.6119,49.6144,0.0],[-126.61279999999999,49.6178,11.4179],[-126.6161,49.618899999999996,2.2917],[-126.6169,49.6172,21.5124],[-126.6142,49.6144,0.0],[-126.6119,49.6144,0.0]]],
[[[-126.6156,49.6211,3.2017],[-126.6125,49.6203,0.0],[-126.6161,49.6236,1.0615],[-126.6186,49.6233,0.0],[-126.6181,49.6225,0.0],[-126.6156,49.6211,3.2017]]],
[[[-126.5692,49.6086,0.0],[-126.5674,49.6089,5.347],[-126.5674,49.6111,3.0605],[-126.5753,49.6108,0.0],[-126.5819,49.6067,1.0391],[-126.5803,49.6053,0.0],[-126.5761,49.6083,0.0],[-126.5692,49.6086,0.0]]],
[[[-126.58,49.6181,0.3917],[-126.5822,49.6153,2.189],[-126.5811,49.6142,2.189],[-126.5789,49.6156,0.0],[-126.58,49.6181,0.3917]]],
[[[-126.5415,49.6216,0.0],[-126.5386,49.6256,0.0],[-126.5433,49.6253,29.5978],[-126.5502,49.6223,1.7757],[-126.5565,49.6236,8.2538],[-126.5617,49.6192,2.7254],[-126.5586,49.6158,3.0761],[-126.555,49.6183,2.2057],[-126.5531,49.6164,0.0],[-126.5415,49.6216,0.0]]],
[[[-126.5707,49.6211,4.2735],[-126.5652,49.622,2.8301],[-126.5628,49.6263,9.8751],[-126.5724,49.6291,4.6932],[-126.5734,49.6246,4.0007],[-126.5786,49.6212,8.6615],[-126.5794,49.6186,0.3917],[-126.5731,49.6176,8.6138],[-126.5707,49.6211,4.2735]]],
[[[-126.58,49.6236,0.0],[-126.5778,49.628,10.7376],[-126.5814,49.6297,13.6882],[-126.5903,49.6275,0.0],[-126.5917,49.6228,0.0],[-126.5889,49.62,0.0],[-126.5841,49.6209,7.5303],[-126.5814,49.6186,0.0],[-126.58,49.6236,0.0]]],
[[[-126.3615,49.6376,8.4081],[-126.3609,49.6364,0.0],[-126.3572,49.637,3.5588],[-126.3598,49.6392,15.7525],[-126.3615,49.6376,8.4081]]],
[[[-126.5838,49.635,3.8351],[-126.5801,49.635,0.0],[-126.5771,49.6371,0.0],[-126.585,49.6423,0.0],[-126.5906,49.6406,0.0],[-126.5903,49.6378,17.197],[-126.5928,49.6361,0.0],[-126.5879,49.6333,0.0],[-126.5838,49.635,3.8351]]],
[[[-126.5687,49.6421,28.0557],[-126.5717,49.6445,6.091],[-126.5697,49.645,0.0],[-126.5711,49.6469,24.0905],[-126.5739,49.6461,0.0],[-126.5731,49.6446,17.4406],[-126.5786,49.6428,16.5155],[-126.5751,49.6392,3.7726],[-126.569,49.6375,4.5046],[-126.5687,49.6421,28.0557]]],
[[[-126.487,49.658,3.5086],[-126.4799,49.6608,0.0],[-126.4796,49.6626,0.0],[-126.4964,49.6764,18.3979],[-126.5112,49.6818,62.6659],[-126.5156,49.6849,49.0936],[-126.5211,49.6857,11.4131],[-126.5305,49.681,0.0],[-126.5357,49.6722,19.8787],[-126.5326,49.6703,18.7236],[-126.535,49.667,12.0829],[-126.533,49.6647,0.0],[-126.5345,49.6613,12.9855],[-126.5425,49.6567,0.0],[-126.5514,49.6574,0.0],[-126.5571,49.6549,0.0],[-126.5572,49.6539,0.0],[-126.55,49.6522,0.0],[-126.5606,49.6461,0.0],[-126.5626,49.6418,36.5946],[-126.5663,49.6386,13.2482],[-126.5676,49.634,5.1525],[-126.565,49.6331,0.0],[-126.5657,49.6345,24.0846],[-126.5643,49.6346,0.0],[-126.5632,49.6333,0.0],[-126.5616,49.6359,13.1259],[-126.5591,49.636,0.0],[-126.5501,49.631,5.3233],[-126.5528,49.6275,0.0],[-126.5514,49.6258,0.8561],[-126.5402,49.6328,10.2387],[-126.543,49.6269,0.0],[-126.5346,49.6268,0.0],[-126.5182,49.646,3.5368],[-126.5181,49.6479,0.0],[-126.5209,49.6504,0.0],[-126.5202,49.6516,0.0],[-126.513,49.6499,0.0],[-126.5115,49.6469,0.0],[-126.5153,49.6428,3.0768],[-126.5202,49.6418,19.4135],[-126.5233,49.6348,10.4535],[-126.5222,49.6322,0.0],[-126.526,49.63,0.0],[-126.5256,49.6272,0.0],[-126.5401,49.6139,0.0],[-126.5444,49.6131,0.0],[-126.5411,49.61,16.8222],[-126.5436,49.6078,6.2774],[-126.5501,49.6058,0.0],[-126.5481,49.6044,0.0],[-126.5442,49.605,1.9386],[-126.5397,49.6014,0.0],[-126.5339,49.6025,0.0],[-126.5314,49.6042,0.0],[-126.5331,49.6067,0.0],[-126.525,49.6067,0.0],[-126.52,49.6118,0.0],[-126.5201,49.6148,0.0],[-126.5142,49.6211,5.4303],[-126.516,49.6235,26.9955],[-126.5128,49.6272,21.7729],[-126.5095,49.6377,6.7945],[-126.4983,49.6434,0.0],[-126.4977,49.6484,0.0],[-126.4926,49.6518,0.0],[-126.4881,49.6522,30.2477],[-126.4856,49.6506,8.2417],[-126.4836,49.6517,0.0],[-126.4839,49.6533,0.0],[-126.4892,49.6544,38.4038],[-126.4943,49.6587,0.0],[-126.4916,49.6594,23.0434],[-126.4882,49.6569,0.0],[-126.487,49.658,3.5086]]],
[[[-126.3852,49.652,73.4096],[-126.3913,49.6549,5.824],[-126.3985,49.6536,108.1581],[-126.4022,49.655,22.8902],[-126.4078,49.6514,20.8741],[-126.4291,49.6511,0.0],[-126.4331,49.65,0.0],[-126.4336,49.6483,0.0],[-126.42,49.6457,28.5119],[-126.4055,49.6458,65.9241],[-126.3717,49.6381,0.0],[-126.3622,49.6383,8.4081],[-126.3592,49.6408,5.7355],[-126.3852,49.652,73.4096]]],
[[[-126.1565,49.655,0.0],[-126.1575,49.6549,0.0],[-126.1551,49.6542,0.0],[-126.1556,49.655,0.0],[-126.1565,49.655,0.0]]],
[[[-126.5601,49.6579,3.6858],[-126.5584,49.6576,3.5282],[-126.5576,49.6582,3.5282],[-126.5587,49.6587,3.6858],[-126.5601,49.6579,3.6858]]],
[[[-126.1606,49.6622,16.4452],[-126.1611,49.6594,0.0],[-126.1572,49.6628,9.319],[-126.1583,49.6633,9.319],[-126.1606,49.6622,16.4452]]],
[[[-126.5739,49.6617,3.8313],[-126.5747,49.6606,3.8313],[-126.5729,49.6598,0.0],[-126.5689,49.6625,14.2994],[-126.5706,49.6638,0.0],[-126.5739,49.6617,3.8313]]],
[[[-126.5742,49.6708,3.1103],[-126.5778,49.6717,4.911],[-126.5786,49.6706,4.911],[-126.576,49.6677,3.5198],[-126.5808,49.6661,18.1956],[-126.5842,49.6631,0.0],[-126.5814,49.6611,3.0243],[-126.5778,49.6639,22.1586],[-126.5717,49.6642,0.0],[-126.5701,49.6676,0.0],[-126.5742,49.6708,3.1103]]],
[[[-126.5836,49.6869,0.0],[-126.58,49.6867,0.0],[-126.5783,49.6886,0.0],[-126.5833,49.6908,10.1301],[-126.5871,49.6903,15.0015],[-126.5874,49.6886,0.0],[-126.5836,49.6869,0.0]]],
[[[-126.6171,49.6596,1.4943],[-126.6181,49.6592,0.0],[-126.618,49.6577,0.0],[-126.616,49.6583,0.0],[-126.6171,49.6596,1.4943]]],
[[[-126.6242,49.6603,0.0],[-126.6225,49.6617,5.4704],[-126.6231,49.6622,0.0],[-126.6243,49.6612,2.0093],[-126.6242,49.6603,0.0]]],
[[[-126.6303,49.6964,5.8369],[-126.6305,49.6945,0.0],[-126.6281,49.6934,3.6294],[-126.6278,49.6947,1.009],[-126.6303,49.6964,5.8369]]],
[[[-126.6301,49.7234,11.4094],[-126.6308,49.7216,0.0],[-126.6288,49.7217,0.0],[-126.629,49.723,11.4094],[-126.6301,49.7234,11.4094]]],
[[[-126.6172,49.7143,0.0],[-126.6235,49.7186,49.484],[-126.626,49.7227,0.0],[-126.6303,49.7186,36.8512],[-126.6297,49.7127,18.678],[-126.6232,49.7032,26.8133],[-126.6189,49.6931,0.0],[-126.6131,49.6902,21.3631],[-126.6136,49.6853,9.1992],[-126.6119,49.6825,25.5896],[-126.6086,49.6812,6.1792],[-126.6007,49.6825,21.0183],[-126.5984,49.6782,0.0],[-126.5884,49.681,6.7024],[-126.5878,49.6844,0.0],[-126.5948,49.6922,0.0],[-126.6033,49.6932,1.9561],[-126.6046,49.6966,19.3317],[-126.6012,49.6986,0.0],[-126.6051,49.7009,0.0],[-126.6172,49.7143,0.0]]],
[[[-126.5275,49.7022,0.0],[-126.5292,49.7039,0.0],[-126.5319,49.7014,0.0],[-126.5283,49.7,0.0],[-126.5275,49.7022,0.0]]],
[[[-126.5094,49.7058,21.1904],[-126.5063,49.7074,0.7965],[-126.5077,49.7083,15.032],[-126.5121,49.7052,0.0],[-126.5094,49.7058,21.1904]]],
[[[-126.4725,49.7139,0.0],[-126.4742,49.7124,0.0],[-126.4743,49.7114,0.0],[-126.4717,49.7136,0.0],[-126.4725,49.7139,0.0]]],
[[[-126.7925,49.885,0.0],[-126.7983,49.8867,17.0019],[-126.8,49.8839,2.9285],[-126.7983,49.8833,22.4704],[-126.8061,49.88,7.1201],[-126.8078,49.8739,4.3746],[-126.8031,49.8672,24.4469],[-126.7956,49.8633,0.0],[-126.7958,49.8619,52.2129],[-126.8123,49.8634,17.3185],[-126.8203,49.8669,38.9077],[-126.8297,49.8661,4.9459],[-126.8615,49.8555,4.4386],[-126.86279999999999,49.8533,56.589],[-126.865,49.8542,0.0],[-126.8687,49.8505,18.6751],[-126.8807,49.8522,0.0],[-126.8867,49.8511,0.0],[-126.8881,49.8474,9.7676],[-126.8948,49.8458,5.0521],[-126.9017,49.8489,0.0],[-126.9051,49.8455,0.0],[-126.9078,49.8455,0.0],[-126.9064,49.8428,0.0],[-126.9028,49.8439,8.1539],[-126.9086,49.8394,0.0],[-126.9081,49.8381,0.0],[-126.903,49.8389,8.9499],[-126.9069,49.8374,0.0],[-126.905,49.8328,10.7456],[-126.9139,49.8327,0.0],[-126.9162,49.8305,0.0],[-126.9175,49.8325,4.4764],[-126.9244,49.8297,14.2264],[-126.9435,49.8369,15.8123],[-126.9594,49.8372,0.0],[-126.965,49.8333,11.0494],[-126.96,49.8281,0.0],[-126.9594,49.8253,0.0],[-126.9628,49.8253,10.4244],[-126.9633,49.8228,8.6611],[-126.9758,49.8186,5.2516],[-126.9697,49.8156,13.2269],[-126.9719,49.8153,10.2952],[-126.9709,49.8118,0.0],[-126.9661,49.8122,0.0],[-126.9692,49.8139,10.3714],[-126.9681,49.8158,13.2269],[-126.9567,49.8121,22.8515],[-126.9583,49.8106,0.0],[-126.9569,49.8089,17.7521],[-126.9517,49.8103,2.5521],[-126.95,49.8086,11.2012],[-126.9572,49.8069,43.2281],[-126.9633,49.8086,10.0164],[-126.965,49.8042,3.8216],[-126.973,49.805,0.0],[-126.9696,49.7981,1.5278],[-126.965,49.7958,0.0],[-126.9609,49.7968,0.0],[-126.9568,49.7957,20.251],[-126.9529,49.7921,5.8865],[-126.9403,49.7981,0.0],[-126.9459,49.8079,0.0],[-126.9456,49.8103,3.1315],[-126.9492,49.8143,0.0],[-126.9478,49.815,0.0],[-126.9397,49.8122,29.2395],[-126.94,49.8077,8.1043],[-126.9326,49.8076,27.5535],[-126.9335,49.8058,0.0],[-126.9308,49.8022,10.6674],[-126.9243,49.799,21.4276],[-126.9243,49.7973,17.2548],[-126.9274,49.7977,0.0],[-126.9251,49.7953,0.0],[-126.9267,49.7939,0.0],[-126.9263,49.791,1.056],[-126.9214,49.7928,8.5659],[-126.9173,49.7876,0.0],[-126.9109,49.7856,0.0],[-126.9072,49.7871,27.2963],[-126.8956,49.78,0.0],[-126.8889,49.7789,24.1884],[-126.8761,49.7786,0.0],[-126.8686,49.7853,0.0],[-126.8586,49.7883,0.0],[-126.8591,49.7901,16.0738],[-126.8622,49.7893,10.9288],[-126.862,49.7921,16.236],[-126.8597,49.7933,0.0],[-126.8394,49.7994,4.7256],[-126.8331,49.7989,0.0],[-126.8278,49.8019,13.4014],[-126.826,49.7986,0.0],[-126.8229,49.7973,3.9538],[-126.8278,49.7933,47.5335],[-126.832,49.7923,0.0],[-126.8347,49.7869,4.7716],[-126.8295,49.7807,0.0],[-126.8289,49.7775,0.0],[-126.8592,49.7786,2.6171],[-126.8589,49.7772,2.6171],[-126.8517,49.7764,16.2195],[-126.8561,49.7753,27.9466],[-126.8572,49.7725,0.0],[-126.8534,49.7714,31.0293],[-126.8561,49.7708,4.208],[-126.8558,49.7694,23.3416],[-126.8589,49.77,9.7029],[-126.8597,49.7667,12.374],[-126.8639,49.7625,1.8851],[-126.8671,49.7614,24.544],[-126.8703,49.7629,1.2382],[-126.8717,49.7597,14.6388],[-126.8769,49.7597,16.4142],[-126.8836,49.7621,0.0],[-126.8877,49.7574,1.4253],[-126.899,49.7568,33.6898],[-126.9119,49.7614,0.0],[-126.9142,49.7589,16.6783],[-126.9217,49.7606,0.0],[-126.9225,49.7581,9.8913],[-126.919,49.7562,0.0],[-126.9192,49.7542,0.0],[-126.9144,49.7528,0.0],[-126.925,49.75,0.0],[-126.9244,49.745,34.4665],[-126.9256,49.743899999999996,0.0],[-126.9327,49.7427,7.2957],[-126.9361,49.7444,1.9859],[-126.9372,49.7431,0.0],[-126.9364,49.74,25.9554],[-126.9447,49.7378,4.0955],[-126.9472,49.7344,21.582],[-126.9494,49.7342,0.0],[-126.9508,49.7358,0.0],[-126.9489,49.7411,0.0],[-126.9472,49.7408,0.0],[-126.9439,49.7453,4.5461],[-126.9375,49.7481,0.0],[-126.9395,49.7505,0.0],[-126.9447,49.7486,38.2268],[-126.9475,49.7494,0.0],[-126.9519,49.7469,14.4455],[-126.9581,49.7483,26.0916],[-126.9631,49.7536,0.0],[-126.9709,49.7548,0.9942],[-126.975,49.7525,0.0],[-126.9719,49.7506,0.0],[-126.9733,49.7489,0.0],[-126.9833,49.7492,0.0],[-126.9675,49.7309,2.4272],[-126.9565,49.725,0.9067],[-126.9545,49.7218,0.0],[-126.946,49.7198,0.0],[-126.9426,49.7166,0.0],[-126.9339,49.7178,0.0],[-126.9314,49.715,0.9467],[-126.9322,49.7128,2.3087],[-126.93,49.7092,3.8303],[-126.9308,49.7044,4.4888],[-126.9211,49.6989,6.9002],[-126.9211,49.6956,3.3019],[-126.9175,49.6911,0.0],[-126.9114,49.6887,0.0],[-126.9002,49.6762,0.0],[-126.8932,49.6729,0.0],[-126.885,49.6714,0.3728],[-126.8772,49.6739,21.4485],[-126.8725,49.6731,2.2329],[-126.8678,49.6703,0.0],[-126.8681,49.6647,3.6191],[-126.864,49.6608,3.9351],[-126.8517,49.6611,18.0333],[-126.8411,49.6572,26.392],[-126.8386,49.6539,1.9216],[-126.8383,49.6496,0.0],[-126.8303,49.6425,0.0],[-126.8299,49.6383,20.4654],[-126.8342,49.6364,3.6265],[-126.8353,49.6336,0.0],[-126.8265,49.618,7.2678],[-126.8117,49.6166,0.0],[-126.7908,49.6116,10.7637],[-126.7711,49.6038,17.7568],[-126.7553,49.6053,0.0],[-126.7436,49.6083,0.6867],[-126.7308,49.6031,0.0],[-126.7169,49.6032,0.2582],[-126.7109,49.5985,0.0],[-126.7087,49.5992,22.9415],[-126.7064,49.5969,0.0],[-126.7036,49.5969,6.1857],[-126.6975,49.5897,0.0],[-126.6892,49.5881,0.0],[-126.6836,49.5836,0.0],[-126.6815,49.5841,6.0869],[-126.6769,49.5794,0.0],[-126.6728,49.5811,7.3414],[-126.6714,49.5792,0.0],[-126.6656,49.5814,6.3574],[-126.6633,49.58,0.0],[-126.6614,49.5818,3.3189],[-126.6597,49.5808,1.586],[-126.6575,49.5831,1.3083],[-126.6575,49.5856,33.2886],[-126.6539,49.5855,5.1891],[-126.6514,49.5875,0.0],[-126.6544,49.5906,10.8101],[-126.6533,49.5914,10.8101],[-126.6514,49.5903,0.0],[-126.6408,49.5925,38.9591],[-126.6258,49.5931,11.9552],[-126.6216,49.5915,3.3144],[-126.6214,49.5892,0.0],[-126.6145,49.5901,0.0],[-126.6131,49.5942,0.0],[-126.6178,49.5931,5.1656],[-126.6194,49.5947,2.053],[-126.6147,49.5956,2.1584],[-126.6133,49.5989,0.0],[-126.6155,49.6014,0.0],[-126.6228,49.6014,29.9429],[-126.6192,49.6044,13.9816],[-126.6172,49.6033,2.0804],[-126.615,49.6047,0.0],[-126.6184,49.6085,45.9985],[-126.6168,49.61,0.0],[-126.6185,49.6114,52.9262],[-126.6195,49.6205,0.0],[-126.6241,49.6196,36.3167],[-126.6224,49.6219,5.5014],[-126.625,49.6236,47.4247],[-126.6213,49.6238,1.8043],[-126.6229,49.625,2.6825],[-126.6214,49.6288,3.8381],[-126.6231,49.6306,19.4586],[-126.6204,49.6329,19.7929],[-126.6197,49.6364,0.0],[-126.6251,49.642,16.9126],[-126.6256,49.6483,0.0],[-126.6229,49.6507,3.5474],[-126.6258,49.6531,0.0],[-126.6261,49.6594,0.0],[-126.6225,49.6647,0.0],[-126.6141,49.66,0.0],[-126.6123,49.6639,5.8838],[-126.6143,49.6702,7.7402],[-126.6225,49.6836,25.6317],[-126.6261,49.6848,22.125],[-126.6236,49.6864,0.0],[-126.6243,49.6897,3.7022],[-126.6279,49.6903,25.8781],[-126.6282,49.6929,3.6294],[-126.63,49.6917,4.8475],[-126.6298,49.6896,7.0975],[-126.6364,49.6925,0.0],[-126.6342,49.695,0.0],[-126.6362,49.7016,5.0055],[-126.64,49.7046,12.562],[-126.6419,49.7105,0.0],[-126.6472,49.7162,24.8919],[-126.6464,49.7197,-0.7831],[-126.6506,49.7228,0.2689],[-126.6464,49.7261,8.143],[-126.6445,49.7258,8.3518],[-126.6451,49.7275,18.3239],[-126.6383,49.7297,0.0],[-126.632,49.7243,6.6575],[-126.6278,49.7248,0.0],[-126.6271,49.7284,20.9029],[-126.6305,49.7411,26.14],[-126.6377,49.7456,15.8437],[-126.6327,49.749,0.0],[-126.6458,49.7741,6.6459],[-126.6514,49.7789,8.2876],[-126.6569,49.7886,10.2784],[-126.6564,49.7933,0.4665],[-126.6586,49.7956,0.0],[-126.6585,49.7991,0.0],[-126.6606,49.7997,1.7711],[-126.6611,49.8053,0.0],[-126.665,49.8097,12.1682],[-126.6674,49.8231,0.0],[-126.6689,49.8253,4.2174],[-126.6744,49.8278,0.7508],[-126.6689,49.8325,0.0],[-126.6693,49.8354,0.0],[-126.6675,49.8381,0.0],[-126.6689,49.8439,0.0],[-126.6717,49.8472,89.2212],[-126.6692,49.8548,0.0],[-126.6806,49.8592,0.0],[-126.6873,49.8584,57.2767],[-126.6911,49.8598,23.4083],[-126.7028,49.86,9.1878],[-126.7069,49.8571,8.3876],[-126.7098,49.858,36.6926],[-126.7086,49.86,0.0],[-126.7128,49.8647,39.4898],[-126.7206,49.8667,51.1467],[-126.7299,49.8609,6.1485],[-126.7294,49.8571,15.3281],[-126.7234,49.8523,3.4427],[-126.7175,49.8502,0.0],[-126.7022,49.8558,57.3413],[-126.6994,49.8517,0.0],[-126.7083,49.8486,69.8592],[-126.7147,49.8489,0.0],[-126.7225,49.8442,0.0],[-126.7305,49.8447,11.6084],[-126.7396,49.8526,11.2625],[-126.7479,49.8522,9.4616],[-126.7571,49.8644,0.0],[-126.7644,49.868899999999996,3.108],[-126.7721,49.879,0.0],[-126.7764,49.8797,10.0855],[-126.7869,49.8856,0.0],[-126.7925,49.885,0.0]],
[[-126.9652,49.7984,27.4244],[-126.9679,49.7996,8.8863],[-126.9695,49.8044,26.5081],[-126.9642,49.8037,27.6748],[-126.9652,49.7984,27.4244]],
[[-126.6142,49.5989,11.4732],[-126.62,49.595,2.053],[-126.6372,49.5934,19.6454],[-126.6372,49.599,41.5045],[-126.6142,49.5989,11.4732]]],
[[[-126.9053,49.7697,0.0],[-126.9042,49.7703,0.0],[-126.9073,49.7727,8.047],[-126.9114,49.7736,13.6839],[-126.9122,49.7725,13.6839],[-126.9104,49.7709,0.0],[-126.9053,49.7697,0.0]]],
[[[-126.8814,49.7764,0.0],[-126.8819,49.7778,3.9169],[-126.885,49.7778,0.0],[-126.8833,49.7758,0.8182],[-126.8814,49.7764,0.0]]],
[[[-126.8411,49.7792,9.2836],[-126.8367,49.7787,0.0],[-126.8431,49.7817,12.6059],[-126.8433,49.7803,0.0],[-126.8411,49.7792,9.2836]]],
[[[-126.8463,49.7862,17.9225],[-126.8561,49.7861,17.4609],[-126.8603,49.7828,7.7948],[-126.8564,49.7831,15.0672],[-126.8558,49.7808,3.3825],[-126.8456,49.7811,0.0],[-126.8419,49.7853,0.0],[-126.8463,49.7862,17.9225]]],
[[[-126.8517,49.7911,5.1621],[-126.8526,49.7898,3.9923],[-126.8497,49.79,0.0],[-126.8497,49.7903,0.0],[-126.8517,49.7911,5.1621]]],
[[[-126.9606,49.7897,0.0],[-126.9589,49.7908,0.0],[-126.9603,49.7919,10.6914],[-126.9631,49.7906,0.0],[-126.9619,49.7892,0.0],[-126.9606,49.7897,0.0]]],
[[[-126.8349,49.7948,25.3923],[-126.8344,49.7925,2.1113],[-126.8328,49.7925,5.5336],[-126.8317,49.7956,0.0],[-126.8339,49.7962,24.0825],[-126.8349,49.7948,25.3923]]],
[[[-126.9672,49.7933,0.0],[-126.9733,49.7936,0.3774],[-126.9696,49.7912,0.0],[-126.9661,49.7928,0.0],[-126.9672,49.7933,0.0]]],
[[[-126.9758,49.8042,2.0397],[-126.9749,49.8032,0.0],[-126.9733,49.8031,0.0],[-126.9736,49.8044,0.0],[-126.9758,49.8042,2.0397]]],
[[[-126.965,49.8083,0.0],[-126.971,49.8093,0.0],[-126.9733,49.8075,0.0],[-126.9661,49.8061,5.1837],[-126.965,49.8083,0.0]]],
[[[-126.9817,49.8106,0.0],[-126.9861,49.8114,0.0],[-126.9872,49.8097,0.0],[-126.9836,49.8075,1.6128],[-126.9783,49.8086,3.7094],[-126.9817,49.8106,0.0]]],
[[[-126.9914,49.815,0.0],[-126.9939,49.8156,0.0],[-126.9936,49.8139,6.0075],[-126.9961,49.8136,10.6319],[-126.9967,49.8119,0.0],[-126.9905,49.8115,0.0],[-126.9893,49.8124,0.0],[-126.9914,49.815,0.0]]],
[[[-126.9747,49.815,0.5008],[-126.9781,49.8169,4.6261],[-126.9792,49.8164,0.0],[-126.9775,49.8136,0.0],[-126.9747,49.815,0.5008]]],
[[[-126.9817,49.8175,10.1119],[-126.9783,49.8183,5.0117],[-126.9842,49.82,2.5004],[-126.9864,49.8167,1.1089],[-126.9833,49.8156,0.0],[-126.9817,49.8175,10.1119]]],
[[[-127.0578,49.8253,5.1245],[-127.0625,49.8264,0.0],[-127.065,49.8253,0.0],[-127.0628,49.8231,0.0],[-127.0611,49.8242,0.0],[-127.0592,49.8222,0.0],[-127.0551,49.8229,0.4004],[-127.0522,49.8199,0.0],[-127.0482,49.8223,0.0],[-127.0533,49.825,0.0],[-127.0578,49.8253,5.1245]]],
[[[-126.9392,49.7958,0.2979],[-126.9403,49.7967,0.2979],[-126.9414,49.7956,6.8053],[-126.9394,49.795,0.0],[-126.9392,49.7958,0.2979]]],
[[[-126.9208,49.8337,0.0],[-126.92,49.8325,8.9765],[-126.9178,49.8328,4.4764],[-126.9187,49.8341,0.0],[-126.9208,49.8337,0.0]]],
[[[-126.7226,49.8472,0.0],[-126.7236,49.8467,0.0],[-126.7219,49.8458,2.4397],[-126.7217,49.8469,2.4397],[-126.7226,49.8472,0.0]]],
[[[-126.9232,49.845,0.0],[-126.9219,49.8475,0.0],[-126.9246,49.8493,0.0],[-126.9299,49.8474,0.0],[-126.9326,49.8488,0.0],[-126.9389,49.8486,19.9469],[-126.9417,49.8458,0.0],[-126.9286,49.8442,10.9166],[-126.9232,49.845,0.0]]],
[[[-126.9726,49.8308,0.0],[-126.9772,49.8325,0.0],[-126.9803,49.8319,0.0],[-126.9775,49.8275,0.0],[-126.9699,49.824,0.0],[-126.9682,49.827,10.7821],[-126.9726,49.8308,0.0]]],
[[[-127.0536,49.8447,9.2638],[-127.06,49.8461,0.0],[-127.0614,49.8442,15.3324],[-127.0658,49.8458,0.0],[-127.0739,49.8397,0.0],[-127.0678,49.8425,5.3359],[-127.0689,49.8394,0.0],[-127.0653,49.8381,0.0],[-127.0669,49.8358,0.0],[-127.0644,49.835,0.0],[-127.0622,49.8378,17.1686],[-127.0611,49.8336,0.0],[-127.0561,49.8314,30.7005],[-127.0564,49.8278,0.0],[-127.0531,49.8275,2.4319],[-127.0478,49.8308,24.2004],[-127.0417,49.8306,8.9266],[-127.0353,49.8328,9.3368],[-127.03,49.8297,0.0],[-127.0283,49.8306,0.0],[-127.0325,49.8339,6.259],[-127.0328,49.8358,0.0],[-127.0481,49.8425,14.7933],[-127.0489,49.8453,3.6476],[-127.0514,49.8439,0.0],[-127.0536,49.8447,9.2638]]],
[[[-127.0056,49.8442,0.0],[-127.0031,49.8444,3.1766],[-127.0025,49.8461,0.0],[-127.0061,49.8453,0.0],[-127.0056,49.8442,0.0]]],
[[[-127.1164,49.8458,0.0],[-127.1208,49.8503,0.0],[-127.125,49.8489,0.0],[-127.1178,49.8444,0.0],[-127.1164,49.8458,0.0]]],
[[[-127.1111,49.8517,0.0],[-127.1142,49.8522,0.0],[-127.1161,49.8508,0.0],[-127.1119,49.8486,0.0],[-127.1103,49.8508,0.0],[-127.1111,49.8517,0.0]]],
[[[-126.9819,49.8583,4.7061],[-126.9894,49.8603,13.8061],[-126.9906,49.8569,0.0],[-126.9844,49.8528,1.0638],[-126.9814,49.8569,0.0],[-126.9819,49.8583,4.7061]]],
[[[-127.1889,49.8892,0.213],[-127.1889,49.8906,0.0],[-127.1928,49.8911,0.0],[-127.1933,49.89,0.1882],[-127.1894,49.8881,0.0],[-127.1889,49.8892,0.213]]],
[[[-127.2048,49.9134,0.3909],[-127.2024,49.9126,0.0],[-127.2035,49.9144,0.0],[-127.2024,49.916,1.1895],[-127.2046,49.916,0.0],[-127.2044,49.9146,0.0],[-127.2066,49.9138,0.0],[-127.2059,49.9112,0.0],[-127.2048,49.9134,0.3909]]],
[[[-127.2236,49.9022,0.0],[-127.2275,49.9039,0.0],[-127.2303,49.9028,0.0],[-127.2225,49.8969,0.0],[-127.2194,49.9,0.0],[-127.2236,49.9022,0.0]]],
[[[-127.2531,49.9256,0.0],[-127.2569,49.9267,0.0],[-127.2592,49.9219,0.0],[-127.2453,49.9189,0.0],[-127.2489,49.9247,0.0],[-127.2531,49.9256,0.0]]],
[[[-127.2407,49.9206,1.7497],[-127.2391,49.9225,0.0],[-127.2431,49.9244,0.0],[-127.2427,49.9222,0.0],[-127.2407,49.9206,1.7497]]],
[[[-127.2483,49.9283,0.0],[-127.2469,49.9292,0.0],[-127.2494,49.93,0.8117],[-127.2519,49.9278,0.0],[-127.2453,49.9256,0.0],[-127.2458,49.9269,0.4632],[-127.2483,49.9283,0.0]]],
[[[-126.9292,49.8683,13.3867],[-126.93,49.8661,3.667],[-126.9278,49.8661,4.9449],[-126.9278,49.8678,7.3857],[-126.9292,49.8683,13.3867]]],
[[[-125.7671,49.5161,1436.9657],[-125.7619,49.5135,1385.7938],[-125.757,49.514,1414.4635],[-125.7419,49.5228,1429.6378],[-125.7421,49.5293,1123.9451],[-125.7286,49.5444,1589.9824],[-125.7349,49.5544,1355.0945],[-125.7354,49.5633,1346.7667],[-125.7431,49.563,1495.3441],[-125.7496,49.5727,1388.4691],[-125.7442,49.5785,1314.9011],[-125.7288,49.5803,1051.5239],[-125.7218,49.602,1242.658],[-125.716,49.6045,1161.146],[-125.7053,49.6046,1208.189],[-125.6927,49.6021,1604.7924],[-125.6872,49.6065,1396.6528],[-125.6956,49.6181,1296.6882],[-125.6972,49.6248,1605.7169],[-125.7017,49.6294,1575.6316],[-125.7222,49.6272,1305.0432],[-125.7304,49.6357,1170.8558],[-125.733,49.6466,1180.3105],[-125.7346,49.6485,1197.9792],[-125.7551,49.6558,1702.9656],[-125.7723,49.653,1600.8301],[-125.7972,49.6582,1113.0464],[-125.8032,49.6627,1518.9447],[-125.805,49.6703,1523.5746],[-125.8028,49.6764,1538.5403],[-125.8033,49.6881,1362.1503],[-125.8068,49.6923,1674.1392],[-125.8148,49.6939,1252.3926],[-125.82,49.7,1441.8851],[-125.8317,49.7061,1200.4946],[-125.83839999999999,49.7158,1333.0806],[-125.8339,49.7228,1604.2272],[-125.8375,49.7263,1693.7278],[-125.8471,49.7269,1539.7709],[-125.8505,49.7356,1539.5029],[-125.8625,49.7452,1865.7242],[-125.8668,49.7427,1728.1707],[-125.8772,49.7423,1542.7419],[-125.8872,49.7458,1260.5673],[-125.8923,49.7496,1014.4863],[-125.9028,49.7654,1509.0739],[-125.9118,49.771,1531.0082],[-125.9137,49.7758,1482.5299],[-125.9129,49.7914,1725.2933],[-125.9155,49.7927,1703.1196],[-125.9176,49.8001,1590.9451],[-125.9159,49.8043,1369.8313],[-125.9115,49.8072,1601.1696],[-125.9171,49.8183,1553.2832],[-125.9107,49.8198,1435.5244],[-125.9112,49.8363,646.8079],[-125.8808,49.8718,1539.2295],[-125.8844,49.8851,1296.8928],[-125.8819,49.8921,1237.2429],[-125.8833,49.8983,1209.3263],[-125.89,49.9046,1185.9858],[-125.8972,49.9052,1270.2327],[-125.9065,49.9016,1507.3298],[-125.9141,49.9017,1485.252],[-125.912,49.9193,1282.0857],[-125.9185,49.925,1286.2194],[-125.9172,49.931,1302.1241],[-125.9204,49.9439,1460.7104],[-125.9198,49.9493,1329.9225],[-125.9168,49.952,1377.1781],[-125.9085,49.955,1207.0586],[-125.902,49.9668,1350.62],[-125.902,49.9731,1601.4795],[-125.8948,49.974,1592.4771],[-125.8932,49.9771,1623.8179],[-125.899,49.9858,1433.3525],[-125.9006,49.9941,969.7236],[-125.9075,49.9998,689.4026],[-125.9151,49.9999,677.5159],[-125.9111,50.0086,654.2299],[-125.9192,50.011,522.2115],[-125.9248,50.0108,683.255],[-125.9286,50.0062,843.6593],[-125.9455,50.0006,1302.2365],[-125.9517,50.0001,1352.8506],[-125.9596,50.0057,1379.5935],[-125.9646,50.0057,1359.2229],[-125.9785,50.001,1205.6868],[-125.9941,50.0035,1091.3279],[-126.01,49.9992,1170.8684],[-126.0211,50.0064,929.5168],[-126.0385,50.0135,728.4127],[-126.048,50.0134,1057.8403],[-126.0548,50.0162,1284.1653],[-126.0627,50.0146,1117.0601],[-126.0692,50.0153,1166.9291],[-126.0734,50.0172,1294.9838],[-126.087,50.0295,1462.8721],[-126.099,50.0329,1282.0319],[-126.1082,50.0302,1425.4822],[-126.1217,50.0308,1104.6666],[-126.1302,50.0295,1009.2137],[-126.1387,50.024,922.6303],[-126.1524,50.0203,525.5433],[-126.1787,50.0176,1311.3641],[-126.1803,50.0151,1390.9532],[-126.1775,50.0109,1241.0171],[-126.1769,50.0064,1208.0706],[-126.179,49.9991,1358.9309],[-126.1732,49.9955,1524.5122],[-126.1826,49.9947,1295.0327],[-126.1884,49.9875,1313.985],[-126.1953,49.985,1442.3868],[-126.2005,49.9933,1365.4062],[-126.2059,49.9941,1383.8707],[-126.2099,49.9975,1313.4698],[-126.2032,50.0082,1168.1863],[-126.2057,50.0111,991.1169],[-126.2259,50.0161,1660.4167],[-126.238,50.0109,1160.3372],[-126.2434,50.0054,1096.8867],[-126.2628,50.0,630.804],[-126.2816,49.9885,369.5242],[-126.3066,49.9702,787.8226],[-126.3114,49.9635,1005.476],[-126.3234,49.959,1248.2246],[-126.3259,49.9539,1294.2878],[-126.3447,49.9517,1183.4347],[-126.3524,49.9479,1117.2347],[-126.3566,49.9428,1001.7527],[-126.3559,49.9409,1086.0227],[-126.3435,49.9317,1250.4692],[-126.3421,49.9278,1203.1753],[-126.3427,49.9246,1196.4943],[-126.3488,49.9203,1256.7739],[-126.3724,49.915,883.2701],[-126.3763,49.9085,850.4647],[-126.3889,49.9071,934.2605],[-126.412,49.9102,1074.8285],[-126.4162,49.9115,1028.0237],[-126.4186,49.9151,905.2889],[-126.4318,49.9175,1217.5514],[-126.4484,49.9114,1308.0088],[-126.4533,49.908,1448.0353],[-126.4602,49.9074,1515.3138],[-126.4662,49.9093,1472.0178],[-126.4664,49.9123,1410.495],[-126.4707,49.9184,1435.8982],[-126.4774,49.9202,1400.6848],[-126.4697,49.9295,1305.3571],[-126.4709,49.9342,1408.6748],[-126.4815,49.946,1398.5956],[-126.4761,49.9501,1547.7052],[-126.4819,49.9556,1259.7742],[-126.4941,49.9645,1454.4084],[-126.5122,49.9612,1167.8528],[-126.5222,49.9717,938.8278],[-126.5338,49.9719,510.7187],[-126.5428,49.9809,1140.9995],[-126.5561,49.9823,1178.3684],[-126.5631,49.9875,1382.3021],[-126.5684,49.9884,1221.4124],[-126.5717,49.9909,1487.2209],[-126.5724,49.9962,1375.9507],[-126.5679,49.9999,1229.7224],[-126.5577,49.9993,1212.3206],[-126.5474,50.0142,1458.059],[-126.5518,50.0184,1240.5498],[-126.5625,50.0214,1362.0579],[-126.5632,50.0234,1412.3406],[-126.5589,50.03,1360.4185],[-126.5911,50.0291,1444.9878],[-126.5995,50.0238,1296.0137],[-126.608,50.0218,1428.0072],[-126.6135,50.0219,1348.3105],[-126.6281,50.0286,566.5513],[-126.6349,50.0255,516.6038],[-126.6662,50.0176,1430.5924],[-126.6722,50.0182,1621.3779],[-126.6749,50.0245,1649.7195],[-126.6787,50.0282,1597.3495],[-126.6933,50.0328,1684.1771],[-126.6936,50.0359,1490.3813],[-126.6892,50.0423,1480.9829],[-126.6989,50.0493,1563.4087],[-126.6946,50.0546,1336.6888],[-126.6978,50.0599,1345.4419],[-126.6953,50.062,1354.7563],[-126.6827,50.0646,1052.1731],[-126.6774,50.0734,1004.9346],[-126.6623,50.0687,826.717],[-126.6545,50.0712,1039.6201],[-126.6512,50.0738,1178.6296],[-126.6465,50.0935,1239.6343],[-126.6533,50.094,1098.3463],[-126.6648,50.0908,872.5157],[-126.6682,50.097,794.8868],[-126.6779,50.0987,866.9796],[-126.6822,50.1075,969.734],[-126.7021,50.1148,1323.8711],[-126.7132,50.1149,1308.249],[-126.7334,50.1065,1133.5962],[-126.746,50.1035,1064.0414],[-126.7552,50.1122,955.1926],[-126.7896,50.1249,1116.1569],[-126.785,50.1395,771.0239],[-126.7811,50.141,598.069],[-126.7709,50.1363,633.4107],[-126.7648,50.1419,662.5327],[-126.7639,50.1445,687.0607],[-126.7648,50.1478,699.4956],[-126.77,50.152,585.8185],[-126.7796,50.1568,807.9453],[-126.7876,50.1669,772.5386],[-126.7795,50.1726,971.4783],[-126.778,50.1751,916.1547],[-126.7793,50.1786,1020.5374],[-126.7862,50.1789,969.895],[-126.7942,50.1766,942.0519],[-126.8026,50.1696,1040.0457],[-126.8067,50.1709,1002.2637],[-126.8058,50.1746,934.7799],[-126.8186,50.1711,1048.8774],[-126.8198,50.1697,1115.2559],[-126.8139,50.1567,957.6384],[-126.8177,50.1433,432.537],[-126.8375,50.1388,884.3301],[-126.8705,50.1596,959.218],[-126.8839,50.1644,1253.9199],[-126.8862,50.1667,1123.4727],[-126.8851,50.1737,1071.6394],[-126.8998,50.1832,1404.7339],[-126.9034,50.1904,1179.757],[-126.9182,50.1944,1322.8103],[-126.9278,50.1905,1313.3767],[-126.9322,50.1847,885.7181],[-126.9411,50.1829,795.7454],[-126.9914,50.182,342.3548],[-126.9898,50.1963,151.823],[-126.993,50.1984,161.7939],[-126.9905,50.222,774.0114],[-126.9894,50.2253,885.1806],[-126.9739,50.2314,1100.6289],[-126.9738,50.2404,1157.8971],[-126.9776,50.2442,1030.0833],[-126.988,50.2454,986.3235],[-126.9999,50.2499,1246.3885],[-127.0001,50.2792,976.915],[-127.0076,50.2815,1122.6287],[-127.0118,50.2812,1033.3397],[-127.0258,50.2881,740.7256],[-127.0309,50.2997,850.115],[-127.0452,50.3065,1204.158],[-127.0457,50.3099,1271.7052],[-127.0494,50.3128,1339.4257],[-127.0481,50.3228,1147.9823],[-127.0551,50.3259,1027.8789],[-127.0662,50.3264,939.0425],[-127.0688,50.3291,797.8804],[-127.0683,50.3356,577.6223],[-127.0799,50.3352,743.6476],[-127.0961,50.3399,949.0224],[-127.0993,50.3344,1096.0972],[-127.0949,50.3326,996.428],[-127.0966,50.3305,1126.4661],[-127.0961,50.3254,1089.8271],[-127.0985,50.3221,1100.9568],[-127.1026,50.3203,1147.6733],[-127.1134,50.3238,840.548],[-127.1285,50.3118,551.8922],[-127.1423,50.3034,453.5651],[-127.1483,50.2959,446.6185],[-127.1567,50.2923,503.178],[-127.1619,50.2873,484.2083],[-127.1678,50.2726,836.7679],[-127.1789,50.2627,1135.8546],[-127.187,50.2649,953.791],[-127.2015,50.2752,1174.7365],[-127.2047,50.2732,1004.5771],[-127.2177,50.2706,907.3513],[-127.2252,50.2645,1119.0344],[-127.2363,50.2671,1154.3555],[-127.2397,50.2697,1097.8257],[-127.2447,50.2775,1081.9497],[-127.2564,50.2832,1155.2076],[-127.2649,50.2844,1250.9519],[-127.2686,50.2787,922.9869],[-127.275,50.2772,879.7207],[-127.2936,50.2802,983.4171],[-127.2961,50.2769,1059.9688],[-127.2901,50.2402,509.6231],[-127.2947,50.2342,648.0775],[-127.3032,50.2367,751.6097],[-127.3055,50.2324,688.2743],[-127.312,50.2309,398.6849],[-127.3327,50.2321,762.6647],[-127.3637,50.2505,755.2994],[-127.3752,50.252,929.3199],[-127.3764,50.2577,947.3767],[-127.3809,50.2606,988.1735],[-127.4095,50.2506,985.5632],[-127.4135,50.2551,880.8448],[-127.4203,50.2589,1015.161],[-127.4276,50.2595,853.1286],[-127.4397,50.2579,657.7848],[-127.4431,50.2598,553.4299],[-127.4551,50.2612,664.1236],[-127.4677,50.2673,912.1887],[-127.4847,50.2686,966.1422],[-127.4883,50.2717,968.8402],[-127.5054,50.2767,1010.8267],[-127.5118,50.2781,824.493],[-127.5208,50.2774,868.7632],[-127.5256,50.2791,933.8211],[-127.5283,50.2855,982.2819],[-127.5415,50.2922,789.7265],[-127.5509,50.294,802.5828],[-127.5621,50.2924,817.7302],[-127.5658,50.2884,745.4487],[-127.5792,50.2839,747.1138],[-127.5853,50.2828,769.6146],[-127.592,50.284,877.0589],[-127.5986,50.2813,930.9717],[-127.5962,50.2742,666.8036],[-127.5976,50.2673,704.5542],[-127.6044,50.2623,810.9037],[-127.6234,50.2573,639.6176],[-127.632,50.2505,822.6122],[-127.6382,50.2505,774.598],[-127.6367,50.2423,770.9404],[-127.6394,50.2399,746.0241],[-127.6615,50.2401,680.3228],[-127.6638,50.2336,636.7655],[-127.6843,50.2161,691.8011],[-127.6953,50.2117,699.0619],[-127.6922,50.2034,635.3028],[-127.7004,50.2024,697.4792],[-127.7011,50.1897,747.5257],[-127.7346,50.19,403.1299],[-127.7411,50.1838,480.4081],[-127.7393,50.1809,556.1636],[-127.727,50.1761,505.4856],[-127.7321,50.1668,609.8558],[-127.7361,50.1642,658.5425],[-127.7424,50.1633,646.3497],[-127.7577,50.1649,649.7949],[-127.7633,50.1597,613.418],[-127.7698,50.1571,646.8287],[-127.7653,50.152,688.8574],[-127.7714,50.1473,632.9327],[-127.7825,50.1493,687.7433],[-127.8034,50.1421,625.8373],[-127.828,50.1458,602.7071],[-127.8436,50.1377,582.1108],[-127.8508,50.1444,552.9547],[-127.861,50.1427,443.5826],[-127.8807,50.1267,459.3602],[-127.8924,50.1202,365.3477],[-127.8957,50.1159,378.9564],[-127.9026,50.1162,305.5069],[-127.9079,50.1195,302.3672],[-127.9098,50.1249,251.6822],[-127.9136,50.1269,276.049],[-127.9183,50.1254,99.3166],[-127.9163,50.1209,177.9931],[-127.9177,50.1175,41.7053],[-127.9172,50.1128,0.0],[-127.903,50.1109,16.7482],[-127.8867,50.1039,13.0823],[-127.8838,50.1016,0.0],[-127.8829,50.0978,4.5821],[-127.8771,50.0942,0.0],[-127.8734,50.0952,0.0],[-127.8689,50.0923,0.0],[-127.8644,50.0919,0.0],[-127.8594,50.0942,11.7714],[-127.8515,50.0894,0.0],[-127.8217,50.085,1.0002],[-127.8189,50.0803,0.0],[-127.8156,50.0789,1.0612],[-127.7967,50.0778,0.0],[-127.7906,50.0828,0.0],[-127.7867,50.0831,0.0],[-127.7783,50.0888,0.0],[-127.7783,50.0914,0.0],[-127.765,50.1017,0.0],[-127.7616,50.1035,0.0],[-127.7589,50.1011,0.0],[-127.7561,50.1022,0.0181],[-127.755,50.1061,0.0],[-127.745,50.1103,0.0],[-127.7333,50.1211,0.0],[-127.7281,50.1226,0.0],[-127.725,50.12,0.0],[-127.7231,50.123,0.0],[-127.7167,50.1225,0.0],[-127.715,50.1233,0.0],[-127.7161,50.1256,0.0],[-127.7122,50.1267,0.0],[-127.7095,50.1288,0.0],[-127.7111,50.13,16.4051],[-127.7094,50.1308,3.443],[-127.7033,50.1314,5.8629],[-127.6961,50.1297,0.0],[-127.6917,50.1311,0.4167],[-127.6844,50.1297,0.0],[-127.6828,50.1311,0.0],[-127.6833,50.1331,0.0],[-127.6994,50.14,7.2678],[-127.6861,50.1406,17.1496],[-127.685,50.1425,0.0],[-127.6867,50.1472,4.1983],[-127.6844,50.1478,1.6246],[-127.68,50.145,0.0],[-127.675,50.1497,0.0],[-127.6683,50.1458,0.0],[-127.6639,50.1467,6.896],[-127.6583,50.1503,0.9034],[-127.6611,50.1539,3.3695],[-127.6556,50.1544,3.4937],[-127.6567,50.1556,14.2839],[-127.655,50.1575,0.0],[-127.66,50.1606,0.0],[-127.655,50.1636,0.0],[-127.6533,50.1686,13.2774],[-127.6489,50.1706,27.2543],[-127.6428,50.1675,4.546],[-127.635,50.1689,49.0514],[-127.6339,50.1744,10.5385],[-127.6256,50.1769,0.0],[-127.6256,50.1819,0.0],[-127.6183,50.1903,0.0],[-127.6144,50.1897,0.0],[-127.6133,50.1869,58.5394],[-127.6167,50.1828,0.0],[-127.6189,50.1747,1.3117],[-127.6244,50.1717,0.0],[-127.6222,50.1669,54.535],[-127.6333,50.1622,0.0],[-127.6322,50.1542,3.9845],[-127.6378,50.1522,0.0],[-127.6367,50.1511,0.0],[-127.6378,50.15,2.032],[-127.6433,50.1483,0.0],[-127.6456,50.145,0.0],[-127.6399,50.1435,0.0],[-127.6383,50.1383,72.3812],[-127.64,50.1361,1.8718],[-127.6356,50.1353,0.0],[-127.6317,50.1319,0.0],[-127.6322,50.1258,0.0],[-127.6311,50.1239,7.5222],[-127.6278,50.1242,16.4422],[-127.6256,50.1167,0.0],[-127.6144,50.1175,7.9297],[-127.6061,50.12,3.2656],[-127.6017,50.1183,0.0],[-127.6044,50.1156,0.0],[-127.6083,50.115,0.0],[-127.6078,50.1125,37.9561],[-127.6117,50.1119,0.5356],[-127.6089,50.1072,0.0],[-127.5983,50.1086,0.0],[-127.5961,50.1106,12.466],[-127.5933,50.1086,0.0],[-127.5878,50.11,3.806],[-127.5961,50.1156,8.6798],[-127.5921,50.1205,9.3691],[-127.5833,50.12,0.0],[-127.5856,50.1228,14.586],[-127.5769,50.1275,13.2629],[-127.5729,50.1273,11.7187],[-127.5711,50.1256,1.3039],[-127.5644,50.1264,9.037],[-127.5633,50.1256,9.037],[-127.5644,50.1247,0.0],[-127.5617,50.1244,13.4211],[-127.5622,50.1225,2.0576],[-127.5594,50.1217,0.0],[-127.555,50.1228,0.0],[-127.5544,50.1244,8.1781],[-127.5528,50.1236,0.0],[-127.5467,50.1253,0.0],[-127.5444,50.1272,18.7475],[-127.5389,50.1264,6.0418],[-127.5294,50.1333,0.0],[-127.5306,50.1375,41.9984],[-127.5294,50.1394,6.2346],[-127.5228,50.1403,0.0],[-127.51,50.1458,3.7899],[-127.5044,50.1522,0.0],[-127.51,50.1539,8.6769],[-127.5033,50.1608,17.6901],[-127.4944,50.1625,6.6818],[-127.4928,50.1644,19.9201],[-127.4944,50.1658,7.2956],[-127.4894,50.1675,4.3832],[-127.4856,50.1708,7.7645],[-127.4811,50.1689,2.9915],[-127.4783,50.1697,9.6754],[-127.4772,50.1806,7.7992],[-127.4728,50.1811,39.5859],[-127.4665,50.1778,0.0],[-127.4617,50.1786,0.0],[-127.4544,50.1864,43.1369],[-127.4483,50.1853,0.0],[-127.4406,50.1869,0.0],[-127.4378,50.1831,2.8327],[-127.4428,50.1831,0.8996],[-127.4528,50.1786,50.1582],[-127.4544,50.1686,57.4069],[-127.4578,50.165,0.0],[-127.465,50.1617,51.968],[-127.4683,50.1575,0.0],[-127.4761,50.1533,19.9448],[-127.4856,50.1519,36.5208],[-127.48779999999999,50.15,25.427],[-127.4867,50.1478,15.8568],[-127.48779999999999,50.1461,12.5597],[-127.5011,50.1431,5.5108],[-127.5161,50.1333,0.0],[-127.5159,50.129,0.117],[-127.5116,50.1273,2.4905],[-127.5111,50.1286,0.0],[-127.5133,50.1303,1.5503],[-127.5117,50.1308,8.3934],[-127.5083,50.1278,48.1268],[-127.5111,50.1253,64.2384],[-127.5144,50.1253,0.0],[-127.5136,50.1241,0.0],[-127.5161,50.1214,0.0],[-127.4967,50.1142,1.27],[-127.4861,50.1203,0.0],[-127.4839,50.1233,24.794],[-127.4778,50.1247,5.4051],[-127.4661,50.1314,16.1973],[-127.4544,50.1331,20.7022],[-127.4489,50.1322,31.7098],[-127.4433,50.1347,26.743],[-127.4356,50.1333,0.0],[-127.4306,50.135,0.0],[-127.4211,50.1328,0.0],[-127.4233,50.1294,8.3579],[-127.4283,50.1297,9.8461],[-127.4344,50.125,24.9197],[-127.4428,50.1258,0.0],[-127.4433,50.1242,9.664],[-127.4456,50.1253,15.4382],[-127.4556,50.1244,1.9152],[-127.4706,50.12,0.0],[-127.4806,50.1122,0.0],[-127.4811,50.1108,0.0],[-127.4789,50.1083,10.5909],[-127.4839,50.1067,0.0],[-127.4806,50.1022,0.0],[-127.485,50.1011,4.2581],[-127.4817,50.0958,4.8299],[-127.4856,50.0944,5.5366],[-127.4844,50.0914,0.0],[-127.4767,50.0906,24.9846],[-127.4778,50.0886,0.0],[-127.4739,50.0836,19.4349],[-127.4667,50.0803,7.8987],[-127.4439,50.0639,2.4929],[-127.445,50.0583,3.1846],[-127.4417,50.055,0.0],[-127.4422,50.05,0.0],[-127.4389,50.0489,34.6931],[-127.4411,50.0469,0.0],[-127.4361,50.0461,2.4756],[-127.4367,50.0442,0.0],[-127.4289,50.0403,0.137],[-127.4306,50.0361,0.0],[-127.4244,50.0344,0.0],[-127.4188,50.0361,3.1921],[-127.4178,50.0387,0.0],[-127.4128,50.0381,0.9619],[-127.4087,50.0397,0.0],[-127.4039,50.0378,1.0339],[-127.4006,50.0325,0.0],[-127.3911,50.0258,2.179],[-127.3905,50.0291,13.9778],[-127.3822,50.03,0.0],[-127.3824,50.0328,40.9846],[-127.3719,50.0334,59.5614],[-127.3717,50.0283,0.0],[-127.365,50.0267,6.8404],[-127.3661,50.0253,0.0],[-127.3633,50.0239,2.6745],[-127.3622,50.0264,0.0],[-127.3606,50.0261,0.0],[-127.3628,50.0281,0.0],[-127.3577,50.0308,0.0],[-127.3606,50.0328,0.0],[-127.3578,50.0431,0.0],[-127.3517,50.0456,21.4254],[-127.3489,50.0444,0.0],[-127.3489,50.0406,0.0],[-127.355,50.0344,0.0],[-127.3522,50.0297,24.5744],[-127.3588,50.0288,0.0],[-127.3594,50.0264,0.0],[-127.3572,50.0242,10.5331],[-127.3594,50.0225,0.0],[-127.3441,50.0197,0.0],[-127.3428,50.0217,7.3846],[-127.3378,50.0208,0.0],[-127.3428,50.0242,3.8187],[-127.3278,50.0311,0.0],[-127.3261,50.0367,19.561],[-127.3237,50.0367,17.6645],[-127.3234,50.0321,0.0],[-127.3178,50.0344,4.2733],[-127.3217,50.0389,22.0792],[-127.3161,50.0436,0.0],[-127.3139,50.0436,6.5835],[-127.3156,50.0419,8.0173],[-127.314,50.0402,0.0],[-127.3106,50.0419,0.0],[-127.305,50.0392,14.5989],[-127.2967,50.0392,14.2947],[-127.2939,50.0417,9.9075],[-127.2867,50.0428,3.0631],[-127.2794,50.0464,0.0],[-127.2839,50.0486,11.0136],[-127.2978,50.0447,9.2914],[-127.3,50.0458,0.0],[-127.2994,50.0469,0.0],[-127.2889,50.0492,3.8566],[-127.2844,50.0539,53.7604],[-127.2706,50.0539,21.9886],[-127.2672,50.0572,0.0],[-127.2744,50.0642,0.0],[-127.285,50.0669,46.6316],[-127.2872,50.0717,1.7632],[-127.2858,50.076,4.7605],[-127.2776,50.0763,0.0],[-127.2694,50.0828,0.0],[-127.2706,50.0861,15.5035],[-127.2778,50.0892,0.0],[-127.2794,50.0939,0.0],[-127.2833,50.0964,15.2178],[-127.2767,50.1022,20.6122],[-127.2717,50.1017,0.0],[-127.2628,50.1042,17.3053],[-127.27,50.1103,4.9439],[-127.265,50.1139,0.0],[-127.2661,50.1147,0.0],[-127.2656,50.1186,0.0],[-127.2745,50.1236,27.2046],[-127.2711,50.1247,7.3452],[-127.2728,50.1258,9.0551],[-127.2817,50.1292,0.0],[-127.285,50.1272,26.8627],[-127.2883,50.1286,26.8627],[-127.2894,50.1308,0.0],[-127.2867,50.1331,11.757],[-127.2922,50.1358,0.0],[-127.2994,50.1361,4.4064],[-127.302,50.1337,4.9821],[-127.2972,50.13,0.0],[-127.2911,50.1211,0.0],[-127.2794,50.1178,19.0478],[-127.275,50.115,17.9179],[-127.2756,50.1131,20.6587],[-127.2783,50.1133,4.1287],[-127.2806,50.1167,4.0199],[-127.2944,50.1192,3.4836],[-127.3061,50.1272,0.0],[-127.3072,50.1367,0.0],[-127.3094,50.1386,33.3276],[-127.3072,50.1408,15.4419],[-127.2976,50.1426,28.7396],[-127.3056,50.1478,13.1609],[-127.3061,50.15,12.0113],[-127.3039,50.1528,5.959],[-127.3106,50.1561,8.9783],[-127.3106,50.1606,0.0],[-127.3089,50.1614,0.0],[-127.3094,50.1678,5.8652],[-127.3067,50.1697,0.0],[-127.3117,50.1736,22.8349],[-127.3094,50.181399999999996,14.8584],[-127.3094,50.1906,2.5874],[-127.3072,50.1908,0.0],[-127.3006,50.1864,10.711],[-127.3033,50.1762,49.6048],[-127.3006,50.1683,44.6862],[-127.3033,50.1628,38.0468],[-127.3067,50.1608,0.0],[-127.3033,50.1583,12.4059],[-127.3033,50.1567,2.2874],[-127.2917,50.1536,0.0],[-127.2889,50.1497,21.0067],[-127.275,50.1436,0.0],[-127.2733,50.1411,0.0],[-127.2661,50.1417,1.783],[-127.265,50.1375,10.2278],[-127.2667,50.1361,0.0],[-127.2506,50.1314,0.0],[-127.2517,50.1267,0.0],[-127.2499,50.1251,0.0],[-127.2306,50.1186,10.8047],[-127.2311,50.1161,4.5293],[-127.2267,50.1133,4.1432],[-127.2333,50.1111,30.2869],[-127.23,50.1075,8.9338],[-127.2278,50.1072,8.9338],[-127.2278,50.1097,11.8623],[-127.23,50.1103,11.8623],[-127.2272,50.1114,18.1087],[-127.2189,50.1053,26.7533],[-127.2256,50.1067,24.2686],[-127.2344,50.1053,0.0],[-127.2283,50.1047,7.1181],[-127.2278,50.1036,5.4269],[-127.23,50.1017,0.0],[-127.2278,50.0992,0.0],[-127.2122,50.0931,2.8987],[-127.2006,50.0919,0.0],[-127.1856,50.0956,35.7491],[-127.1706,50.0958,6.308],[-127.1689,50.0972,4.0298],[-127.1744,50.1003,4.9368],[-127.1644,50.1025,21.1621],[-127.14,50.1,0.0],[-127.1389,50.1011,11.8311],[-127.1411,50.1025,7.1041],[-127.1483,50.1031,10.8662],[-127.1528,50.1053,0.0],[-127.1494,50.1061,10.5226],[-127.1375,50.1041,6.4753],[-127.1289,50.1061,18.0917],[-127.1089,50.1169,0.0],[-127.1011,50.1228,0.0],[-127.0989,50.1283,6.8818],[-127.1033,50.1342,0.0],[-127.1022,50.1358,0.0],[-127.11,50.1397,59.8844],[-127.1106,50.1425,0.0],[-127.1083,50.1433,0.0],[-127.1044,50.1419,0.0],[-127.1022,50.1444,3.5648],[-127.095,50.1467,0.0],[-127.0906,50.1417,34.3461],[-127.0891,50.1367,13.9355],[-127.0903,50.1332,6.334],[-127.0867,50.1308,16.3361],[-127.0867,50.1231,4.7654],[-127.0922,50.1194,11.5684],[-127.0917,50.1122,0.0],[-127.0878,50.1103,0.0],[-127.0911,50.1075,2.0207],[-127.0917,50.1044,0.0],[-127.1028,50.1022,13.3764],[-127.105,50.1031,4.3394],[-127.1206,50.0986,7.7118],[-127.1239,50.0939,0.0],[-127.1322,50.0944,7.4624],[-127.1333,50.0903,7.5333],[-127.1378,50.0894,0.0],[-127.1411,50.0858,0.0],[-127.156,50.0785,0.0],[-127.1511,50.0769,0.0],[-127.15,50.0753,10.0155],[-127.1528,50.0747,0.0],[-127.1422,50.0681,0.0],[-127.1347,50.0696,30.9865],[-127.1094,50.0658,37.5627],[-127.1083,50.0628,0.0],[-127.12,50.0614,3.7888],[-127.1292,50.0639,0.0],[-127.1444,50.0639,0.0],[-127.1726,50.0598,41.383],[-127.175,50.0611,0.0],[-127.1522,50.0678,16.0426],[-127.1511,50.0694,44.6156],[-127.1633,50.0758,0.0],[-127.1706,50.0736,22.3541],[-127.175,50.075,2.758],[-127.1772,50.0703,15.2863],[-127.1822,50.0683,3.6704],[-127.185,50.065,8.7008],[-127.1828,50.0619,6.5567],[-127.1778,50.0603,0.0],[-127.1752,50.0573,68.3418],[-127.1739,50.053,11.7294],[-127.1758,50.0485,0.0],[-127.1717,50.046,9.1708],[-127.1706,50.0425,67.6333],[-127.1744,50.037,23.8145],[-127.1743,50.034,38.3005],[-127.1789,50.0353,23.265],[-127.1822,50.0342,3.9224],[-127.1872,50.0267,12.0262],[-127.1963,50.0226,19.4199],[-127.1906,50.0208,10.2971],[-127.1838,50.016,2.6376],[-127.1759,50.0177,14.5528],[-127.1748,50.0227,12.4494],[-127.1722,50.024,47.8972],[-127.1615,50.0239,29.2082],[-127.1461,50.0278,32.3549],[-127.1294,50.027,0.0],[-127.127,50.0257,7.448],[-127.1136,50.0264,0.0],[-127.1079,50.028,27.2467],[-127.1033,50.0274,16.3912],[-127.0861,50.0317,0.0],[-127.0822,50.0297,19.4168],[-127.0806,50.0258,20.7426],[-127.095,50.0253,22.4031],[-127.1039,50.0225,0.0],[-127.1056,50.0197,18.1675],[-127.1156,50.0178,18.1566],[-127.1256,50.0211,0.0],[-127.1389,50.0214,5.1541],[-127.1428,50.0236,32.943],[-127.15,50.0225,5.452],[-127.1528,50.0192,16.9594],[-127.1589,50.0164,0.0],[-127.1528,50.0114,11.6296],[-127.155,50.0081,16.5264],[-127.1517,50.0058,14.81],[-127.1539,50.0022,3.1624],[-127.1533,50.0,0.0],[-127.1481,49.9986,11.7063],[-127.1307,49.9987,0.0],[-127.1317,49.9963,35.9055],[-127.1492,49.9981,13.6082],[-127.1541,49.9973,0.0],[-127.1569,49.9989,0.0],[-127.166,49.9994,10.2195],[-127.1744,50.0028,9.5585],[-127.186,50.0016,14.2976],[-127.1895,49.9984,25.7287],[-127.2014,49.9947,12.7435],[-127.2046,49.9921,0.0],[-127.2103,49.9922,0.0],[-127.2116,49.9901,11.2825],[-127.2156,49.9886,0.0],[-127.2172,49.9847,15.9952],[-127.2194,49.985,5.3517],[-127.2225,49.9819,24.097],[-127.2231,49.9792,0.0],[-127.2317,49.9783,0.0],[-127.2333,49.9753,10.4964],[-127.2347,49.9769,1.6651],[-127.2364,49.9742,0.0],[-127.2356,49.9728,0.0],[-127.2419,49.9711,0.0],[-127.2425,49.9686,18.5307],[-127.2489,49.9675,8.6774],[-127.2492,49.9697,0.0],[-127.2517,49.9686,18.3185],[-127.2508,49.9708,0.0],[-127.2519,49.9711,0.0],[-127.2556,49.9658,27.2853],[-127.2567,49.9678,0.0],[-127.2593,49.9653,0.0],[-127.2581,49.9608,0.0],[-127.255,49.9592,0.0],[-127.2533,49.9617,0.0],[-127.2557,49.9633,5.6188],[-127.2549,49.9647,7.8663],[-127.2514,49.9597,0.0],[-127.2467,49.9642,17.7585],[-127.2444,49.9619,0.0],[-127.2431,49.9636,0.0],[-127.2378,49.9625,11.0258],[-127.2333,49.9603,3.5504],[-127.2311,49.9572,28.4924],[-127.2322,49.9544,0.1172],[-127.2344,49.9556,0.0],[-127.235,49.9542,0.0],[-127.2228,49.95,11.681],[-127.2228,49.9483,4.5802],[-127.2286,49.9469,0.0],[-127.2267,49.9447,1.7863],[-127.2297,49.9447,0.0],[-127.2275,49.9431,0.0],[-127.2281,49.9394,0.0],[-127.2244,49.9383,0.0],[-127.2267,49.9369,0.1887],[-127.225,49.9331,0.4021],[-127.2228,49.9339,10.4854],[-127.2194,49.9306,0.0],[-127.22,49.9275,0.4826],[-127.2167,49.9247,0.9591],[-127.2125,49.9233,0.0],[-127.2103,49.9244,8.9542],[-127.2075,49.9233,0.0],[-127.2058,49.9253,0.7486],[-127.2042,49.9244,9.4257],[-127.205,49.9231,0.0],[-127.1997,49.9197,3.5881],[-127.2011,49.9131,0.0],[-127.1972,49.9119,1.7921],[-127.1992,49.9086,0.0],[-127.1939,49.9089,21.328],[-127.1947,49.9075,0.0],[-127.1928,49.905,6.7979],[-127.1958,49.9047,0.3536],[-127.1953,49.9014,0.0],[-127.1917,49.9006,0.0],[-127.1908,49.9019,0.0],[-127.1889,49.8977,0.0],[-127.1869,49.9006,8.3549],[-127.1842,49.9003,0.0],[-127.1836,49.895,0.0],[-127.1772,49.8886,7.7262],[-127.1797,49.8878,0.0],[-127.1758,49.8864,0.0],[-127.1797,49.8836,0.0],[-127.1786,49.8808,0.0],[-127.1803,49.8792,0.0],[-127.1778,49.8775,0.0],[-127.1739,49.8786,0.0],[-127.1706,49.8775,2.783],[-127.1689,49.8744,18.726],[-127.1722,49.8731,0.0],[-127.1722,49.8717,0.0],[-127.1636,49.8658,0.0],[-127.16,49.8664,3.6292],[-127.1539,49.8594,0.0],[-127.1415,49.8576,16.2427],[-127.1396,49.8557,0.9949],[-127.1342,49.8569,0.0],[-127.1317,49.8606,7.3429],[-127.1273,49.8605,6.4741],[-127.1244,49.8578,0.0],[-127.1267,49.8575,0.0],[-127.1267,49.8562,0.0],[-127.1192,49.8533,0.0],[-127.1169,49.8556,0.0],[-127.1219,49.8567,18.6506],[-127.1172,49.8619,0.0],[-127.1115,49.8642,6.7639],[-127.0958,49.8656,17.5867],[-127.0894,49.8619,1.9589],[-127.0931,49.8592,0.0],[-127.0919,49.8578,0.0],[-127.0883,49.8597,0.0],[-127.0807,49.8582,0.0],[-127.0821,49.8611,18.4781],[-127.0769,49.8625,19.7384],[-127.0686,49.8592,23.4774],[-127.0672,49.8572,0.0],[-127.0511,49.855,1.4954],[-127.0444,49.8514,0.0],[-127.0354,49.853,10.9649],[-127.0303,49.8508,0.0],[-127.0278,49.8536,0.0],[-127.025,49.8525,0.0],[-127.0244,49.8547,10.0257],[-127.0161,49.8492,5.962],[-126.997,49.8519,0.0],[-126.9949,49.8549,17.9242],[-126.9997,49.8606,3.3832],[-126.9996,49.8627,6.1015],[-126.9958,49.8598,0.0],[-126.9922,49.8597,0.0],[-126.9911,49.8647,0.0],[-127.0114,49.8739,6.3804],[-127.0122,49.876,0.0],[-127.0194,49.8804,41.8737],[-127.0242,49.8917,21.0359],[-127.0239,49.8958,4.201],[-127.0306,49.9036,22.7748],[-127.0342,49.9097,11.1967],[-127.0339,49.9136,8.7022],[-127.0366,49.9152,11.448],[-127.0408,49.9219,29.3423],[-127.0425,49.9289,3.3879],[-127.0458,49.931399999999996,0.0],[-127.0472,49.9359,10.856],[-127.0498,49.9382,6.2974],[-127.0486,49.9401,0.0],[-127.0445,49.9408,0.0],[-127.0416,49.9383,9.9889],[-127.0417,49.935,0.0],[-127.0353,49.9253,8.3555],[-127.0256,49.9197,0.0],[-127.0233,49.9136,4.8963],[-127.0161,49.9086,9.3928],[-127.02,49.9044,5.1824],[-127.0156,49.8964,0.0],[-127.0145,49.889,0.0],[-127.0075,49.8833,0.0],[-127.0061,49.8811,7.8981],[-127.0082,49.8806,4.755],[-127.0047,49.876,0.0],[-127.0014,49.8786,0.0],[-127.0042,49.8811,4.9438],[-127.0031,49.8817,4.9438],[-126.9942,49.8754,0.0],[-126.9918,49.8759,36.0357],[-126.9886,49.8739,13.3881],[-126.9854,49.8762,0.0],[-126.9859,49.8799,0.0],[-126.9817,49.884,10.1191],[-126.98,49.8794,51.8329],[-126.981,49.8729,0.0],[-126.9796,49.8725,0.0],[-126.9795,49.8774,37.3659],[-126.9739,49.8773,178.749],[-126.9728,49.8696,48.9986],[-126.9758,49.8694,15.1984],[-126.9802,49.8647,13.9938],[-126.9775,49.8594,0.0],[-126.9705,49.8583,0.0],[-126.9697,49.8603,0.0],[-126.9639,49.8556,3.2399],[-126.958,49.855,0.0],[-126.9472,49.8597,6.9816],[-126.9411,49.8599,0.0],[-126.9306,49.8716,0.0],[-126.9329,49.8738,0.0],[-126.9414,49.8747,10.0782],[-126.9381,49.8767,0.0],[-126.9396,49.8795,0.0],[-126.9356,49.883,0.0],[-126.9352,49.8911,6.64],[-126.9369,49.8936,0.0],[-126.9359,49.8984,0.0],[-126.9399,49.9014,0.0],[-126.9377,49.9086,0.0],[-126.9394,49.9125,5.9285],[-126.9352,49.9164,0.0],[-126.9402,49.9217,0.0],[-126.9411,49.9275,0.0],[-126.9347,49.9345,0.0],[-126.9361,49.9375,0.0],[-126.935,49.9392,5.171],[-126.9375,49.9439,2.0097],[-126.9364,49.9494,0.0],[-126.9413,49.9545,46.8673],[-126.9425,49.9583,23.8308],[-126.9415,49.9635,18.1118],[-126.9436,49.9668,6.1001],[-126.9434,49.9695,0.0],[-126.9378,49.9725,0.0],[-126.943,49.9744,0.0],[-126.9425,49.9769,0.0],[-126.945,49.985,0.0],[-126.9419,49.9869,0.0],[-126.938,49.9867,2.0827],[-126.9291,49.9814,4.2117],[-126.9273,49.9757,4.0932],[-126.923,49.9733,3.8725],[-126.9247,49.972,51.8903],[-126.9302,49.9721,0.0],[-126.9309,49.9706,0.0],[-126.9311,49.9664,7.3631],[-126.9286,49.9592,35.1771],[-126.9303,49.9544,6.4201],[-126.925,49.9439,0.0],[-126.9214,49.9411,2.4618],[-126.9167,49.9406,23.7795],[-126.9169,49.9392,0.0],[-126.9189,49.9389,0.0],[-126.9192,49.9361,0.0],[-126.9161,49.9317,0.0],[-126.9119,49.9311,0.0],[-126.9108,49.9331,9.698],[-126.9114,49.9433,0.0],[-126.9133,49.9481,0.0],[-126.9122,49.9569,0.0],[-126.9078,49.9577,0.0],[-126.9056,49.9561,74.6234],[-126.9058,49.9472,43.9343],[-126.908,49.9389,6.4771],[-126.906,49.9337,52.7392],[-126.9067,49.931399999999996,0.0],[-126.9117,49.9297,0.0],[-126.9139,49.925,20.9634],[-126.9164,49.9256,0.0],[-126.9186,49.9239,0.0],[-126.9189,49.9139,0.0],[-126.9214,49.9114,14.8445],[-126.9236,49.905,30.3652],[-126.9158,49.8925,9.6139],[-126.9175,49.8889,0.0],[-126.915,49.8847,0.0],[-126.9164,49.8814,0.0],[-126.9156,49.8739,0.0],[-126.9139,49.8733,0.0],[-126.9142,49.8714,0.0],[-126.9106,49.8672,0.0],[-126.9069,49.8683,0.0],[-126.8978,49.8672,0.0],[-126.8927,49.8708,39.9891],[-126.8822,49.8704,0.0],[-126.8789,49.8684,0.0],[-126.8736,49.8733,0.0],[-126.8652,49.8711,11.5128],[-126.8566,49.8719,0.0],[-126.8544,49.8742,0.0],[-126.8353,49.8792,0.0],[-126.8311,49.8822,30.5646],[-126.8255,49.8808,9.0573],[-126.815,49.8881,0.0],[-126.8183,49.8925,0.0],[-126.81,49.8969,7.4351],[-126.8002,49.9067,0.0],[-126.8022,49.9103,7.5086],[-126.8019,49.9144,0.0],[-126.8116,49.9269,20.9629],[-126.8177,49.9461,0.0],[-126.8523,49.9516,7.3024],[-126.8603,49.9567,0.0],[-126.8591,49.9587,0.0],[-126.8599,49.965,0.0],[-126.8561,49.9689,0.0],[-126.8573,49.9735,15.7249],[-126.8555,49.9765,0.0],[-126.8594,49.9819,0.0],[-126.8554,49.985,1.9835],[-126.8656,49.9851,213.8387],[-126.8654,49.9919,205.4887],[-126.8421,49.9918,311.161],[-126.8408,49.974,156.4826],[-126.8426,49.9741,43.7825],[-126.8431,49.9694,124.0298],[-126.8447,49.9686,0.0],[-126.8475,49.9617,0.0],[-126.8466,49.9594,0.0],[-126.8191,49.9544,16.5004],[-126.8152,49.9522,0.0],[-126.8069,49.9519,0.0],[-126.7992,49.9428,19.596],[-126.8008,49.9406,13.6472],[-126.8,49.9381,6.8453],[-126.7908,49.9289,111.4601],[-126.7906,49.9239,38.2885],[-126.7883,49.9222,84.3666],[-126.7881,49.9178,2.1282],[-126.7858,49.9155,5.4317],[-126.7872,49.9142,0.0],[-126.7814,49.9083,49.966],[-126.7808,49.8992,7.5267],[-126.76,49.8817,22.4319],[-126.7558,49.875,5.061],[-126.7349,49.8684,8.1406],[-126.7133,49.873,1.0391],[-126.7109,49.8718,0.0],[-126.708,49.8652,5.7199],[-126.7033,49.8628,1.1263],[-126.6928,49.8637,0.0],[-126.6852,49.8625,4.1968],[-126.6784,49.8644,19.6237],[-126.6741,49.8636,13.935],[-126.6757,49.8601,0.0],[-126.6719,49.8594,17.2356],[-126.67,49.8664,36.6429],[-126.6703,49.8697,13.7611],[-126.6729,49.873,4.8662],[-126.67,49.8772,45.4369],[-126.6694,49.8831,0.0],[-126.6669,49.8878,0.0],[-126.6669,49.8889,0.0],[-126.6726,49.889,196.8406],[-126.6727,49.9107,157.9551],[-126.6697,49.9105,138.1569],[-126.6696,49.9162,204.482],[-126.6675,49.9161,132.368],[-126.6672,49.9276,199.5402],[-126.6614,49.9273,162.1674],[-126.6602,49.9465,112.3082],[-126.6485,49.9463,205.9399],[-126.6489,49.9389,195.2553],[-126.6378,49.9385,260.9991],[-126.6382,49.9316,524.8184],[-126.6493,49.9319,33.5378],[-126.6488,49.9176,64.3228],[-126.6512,49.9176,13.6013],[-126.6509,49.9158,26.7163],[-126.645,49.9134,28.1411],[-126.6448,49.9175,79.0142],[-126.6278,49.9172,40.5573],[-126.6281,49.9102,159.713],[-126.6425,49.9101,64.7266],[-126.6439,49.9055,9.3334],[-126.6497,49.9,10.9223],[-126.6511,49.8914,0.0],[-126.6503,49.8794,60.142],[-126.6535,49.8744,0.0],[-126.6519,49.8728,44.6086],[-126.6536,49.8694,0.0],[-126.6508,49.8633,73.534],[-126.6512,49.8576,17.3577],[-126.655,49.8547,10.4575],[-126.6525,49.85,65.4722],[-126.6531,49.8342,0.0],[-126.6519,49.8314,47.5434],[-126.6533,49.8297,0.0],[-126.6514,49.8267,38.7506],[-126.6528,49.8125,22.2522],[-126.6478,49.8031,4.8111],[-126.6442,49.7997,4.6095],[-126.6411,49.7842,5.2882],[-126.6392,49.7819,9.5823],[-126.6406,49.7769,3.4341],[-126.6331,49.7714,23.5042],[-126.6333,49.7692,31.4475],[-126.6278,49.7628,20.8481],[-126.6264,49.7483,0.0],[-126.6223,49.7397,12.8527],[-126.6231,49.7366,12.3597],[-126.6183,49.7333,6.4278],[-126.6192,49.7308,2.5747],[-126.6139,49.725,37.9959],[-126.6139,49.7206,23.2991],[-126.6064,49.715,9.6917],[-126.6022,49.7097,0.0],[-126.6024,49.7077,0.0],[-126.5953,49.7025,33.5806],[-126.5936,49.6983,0.0],[-126.5864,49.6942,30.6086],[-126.5677,49.6961,7.8941],[-126.5659,49.6939,-0.066],[-126.5513,49.6937,0.0],[-126.5483,49.6972,66.7929],[-126.5403,49.701,21.4409],[-126.5319,49.7022,25.5895],[-126.5291,49.7044,0.0],[-126.5287,49.7072,32.6584],[-126.5227,49.708,3.291],[-126.5125,49.7058,13.0805],[-126.5082,49.7092,0.0],[-126.5096,49.7123,11.8736],[-126.5025,49.7098,0.0],[-126.4969,49.7114,19.4272],[-126.4953,49.7158,66.4627],[-126.4914,49.72,0.0],[-126.5122,49.7333,51.6467],[-126.5156,49.7372,3.6988],[-126.5207,49.7392,0.0],[-126.5197,49.7428,1.5486],[-126.5217,49.7457,13.9355],[-126.5191,49.7477,0.0],[-126.5202,49.7522,4.6229],[-126.5189,49.7533,0.0],[-126.5117,49.7525,0.0],[-126.5158,49.7472,0.0],[-126.5156,49.745,0.0],[-126.5061,49.7369,0.0],[-126.5002,49.7358,24.4914],[-126.4927,49.7314,6.6328],[-126.4907,49.732,3.098],[-126.4899,49.7354,0.0],[-126.4837,49.7362,35.0167],[-126.4836,49.734,36.1488],[-126.4874,49.7319,0.0],[-126.4837,49.731,75.2555],[-126.4891,49.7295,4.3775],[-126.4884,49.7272,39.2311],[-126.4801,49.7286,0.0],[-126.4753,49.7275,23.106],[-126.4697,49.73,4.0904],[-126.4686,49.7353,45.3318],[-126.4617,49.7417,65.6811],[-126.4606,49.7447,41.312],[-126.4567,49.7469,0.0],[-126.4564,49.7492,9.9017],[-126.4625,49.7569,60.8149],[-126.4744,49.7633,30.5479],[-126.4786,49.7703,37.0],[-126.4769,49.7742,53.2171],[-126.4866,49.7869,36.7375],[-126.493,49.7903,18.6218],[-126.4908,49.7903,0.0],[-126.4894,49.7928,0.0],[-126.4964,49.7989,0.0],[-126.4969,49.8017,15.3052],[-126.4886,49.8008,26.6549],[-126.4823,49.7977,11.6167],[-126.4769,49.7925,0.0],[-126.469,49.7919,0.0],[-126.4626,49.788,0.0],[-126.4521,49.7895,16.8611],[-126.4447,49.7925,12.5617],[-126.4408,49.7903,0.6695],[-126.4405,49.7883,18.8175],[-126.4533,49.7814,21.444],[-126.4583,49.7761,29.8245],[-126.4586,49.7722,125.6202],[-126.4619,49.7689,0.0],[-126.4558,49.7625,32.311],[-126.4519,49.7614,0.0],[-126.4414,49.7645,31.9922],[-126.4283,49.7653,0.0],[-126.4197,49.7692,73.4494],[-126.4058,49.7722,37.5418],[-126.4022,49.7681,0.0],[-126.4022,49.7653,0.0],[-126.395,49.7603,3.9602],[-126.3944,49.7572,0.0],[-126.3978,49.755,20.3138],[-126.4061,49.7569,17.0373],[-126.4128,49.7606,0.0],[-126.4178,49.7596,2.5937],[-126.4203,49.7552,38.8109],[-126.4356,49.7581,0.0],[-126.4394,49.7502,36.8508],[-126.4431,49.7478,9.7279],[-126.4444,49.7417,12.9399],[-126.4556,49.7361,0.0],[-126.4525,49.7297,0.0],[-126.4564,49.7239,1.9236],[-126.4664,49.7189,8.3605],[-126.4697,49.7083,4.2486],[-126.4653,49.7053,0.0],[-126.4687,49.7043,24.6331],[-126.4772,49.7125,0.0],[-126.4823,49.7107,0.0],[-126.4897,49.7025,15.8717],[-126.4889,49.7006,3.6632],[-126.4919,49.6975,28.6447],[-126.4914,49.6936,6.8014],[-126.4961,49.6919,42.5148],[-126.4992,49.6864,3.4855],[-126.4862,49.6817,0.0],[-126.4777,49.6805,25.7939],[-126.4738,49.6764,15.8536],[-126.4681,49.6739,0.0],[-126.47,49.67,0.0],[-126.4689,49.6684,0.0],[-126.4653,49.6672,33.4077],[-126.4606,49.6628,0.0],[-126.4506,49.6603,12.9762],[-126.4451,49.655,14.9825],[-126.4401,49.6528,5.2736],[-126.4296,49.6579,7.2117],[-126.4282,49.6609,141.8926],[-126.4251,49.6618,92.813],[-126.4225,49.6606,24.5288],[-126.409,49.6631,10.3626],[-126.3955,49.6628,39.9073],[-126.3925,49.6614,0.0],[-126.3825,49.6644,37.4596],[-126.3742,49.6647,1.6494],[-126.3719,49.6608,0.0],[-126.3791,49.6578,21.1925],[-126.3771,49.6538,16.7774],[-126.3697,49.6514,0.0],[-126.3569,49.6503,0.0],[-126.353,49.6467,0.0],[-126.3471,49.6444,9.2851],[-126.332,49.6483,6.9609],[-126.3125,49.6473,28.6675],[-126.2786,49.6511,26.7741],[-126.2655,49.6503,0.0],[-126.2358,49.6587,0.0],[-126.2294,49.6644,13.51],[-126.2227,49.6666,0.0],[-126.1977,49.6697,0.0],[-126.1933,49.6717,0.0],[-126.1819,49.6701,0.0],[-126.1799,49.6739,35.6479],[-126.1744,49.6737,0.0],[-126.1621,49.677,0.0],[-126.1553,49.6758,16.9186],[-126.1476,49.6774,44.2097],[-126.1355,49.6767,10.5702],[-126.1385,49.6772,120.6545],[-126.1382,49.6863,694.9553],[-126.1269,49.6861,145.2429],[-126.1263,49.6942,511.6607],[-126.1188,49.6942,35.1989],[-126.1025,49.7085,44.6622],[-126.0585,49.7712,107.3926],[-126.0597,49.772,107.3926],[-126.0612,49.7844,78.7639],[-126.0599,49.7882,125.4383],[-126.0577,49.788,138.0292],[-126.0575,49.7934,179.995],[-126.0519,49.7935,190.2354],[-126.0515,49.7953,195.2621],[-126.0492,49.7933,181.0],[-126.0424,49.7932,236.5835],[-126.0425,49.7673,120.7479],[-126.0533,49.7671,60.678],[-126.0539,49.766,74.0293],[-126.0485,49.7593,76.2505],[-126.0521,49.7557,61.2055],[-126.0697,49.7531,111.3774],[-126.1013,49.7087,65.7245],[-126.103,49.6933,425.1383],[-126.1029,49.6838,317.5655],[-126.0969,49.6836,594.6074],[-126.0976,49.673,61.8969],[-126.0987,49.673,61.8969],[-126.0943,49.6639,11.9414],[-126.0846,49.6582,27.6304],[-126.0873,49.652,0.0],[-126.0847,49.6487,65.4335],[-126.0865,49.6455,26.9165],[-126.0748,49.635,2.2201],[-126.0634,49.633,24.0351],[-126.0565,49.6297,0.0],[-126.0484,49.6218,0.0],[-126.0499,49.6183,5.2755],[-126.0478,49.6142,2.0409],[-126.0489,49.6108,0.0],[-126.0558,49.6134,7.712],[-126.0618,49.6207,0.0],[-126.0706,49.6278,14.392],[-126.0758,49.6286,221.8028],[-126.0899,49.6354,58.4144],[-126.0975,49.6467,36.584],[-126.0961,49.6522,0.0],[-126.097,49.6563,0.0],[-126.1044,49.6586,42.043],[-126.1108,49.6572,0.0],[-126.1209,49.6591,0.0],[-126.1333,49.6567,102.5531],[-126.1469,49.6581,0.0],[-126.1567,49.6508,1.127],[-126.1659,49.6494,0.0],[-126.1786,49.6567,25.7634],[-126.19,49.6578,0.0],[-126.2005,49.6542,9.0973],[-126.2066,49.6531,75.6258],[-126.2125,49.6541,0.0],[-126.2222,49.652,49.7522],[-126.2275,49.6462,12.8086],[-126.2345,49.6442,5.2851],[-126.2425,49.6452,39.4934],[-126.2589,49.6417,74.8133],[-126.2737,49.6429,16.4062],[-126.2825,49.6381,24.5695],[-126.325,49.6369,82.0088],[-126.338,49.6381,9.8327],[-126.3422,49.6361,37.1391],[-126.3535,49.6355,0.0],[-126.3465,49.6303,78.2414],[-126.3482,49.6302,78.2414],[-126.3633,49.6328,0.0],[-126.3705,49.6294,5.4394],[-126.3763,49.6298,19.4873],[-126.3843,49.6347,15.5688],[-126.3937,49.6375,0.0],[-126.4125,49.6394,0.0],[-126.4277,49.6383,16.2699],[-126.4309,49.6353,19.5334],[-126.4382,49.6372,0.0],[-126.4423,49.6354,9.0079],[-126.4448,49.6362,6.0158],[-126.4422,49.6336,16.1327],[-126.4452,49.6303,8.0298],[-126.454,49.629,5.0178],[-126.4589,49.6357,0.0],[-126.4618,49.6437,71.5092],[-126.4681,49.6462,9.71],[-126.4743,49.6459,0.0],[-126.4786,49.6437,0.0],[-126.4811,49.6392,0.0],[-126.48,49.6303,14.5723],[-126.4855,49.6272,2.9859],[-126.4837,49.6237,30.7673],[-126.4919,49.6203,19.4577],[-126.4936,49.6136,32.0063],[-126.5002,49.6053,72.8112],[-126.5067,49.6056,0.0],[-126.51,49.6017,19.4163],[-126.5092,49.5992,23.8995],[-126.5158,49.5958,0.0],[-126.5216,49.5953,8.889],[-126.527,49.5906,3.169],[-126.543,49.5902,28.5558],[-126.556,49.5869,36.5021],[-126.5589,49.5823,0.0],[-126.5544,49.58,10.2179],[-126.5558,49.5778,30.8115],[-126.5644,49.5808,0.0],[-126.5702,49.5775,2.5502],[-126.5697,49.5753,0.0],[-126.565,49.5763,2.2048],[-126.5644,49.5739,27.7305],[-126.5683,49.5719,0.9718],[-126.5641,49.5706,23.2413],[-126.5642,49.5675,7.9798],[-126.5608,49.5667,11.9358],[-126.5616,49.565,24.3768],[-126.5655,49.5658,0.0],[-126.5675,49.5644,0.0],[-126.5625,49.5628,27.8893],[-126.5647,49.5622,0.0],[-126.5645,49.5598,30.4952],[-126.5669,49.5586,0.0],[-126.5647,49.556399999999996,0.0],[-126.5661,49.5514,0.0],[-126.5636,49.5475,8.4809],[-126.5655,49.545,0.0],[-126.5615,49.5438,28.52],[-126.561,49.5407,0.6853],[-126.51,49.5416,223.7963],[-126.5057,49.5483,595.0046],[-126.4893,49.5599,789.0404],[-126.4775,49.5715,836.8557],[-126.4618,49.5783,983.7816],[-126.4463,49.5774,829.2181],[-126.4377,49.5792,820.5578],[-126.4303,49.5761,461.7227],[-126.4234,49.5759,603.3859],[-126.4072,49.5712,944.8623],[-126.4018,49.5627,859.711],[-126.3863,49.5618,901.7064],[-126.3833,49.5633,809.1262],[-126.38,49.5704,749.3508],[-126.3744,49.5722,829.4048],[-126.3668,49.5704,921.1077],[-126.366,49.5717,962.4149],[-126.3682,49.5772,764.3495],[-126.3574,49.5792,733.7372],[-126.355,49.591,953.1774],[-126.3576,49.5963,1010.1584],[-126.3495,49.5998,900.3116],[-126.3394,49.5984,899.3743],[-126.3379,49.5991,863.8231],[-126.3375,49.6069,858.8589],[-126.3337,49.6071,743.9869],[-126.321,49.6052,838.0754],[-126.3114,49.5931,858.5868],[-126.3033,49.5903,714.8139],[-126.2864,49.5795,937.0493],[-126.2855,49.5771,984.0827],[-126.2865,49.5751,1088.8156],[-126.2837,49.5726,1044.8824],[-126.2788,49.5729,973.8287],[-126.2728,49.57,1029.4563],[-126.267,49.5738,812.2698],[-126.2628,49.5745,795.9983],[-126.2595,49.5726,746.8334],[-126.2576,49.5694,610.259],[-126.2575,49.562,507.5428],[-126.2515,49.5559,445.9071],[-126.2462,49.5546,549.8097],[-126.2371,49.5558,794.397],[-126.2236,49.5606,862.4305],[-126.2177,49.5549,548.4522],[-126.2131,49.5529,568.7176],[-126.2092,49.5521,590.8175],[-126.2029,49.5556,781.4257],[-126.194,49.5565,991.0548],[-126.1891,49.5554,979.6786],[-126.1847,49.5506,1020.7252],[-126.1821,49.551,1002.0267],[-126.1767,49.5558,643.7203],[-126.1765,49.5648,740.7392],[-126.1811,49.5687,882.4029],[-126.1657,49.5728,1007.6005],[-126.1592,49.573,817.8612],[-126.1487,49.5794,822.6127],[-126.1469,49.5779,821.9625],[-126.1478,49.5731,685.6277],[-126.142,49.5708,661.8406],[-126.1335,49.5699,691.5106],[-126.1245,49.5661,467.5553],[-126.118,49.5664,474.5862],[-126.1138,49.5711,658.7465],[-126.1078,49.5702,560.9204],[-126.1016,49.5722,735.8536],[-126.0962,49.5698,813.3752],[-126.0842,49.5578,1341.6165],[-126.066,49.5519,1279.7095],[-126.0482,49.5596,1014.1193],[-126.0473,49.5658,1216.6338],[-126.0453,49.5684,1328.1788],[-126.0396,49.5686,1296.3065],[-126.0328,49.5719,1161.7825],[-126.0294,49.577,1290.7954],[-126.0173,49.5744,1285.1569],[-126.0133,49.5708,1361.7976],[-126.0039,49.5716,1213.5461],[-126.0008,49.5731,1233.6051],[-126.0004,49.5812,1242.802],[-125.9963,49.5831,1198.4242],[-125.9886,49.578,795.6389],[-125.9781,49.5807,726.003],[-125.9712,49.5854,814.5484],[-125.9687,49.5851,780.5614],[-125.9663,49.5825,686.953],[-125.9595,49.5836,685.4467],[-125.9556,49.5817,624.1393],[-125.9508,49.5743,1055.4425],[-125.9447,49.5695,1112.3252],[-125.8991,49.5581,1314.595],[-125.8945,49.5549,1537.4358],[-125.8898,49.5474,1277.6434],[-125.8855,49.5451,963.8743],[-125.8374,49.5446,1304.848],[-125.8085,49.5397,1159.0566],[-125.7904,49.5412,1381.1249],[-125.7856,49.5402,1411.5461],[-125.7709,49.5269,1419.819],[-125.7694,49.5226,1413.3588],[-125.7702,49.5198,1383.3154],[-125.7671,49.5161,1436.9657]],
[[-126.9426,49.9883,0.0],[-126.9436,49.9909,54.419],[-126.938,49.9909,109.2894],[-126.9379,49.9873,48.4474],[-126.9426,49.9883,0.0]],
[[-126.0783,49.8103,184.6982],[-126.0807,49.815,187.9097],[-126.0882,49.8206,260.6885],[-126.0805,49.8262,151.4912],[-126.0795,49.8284,184.8888],[-126.0746,49.8257,168.4984],[-126.0689,49.8197,180.8463],[-126.0659,49.8129,167.9986],[-126.0692,49.8039,114.7446],[-126.0685,49.801,108.4672],[-126.0756,49.8022,158.7499],[-126.0783,49.8103,184.6982]]],
[[[-127.2755,49.9351,0.0],[-127.2721,49.9345,0.0],[-127.2698,49.9351,0.0],[-127.2774,49.9372,0.0],[-127.2755,49.9351,0.0]]],
[[[-127.2634,49.9414,0.1166],[-127.2615,49.9401,0.0],[-127.2627,49.9417,0.1166],[-127.2611,49.9428,0.0],[-127.263,49.9448,0.4448],[-127.2653,49.9426,0.0],[-127.2634,49.9414,0.1166]]],
[[[-127.2342,49.9497,0.0],[-127.2386,49.9503,0.0],[-127.2319,49.9469,0.0],[-127.2317,49.9486,0.0],[-127.2342,49.9497,0.0]]],
[[[-127.2606,49.9488,0.1606],[-127.2617,49.95,0.1606],[-127.2631,49.95,0.0],[-127.2619,49.9477,0.2094],[-127.2606,49.9488,0.1606]]],
[[[-127.1947,50.0128,9.9984],[-127.1983,50.0167,0.0],[-127.205,50.0181,12.0537],[-127.2136,50.0162,0.0],[-127.2147,50.0135,2.5867],[-127.2117,50.0086,0.0],[-127.2056,50.0056,5.3688],[-127.2,50.0081,0.0],[-127.184,50.01,5.1664],[-127.1917,50.0133,12.4754],[-127.1947,50.0128,9.9984]]],
[[[-127.2156,50.0319,12.1268],[-127.2178,50.0306,12.1268],[-127.2122,50.0297,0.0],[-127.2133,50.0317,16.0062],[-127.2156,50.0319,12.1268]]],
[[[-127.1889,50.0525,3.5985],[-127.1906,50.0528,39.1811],[-127.1906,50.055,34.421],[-127.1933,50.0558,30.5527],[-127.1939,50.0586,24.0105],[-127.1994,50.0608,4.1013],[-127.2044,50.0606,6.6135],[-127.2117,50.055,33.5232],[-127.2117,50.0536,54.5107],[-127.2228,50.0544,16.6859],[-127.2261,50.0519,69.7831],[-127.2333,50.0511,73.8742],[-127.2356,50.0464,26.0196],[-127.24,50.0436,42.2077],[-127.2417,50.0386,0.0],[-127.2294,50.0358,69.6797],[-127.225,50.0333,0.0],[-127.2161,50.0322,20.2887],[-127.2133,50.0333,6.4774],[-127.215,50.0361,81.091],[-127.2078,50.0358,2.9579],[-127.2006,50.0408,62.6331],[-127.1878,50.0383,0.0],[-127.185,50.0408,0.0],[-127.1922,50.0417,41.717],[-127.1883,50.0433,4.6099],[-127.1983,50.0469,27.767],[-127.1983,50.0491,0.0],[-127.2011,50.0522,0.0],[-127.2072,50.0531,15.9284],[-127.2056,50.0544,19.0005],[-127.2006,50.0539,26.5638],[-127.1989,50.0508,8.1824],[-127.1956,50.05,0.0],[-127.1894,50.0506,4.5163],[-127.1889,50.0525,3.5985]]],
[[[-127.1922,50.0497,0.0],[-127.1939,50.0475,0.0],[-127.1911,50.0453,30.5773],[-127.1861,50.0458,5.9209],[-127.1861,50.0475,10.5779],[-127.1894,50.0503,11.6676],[-127.1922,50.0497,0.0]]],
[[[-127.1611,50.0783,4.6323],[-127.1622,50.0772,0.0],[-127.1561,50.075,0.0],[-127.1561,50.0767,0.0],[-127.1611,50.0783,4.6323]]],
[[[-127.1929,50.0795,44.6322],[-127.1902,50.0798,31.5063],[-127.1935,50.083,18.9517],[-127.223,50.0886,20.7022],[-127.2389,50.0868,9.1747],[-127.2435,50.0794,98.5591],[-127.2433,50.0762,82.7743],[-127.2381,50.0739,35.7071],[-127.236,50.0668,0.0],[-127.2304,50.0696,14.4773],[-127.22,50.0688,14.0624],[-127.2145,50.072,2.612],[-127.209,50.0796,39.2275],[-127.1929,50.0795,44.6322]]],
[[[-127.3195,49.9601,0.8819],[-127.3175,49.9581,0.0],[-127.3155,49.9598,0.0],[-127.3174,49.9615,0.0],[-127.3195,49.9601,0.8819]]],
[[[-127.3008,49.9594,0.0],[-127.2986,49.9606,0.0],[-127.3033,49.9603,0.0],[-127.3031,49.9589,0.0],[-127.3008,49.9594,0.0]]],
[[[-127.3042,49.9647,0.0],[-127.3058,49.9631,0.0],[-127.3033,49.9614,0.0],[-127.3011,49.9633,0.0],[-127.3042,49.9647,0.0]]],
[[[-127.3258,49.9642,0.7791],[-127.3242,49.9611,0.0],[-127.3214,49.9614,0.0],[-127.3239,49.9658,0.0],[-127.3258,49.9642,0.7791]]],
[[[-127.3369,49.9547,0.0],[-127.3385,49.9571,0.0],[-127.3402,49.957,0.8205],[-127.3399,49.956,0.8205],[-127.3369,49.9547,0.0]]],
[[[-127.3316,49.9628,0.0],[-127.3275,49.9656,0.0],[-127.3281,49.9675,0.0],[-127.3333,49.9636,0.0],[-127.3316,49.9628,0.0]]],
[[[-127.3442,49.9606,0.0],[-127.3411,49.9683,0.0],[-127.3439,49.9706,0.0],[-127.3506,49.9636,1.0434],[-127.3492,49.9625,1.0434],[-127.3467,49.965,0.3191],[-127.3458,49.9614,0.0],[-127.3442,49.9606,0.0]]],
[[[-127.3486,49.9719,0.0],[-127.3464,49.9703,0.0],[-127.345,49.9722,0.7321],[-127.3453,49.9728,0.7321],[-127.3486,49.9719,0.0]]],
[[[-127.3197,49.9731,0.0],[-127.3183,49.975,0.0],[-127.3206,49.9758,0.0],[-127.3219,49.9731,0.0],[-127.3197,49.9731,0.0]]],
[[[-127.3253,49.9739,0.488],[-127.3253,49.9722,0.2716],[-127.3239,49.9728,0.2716],[-127.3222,49.9758,0.0],[-127.3244,49.9756,0.0],[-127.3253,49.9739,0.488]]],
[[[-127.3178,49.9769,0.0],[-127.3159,49.9763,0.0],[-127.3153,49.9769,0.0],[-127.3192,49.9779,0.0],[-127.3178,49.9769,0.0]]],
[[[-127.2914,49.9825,4.4968],[-127.2914,49.9847,2.1825],[-127.2939,49.985,0.0],[-127.2964,49.9811,0.0],[-127.2947,49.9797,0.0934],[-127.2956,49.9775,0.0],[-127.2917,49.9772,0.0],[-127.2911,49.9753,0.0],[-127.2903,49.9763,0.0],[-127.2928,49.9808,0.0],[-127.2914,49.9825,4.4968]]],
[[[-127.3489,49.9764,0.0],[-127.3472,49.9775,0.0],[-127.35,49.9783,0.0],[-127.3519,49.9769,0.0],[-127.3514,49.9761,0.0],[-127.3489,49.9764,0.0]]],
[[[-127.3825,49.9931,0.0],[-127.3872,49.9947,0.0],[-127.3894,49.9936,1.7861],[-127.3894,49.9917,0.0],[-127.3842,49.9906,0.0],[-127.3825,49.9931,0.0]]],
[[[-127.3971,49.9948,0.0],[-127.3965,49.9966,0.0],[-127.3992,49.9975,0.0],[-127.4015,49.9936,0.0],[-127.3997,49.9919,0.0],[-127.3971,49.9948,0.0]]],
[[[-127.3778,49.9947,0.0],[-127.3756,49.9961,0.0],[-127.3781,49.9998,0.432],[-127.3794,49.9989,0.432],[-127.3775,49.9964,0.0],[-127.3796,49.9953,0.0],[-127.3778,49.9947,0.0]]],
[[[-127.3689,49.9964,0.0],[-127.3674,49.9975,0.0],[-127.3707,49.9979,0.0],[-127.371,49.9972,0.0],[-127.3689,49.9964,0.0]]],
[[[-127.3811,49.9969,0.0],[-127.3817,49.9994,0.1232],[-127.3856,49.9981,0.3417],[-127.3844,49.9964,0.0],[-127.3811,49.9969,0.0]]],
[[[-127.405,50.0017,0.0],[-127.4082,50.0013,0.0],[-127.4062,49.9978,0.0],[-127.4044,50.0,0.0],[-127.405,50.0017,0.0]]],
[[[-127.405,50.005,0.392],[-127.4113,50.0062,1.1286],[-127.4126,50.0046,4.8256],[-127.4166,50.0048,17.4157],[-127.4177,50.0055,0.0],[-127.415,50.0103,0.0],[-127.4188,50.0119,19.497],[-127.4259,50.0086,6.0749],[-127.4294,50.0044,0.0],[-127.4228,50.0,11.7077],[-127.4239,49.9978,4.4089],[-127.4225,49.9956,1.9678],[-127.4253,49.9958,0.0],[-127.4258,49.9942,0.0],[-127.4206,49.9894,0.0],[-127.4181,49.9894,0.0],[-127.4161,49.9917,0.0],[-127.42,49.9947,1.5991],[-127.4167,49.9989,14.5614],[-127.4146,49.9996,0.6461],[-127.4092,49.9975,0.0],[-127.4086,49.9989,0.3626],[-127.4117,50.0,7.4499],[-127.4089,50.0033,10.8765],[-127.4044,50.0029,0.0],[-127.4034,50.0038,0.0],[-127.405,50.005,0.392]]],
[[[-127.2667,50.0389,0.0],[-127.2739,50.0408,0.0],[-127.2806,50.0375,5.2104],[-127.2844,50.0394,1.7603],[-127.2906,50.0397,12.4133],[-127.2972,50.0381,0.0],[-127.2994,50.0344,9.5485],[-127.3028,50.0328,8.3032],[-127.3117,50.0311,0.0],[-127.3156,50.0272,5.4778],[-127.3128,50.0244,29.9434],[-127.3167,50.0197,0.0],[-127.3139,50.015,0.0],[-127.3167,50.0122,0.0],[-127.3147,50.0094,11.5379],[-127.3217,50.0092,0.0],[-127.33,50.0122,0.0],[-127.3183,50.0019,0.0],[-127.32,50.0003,0.0],[-127.3239,50.0,0.0],[-127.3219,49.9983,0.0],[-127.3194,49.9997,10.4088],[-127.3156,49.9953,0.0],[-127.3114,49.9942,2.1349],[-127.3072,49.9869,0.5735],[-127.3031,49.9853,0.0],[-127.3014,49.9869,7.5659],[-127.3019,49.9906,7.3015],[-127.2989,49.9911,0.0],[-127.30029999999999,49.9928,0.0],[-127.295,49.9953,4.3829],[-127.2942,49.9908,0.0],[-127.2906,49.9894,17.8991],[-127.2897,49.9833,0.0],[-127.2878,49.9836,0.0],[-127.2889,49.9806,0.0],[-127.2849,49.9821,0.0],[-127.2851,49.9795,2.8497],[-127.2883,49.9775,0.0],[-127.2878,49.9756,0.0],[-127.2853,49.9728,0.0],[-127.2794,49.9722,8.2045],[-127.2717,49.9761,0.0],[-127.2686,49.9803,1.0201],[-127.2689,49.9822,14.5218],[-127.2639,49.9825,0.0],[-127.2656,49.9853,0.0],[-127.2622,49.985,0.0],[-127.2608,49.9878,3.5283],[-127.2581,49.9853,0.0],[-127.2558,49.9883,0.0],[-127.2572,49.9942,11.5874],[-127.2542,49.9944,0.0],[-127.2506,49.9978,5.1804],[-127.2522,50.0,21.2294],[-127.2444,50.0039,3.9757],[-127.2432,50.0059,24.5684],[-127.2383,50.0033,0.0],[-127.2344,50.0064,10.5152],[-127.2339,50.005,12.3847],[-127.2372,50.0028,0.0],[-127.2322,50.0036,0.0],[-127.2296,50.003,0.0],[-127.2289,50.0011,0.0],[-127.2267,50.0014,0.0],[-127.2289,50.0071,3.532],[-127.233,50.0107,0.0],[-127.2323,50.013,0.0],[-127.2337,50.0141,4.9167],[-127.229,50.0172,17.8309],[-127.2306,50.0203,5.7376],[-127.2667,50.0389,0.0]]],
[[[-127.3199,50.0107,0.0],[-127.3191,50.0113,0.0],[-127.3204,50.0119,0.0],[-127.3221,50.0112,0.0],[-127.3211,50.0107,0.0],[-127.3199,50.0107,0.0]]],
[[[-127.3199,50.0151,0.0],[-127.3175,50.0137,0.0],[-127.3168,50.0156,4.5032],[-127.3197,50.0177,0.0],[-127.3197,50.0203,14.4387],[-127.3227,50.0215,13.285],[-127.3243,50.0185,0.0],[-127.3199,50.0151,0.0]]],
[[[-127.3171,50.0174,3.6039],[-127.3169,50.0189,0.0],[-127.3175,50.0194,0.0],[-127.3188,50.018,0.0],[-127.3171,50.0174,3.6039]]],
[[[-127.3829,50.0042,0.0],[-127.3765,50.0073,0.039],[-127.3841,50.0094,2.992],[-127.3956,50.0078,1.2428],[-127.3872,50.003,0.0],[-127.3829,50.0042,0.0]]],
[[[-127.3461,50.0117,9.1181],[-127.3472,50.0106,0.0],[-127.3439,50.0089,0.0],[-127.3383,50.0083,0.0],[-127.3427,50.0104,0.0],[-127.3394,50.0122,0.0],[-127.3461,50.0117,9.1181]]],
[[[-127.3966,50.0124,4.5115],[-127.3961,50.0147,1.2371],[-127.4006,50.0156,0.0],[-127.4056,50.0136,42.2357],[-127.4083,50.0142,0.0],[-127.4083,50.0119,2.2434],[-127.4106,50.01,0.0],[-127.4047,50.007,0.0],[-127.4001,50.0068,0.0],[-127.395,50.0094,0.0],[-127.3966,50.0124,4.5115]]],
[[[-127.3827,50.0128,0.9094],[-127.3846,50.0113,0.0],[-127.3748,50.01,0.0],[-127.3771,50.0127,0.0],[-127.3827,50.0128,0.9094]]],
[[[-127.4283,49.9969,0.0],[-127.4306,49.9989,0.0],[-127.4304,49.9966,0.1609],[-127.435,49.9989,0.0],[-127.4367,49.9975,0.0],[-127.4317,49.9933,0.0],[-127.4283,49.9969,0.0]]],
[[[-127.4472,49.9986,0.0],[-127.4523,50.001,0.0],[-127.4622,50.0014,0.1811],[-127.4644,50.0,0.0],[-127.4578,49.9996,0.0],[-127.4553,49.9967,0.0],[-127.4494,49.9947,0.0],[-127.4469,49.9969,0.0],[-127.4472,49.9986,0.0]]],
[[[-127.4492,50.0231,0.0],[-127.4465,50.0237,0.0],[-127.4455,50.0248,0.1273],[-127.4476,50.0251,0.0],[-127.4492,50.0231,0.0]]],
[[[-127.4344,50.0389,0.0],[-127.4378,50.0367,0.0],[-127.4333,50.035,0.0],[-127.4317,50.0358,0.2797],[-127.4322,50.0386,0.5224],[-127.4344,50.0389,0.0]]],
[[[-127.3538,50.0183,34.1699],[-127.3572,50.0203,21.6048],[-127.3604,50.0178,15.519],[-127.3517,50.012,0.0],[-127.3485,50.0126,0.0],[-127.3473,50.0155,0.0],[-127.3504,50.0169,0.0],[-127.3485,50.0177,0.0],[-127.3538,50.0183,34.1699]]],
[[[-127.3894,50.0169,1.5326],[-127.3944,50.0181,2.0345],[-127.3911,50.0158,4.2614],[-127.3883,50.0164,1.5326],[-127.3894,50.0169,1.5326]]],
[[[-127.3633,50.0215,2.3431],[-127.3654,50.0216,0.0],[-127.3671,50.0212,0.0],[-127.3622,50.0206,0.0],[-127.3633,50.0215,2.3431]]],
[[[-127.3666,50.0248,0.0],[-127.3679,50.0252,0.0],[-127.3685,50.0246,0.0],[-127.3665,50.0236,0.0],[-127.3666,50.0248,0.0]]],
[[[-127.4111,50.0314,9.1121],[-127.4161,50.0344,0.0],[-127.4214,50.0349,11.5518],[-127.4239,50.0325,0.0],[-127.4207,50.0308,0.3198],[-127.4261,50.0308,0.0],[-127.4272,50.0294,0.0],[-127.4233,50.0244,0.7232],[-127.4144,50.0233,0.0],[-127.4111,50.0242,7.8251],[-127.4072,50.0283,0.0],[-127.4111,50.0314,9.1121]]],
[[[-127.4324,50.0307,0.0],[-127.4349,50.0282,0.0],[-127.4289,50.0292,0.0],[-127.4291,50.0307,0.0],[-127.4324,50.0307,0.0]]],
[[[-127.2627,50.0421,7.0486],[-127.2663,50.0428,8.7305],[-127.2686,50.0407,0.0],[-127.2662,50.0403,0.0],[-127.2627,50.0421,7.0486]]],
[[[-127.2678,50.1397,4.3116],[-127.2729,50.14,0.0],[-127.2689,50.1372,20.1789],[-127.2672,50.1381,6.5351],[-127.2678,50.1397,4.3116]]],
[[[-127.4451,50.0541,0.0],[-127.4473,50.0534,2.0032],[-127.4461,50.0522,2.0032],[-127.4433,50.0536,1.1301],[-127.4451,50.0541,0.0]]],
[[[-127.4606,50.0586,0.0],[-127.4595,50.0576,0.1649],[-127.4622,50.0561,0.0],[-127.4606,50.0553,0.0],[-127.4556,50.0569,0.0],[-127.4589,50.06,0.0],[-127.4617,50.0592,0.0],[-127.4606,50.0586,0.0]]],
[[[-127.4822,50.0581,0.0],[-127.4817,50.0592,0.0],[-127.4838,50.0605,0.0],[-127.4822,50.0617,0.0],[-127.4869,50.0633,0.0],[-127.4845,50.0614,0.0],[-127.4877,50.0596,0.0],[-127.4822,50.0581,0.0]]],
[[[-127.5244,50.0823,0.0],[-127.5224,50.0822,0.0],[-127.5261,50.0844,0.266],[-127.5306,50.0836,0.0],[-127.5289,50.0825,0.296],[-127.5244,50.0823,0.0]]],
[[[-127.5544,50.0728,0.0531],[-127.5574,50.073,0.0],[-127.5578,50.0694,0.0],[-127.5561,50.0686,0.0],[-127.5528,50.0708,0.2733],[-127.5544,50.0728,0.0531]]],
[[[-127.5511,50.0842,9.9913],[-127.555,50.0856,0.0],[-127.5565,50.0838,0.0],[-127.555,50.0819,0.0],[-127.55,50.0836,0.0],[-127.5511,50.0842,9.9913]]],
[[[-127.5467,50.0856,0.0],[-127.5478,50.0844,0.0],[-127.5406,50.0828,0.2401],[-127.5422,50.0861,0.0],[-127.5467,50.0856,0.0]]],
[[[-127.5497,50.0862,0.0],[-127.5497,50.0869,0.0],[-127.554,50.0867,0.0],[-127.5519,50.0859,2.4108],[-127.5497,50.0862,0.0]]],
[[[-127.5101,50.0895,0.0],[-127.5118,50.0842,0.0],[-127.5106,50.0833,0.0],[-127.5061,50.0869,0.0],[-127.5101,50.0895,0.0]]],
[[[-127.5278,50.0866,0.0],[-127.5268,50.0857,0.0],[-127.5233,50.0881,0.0],[-127.5276,50.0898,0.0],[-127.5282,50.0889,1.6595],[-127.525,50.0886,1.0565],[-127.5278,50.0866,0.0]]],
[[[-127.5168,50.0905,0.0],[-127.519,50.0917,0.0],[-127.5198,50.0914,0.0],[-127.5165,50.0896,0.0],[-127.5168,50.0905,0.0]]],
[[[-127.5133,50.0956,3.7753],[-127.5189,50.0967,0.0],[-127.5194,50.095,0.0],[-127.5186,50.0929,0.0],[-127.5083,50.0911,0.0],[-127.5089,50.0922,0.0],[-127.5133,50.0956,3.7753]]],
[[[-127.5533,50.0878,1.0344],[-127.5489,50.0881,0.0],[-127.5516,50.0927,2.0545],[-127.5607,50.0947,0.0],[-127.5601,50.0908,4.0635],[-127.5533,50.0878,1.0344]]],
[[[-127.544,50.0926,0.0],[-127.5444,50.0937,2.3271],[-127.5472,50.0928,0.0],[-127.5462,50.0923,0.0],[-127.544,50.0926,0.0]]],
[[[-127.5969,50.097,0.0],[-127.6017,50.0986,5.5839],[-127.605,50.0978,0.0],[-127.6022,50.0953,0.0],[-127.5969,50.097,0.0]]],
[[[-127.563,50.0978,0.0],[-127.5633,50.0961,0.0],[-127.5563,50.0944,0.0],[-127.5506,50.0953,0.0],[-127.5496,50.1011,3.4246],[-127.5509,50.1028,14.0965],[-127.5551,50.1035,16.6355],[-127.563,50.0978,0.0]]],
[[[-127.5256,50.1058,7.7701],[-127.53,50.1072,35.2482],[-127.5306,50.1094,0.5045],[-127.5411,50.1081,0.0],[-127.5422,50.1064,19.2853],[-127.545,50.1064,4.6721],[-127.5446,50.1035,26.6004],[-127.5489,50.0969,4.5353],[-127.5467,50.0944,2.7531],[-127.5361,50.0936,0.0],[-127.5378,50.0917,5.8775],[-127.535,50.0892,7.7999],[-127.5294,50.09,1.6595],[-127.5272,50.0933,1.84],[-127.5228,50.0892,0.0],[-127.5206,50.0922,0.0],[-127.5222,50.0936,1.823],[-127.5211,50.0956,0.0],[-127.5244,50.0964,18.2285],[-127.5228,50.0978,0.0],[-127.5278,50.0983,16.9387],[-127.5283,50.1003,18.0243],[-127.5228,50.1006,0.0],[-127.5256,50.1058,7.7701]]],
[[[-127.5156,50.1158,0.0],[-127.5239,50.1169,0.0],[-127.5272,50.1133,0.0],[-127.5272,50.1092,0.0],[-127.5167,50.1058,6.9281],[-127.5161,50.1036,20.7545],[-127.5189,50.105,0.0],[-127.5206,50.1039,0.0],[-127.5148,50.0991,16.8315],[-127.4989,50.095,0.0],[-127.4967,50.0997,4.8021],[-127.5033,50.1083,50.2521],[-127.5017,50.1103,0.0],[-127.5094,50.1161,0.52],[-127.5156,50.1158,0.0]]],
[[[-127.4972,50.11,7.659],[-127.5011,50.1108,0.0],[-127.5006,50.1086,8.8235],[-127.495,50.1061,0.3086],[-127.495,50.1078,15.7517],[-127.4972,50.11,7.659]]],
[[[-127.5058,50.1148,5.1717],[-127.5023,50.1126,6.0831],[-127.4987,50.1121,0.0],[-127.4996,50.1138,8.5153],[-127.5058,50.1148,5.1717]]],
[[[-127.6044,50.1044,0.0],[-127.6072,50.1039,0.0],[-127.6072,50.1022,5.1559],[-127.6044,50.0997,0.0],[-127.6006,50.1027,0.0],[-127.6044,50.1044,0.0]]],
[[[-127.6091,50.1032,0.0],[-127.6118,50.1044,2.2063],[-127.6135,50.1027,0.0],[-127.6097,50.1021,0.0],[-127.6091,50.1032,0.0]]],
[[[-127.585,50.1075,0.0],[-127.5906,50.1061,0.0],[-127.5909,50.1042,1.5804],[-127.5856,50.1036,0.0],[-127.5833,50.1064,-0.0212],[-127.585,50.1075,0.0]]],
[[[-127.6,50.1059,0.0],[-127.5962,50.1053,0.0],[-127.5981,50.1066,0.0],[-127.6031,50.1062,0.0],[-127.6,50.1059,0.0]]],
[[[-127.616,50.1075,0.0],[-127.6203,50.1084,0.0],[-127.6212,50.1079,0.0],[-127.6164,50.1062,0.0],[-127.616,50.1075,0.0]]],
[[[-127.9409,50.1139,0.0],[-127.943,50.1141,0.0],[-127.9433,50.1102,0.0],[-127.9387,50.1082,0.0],[-127.9377,50.1114,0.0],[-127.9409,50.1139,0.0]]],
[[[-127.5731,50.1154,0.7965],[-127.5745,50.1162,0.0],[-127.5756,50.1148,0.0],[-127.5705,50.1126,0.0],[-127.5706,50.1143,0.0],[-127.5731,50.1154,0.7965]]],
[[[-127.7222,50.1208,0.0],[-127.7228,50.1194,0.0],[-127.7194,50.1186,0.0],[-127.7178,50.1203,0.0],[-127.7182,50.1213,0.0],[-127.7222,50.1208,0.0]]],
[[[-127.5439,50.121,0.0],[-127.546,50.122,0.0],[-127.5489,50.1201,0.0],[-127.5465,50.1205,0.0],[-127.5439,50.121,0.0]]],
[[[-127.6428,50.1281,0.0],[-127.6456,50.1231,0.0],[-127.6411,50.1208,0.0],[-127.6345,50.1231,0.0],[-127.6372,50.1256,4.4338],[-127.6344,50.1286,0.0],[-127.6357,50.1332,34.0436],[-127.6389,50.1344,0.0],[-127.6411,50.1333,1.2606],[-127.6411,50.1297,0.0],[-127.6428,50.1281,0.0]]],
[[[-127.6483,50.1347,0.0],[-127.6494,50.1336,0.0],[-127.6467,50.1297,0.0],[-127.6444,50.1308,0.0],[-127.6449,50.1359,0.0],[-127.6483,50.1347,0.0]]],
[[[-127.6472,50.137,0.0],[-127.6482,50.1379,0.0],[-127.6506,50.137,0.0],[-127.6487,50.1361,0.0],[-127.6472,50.137,0.0]]],
[[[-127.6833,50.1364,0.0],[-127.6817,50.1378,0.0],[-127.6833,50.1394,0.0],[-127.6908,50.1383,0.0],[-127.6878,50.1369,0.0],[-127.6833,50.1364,0.0]]],
[[[-127.6606,50.1422,0.0],[-127.6618,50.1415,0.0],[-127.6589,50.1403,0.0],[-127.6583,50.1414,0.0],[-127.6606,50.1422,0.0]]],
[[[-127.4833,50.1136,0.0],[-127.4811,50.1147,2.3992],[-127.4856,50.1169,0.0],[-127.48779999999999,50.1161,0.0],[-127.48779999999999,50.1153,0.0],[-127.4833,50.1136,0.0]]],
[[[-127.4798,50.1183,3.8572],[-127.4814,50.1192,11.1649],[-127.4838,50.1184,9.2351],[-127.4824,50.1171,9.2351],[-127.4798,50.1183,3.8572]]],
[[[-127.5156,50.1181,0.0],[-127.5091,50.1181,0.0],[-127.5156,50.1205,0.0],[-127.518,50.119,0.0],[-127.5156,50.1181,0.0]]],
[[[-127.4772,50.1678,13.0417],[-127.4794,50.1661,2.8236],[-127.4783,50.1647,0.0],[-127.4733,50.165,0.0],[-127.4744,50.1672,2.589],[-127.4772,50.1678,13.0417]]],
[[[-127.4728,50.1719,0.0],[-127.4756,50.1711,4.9083],[-127.475,50.1697,0.0],[-127.4728,50.1703,0.0],[-127.4728,50.1719,0.0]]],
[[[-127.4749,50.1796,11.8566],[-127.475,50.1772,23.2018],[-127.4661,50.1753,0.0],[-127.4724,50.1796,8.1751],[-127.4749,50.1796,11.8566]]]]}
,"properties": {"GID_3": "CAN.2.9.12_1","GID_0": "CAN","country": "Canada","GID_1": "CAN.2_1","province": "BritishColumbia","NL_NAME_1": "NA","GID_2": "CAN.2.9_1","county": "Comox-Strathcona","NL_NAME_2": "NA","city": "Comox-StrathconaG","VARNAME_3": "NA","NL_NAME_3": "NA","TYPE_3": "RegionalDistrictElectoralArea","ENGTYPE_3": "RegionalDistrictElectoralArea","CC_3": "NA","HASC_3": "NA","name": "Comox-Strathcona_G.city","area_km2": 5194.876,"hist_schema_id": "Elevation0-9000","hist_area_km2": {"0": 93.13,"25": 171.787,"50": 194.275,"75": 146.655,"100": 130.031,"125": 124.995,"150": 118.998,"175": 115.778,"200": 122.686,"225": 121.388,"250": 121.151,"275": 120.285,"300": 124.007,"325": 124.57,"350": 122.654,"375": 129.088,"400": 128.563,"425": 127.204,"450": 128.711,"475": 128.816,"500": 127.452,"525": 127.464,"550": 123.552,"575": 124.861,"600": 121.819,"625": 118.883,"650": 114.918,"675": 108.341,"700": 104.851,"725": 100.37,"750": 97.987,"775": 89.532,"800": 89.203,"825": 81.849,"850": 77.189,"875": 75.053,"900": 71.549,"925": 69.001,"950": 64.454,"975": 61.025,"1000": 61.64,"1025": 56.674,"1050": 52.612,"1075": 49.132,"1100": 46.286,"1125": 41.949,"1150": 38.63,"1175": 35.949,"1200": 33.016,"1225": 31.542,"1250": 26.909,"1275": 25.502,"1300": 21.917,"1325": 20.331,"1350": 18.512,"1375": 16.214,"1400": 14.107,"1425": 12.208,"1450": 10.239,"1475": 8.173,"1500": 7.187,"1525": 5.559,"1550": 4.931,"1575": 3.466,"1600": 2.329,"1625": 1.905,"1650": 1.397,"1675": 0.89,"1700": 0.684,"1725": 0.506,"1750": 0.219,"1775": 0.082}}}