{"type":"Feature","properties":{"GID_3":"CAN.4.15.12_1","GID_0":"CAN","country":"Canada","GID_1":"CAN.4_1","province":"NewBrunswick","NL_NAME_1":"NA","GID_2":"CAN.4.15_1","county":"York","NL_NAME_2":"NA","city":"McAdam","VARNAME_3":"NA","NL_NAME_3":"NA","TYPE_3":"Parish","ENGTYPE_3":"Parish","CC_3":"NA","HASC_3":"NA","name":"Mc_Adam.city"},
"geometry":{"type": "MultiPolygon","coordinates": [[[[-67.2957,45.5058,131.6282],[-67.2117,45.6006,147.0918],[-67.2154,45.6088,151.5312],[-67.227,45.6254,175.294],[-67.2327,45.6296,183.2157],[-67.2271,45.6618,119.0],[-67.2494,45.7114,138.3193],[-67.2616,45.7098,150.8069],[-67.2645,45.7191,196.8458],[-67.2618,45.7201,188.2679],[-67.2625,45.7231,204.8027],[-67.2591,45.724,179.0677],[-67.2604,45.7278,152.8125],[-67.2672,45.7268,211.2335],[-67.2701,45.7354,157.3523],[-67.2645,45.7365,155.5758],[-67.2647,45.7393,154.1895],[-67.2699,45.7441,156.9815],[-67.2701,45.7478,162.5497],[-67.2756,45.755,172.572],[-67.2696,45.763,195.9123],[-67.3005,45.8382,143.7615],[-67.3039,45.8415,132.5],[-67.314,45.8591,143.456],[-67.3337,45.8852,146.4266],[-67.3972,45.8113,162.0388],[-67.5723,45.6006,114.0],[-67.56,45.601,114.0],[-67.5302,45.5983,114.0],[-67.5009,45.6045,115.3],[-67.4814,45.6029,114.0],[-67.4773,45.6049,114.0],[-67.4527,45.6045,114.0],[-67.4482,45.6011,114.0],[-67.4435,45.5938,114.0],[-67.4257,45.5785,117.1055],[-67.4295,45.5666,121.0719],[-67.4233,45.5547,118.5468],[-67.4241,45.546,111.4973],[-67.4304,45.5403,115.1679],[-67.436,45.5384,120.441],[-67.4374,45.5338,122.9173],[-67.4331,45.5224,115.2621],[-67.4202,45.5067,113.7421],[-67.2957,45.5058,131.6282]],
[[-67.3051,45.6097,130.2948],[-67.2979,45.6092,137.5719],[-67.2963,45.6028,139.3061],[-67.2843,45.5928,147.1283],[-67.2757,45.5818,148.0477],[-67.265,45.58,149.1216],[-67.2953,45.5739,154.5546],[-67.3003,45.5855,158.5049],[-67.3245,45.5815,146.0203],[-67.3457,45.5745,150.3066],[-67.3483,45.577,158.5952],[-67.3422,45.6034,127.3243],[-67.3065,45.6115,129.3949],[-67.3051,45.6097,130.2948]]]]}}