{"type":"Feature","properties":{"GID_3":"CAN.2.1.1_1","GID_0":"CAN","country":"Canada","GID_1":"CAN.2_1","province":"BritishColumbia","NL_NAME_1":"NA","GID_2":"CAN.2.1_1","county":"Alberni-Clayoquot","NL_NAME_2":"NA","city":"Ahahswinis1","VARNAME_3":"NA","NL_NAME_3":"NA","TYPE_3":"RéserveIndienne","ENGTYPE_3":"IndianReserve","CC_3":"NA","HASC_3":"NA","name":"Ahahswinis1.city"},
"geometry":{"type": "MultiPolygon","coordinates": [[[[-124.8252,49.2606,3.5694],[-124.8226,49.2602,0.5],[-124.8228,49.265,8.0688],[-124.8284,49.2705,15.5989],[-124.8285,49.261,3.7097],[-124.8252,49.2606,3.5694]]],
[[[-124.8245,49.2695,16.1517],[-124.827,49.2695,14.4839],[-124.8228,49.2654,8.0688],[-124.8228,49.2695,12.1816],[-124.8245,49.2695,16.1517]]]]}}