{"type":"Feature","properties":{"featurecla":"River","scalerank":11,"rivernum":20024,"dissolve":"20024River","name":"Magnetawan","name_alt":null,"note":"ID is link back to CEC data","name_full":"Magnetawan River","min_zoom":6.7,"strokeweig":0.15,"uident":1828901,"min_label":7.7},
"geometry":{"type": "LineString","coordinates": [[-79.406076626687067,45.6236432963482,322.3208],[-79.376454230853739,45.613104559369027,334.2379],[-79.3565974600204,45.594265041139863,298.0688],[-79.337269660541239,45.583766994264863,404.9249],[-79.308705207416239,45.582464910931527,381.4248],[-79.277821418353739,45.592556056764863,385.6147],[-79.261708137103739,45.6009382182232,421.9028],[-79.2494197256454,45.613104559369027,415.0843],[-79.226063605853739,45.654323634889863,452.86],[-79.219553189187067,45.673773504681527,396.0409],[-79.196848111062067,45.689886785931527,381.7334],[-79.169992642312067,45.713893947389863,379.8406],[-79.147775845437067,45.716579494264863,480.7738],[-79.105051236062067,45.713568426556527,459.2863]]}}