{"type": "Feature","bbox": [-104.02,50.1645,-104.0086,50.1791],"geometry": {"type": "MultiPolygon","coordinates": [[[[-104.0086,50.1646,597.2213],[-104.0086,50.1791,595.682],[-104.0199,50.179,594.9119],[-104.02,50.1645,595.0823],[-104.0086,50.1646,597.2213]]]]}
,"properties": {"GID_3": "CAN.12.15.77_1","GID_0": "CAN","country": "Canada","GID_1": "CAN.12_1","province": "Saskatchewan","NL_NAME_1": "NA","GID_2": "CAN.12.15_1","county": "DivisionNo.6","NL_NAME_2": "NA","city": "Sedley","VARNAME_3": "NA","NL_NAME_3": "NA","TYPE_3": "Village","ENGTYPE_3": "Village","CC_3": "NA","HASC_3": "NA","name": "Sedley.city","area_km2": 1.385139,"hist_schema_id": "Elevation0-9000","hist_area_km2": {"600": 1.385139}}}