{"type":"Feature","properties":{"featurecla":"River","scalerank":12,"rivernum":20009,"dissolve":"20009River","name":"Moira1","name_alt":null,"note":"ID is link back to CEC data","name_full":"Moira River","min_zoom":7.0,"strokeweig":0.2,"uident":1842501,"min_label":8.0},
"geometry":{"type": "LineString","coordinates": [[-77.567616340228739,44.495062567181527,233.2197],[-77.559071418353739,44.482204494264863,247.7787],[-77.538807746478739,44.469549871869027,181.9327],[-77.5111384756454,44.467596746869027,194.37],[-77.504872199603739,44.473578192181527,179.1629],[-77.496327277728739,44.489284572389863,167.2192],[-77.474436001687067,44.501532293744027,168.0103],[-77.433461066791239,44.514715887494027,181.8402],[-77.385609504291239,44.545477606244027,198.7021],[-77.360666470437067,44.542181707806527,169.2269],[-77.330067512103739,44.514715887494027,168.1349],[-77.306955532937067,44.476345119264863,144.9892],[-77.300852017312067,44.445339259889863,149.2431],[-77.303334113666239,44.417059637494027,148.6544],[-77.311024543353739,44.377712306764863,144.8004],[-77.319406704812067,44.363592840619027,166.1307],[-77.340321418353739,44.336208400514863,154.7671],[-77.402211066791239,44.277126369264863,110.5589],[-77.413441535541239,44.260077215619027,118.7474],[-77.412180142312067,44.227972723431527,100.0332],[-77.3861384756454,44.1692975932232,77.6023]]}}