{"type":"Feature","properties":{"featurecla":"River","scalerank":11,"rivernum":20383,"dissolve":"20383River","name":"Cobham1","name_alt":null,"note":"ID is link back to CEC data","name_full":"Cobham River","min_zoom":6.7,"strokeweig":0.2,"uident":1697101,"min_label":7.7},
"geometry":{"type": "LineString","coordinates": [[-95.542551236062067,53.124701239056527,290.2187],[-95.576161262103724,53.095974025514863,292.5881],[-95.597035285541224,53.075710353639863,293.2313],[-95.588368293353724,53.065537827598192,302.4009],[-95.551380988666224,53.062363999473192,292.8607],[-95.542713996478724,53.052272853639863,295.0957],[-95.548166470437067,53.041937567181527,299.526],[-95.5506892568954,53.026556707806527,303.0976],[-95.5362849600204,53.018133856244027,300.0417],[-95.479481574603724,53.006455796348192,300.1158],[-95.448109504291224,52.991400457806527,306.3701],[-95.4393611318954,52.974310614056527,302.2151],[-95.455922004291224,52.953721421348192,300.5307],[-95.458566861062067,52.938340561973192,303.3657],[-95.4327693350204,52.923203843223192,299.0085],[-95.410227017312067,52.921576239056527,294.5],[-95.382069465228724,52.925116278119027,294.5],[-95.350900845437067,52.925319728639863,294.5],[-95.331125454812067,52.920274155723192,294.5],[-95.2997126943954,52.893133856244027,311.6219],[-95.291005012103724,52.872748114056527,294.5],[-95.285227017312067,52.864203192181527,294.5],[-95.256947394916224,52.855821030723192,312.6118],[-95.217396613666224,52.852565822389863,320.2153],[-95.172352668353724,52.859564520306527,317.1089],[-95.162180142312067,52.859564520306527,311.5759],[-95.115956183978724,52.859686590619027,326.2274],[-95.028431769916224,52.839463608848192,305.3968],[-94.9833064443954,52.842881577598192,329.9049],[-94.938303189187067,52.853298244264863,332.0712],[-94.8678279287704,52.875555731244027,313.0806],[-94.760487433978724,52.914740301556527,296.5],[-94.737904426166224,52.919867254681527,311.9239],[-94.721058723041224,52.916449285931527,326.1662],[-94.692738410541224,52.907904364056527,308.1386],[-94.684437629291224,52.907660223431527,325.0598]]}}