{"type":"Feature","properties":{"featurecla":"Lake Centerline","scalerank":10,"rivernum":20318,"dissolve":"20318Lake Centerline","name":"Dauphin1","name_alt":null,"note":"ID is link back to CEC data","name_full":"Dauphin River","min_zoom":6.0,"strokeweig":0.2,"uident":1723201,"min_label":7.0},
"geometry":{"type": "LineString","coordinates": [[-98.0423884756454,51.984076239056527,216.5],[-98.013050910541224,51.9952253275982,216.5],[-97.923329230853724,52.0767682963482,216.5],[-97.907053189187067,52.1461042338482,216.5],[-97.8580623037704,52.219549871869027,216.5],[-97.7418513662704,52.3765729838482,216.5],[-97.6786189443954,52.488714910931527,216.5],[-97.631337043353724,52.555365301556527,216.5]]}}