{"type":"Feature","properties":{"featurecla":"River","scalerank":11,"rivernum":20209,"dissolve":"20209River","name":"Manigotagan1","name_alt":null,"note":"ID is link back to CEC data","name_full":"Manigotagan River","min_zoom":6.7,"strokeweig":0.2,"uident":1750401,"min_label":7.7},
"geometry":{"type": "LineString","coordinates": [[-96.343861457416224,51.157538153119027,249.0642],[-96.312489387103724,51.153753973431527,240.6082],[-96.2740779287704,51.140692449994027,238.6172],[-96.205637173562067,51.104437567181527,240.0337],[-96.134755012103724,51.091335353639863,246.0262],[-96.060414191791224,51.090521551556527,252.2756],[-95.982289191791224,51.105251369264863,229.5],[-95.895985480853724,51.099310614056527,269.1673],[-95.825998501687067,51.076686916139863,244.9406],[-95.750233527728724,51.036647853639863,257.0162],[-95.701283332416224,50.996283270306527,253.0411],[-95.643910285541224,50.956000067181527,297.6298],[-95.603138801166224,50.930934963014863,298.962],[-95.511301236062067,50.902777410931527,312.6833],[-95.4772029287704,50.886989650514863,321.731]]}}