{"type":"Feature","properties":{"featurecla":"Lake Centerline","scalerank":6,"rivernum":409,"dissolve":"409Lake Centerline","name":"Red9","name_alt":null,"note":null,"min_zoom":5.0,"strokeweig":0.2,"name_en":"Red","min_label":6.0},
"geometry":{"type": "LineString","coordinates": [[-96.59765625,50.979266668744117,216.5],[-96.588623046875,51.005389715619117,216.5],[-96.586230468749989,51.029315496869117,216.5],[-96.588476562499991,51.099969793744116,216.5],[-96.582568359374989,51.15692780155662,241.8903],[-96.586718749999989,51.190692449994117,216.5],[-96.593554687499989,51.28461334843162,216.5],[-96.594482421875,51.418231512494117,216.5],[-96.633642578124991,51.49982330936912,216.5],[-96.696142578124991,51.59284088749412,216.5],[-96.739501953125,51.674920965619116,216.5],[-96.778173828124991,51.72235748905662,216.5],[-96.8525390625,51.78070709843162,216.5],[-96.976977539062489,51.86090729374412,216.5],[-97.09326171875,51.963006903119116,216.5],[-97.174902343749991,52.07379791874412,216.5],[-97.28662109375,52.17096588749412,216.5],[-97.457128906249991,52.27130768436912,216.5],[-97.589404296874989,52.41535065311912,216.5],[-97.63134765625,52.55536530155662,216.5],[-97.717041015625,52.681659246869117,216.5],[-97.803271484374989,52.882684637494116,216.5],[-97.859301757812489,53.08649323124412,216.5],[-97.908544921874991,53.30451080936912,216.5],[-97.913989257812489,53.50604889530662,216.5],[-97.913623046874989,53.51862213749412,216.5]]}}