{"type":"Feature","properties":{"featurecla":"Lake Centerline","scalerank":11,"rivernum":20388,"dissolve":"20388Lake Centerline","name":"null1054","name_alt":null,"note":"ID is link back to CEC data","name_full":null,"min_zoom":6.7,"strokeweig":0.2,"uident":1701901,"min_label":7.7},
"geometry":{"type": "LineString","coordinates": [[-100.74010169179122,52.753851629681527,252.0],[-100.75584876210372,52.787176824994027,252.0],[-100.75975501210372,52.841864324994027,252.0],[-100.77733313710372,52.902411199994027,252.0],[-100.77147376210372,52.941473699994027,252.0],[-100.75975501210372,52.970770574994027,252.0],[-100.73045813710372,53.023504949994027,252.0]]}}