{"type": "Feature","bbox": [-113.2893,50.3844,-113.2431,50.4123],"geometry": {"type": "MultiPolygon","coordinates": [[[[-113.255,50.411,1053.9535],[-113.2551,50.4123,1055.5203],[-113.2891,50.4121,1046.9592],[-113.2893,50.3957,1043.7947],[-113.2779,50.3958,1047.8403],[-113.2778,50.39,1060.078],[-113.2609,50.39,1050.3018],[-113.2609,50.3844,1051.4868],[-113.2544,50.3844,1045.7279],[-113.2544,50.3977,1050.4093],[-113.2477,50.3977,1037.9229],[-113.2547,50.4053,1045.3357],[-113.2431,50.4054,1048.5706],[-113.2432,50.4111,1052.8778],[-113.255,50.411,1053.9535]]]]}
,"properties": {"GID_3": "CAN.1.15.22_1","GID_0": "CAN","country": "Canada","GID_1": "CAN.1_1","province": "Alberta","NL_NAME_1": "NA","GID_2": "CAN.1.15_1","county": "DivisionNo.5","NL_NAME_2": "NA","city": "Vulcan","VARNAME_3": "NA","NL_NAME_3": "NA","TYPE_3": "Town","ENGTYPE_3": "Town","CC_3": "NA","HASC_3": "NA","name": "Vulcan.city","area_km2": 6.662559,"hist_schema_id": "Elevation0-9000","hist_area_km2": {"1050": 6.554419,"1075": 0.10814}}}