{"type": "Feature","bbox": [-54.0923,48.634,-53.9446,48.7414],"geometry": {"type": "MultiPolygon","coordinates": [[[[-54.0156,48.6379,33.9154],[-54.0106,48.6624,13.941],[-54.0059,48.6621,24.5968],[-53.983,48.6695,23.4554],[-53.9777,48.6743,38.311],[-53.962,48.681399999999996,73.7706],[-53.9538,48.6995,105.0065],[-53.9446,48.7106,0.0],[-53.949,48.7109,0.0],[-53.9583,48.7046,10.5461],[-53.9602,48.6949,8.4754],[-53.9586,48.6917,12.9894],[-53.9679,48.6877,0.0],[-53.9843,48.686,6.0793],[-53.997,48.6808,0.0],[-53.9992,48.6792,0.0],[-53.9981,48.6756,6.8069],[-53.9997,48.6714,12.9992],[-54.0042,48.6722,0.1238],[-54.0047,48.6746,0.5594],[-54.0065,48.6757,0.0794],[-54.0073,48.6749,0.1812],[-54.0053,48.6742,0.5594],[-54.0078,48.6733,2.2523],[-54.0147,48.6744,0.0],[-54.0283,48.6726,1.374],[-54.0289,48.6736,1.374],[-54.0272,48.6747,0.63],[-54.0289,48.6767,0.0],[-54.0337,48.6762,1.5365],[-54.0369,48.6786,0.5172],[-54.0278,48.6833,0.0],[-54.0136,48.7002,0.23],[-54.0022,48.7028,4.2414],[-53.9918,48.7006,15.1531],[-53.9766,48.7004,0.0],[-53.9698,48.7028,4.1775],[-53.9683,48.7017,22.1406],[-53.9694,48.6996,14.851],[-53.9677,48.6992,14.851],[-53.9642,48.703,3.9206],[-53.9648,48.7064,1.5936],[-53.9569,48.712,0.0],[-53.9562,48.7178,0.0],[-53.9595,48.7225,0.0],[-53.9653,48.722,19.8102],[-53.9708,48.7261,0.4922],[-53.9767,48.728,10.4683],[-53.9895,48.7255,0.0],[-53.9934,48.7232,8.039],[-53.9965,48.7238,11.0862],[-53.9947,48.7294,2.3967],[-53.9899,48.7332,0.4332],[-53.9903,48.7414,0.488],[-53.9921,48.7391,2.5041],[-53.9964,48.7389,0.0],[-54.0042,48.7345,10.9688],[-54.005,48.7367,0.7278],[-54.009,48.7353,11.7098],[-54.012,48.7366,7.3599],[-54.0253,48.733,8.1723],[-54.0376,48.7359,1.1948],[-54.0393,48.7395,0.0],[-54.0533,48.7363,13.4273],[-54.0559,48.7377,13.2876],[-54.0897,48.7119,80.0851],[-54.0923,48.6717,153.3946],[-54.0816,48.6409,67.9089],[-54.0609,48.6402,47.6211],[-54.0405,48.6344,12.7354],[-54.0339,48.634,14.5865],[-54.0272,48.6343,18.6013],[-54.0156,48.6379,33.9154]]]]}
,"properties": {"GID_3": "CAN.5.9.22_1","GID_0": "CAN","country": "Canada","GID_1": "CAN.5_1","province": "NewfoundlandandLabrador","NL_NAME_1": "NA","GID_2": "CAN.5.9_1","county": "DivisionNo.7","NL_NAME_2": "NA","city": "Glovertown","VARNAME_3": "NA","NL_NAME_3": "NA","TYPE_3": "Town","ENGTYPE_3": "Town","CC_3": "NA","HASC_3": "NA","name": "Glovertown.city","area_km2": 74.06823,"hist_schema_id": "Elevation0-9000","hist_area_km2": {"0": 8.2883,"25": 15.27238,"50": 11.77095,"75": 13.32253,"100": 13.89583,"125": 8.03232,"150": 1.94589,"175": 1.07803,"200": 0.462}}}