{"type": "Feature","bbox": [-109.6918,51.6203,-109.4061,51.8815],"geometry": {"type": "MultiPolygon","coordinates": [[[[-109.6903,51.6204,715.0328],[-109.4065,51.6203,674.2583],[-109.4072,51.7363,698.4708],[-109.4061,51.7989,715.4521],[-109.4075,51.8813,696.674],[-109.6077,51.8815,724.7503],[-109.6072,51.8741,720.8147],[-109.5957,51.8742,721.4794],[-109.5954,51.8665,720.7145],[-109.6314,51.8666,723.834],[-109.6313,51.874,728.1149],[-109.62,51.8741,726.5172],[-109.6203,51.8815,725.7952],[-109.6918,51.8813,722.4397],[-109.6903,51.6204,715.0328]],
[[-109.4649,51.6307,697.0216],[-109.4649,51.6272,695.3514],[-109.4774,51.6272,695.3875],[-109.4773,51.6339,697.8248],[-109.4649,51.6339,699.1927],[-109.4649,51.6307,697.0216]]]]}
,"properties": {"GID_3": "CAN.12.4.36_1","GID_0": "CAN","country": "Canada","GID_1": "CAN.12_1","province": "Saskatchewan","NL_NAME_1": "NA","GID_2": "CAN.12.4_1","county": "DivisionNo.13","NL_NAME_2": "NA","city": "PrairiedaleNo.321","VARNAME_3": "NA","NL_NAME_3": "NA","TYPE_3": "RuralMunicipality","ENGTYPE_3": "RuralMunicipality","CC_3": "NA","HASC_3": "NA","name": "Prairiedale_No.321.city","area_km2": 563.5141,"hist_schema_id": "Elevation0-9000","hist_area_km2": {"650": 0.7503,"675": 16.9357,"700": 240.5376,"725": 297.6187,"750": 7.6719}}}