{"type":"Feature","properties":{"featurecla":"River","scalerank":12,"rivernum":20548,"dissolve":"20548River","name":"Ballantyne","name_alt":null,"note":"ID is link back to CEC data","name_full":"Ballantyne River","min_zoom":7.0,"strokeweig":0.2,"uident":1645401,"min_label":8.0},
"geometry":{"type": "LineString","coordinates": [[-104.0533748037704,54.462713934369027,398.653],[-104.03937740793707,54.465521551556527,397.2762],[-104.00365149647872,54.489365952598192,396.1061],[-103.97862708241622,54.496771551556527,390.3773],[-103.90998287668707,54.507676499473192,389.7632],[-103.89801998606207,54.519069728639863,385.9417],[-103.9037166006454,54.530788478639863,384.0199],[-103.94513912668707,54.541123765098192,374.665],[-103.95885169179122,54.548529364056527,371.8868],[-103.96312415272872,54.565537827598192,376.8087],[-103.9381404287704,54.584906317181527,364.726],[-103.90485592356207,54.594671942181527,366.2523],[-103.83259029856207,54.604193426556527,359.1959],[-103.80870520741622,54.616522528119027,349.0144],[-103.8011775381454,54.634466864056527,344.5544],[-103.78661048085372,54.647772528119027,343.0617],[-103.75096594960372,54.661159572389863,339.3967],[-103.69676673085372,54.671250718223192,323.0]]}}