{"type":"Feature","properties":{"featurecla":"Lake Centerline","scalerank":7,"rivernum":629,"dissolve":"629Lake Centerline","name":"Churchill6","name_alt":null,"note":null,"min_zoom":6.0,"strokeweig":0.25,"name_en":"Churchill","min_label":7.0},
"geometry":{"type": "LineString","coordinates": [[-104.54331054687499,55.42719147343162,383.5311],[-104.543994140625,55.42731354374412,383.5311],[-104.544677734375,55.42743561405662,372.9853],[-104.5525390625,55.436542059369117,338.0],[-104.539306640625,55.45636627811912,363.2615],[-104.52587890625,55.464471746869116,341.0588],[-104.50620117187499,55.47125885624412,338.0],[-104.489013671875,55.48822662968162,338.0],[-104.478076171875,55.50763580936912,338.0],[-104.4852783203125,55.52155182499412,373.6049],[-104.50126953125,55.534198309369117,338.3921],[-104.5155517578125,55.552362371869116,343.556],[-104.5310546875,55.57062409061912,346.5],[-104.56723632812499,55.574335028119116,346.5],[-104.607177734375,55.575555731244116,356.2412],[-104.6357421875,55.59088776249412,367.1459],[-104.68369140624999,55.62396881718162,349.836],[-104.70053710937499,55.63458893436912,346.5]]}}