{"type":"Feature","properties":{"featurecla":"River","scalerank":10,"rivernum":21022,"dissolve":"21022River","name":"Chipman","name_alt":null,"note":"ID is link back to CEC data","name_full":"Chipman River","min_zoom":6.0,"strokeweig":0.2,"uident":1495201,"min_label":7.0},
"geometry":{"type": "LineString","coordinates": [[-105.03522701731207,59.614325262494027,403.016],[-105.04332434804122,59.585557358848192,397.3309],[-105.07160397043707,59.555243231244027,405.479],[-105.10094153554122,59.517767645306527,391.6272],[-105.13630123606207,59.499050197389863,380.783],[-105.15575110585372,59.495632228639863,395.9926],[-105.18040930897872,59.486517645306527,382.3303],[-105.26829993397872,59.417792059369027,350.99],[-105.30626380116622,59.397040106244027,361.0719],[-105.36375891835372,59.383408921348192,350.6371],[-105.38605709543705,59.367499090619027,354.8508],[-105.38414466054122,59.351874090619027,370.7411],[-105.37193762929122,59.345892645306527,383.0271],[-105.3268123037704,59.344509181764863,373.7751],[-105.3089900381454,59.331976629681527,356.6632],[-105.31135006418707,59.317816473431527,366.3963],[-105.29906165272872,59.287624416139863,298.2657]]}}