{"type":"Feature","properties":{"featurecla":"River","scalerank":12,"rivernum":20930,"dissolve":"20930River","name":"William2","name_alt":null,"note":"ID is link back to CEC data","name_full":"William River","min_zoom":7.0,"strokeweig":0.2,"uident":1525501,"min_label":8.0},
"geometry":{"type": "LineString","coordinates": [[-109.3414607412704,59.108099676556527,215.2354],[-109.25666256418705,59.038600978639863,274.5787],[-109.24083411366622,59.003281968223192,284.9721],[-109.25031490793705,58.940008856244027,292.8916],[-109.24803626210372,58.842800197389863,295.3746],[-109.22679602772872,58.825791733848192,294.6993],[-109.20319576731205,58.810858465619027,299.8206],[-109.18390865793705,58.806097723431527,312.0771],[-109.10724850168705,58.802801824994027,311.4302],[-108.98387610585372,58.817409572389863,317.9874],[-108.9371638662704,58.812201239056527,345.6061],[-108.9078669912704,58.799750067181527,325.3151],[-108.89435787668705,58.776475327598192,352.977],[-108.89659583241622,58.765692449994027,337.2251],[-108.88634192616622,58.742010809369027,346.4364],[-108.83503170481205,58.717881577598192,340.2425],[-108.8380427725204,58.685736395306527,354.5038],[-108.83299719960372,58.673936265098192,367.1929],[-108.8236384756454,58.667914129681527,360.1738],[-108.7872615225204,58.654405015098192,361.2596],[-108.7926326162704,58.627264715619027,369.2714],[-108.79328365793705,58.597113348431527,372.3387],[-108.79792232981205,58.584173895306527,373.3438],[-108.82628333241622,58.579128322389863,377.8996],[-108.84992428293705,58.571071681764863,383.0623],[-108.86554928293705,58.544378973431527,387.7413],[-108.8619685537704,58.520086981244027,383.3173],[-108.85114498606205,58.494696356244027,391.4289],[-108.84300696522872,58.460272528119027,403.0431],[-108.85968990793705,58.444159246869027,418.9783],[-108.86534583241622,58.425848699994027,443.9832],[-108.85252844960372,58.411403713014863,431.8019],[-108.81720943918705,58.383734442181527,441.2373],[-108.80426998606205,58.353338934369027,450.2771],[-108.81688391835372,58.335882879681527,458.0771],[-108.8456111318954,58.316677150514863,452.7607],[-108.8829646475204,58.285671291139863,446.0],[-108.89167232981205,58.266953843223192,445.5],[-108.86485755116622,58.227647202598192,453.9202],[-108.85985266835372,58.199977931764863,470.3741],[-108.87645423085372,58.183864650514863,470.0],[-108.92198645741622,58.162787176556527,484.7338]]}}