{"type":"Feature","properties":{"featurecla":"River","scalerank":6,"rivernum":262,"dissolve":"262River","name":"null144","name_alt":null,"note":null,"min_zoom":5.0,"strokeweig":0.2,"name_en":null,"min_label":6.0},
"geometry":{"type": "LineString","coordinates": [[-103.240771484375,56.277704168744116,346.9307],[-103.20859375,56.256366278119117,334.5],[-103.11962890625,56.22931549686912,327.0],[-103.11962890625,56.22247955936912,327.0],[-103.13916015625,56.207294012494117,329.6811],[-103.1640625,56.199237371869117,341.1747],[-103.18559570312499,56.188348699994116,329.4574],[-103.19467773437499,56.16449616093162,328.7469],[-103.18876953124999,56.14069244999412,329.4012],[-103.17424316406249,56.12360260624412,347.6288],[-103.13945312499999,56.092157293744116,326.0],[-103.14462890624999,56.059686590619116,339.037],[-103.08171386718749,56.02899811405662,330.6012],[-103.080810546875,55.99286530155662,326.0]]}}