{"type":"Feature","properties":{"featurecla":"Lake Centerline","scalerank":7,"rivernum":629,"dissolve":"629Lake Centerline","name":"Churchill4","name_alt":null,"note":null,"min_zoom":6.0,"strokeweig":0.25,"name_en":"Churchill","min_label":7.0},
"geometry":{"type": "LineString","coordinates": [[-103.835498046875,55.374139715619116,343.5042],[-103.83212890624999,55.372821356244117,331.9465],[-103.82158203125,55.374042059369117,328.6267],[-103.8060791015625,55.37531159061912,325.5],[-103.793017578125,55.37775299686912,325.5],[-103.77133789062499,55.380243231244116,325.5],[-103.721484375,55.373163153119116,325.5],[-103.6703369140625,55.368670965619117,326.9863],[-103.637451171875,55.375506903119117,337.3892],[-103.60576171875,55.383563543744117,333.1111],[-103.57158203125,55.397088934369116,329.3267],[-103.551025390625,55.40692780155662,328.7773],[-103.5509521484375,55.40692780155662,328.7773]]}}