{"type":"Feature","properties":{"featurecla":"Lake Centerline","scalerank":12,"rivernum":20930,"dissolve":"20930Lake Centerline","name":"William4","name_alt":null,"note":"ID is link back to CEC data","name_full":"William River","min_zoom":7.0,"strokeweig":0.2,"uident":1525501,"min_label":8.0},
"geometry":{"type": "LineString","coordinates": [[-109.3414607412704,59.108099676556527,215.2354],[-109.39452063710372,59.148504949994027,207.0],[-109.39452063710372,59.203192449994027,207.0],[-109.39061438710372,59.246161199994027,207.0],[-109.35948645741622,59.285956121869027,207.0]]}}