{"type":"Feature","properties":{"featurecla":"River","scalerank":10,"rivernum":20854,"dissolve":"20854River","name":"Geikie1","name_alt":null,"note":"ID is link back to CEC data","name_full":"Geikie River","min_zoom":6.0,"strokeweig":0.2,"uident":1542601,"min_label":7.0},
"geometry":{"type": "LineString","coordinates": [[-104.25401770741622,57.593939520306527,419.5108],[-104.13023841054122,57.628241278119027,430.0458],[-104.08311926991622,57.658067124473192,423.3243],[-104.04523678293707,57.697699285931527,431.75],[-104.00837154856207,57.718044338014863,407.0887],[-103.96100826731207,57.735541082806527,422.8133],[-103.94188391835372,57.737087306764863,399.7786],[-103.9010310537704,57.744899806764863,402.7989],[-103.8663630850204,57.758083400514863,395.5]]}}