{"type":"Feature","properties":{"featurecla":"River","scalerank":12,"rivernum":20797,"dissolve":"20797River","name":"null376","name_alt":null,"note":"ID is link back to CEC data","name_full":null,"min_zoom":7.0,"strokeweig":0.2,"uident":1560101,"min_label":8.0},
"geometry":{"type": "LineString","coordinates": [[-103.31037350168707,57.065700588014863,356.2847],[-103.3092341787704,57.074489650514863,354.5962],[-103.29491126210372,57.106756903119027,361.0302],[-103.29027259022872,57.114081121869027,386.3887],[-103.25690670481207,57.159979559369027,394.5018],[-103.22581946522872,57.190008856244027,400.015],[-103.15025794179122,57.235419012494027,348.6147],[-103.09300696522872,57.263942775514863,340.2973]]}}