{"type":"Feature","properties":{"featurecla":"River","scalerank":12,"rivernum":20874,"dissolve":"20874River","name":"Firebag","name_alt":null,"note":"ID is link back to CEC data","name_full":"Firebag River","min_zoom":7.0,"strokeweig":0.15,"uident":1544101,"min_label":8.0},
"geometry":{"type": "LineString","coordinates": [[-109.73106848866622,57.641180731244027,508.8535],[-109.68858801991622,57.647894598431527,543.274],[-109.6598201162704,57.642767645306527,570.8721],[-109.65143795481205,57.631415106244027,538.5681],[-109.66510982981205,57.617254949994027,535.6949],[-109.66608639231205,57.604763088014863,517.3812],[-109.64928137929122,57.589138088014863,509.9721],[-109.6114802725204,57.578070379681527,535.8622],[-109.5680232412704,57.569403387494027,529.5623],[-109.52765865793705,57.567450262494027,536.9261],[-109.44928951731205,57.554266668744027,554.145]]}}