{"type":"Feature","properties":{"featurecla":"River","scalerank":12,"rivernum":20672,"dissolve":"20672River","name":"Canoe","name_alt":null,"note":"ID is link back to CEC data","name_full":"Canoe River","min_zoom":7.0,"strokeweig":0.2,"uident":1617501,"min_label":8.0},
"geometry":{"type": "LineString","coordinates": [[-108.1371150381454,55.227606512494027,427.7606],[-108.1358943350204,55.250067449994027,430.5142],[-108.1107478506454,55.265407619264863,432.2175],[-108.0917048818954,55.288763739056527,429.8654],[-108.08918209543705,55.306667384889863,427.9965],[-108.10309811106205,55.352362371869027,428.6008],[-108.0868220693954,55.366563218223192,428.8438],[-108.03209387929122,55.376735744264863,429.4832],[-108.01561438710372,55.390936590619027,428.286],[-108.01545162668705,55.406805731244027,438.5966],[-108.00609290272872,55.414903061973192,434.9623],[-107.9808650381454,55.422145900514863,427.7006]]}}