{"type":"Feature","properties":{"featurecla":"River","scalerank":11,"rivernum":20608,"dissolve":"20608River","name":"Smoothstone2","name_alt":null,"note":"ID is link back to CEC data","name_full":"Smoothstone River","min_zoom":6.7,"strokeweig":0.2,"uident":1632801,"min_label":7.7},
"geometry":{"type": "LineString","coordinates": [[-106.83112545481205,54.752712306764863,497.4935],[-106.8343806631454,54.790228582806527,464.3141],[-106.81236731679122,54.824042059369027,464.9622],[-106.80907141835372,54.841905015098192,459.9137],[-106.81053626210372,54.864365952598192,448.4852],[-106.79206295481205,54.890936590619027,454.3097],[-106.77306067616622,54.906927801556527,463.4798],[-106.73444576731205,54.918158270306527,474.5743],[-106.6500544912704,54.929144598431527,445.4168],[-106.59715735585372,54.943548895306527,427.4429],[-106.53815670481205,54.967352606244027,427.839],[-106.48664303293705,55.014756577598192,432.1631],[-106.45299231679122,55.023545640098192,430.3201],[-106.39085852772872,55.028387762494027,429.7649],[-106.31493079335372,55.018988348431527,430.5256],[-106.29303951731205,55.026475327598192,432.1249],[-106.27668209543705,55.042181707806527,433.3352],[-106.26170813710372,55.071641343223192,430.6866],[-106.2269587881454,55.096218166139863,432.3549],[-106.19318600168705,55.124212957806527,427.4725],[-106.1942439443954,55.146673895306527,441.3402],[-106.21458899647872,55.172430731244027,420.9123],[-106.2416072256454,55.190619207806527,428.6501],[-106.28034420481205,55.197088934369027,416.475],[-106.40876217356205,55.197577215619027,422.6782],[-106.47923743397872,55.226752020306527,398.9646],[-106.52082272043705,55.260768947389863,391.2311],[-106.58238684804122,55.280462957806527,395.492],[-106.59618079335372,55.294623114056527,386.3375],[-106.60871334543705,55.314235744264863,394.4606],[-106.6029353506454,55.334092515098192,382.0],[-106.61974036366622,55.356797593223192,382.0],[-106.62482662668705,55.377061265098192,382.0],[-106.63121497304122,55.399033921348192,382.0],[-106.63019772043705,55.427110093223192,382.0],[-106.60155188710372,55.466172593223192,382.6815],[-106.58849036366622,55.481797593223192,386.5355],[-106.57286536366622,55.502712306764863,382.0],[-106.54161536366622,55.562567449994027,382.0],[-106.52863522043705,55.580837306764863,382.0],[-106.5074763662704,55.623480535931527,382.0]]}}