{"type":"Feature","properties":{"featurecla":"River","scalerank":12,"rivernum":20929,"dissolve":"20929River","name":"Pipestone5","name_alt":null,"note":"ID is link back to CEC data","name_full":"Pipestone River","min_zoom":7.0,"strokeweig":0.2,"uident":1522201,"min_label":8.0},
"geometry":{"type": "LineString","coordinates": [[-105.94953365793705,58.364935614056527,348.1695],[-105.93614661366622,58.375026759889863,342.7628],[-105.92723548085372,58.417914129681527,314.3542],[-105.92902584543705,58.452826239056527,315.1983],[-105.91148841054122,58.470241603639863,312.2509],[-105.8976130850204,58.490098374473192,311.0308],[-105.92072506418705,58.504339910931527,309.7222],[-105.9232478506454,58.525254624473192,306.6899],[-105.91218014231205,58.542100327598192,309.4336],[-105.89183509022872,58.561468817181527,309.4274],[-105.86449134022872,58.609645900514863,298.3964],[-105.83763587147872,58.640163478639863,304.3742],[-105.80272376210372,58.666083074994027,298.8966],[-105.76561438710372,58.676459051556527,295.717],[-105.72712154856205,58.679225978639863,311.8688]]}}