{"type":"Feature","properties":{"featurecla":"Lake Centerline","scalerank":11,"rivernum":21019,"dissolve":"21019Lake Centerline","name":"MacFarlane4","name_alt":null,"note":"ID is link back to CEC data","name_full":"MacFarlane River","min_zoom":6.7,"strokeweig":0.2,"uident":1500301,"min_label":7.7},
"geometry":{"type": "LineString","coordinates": [[-107.96080481679122,59.207831121869027,208.7902],[-107.97264563710372,59.246161199994027,207.0],[-107.98045813710372,59.289129949994027,207.0],[-108.00084387929122,59.345567124473192,207.0]]}}