{"type":"Feature","properties":{"featurecla":"River","scalerank":12,"rivernum":21015,"dissolve":"21015River","name":"null424","name_alt":null,"note":"ID is link back to CEC data","name_full":null,"min_zoom":7.0,"strokeweig":0.2,"uident":1498501,"min_label":8.0},
"geometry":{"type": "LineString","coordinates": [[-106.75593014231205,59.123155015098192,231.9484],[-106.7328181631454,59.110622463014863,238.3108],[-106.69367428293705,59.096869207806527,247.631],[-106.64256751210372,59.084987697389863,236.5]]}}