{"type":"Feature","properties":{"featurecla":"Lake Centerline","scalerank":12,"rivernum":21074,"dissolve":"21074Lake Centerline","name":"null1092","name_alt":null,"note":"ID is link back to CEC data","name_full":null,"min_zoom":7.0,"strokeweig":0.2,"uident":1485901,"min_label":8.0},
"geometry":{"type": "LineString","coordinates": [[-108.83495032460372,59.532049871869027,222.9377],[-108.87999426991622,59.504706121869027,207.0],[-108.90925045481205,59.484238999473192,207.0],[-109.00865637929122,59.428656317181527,207.0],[-109.04084225168705,59.405300197389863,207.0],[-109.07884680897872,59.355576890098192,207.0],[-109.09137936106205,59.302191473431527,207.0]]}}