{"type":"Feature","properties":{"featurecla":"River","scalerank":6,"rivernum":262,"dissolve":"262River","name":"null145","name_alt":null,"note":null,"min_zoom":5.0,"strokeweig":0.2,"name_en":null,"min_label":6.0},
"geometry":{"type": "LineString","coordinates": [[-103.16748046875,55.87372467655662,388.453],[-103.17221679687499,55.86334869999412,387.3874],[-103.17539062499999,55.854266668744117,369.3691],[-103.185791015625,55.83734772343162,393.6634],[-103.18784179687499,55.81842682499412,390.0718],[-103.17814941406249,55.79852936405662,361.6783],[-103.16367187499999,55.78705475468162,367.3933],[-103.14775390624999,55.77765534061912,361.3693],[-103.13330078125,55.76386139530662,321.5],[-103.14926757812499,55.751581121869116,321.5],[-103.14982910156249,55.73493073124412,321.5],[-103.1455078125,55.715594793744117,341.7985],[-103.14689941406249,55.69489166874412,349.808],[-103.15390625,55.684930731244116,357.3963],[-103.16318359374999,55.677508856244117,321.5],[-103.17138671875,55.669305731244116,329.4446],[-103.17485351562499,55.65704987186912,357.8483],[-103.16118164062499,55.63287994999412,375.584],[-103.16748046875,55.617792059369116,370.0217],[-103.16630859374999,55.60407135624412,334.1737],[-103.15373535156249,55.578241278119116,368.6829]]}}