{"type":"Feature","properties":{"featurecla":"River","scalerank":12,"rivernum":20903,"dissolve":"20903River","name":"Hunter Cr.","name_alt":null,"note":"ID is link back to CEC data","name_full":"Hunter Creek","min_zoom":7.0,"strokeweig":0.2,"uident":1530201,"min_label":8.0},
"geometry":{"type": "LineString","coordinates": [[-106.8502498037704,58.009344793744027,422.6944],[-106.83088131418705,58.040554103639863,410.3813],[-106.5619197256454,58.151800848431527,387.4333],[-106.51130123606205,58.177842515098192,402.6978],[-106.45978756418705,58.191717840619027,403.2448],[-106.37572180897872,58.208685614056527,376.2937],[-106.33702551991622,58.221258856244027,365.8056],[-106.3111873037704,58.242987371869027,394.5887],[-106.28905188710372,58.275010483848192,393.9779],[-106.25861568918705,58.302435614056527,362.969],[-106.19505774647872,58.331366278119027,344.9559],[-106.1715388662704,58.359930731244027,335.0836],[-106.1505427725204,58.367132879681527,329.718],[-105.94953365793705,58.364935614056527,348.1695]]}}