{"type":"Feature","properties":{"featurecla":"River","scalerank":12,"rivernum":20945,"dissolve":"20945River","name":"Badwater","name_alt":null,"note":"ID is link back to CEC data","name_full":"Badwater River","min_zoom":7.0,"strokeweig":0.2,"uident":1519701,"min_label":8.0},
"geometry":{"type": "LineString","coordinates": [[-105.73151607981205,58.636664129681527,292.154],[-105.6676326162704,58.634385483848192,307.1366],[-105.59349524647872,58.634059963014863,334.1727],[-105.56517493397872,58.640163478639863,321.9283],[-105.51642818918705,58.665472723431527,330.6541],[-105.37897701731205,58.677557684369027,350.4539],[-105.24913489491622,58.692328192181527,375.7548],[-105.2125544912704,58.704209702598192,386.9348],[-105.17658443918707,58.707342840619027,395.4282],[-105.14606686106207,58.695908921348192,396.6032],[-105.11021887929122,58.667547918744027,377.8843],[-105.0929255850204,58.644476629681527,403.7637],[-105.0912166006454,58.628770249473192,404.2484],[-105.11156165272872,58.607855535931527,423.3199],[-105.17389889231207,58.571071681764863,397.9839],[-105.20555579335372,58.533311265098192,395.6712],[-105.2081599600204,58.510443426556527,404.5524]]}}