{"type":"Feature","properties":{"featurecla":"River","scalerank":12,"rivernum":20498,"dissolve":"20498River","name":"Mossy2","name_alt":null,"note":"ID is link back to CEC data","name_full":"Mossy River","min_zoom":7.0,"strokeweig":0.2,"uident":1659201,"min_label":8.0},
"geometry":{"type": "LineString","coordinates": [[-104.16685950429122,54.294297593223192,396.4997],[-104.13044186106207,54.296738999473192,395.4249],[-104.01813717356207,54.309841213014863,395.2016],[-103.96727454335372,54.307196356244027,393.8101],[-103.9273982412704,54.301947332806527,396.5937],[-103.89464270741622,54.289170640098192,397.9164],[-103.80162512929122,54.210475978639863,386.2166],[-103.76520748606207,54.194444077598192,383.0714],[-103.73717200429122,54.188096421348192,378.262],[-103.70250403554122,54.190985418744027,377.3969],[-103.6776423818954,54.198187567181527,381.7193],[-103.66515051991622,54.207871811973192,377.2621],[-103.66803951731207,54.219753322389863,379.7209],[-103.66584225168707,54.235541082806527,375.5883],[-103.6566462881454,54.246608791139863,374.9731],[-103.63508053293707,54.255316473431527,375.5125],[-103.61363684804122,54.251898504681527,377.7031],[-103.57750403554122,54.223700262494027,374.4335],[-103.5606990225204,54.202582098431527,373.2387],[-103.53551184804122,54.183905340619027,371.3553],[-103.5001521475204,54.171210028119027,368.2891],[-103.47956295481207,54.171087957806527,361.0751],[-103.43488522043707,54.181586004681527,357.0875],[-103.39329993397872,54.205633856244027,359.8555],[-103.36188717356207,54.209906317181527,358.8826],[-103.34382076731207,54.195746160931527,357.4818],[-103.32917232981207,54.145086981244027,344.2455],[-103.31334387929122,54.127386785931527,336.8267],[-103.2892146475204,54.112005926556527,325.5467],[-103.23884029856207,54.096991278119027,313.5135],[-103.19005286366622,54.102403061973192,307.7167],[-103.14460201731207,54.135321356244027,304.9144],[-103.08283443918707,54.148749090619027,299.5042],[-103.06476803293707,54.146673895306527,304.0083],[-103.04841061106207,54.139349676556527,287.7914],[-103.03636634022872,54.124701239056527,295.7323],[-103.0360408193954,54.097113348431527,298.9243],[-103.0257869131454,54.077175197389863,284.7921],[-102.98741614491622,54.062811590619027,269.4691],[-102.96251380116622,54.043727931764863,271.52]]}}