{"type":"Feature","properties":{"featurecla":"River","scalerank":10,"rivernum":20959,"dissolve":"20959River","name":"Cochrane2","name_alt":null,"note":"ID is link back to CEC data","name_full":"Cochrane River","min_zoom":6.0,"strokeweig":0.2,"uident":1514201,"min_label":7.0},
"geometry":{"type": "LineString","coordinates": [[-102.50792395741622,58.810899155723192,383.1699],[-102.5260310537704,58.820624090619027,382.9648],[-102.5714412100204,58.814317124473192,385.3736],[-102.60871334543707,58.801459051556527,398.243],[-102.65782630116622,58.796657619264863,385.9712],[-102.67267818918707,58.802679754681527,380.5],[-102.6900935537704,58.832831121869027,402.6921],[-102.72350012929122,58.846380926556527,380.5],[-102.77977454335372,58.842718817181527,410.152],[-102.83849036366622,58.839951890098192,395.9435]]}}