{"type":"Feature","properties":{"featurecla":"River","scalerank":6,"rivernum":230,"dissolve":"230River","name":"null133","name_alt":null,"note":null,"min_zoom":5.0,"strokeweig":0.2,"name_en":null,"min_label":6.0},
"geometry":{"type": "LineString","coordinates": [[-103.54990234374999,58.45514557499412,401.153],[-103.5576171875,58.47101471561912,410.1701],[-103.560595703125,58.491815496869123,411.1552],[-103.5682861328125,58.51044342655662,415.2823],[-103.5888671875,58.518426824994123,396.5],[-103.60595703125,58.52216217655662,401.6789],[-103.6554443359375,58.54010651249412,398.2174],[-103.66538085937499,58.54450104374412,393.9213]]}}