{"type":"Feature","properties":{"featurecla":"River","scalerank":12,"rivernum":20540,"dissolve":"20540River","name":"Nipekamew1","name_alt":null,"note":"ID is link back to CEC data","name_full":"Nipekamew River","min_zoom":7.0,"strokeweig":0.2,"uident":1650101,"min_label":8.0},
"geometry":{"type": "LineString","coordinates": [[-104.8849177725204,54.978949285931527,364.0],[-104.88361568918707,54.961533921348192,385.5146],[-104.89427649647872,54.924017645306527,381.3997],[-104.9830623037704,54.799424546348192,415.9997],[-105.01768958241622,54.761501369264863,432.6072],[-105.0245662100204,54.733018296348192,440.7614],[-105.01939856679122,54.714382228639863,448.7376],[-105.02220618397872,54.670721746869027,482.1164],[-105.0306697256454,54.647324936973192,472.9396],[-105.06505286366622,54.598903713014863,470.6349],[-105.0733943350204,54.565130926556527,493.2775],[-105.06895911366622,54.544501043744027,509.9157]]}}