{"type":"Feature","properties":{"featurecla":"River","scalerank":12,"rivernum":20593,"dissolve":"20593River","name":"null315","name_alt":null,"note":"ID is link back to CEC data","name_full":null,"min_zoom":7.0,"strokeweig":0.2,"uident":1630901,"min_label":8.0},
"geometry":{"type": "LineString","coordinates": [[-103.01646887929122,54.944444077598192,331.151],[-103.04206295481207,54.960760809369027,331.7914],[-103.05426998606207,54.961615301556527,325.9002],[-103.0729060537704,54.950547593223192,313.0],[-103.0807185537704,54.929754949994027,357.4523],[-103.09630286366622,54.912054754681527,333.5365]]}}