{"type":"Feature","properties":{"featurecla":"River","scalerank":6,"rivernum":230,"dissolve":"230River","name":"null134","name_alt":null,"note":null,"min_zoom":5.0,"strokeweig":0.2,"name_en":null,"min_label":6.0},
"geometry":{"type": "LineString","coordinates": [[-103.7858154296875,58.69098541874412,388.5776],[-103.8285400390625,58.692743231244123,388.0],[-103.86572265625,58.700946356244117,388.7587],[-103.93486328125,58.727313543744117,381.5],[-103.9482421875,58.735126043744117,383.3958],[-103.956787109375,58.74298737186912,397.0576],[-103.972412109375,58.761102606244123,386.864],[-104.008349609375,58.787713934369123,390.0276],[-104.01708984375,58.79962799686912,375.4339],[-104.00205078124999,58.811786199994117,384.0362],[-103.969482421875,58.819452215619123,375.1815],[-103.955078125,58.826288153119123,383.6808],[-103.94394531249999,58.838397528119117,375.0],[-103.9501953125,58.84210846561912,399.5291],[-103.962158203125,58.845721746869117,396.0582],[-103.9686767578125,58.85736725468162,384.1827],[-103.96347656249999,58.86920807499412,385.5301],[-103.9404296875,58.886493231244117,387.878],[-103.93515625,58.89862702030662,371.5],[-103.94101562499999,58.90973541874412,376.2865],[-103.954833984375,58.91840241093162,368.0],[-103.982958984375,58.928729559369117,370.049],[-103.98046875,58.93671295780662,371.0856],[-103.97788085937499,58.942499090619123,372.8939],[-103.9742919921875,58.94684479374412,370.0717],[-103.9686767578125,58.95038483280662,365.6794],[-103.9686767578125,58.956659246869123,368.325],[-104.01425781249999,58.966913153119123,369.8655],[-104.1207763671875,58.94928619999412,366.7954],[-104.1748046875,58.956659246869123,366.4886],[-104.1840087890625,58.962420965619117,364.5704],[-104.190673828125,58.968768621869117,363.1706],[-104.1996337890625,58.974139715619117,357.456],[-104.2157470703125,58.97711823124412,354.7016],[-104.23105468749999,58.97662994999412,354.8713],[-104.261279296875,58.972040106244123,353.4392],[-104.30693359375,58.97125885624412,374.9405],[-104.363330078125,58.97675202030662,362.3394],[-104.3876953125,58.98395416874412,346.0356],[-104.4294921875,59.006610418744117,338.7017],[-104.453173828125,59.01398346561912,372.6565],[-104.4926025390625,59.00421784061912,340.8992],[-104.565673828125,59.00311920780662,358.584],[-104.58627929687499,59.00507233280662,339.7257],[-104.639453125,59.03485748905662,347.3522],[-104.6708984375,59.044696356244117,323.1099],[-104.71123046875,59.03107330936912,336.3254],[-104.74155273437499,59.03339264530662,343.0322],[-104.76513671875,59.024042059369123,347.0738],[-104.856689453125,59.012567449994123,323.5384],[-105.14096679687499,59.00775787968162,302.7337],[-105.1549560546875,59.011981512494117,331.011]]}}