{"type":"Feature","properties":{"featurecla":"Lake Centerline","scalerank":7,"rivernum":629,"dissolve":"629Lake Centerline","name":"Churchill9","name_alt":null,"note":null,"min_zoom":6.0,"strokeweig":0.25,"name_en":"Churchill","min_label":7.0},
"geometry":{"type": "LineString","coordinates": [[-106.1486083984375,55.76386139530662,382.0],[-106.1486083984375,55.76386139530662,382.0],[-106.14853515624999,55.76386139530662,382.0],[-106.1396484375,55.75775787968162,382.0],[-106.123291015625,55.74518463749412,382.0],[-106.1022216796875,55.736346746869117,382.0],[-106.0736572265625,55.726581121869117,382.0],[-106.0458984375,55.71893952030662,382.0],[-105.99462890625,55.70905182499412,380.747],[-105.984130859375,55.70856354374412,383.8263]]}}