{"type":"Feature","properties":{"featurecla":"River","scalerank":11,"rivernum":21440,"dissolve":"21440River","name":"Willowlake4","name_alt":null,"note":"ID is link back to CEC data","name_full":"Willowlake River","min_zoom":6.7,"strokeweig":0.2,"uident":1369201,"min_label":7.7},
"geometry":{"type": "LineString","coordinates": [[-123.18956458241622,62.726100978639863,111.0404],[-123.05504309804122,62.715196030723192,177.1834],[-122.97687740793705,62.683701890098192,206.7644],[-122.9217830068954,62.678045965619027,242.1477],[-122.86607825429122,62.680528061973192,183.773],[-122.84044348866622,62.688055731244027,192.8691],[-122.80402584543705,62.705430405723192,233.0849],[-122.77879798085372,62.705186265098192,230.9512],[-122.63044186106205,62.682237046348192,237.4604],[-122.54735266835372,62.661810614056527,226.6193],[-122.48912512929122,62.649440822389863,233.0417],[-122.44562740793705,62.643418686973192,218.2852],[-122.37092037668705,62.651719468223192,214.9286],[-122.2779841787704,62.654242254681527,193.7477],[-122.18089759022872,62.644313869264863,159.1064],[-122.09288489491622,62.626654364056527,159.5727],[-122.03180904856205,62.610947983848192,156.096],[-121.91405188710372,62.567084051556527,197.9951],[-121.81248938710372,62.531765041139863,198.496]]}}