{"type":"Feature","properties":{"featurecla":"River","scalerank":11,"rivernum":21564,"dissolve":"21564River","name":"null666","name_alt":null,"note":"ID is link back to CEC data","name_full":null,"min_zoom":6.7,"strokeweig":0.2,"uident":1327401,"min_label":7.7},
"geometry":{"type": "LineString","coordinates": [[-121.1925349600204,64.81244537968152,155.5],[-121.03473873606205,64.73261139530652,284.5283],[-120.8976130850204,64.71088287968152,312.9091],[-120.7518611318954,64.658555405723192,338.2798],[-120.6610408193954,64.63385651249402,331.2055],[-120.6344294912704,64.62933991093152,339.8477],[-120.5787654287704,64.62641022343152,342.4778],[-120.50975501210372,64.64093659061902,347.3697],[-120.47630774647872,64.66034577030652,355.7455],[-120.4623103506454,64.681667384889863,363.6472],[-120.42243404856205,64.694606838014863,373.3745],[-120.34825598866622,64.704372463014863,376.0616],[-120.31578528554122,64.71588776249402,375.8807],[-120.25877844960372,64.756374416139863,394.3995],[-120.22618567616622,64.767849025514863,392.4364],[-120.1947322256454,64.77167389530652,399.163],[-120.14232337147872,64.76788971561902,401.0766],[-120.09308834543705,64.749294338014863,401.8207]]}}