{"type":"Feature","properties":{"featurecla":"River","scalerank":11,"rivernum":21334,"dissolve":"21334River","name":"Horn","name_alt":null,"note":"ID is link back to CEC data","name_full":"Horn River","min_zoom":6.7,"strokeweig":0.2,"uident":1405101,"min_label":7.7},
"geometry":{"type": "LineString","coordinates": [[-117.71300208241622,61.910345770306527,178.0],[-117.7203669912704,61.831244207806527,186.0308],[-117.73399817616622,61.784369207806527,185.6157],[-117.76976477772872,61.726100978639863,183.2066],[-117.81786048085372,61.678534246869027,175.8513],[-117.83690344960372,61.658514715619027,177.4632],[-117.90094967356205,61.611639715619027,163.8638],[-117.95213782460372,61.578314520306527,149.7401],[-117.99095618397872,61.549017645306527,151.262],[-118.02863522043705,61.532822983848192,146.7668],[-118.0492244131454,61.519802150514863,143.5504],[-118.08092200429122,61.493963934369027,139.0],[-118.08824622304122,61.476141668744027,141.0097]]}}