{"type":"Feature","properties":{"featurecla":"Lake Centerline","scalerank":12,"rivernum":21275,"dissolve":"21275Lake Centerline","name":"null1122","name_alt":null,"note":"ID is link back to CEC data","name_full":null,"min_zoom":7.0,"strokeweig":0.2,"uident":1413401,"min_label":8.0},
"geometry":{"type": "LineString","coordinates": [[-103.70201575429122,62.305853582806527,308.2404],[-103.61327063710372,62.363348699994027,331.6816],[-103.56639563710372,62.394598699994027,295.7012],[-103.51952063710372,62.437567449994027,295.4219],[-103.46776282460372,62.467962957806527,297.7187]]}}