{"type":"Feature","properties":{"featurecla":"Lake Centerline","scalerank":12,"rivernum":21527,"dissolve":"21527Lake Centerline","name":"Wopmay7","name_alt":null,"note":"ID is link back to CEC data","name_full":"Wopmay River","min_zoom":7.0,"strokeweig":0.2,"uident":1332201,"min_label":8.0},
"geometry":{"type": "LineString","coordinates": [[-116.49205481679122,64.95758698124402,321.5005],[-116.49022376210372,64.92975494999402,276.5],[-116.52147376210372,64.90241119999402,276.5],[-116.52057857981205,64.872341213014863,322.9391]]}}