{"type":"Feature","properties":{"featurecla":"River","scalerank":10,"rivernum":21616,"dissolve":"21616River","name":"Sloan","name_alt":null,"note":"ID is link back to CEC data","name_full":"Sloan River","min_zoom":6.0,"strokeweig":0.2,"uident":1308601,"min_label":7.0},
"geometry":{"type": "LineString","coordinates": [[-117.52399654856205,66.48749420780652,160.3674],[-117.49388587147872,66.49603912968152,178.2292],[-117.45982825429122,66.514024155723192,272.3737],[-117.42218990793705,66.52326080936902,244.7278],[-117.37995357981205,66.52777741093152,230.6238],[-117.29352779856205,66.52936432499402,286.7133],[-117.20368404856205,66.54254791874402,331.2838],[-117.13817298085372,66.566921291139863,328.8253],[-117.08136959543705,66.580674546348192,367.3367],[-117.04723059804122,66.583848374473192,302.0877],[-116.9820857412704,66.57855866093152,320.7487],[-116.96393795481205,66.57379791874402,360.2714],[-116.9115291006454,66.572129624473192,393.1697],[-116.84699459543705,66.57770416874402,312.0901],[-116.80915279856205,66.58685944218152,381.8599],[-116.73668372304122,66.598985093223192,301.1826],[-116.6549373037704,66.61627838749402,340.5425],[-116.52961178293705,66.63104889530652,404.1849],[-116.5272517568954,66.63080475468152,413.379],[-116.40672766835372,66.62018463749402,367.4156],[-116.30207272043705,66.595078843223192,433.4739],[-116.2665095693954,66.56635162968152,450.4515],[-116.27057857981205,66.54096100468152,397.5852],[-116.33893795481205,66.51019928593152,368.703],[-116.35338294179122,66.489854233848192,370.9007],[-116.3353572256454,66.45380280155652,398.0907],[-116.31578528554122,66.441921291139863,386.1965],[-116.2784724600204,66.39935944218152,390.2089],[-116.19786536366622,66.364854233848192,432.3903],[-116.1500544912704,66.36237213749402,407.6003],[-116.0968318350204,66.36420319218152,402.5087],[-115.99266516835372,66.34393952030652,402.5],[-115.80870520741622,66.294297593223192,393.5187],[-115.78229732981205,66.263210353639863,460.1674],[-115.75487219960372,66.252305405723192,479.3792],[-115.7381892568954,66.23261139530652,426.0638],[-115.7406306631454,66.21405670780652,415.1653],[-115.7743220693954,66.200222072389863,416.4192],[-115.85167395741622,66.175563869264863,435.7771]]}}