{"type":"Feature","properties":{"featurecla":"River","scalerank":12,"rivernum":21546,"dissolve":"21546River","name":"null659","name_alt":null,"note":"ID is link back to CEC data","name_full":null,"min_zoom":7.0,"strokeweig":0.2,"uident":1326101,"min_label":8.0},
"geometry":{"type": "LineString","coordinates": [[-114.48908443918705,65.306179103639863,407.6552],[-114.5016169912704,65.331081447389863,396.5624],[-114.46849524647872,65.33905670780652,421.1763],[-114.42634029856205,65.34650299686902,394.1745],[-114.4034724600204,65.36225006718152,393.3969],[-114.4518123037704,65.454128322389863,392.7649],[-114.4544978506454,65.47052643436902,397.0611]]}}