{"type":"Feature","properties":{"featurecla":"River","scalerank":11,"rivernum":21465,"dissolve":"21465River","name":"Snare5","name_alt":null,"note":"ID is link back to CEC data","name_full":"Snare River","min_zoom":6.7,"strokeweig":0.2,"uident":1348301,"min_label":7.7},
"geometry":{"type": "LineString","coordinates": [[-113.78795325429122,64.31220123905652,400.7585],[-113.7762751943954,64.32868073124402,399.2668],[-113.7545466787704,64.33331940311902,406.2618],[-113.70250403554122,64.336696681764863,400.6583],[-113.6385798818954,64.34699127811902,405.9784],[-113.5831599600204,64.36334869999402,405.3617],[-113.46125240793705,64.410183009889863,414.211],[-113.27204342356205,64.46369049686902,401.027],[-113.24193274647872,64.47479889530652,420.4191],[-113.14948482981205,64.48663971561902,401.9659],[-113.05492102772872,64.48139069218152,362.5]]}}