{"type":"Feature","properties":{"featurecla":"River","scalerank":12,"rivernum":21396,"dissolve":"21396River","name":"null587","name_alt":null,"note":"ID is link back to CEC data","name_full":null,"min_zoom":7.0,"strokeweig":0.2,"uident":1362601,"min_label":8.0},
"geometry":{"type": "LineString","coordinates": [[-105.77135169179122,64.51117584843152,295.937],[-105.70396887929122,64.47577545780652,329.4609],[-105.57738196522872,64.423610744264863,294.8667],[-105.5567927725204,64.412705796348192,300.1181],[-105.54206295481205,64.38568756718152,311.4891],[-105.55308997304122,64.362087306764863,320.6533],[-105.58556067616622,64.320908921348192,340.7798],[-105.62995357981205,64.249050197389863,356.0679],[-105.65404212147872,64.238389390098192,349.8818],[-105.7521052725204,64.22052643436902,355.3065],[-105.8172908193954,64.20148346561902,365.8313],[-105.8990779287704,64.187282619264863,366.9831]]}}