{"type":"Feature","properties":{"featurecla":"River","scalerank":12,"rivernum":21443,"dissolve":"21443River","name":"Snare2","name_alt":null,"note":"ID is link back to CEC data","name_full":"Snare River","min_zoom":7.0,"strokeweig":0.2,"uident":1354001,"min_label":8.0},
"geometry":{"type": "LineString","coordinates": [[-112.7777400381454,64.480251369264863,421.5948],[-112.72191321522872,64.46124909061902,377.8661],[-112.69847571522872,64.438828843223192,391.8662],[-112.69554602772872,64.41583893436902,397.0679],[-112.7074275381454,64.37103912968152,441.1945],[-112.69074459543705,64.345974025514863,410.2532],[-112.66930091054122,64.33710358280652,396.5],[-112.49608313710372,64.283474025514863,411.2012]]}}