{"type":"Feature","properties":{"featurecla":"River","scalerank":10,"rivernum":21197,"dissolve":"21197River","name":"Taltson5","name_alt":null,"note":"ID is link back to CEC data","name_full":"Taltson River","min_zoom":6.0,"strokeweig":0.2,"uident":1442201,"min_label":7.0},
"geometry":{"type": "LineString","coordinates": [[-107.7242732412704,61.877997137494027,371.3656],[-107.69041907460372,61.877712306764863,344.4155],[-107.61213131418705,61.887030340619027,362.4451],[-107.55016028554122,61.900091864056527,336.5],[-107.47813880116622,61.907009181764863,381.5922],[-107.44440670481205,61.906561590619027,394.1036],[-107.41197669179122,61.900905666139863,360.9845],[-107.33983313710372,61.881170965619027,367.5287],[-107.29450436106205,61.862494207806527,355.5],[-107.24933834543705,61.834906317181527,369.7943],[-107.1266169912704,61.701605535931527,378.0379],[-107.0404353506454,61.663641668744027,391.1027],[-107.0162654287704,61.649969793744027,381.7054],[-106.9579158193954,61.625311590619027,381.6569],[-106.86253821522872,61.609442449994027,391.6747],[-106.78083248606205,61.590399481244027,376.0],[-106.72614498606205,61.582953192181527,398.5354],[-106.66038977772872,61.585394598431527,410.8746],[-106.60456295481205,61.593858140098192,415.619],[-106.47606360585372,61.624782619264863,376.0],[-106.4210505850204,61.626044012494027,382.3909],[-106.38654537668705,61.632635809369027,423.0481],[-106.33788001210372,61.631537176556527,395.5567],[-106.28905188710372,61.619981186973192,391.1111],[-106.22223873606205,61.609930731244027,407.2365],[-106.18626868397872,61.602403061973192,390.7622],[-106.14264889231205,61.585028387494027,385.7877],[-106.13215084543705,61.566595770306527,383.6936],[-106.14020748606205,61.558905340619027,384.0422],[-106.16856848866622,61.545843817181527,382.2928],[-106.21007239491622,61.519395249473192,426.8885],[-106.2308650381454,61.496446030723192,440.7836],[-106.23542232981205,61.469590561973192,421.0467],[-106.21703040272872,61.411403713014863,392.0],[-106.2516169912704,61.396063543744027,392.0],[-106.28400631418705,61.384385483848192,394.3566],[-106.30134029856205,61.372259832806527,392.0],[-106.31688391835372,61.355088608848192,411.6717],[-106.3229060537704,61.342230535931527,410.4131],[-106.30968176991622,61.297634181764863,410.3609]]}}