{"type":"Feature","properties":{"featurecla":"River","scalerank":11,"rivernum":21369,"dissolve":"21369River","name":"Yellowknife2","name_alt":null,"note":"ID is link back to CEC data","name_full":"Yellowknife River","min_zoom":6.7,"strokeweig":0.2,"uident":1382901,"min_label":7.7},
"geometry":{"type": "LineString","coordinates": [[-113.6673884756454,63.839789129681527,355.2167],[-113.7840876943954,63.743475653119027,363.5745],[-113.80370032460372,63.700873114056527,390.6621],[-113.77961178293705,63.642523504681527,369.9775],[-113.79767818918705,63.627386785931527,349.623],[-113.8399958975204,63.617946681764863,339.9438],[-113.8736873037704,63.607855535931527,364.231],[-113.90672766835372,63.590643621869027,374.5023],[-113.9425349600204,63.560248114056527,371.0806],[-113.99058997304122,63.506415106244027,339.4773],[-114.02326412668705,63.460028387494027,356.5388],[-114.06175696522872,63.392889715619027,321.0948],[-114.0880427725204,63.378241278119027,316.6591],[-114.13121497304122,63.370428778119027,336.5918],[-114.15086829335372,63.364040431764863,324.347],[-114.20543372304122,63.309108791139863,296.5826],[-114.34447180897872,63.176133530723192,316.5731],[-114.3526912100204,63.150173244264863,311.7906],[-114.3260798818954,63.102728582806527,293.4146],[-114.30675208241622,63.054632879681527,235.5066],[-114.31550045481205,63.010931707806527,241.3008],[-114.33918209543705,62.998480535931527,246.0578],[-114.33332272043705,62.962958074994027,258.8885],[-114.30768795481205,62.932643947389863,278.4129],[-114.2738337881454,62.908148504681527,246.3414],[-114.26691647043705,62.877875067181527,207.0],[-114.28441321522872,62.828680731244027,220.5594]]}}