{"type":"Feature","properties":{"featurecla":"River","scalerank":11,"rivernum":21359,"dissolve":"21359River","name":"Yellowknife1","name_alt":null,"note":"ID is link back to CEC data","name_full":"Yellowknife River","min_zoom":6.7,"strokeweig":0.2,"uident":1387401,"min_label":7.7},
"geometry":{"type": "LineString","coordinates": [[-114.28441321522872,62.828680731244027,220.5594],[-114.3055720693954,62.801947332806527,232.9937],[-114.2997126943954,62.730047918744027,205.5558],[-114.2774958975204,62.680528061973192,211.7597],[-114.2545466787704,62.658514715619027,163.4332],[-114.22655188710372,62.640733140098192,155.0],[-114.1952205068954,62.612494207806527,155.0]]}}