{"type":"Feature","properties":{"featurecla":"River","scalerank":12,"rivernum":21473,"dissolve":"21473River","name":"Winter","name_alt":null,"note":"ID is link back to CEC data","name_full":"Winter River","min_zoom":7.0,"strokeweig":0.2,"uident":1345701,"min_label":8.0},
"geometry":{"type": "LineString","coordinates": [[-113.06737219960372,64.71588776249402,404.8738],[-113.06602942616622,64.67084381718152,402.1225],[-113.0939021475204,64.656520900514863,402.4504],[-113.12669837147872,64.63068268436902,404.9624],[-113.12096106679122,64.622341213014863,409.7704],[-113.05992591054122,64.61920807499402,399.0],[-113.0306697256454,64.601182358848192,443.2471],[-113.03156490793705,64.59027741093152,396.0],[-113.0445857412704,64.57233307499402,392.7276],[-113.0138240225204,64.514675197389863,370.265]]}}