{"type":"Feature","properties":{"featurecla":"River","scalerank":12,"rivernum":21399,"dissolve":"21399River","name":"null589","name_alt":null,"note":"ID is link back to CEC data","name_full":null,"min_zoom":7.0,"strokeweig":0.2,"uident":1382301,"min_label":8.0},
"geometry":{"type": "LineString","coordinates": [[-123.22785397043705,61.937323309369027,277.1167],[-123.16026770741622,61.971218166139863,265.2331],[-122.99144446522872,61.989935614056527,305.7206],[-122.95197506418705,61.991074936973192,305.9075],[-122.87507076731205,61.979437567181527,305.2163],[-122.8023982412704,61.947617905723192,329.9936],[-122.7748103506454,61.940375067181527,339.7419],[-122.75938880116622,61.920843817181527,327.8587],[-122.78156490793705,61.873724676556527,353.267],[-122.7711482412704,61.851141668744027,346.9526],[-122.74474036366622,61.832627671348192,348.5171]]}}