{"type":"Feature","properties":{"featurecla":"River","scalerank":12,"rivernum":21392,"dissolve":"21392River","name":"null585","name_alt":null,"note":"ID is link back to CEC data","name_full":null,"min_zoom":7.0,"strokeweig":0.2,"uident":1366001,"min_label":8.0},
"geometry":{"type": "LineString","coordinates": [[-109.27562415272872,64.043076890098192,367.5],[-109.1886287100204,64.01813385624402,373.0853],[-109.14549719960372,63.997626043744027,375.5],[-109.1200251943954,63.964626369264863,387.4843],[-109.12311764231205,63.939398504681527,392.8694],[-109.1344294912704,63.922186590619027,381.4379],[-109.1795955068954,63.892767645306527,419.7924],[-109.18846594960372,63.871201890098192,389.5]]}}