{"type":"Feature","properties":{"featurecla":"River","scalerank":11,"rivernum":21353,"dissolve":"21353River","name":"Horn2","name_alt":null,"note":"ID is link back to CEC data","name_full":"Horn River","min_zoom":6.7,"strokeweig":0.2,"uident":1396301,"min_label":7.7},
"geometry":{"type": "LineString","coordinates": [[-118.71947180897872,62.565375067181527,230.784],[-118.64305579335372,62.544704494264863,227.8065],[-118.5653376943954,62.534613348431527,235.5502],[-118.49474036366622,62.504095770306527,228.2211],[-118.39098059804122,62.466660874473192,228.5158],[-118.3246150381454,62.465684311973192,246.0536],[-118.24058997304122,62.439072983848192,232.6301],[-118.16828365793705,62.405585028119027,228.85],[-118.0738826162704,62.389431056764863,236.0789],[-117.9183650381454,62.355780340619027,230.501],[-117.86384029856205,62.337591864056527,227.0692],[-117.79914303293705,62.311957098431527,215.3323],[-117.75047766835372,62.281561590619027,211.2383],[-117.69245357981205,62.234401759889863,202.2561],[-117.65168209543705,62.208115952598192,193.0],[-117.6202693350204,62.198797918744027,193.0],[-117.58861243397872,62.198838608848192,191.0],[-117.55915279856205,62.211452541139863,193.4386],[-117.52912350168705,62.218532619264863,196.6542],[-117.49254309804122,62.217474676556527,199.3723],[-117.4574275381454,62.203192449994027,198.9442],[-117.42418372304122,62.181219793744027,199.5023],[-117.38463294179122,62.121527410931527,200.3255],[-117.3844294912704,62.086493231244027,198.4254],[-117.43077551991622,62.045111395306527,194.7139],[-117.51549231679122,62.008124090619027,190.8257],[-117.5721736318954,61.970404364056527,186.0615],[-117.6295466787704,61.958441473431527,181.5852],[-117.67564856679122,61.937323309369027,181.3984],[-117.69286048085372,61.919460353639863,178.0]]}}