{"type":"Feature","properties":{"featurecla":"River","scalerank":11,"rivernum":21326,"dissolve":"21326River","name":"Trout","name_alt":null,"note":"ID is link back to CEC data","name_full":"Trout River","min_zoom":6.7,"strokeweig":0.2,"uident":1417401,"min_label":7.7},
"geometry":{"type": "LineString","coordinates": [[-121.18297278554122,60.742132879681527,496.3813],[-121.1415095693954,60.767035223431527,498.8245],[-121.0084529287704,60.856024481244027,463.1906],[-120.95612545481205,60.884100653119027,456.3987],[-120.90733801991622,60.907741603639863,439.3756],[-120.81883704335372,60.943304754681527,424.4786],[-120.70490475168705,60.976752020306527,387.492],[-120.48810787668705,61.025702215619027,311.0209],[-120.43028723866622,61.052761134889863,289.9867],[-120.2953181631454,61.080511785931527,293.8952],[-120.22386634022872,61.087673244264863,296.8896],[-120.16535397043705,61.082790431764863,287.7549],[-120.14378821522872,61.075791733848192,287.8576],[-120.09080969960372,61.064072983848192,295.9942],[-120.05597897043705,61.073065496869027,283.7539],[-120.01146399647872,61.093329168744027,289.1879],[-119.95592200429122,61.100897528119027,277.6554],[-119.93635006418705,61.114121811973192,277.6181],[-119.88756262929122,61.129665431764863,276.2179],[-119.89415442616622,61.161729233848192,260.7241],[-119.8973689443954,61.181667384889863,283.7244],[-119.90160071522872,61.207790431764863,189.2529],[-119.91063391835372,61.244940496869027,178.6853],[-119.90461178293705,61.260687567181527,191.1322],[-119.87291419179122,61.297674871869027,159.6375],[-119.86143958241622,61.319403387494027,136.0]]}}