{"type":"Feature","properties":{"featurecla":"Lake Centerline","scalerank":11,"rivernum":21369,"dissolve":"21369Lake Centerline","name":"Yellowknife5","name_alt":null,"note":"ID is link back to CEC data","name_full":"Yellowknife River","min_zoom":6.7,"strokeweig":0.2,"uident":1382901,"min_label":7.7},
"geometry":{"type": "LineString","coordinates": [[-113.50617428293705,63.975653387494027,358.8281],[-113.5089412100204,63.936550197389863,386.1782],[-113.5685115225204,63.893174546348192,361.2233],[-113.6280818350204,63.858018296348192,352.1623],[-113.6673884756454,63.839789129681527,355.2167]]}}