{"type":"Feature","properties":{"featurecla":"River","scalerank":10,"rivernum":21361,"dissolve":"21361River","name":"Lockhart","name_alt":null,"note":"ID is link back to CEC data","name_full":"Lockhart River","min_zoom":6.0,"strokeweig":0.2,"uident":1379501,"min_label":7.0},
"geometry":{"type": "LineString","coordinates": [[-107.54645748606205,63.457790431764863,361.8252],[-107.5528865225204,63.483099676556527,391.8681],[-107.53197180897872,63.541571356244027,364.0],[-107.4513240225204,63.635565496869027,378.8349],[-107.3734431631454,63.692002671348192,388.5326],[-107.32652747304122,63.712022202598192,366.175],[-107.29352779856205,63.718573309369027,392.5414],[-107.2599177725204,63.723252671348192,393.8187],[-107.24762936106205,63.731472072389863,379.2145],[-107.25584876210372,63.741278387494027,408.4903],[-107.28892981679122,63.763047593223192,364.0]]}}