{"type":"Feature","properties":{"featurecla":"River","scalerank":12,"rivernum":21278,"dissolve":"21278River","name":"Thubun","name_alt":null,"note":"ID is link back to CEC data","name_full":"Thubun River","min_zoom":7.0,"strokeweig":0.2,"uident":1422601,"min_label":8.0},
"geometry":{"type": "LineString","coordinates": [[-112.4901423818954,61.518174546348192,186.847],[-112.43236243397872,61.517767645306527,191.7907],[-112.3160701162704,61.531683660931527,199.9445],[-112.23542232981205,61.522772528119027,203.1102],[-112.10680091054122,61.547715561973192,203.7458]]}}