{"type":"Feature","properties":{"featurecla":"River","scalerank":11,"rivernum":21410,"dissolve":"21410River","name":"Snare1","name_alt":null,"note":"ID is link back to CEC data","name_full":"Snare River","min_zoom":6.7,"strokeweig":0.2,"uident":1367601,"min_label":7.7},
"geometry":{"type": "LineString","coordinates": [[-115.9542537100204,63.698187567181527,241.9748],[-115.9540095693954,63.631618556764863,243.8572],[-115.95604407460372,63.612860418744027,242.8414],[-115.97272701731205,63.586493231244027,243.6695],[-116.0086970693954,63.553412176556527,246.2372],[-116.16808020741622,63.457098699994027,206.0],[-116.2848201162704,63.396551824994027,189.3068],[-116.3453669912704,63.348334051556527,190.2258],[-116.35289466054122,63.321478582806527,181.6151],[-116.34361731679122,63.299017645306527,185.586],[-116.3126521475204,63.290961004681527,174.2199],[-116.27025305897872,63.294053452598192,187.4252],[-116.23371334543705,63.294378973431527,195.3272],[-116.1954646475204,63.281927801556527,204.6959],[-116.17918860585372,63.266180731244027,163.0],[-116.14354407460372,63.225897528119027,158.5065]]}}