{"type":"Feature","properties":{"GID_3":"CAN.12.2.33_1","GID_0":"CAN","country":"Canada","GID_1":"CAN.12_1","province":"Saskatchewan","NL_NAME_1":"NA","GID_2":"CAN.12.2_1","county":"DivisionNo.11","NL_NAME_2":"NA","city":"Lockwood","VARNAME_3":"NA","NL_NAME_3":"NA","TYPE_3":"Village","ENGTYPE_3":"Village","CC_3":"NA","HASC_3":"NA","name":"Lockwood.city"},
"geometry":{"type": "MultiPolygon","coordinates": [[[[-105.0045,51.6492,521.5391],[-105.018,51.6491,525.0414],[-105.0176,51.6399,522.4553],[-105.0044,51.6417,522.1556],[-105.0045,51.6492,521.5391]]]]}}