{"type":"Feature","properties":{"GID_3":"CAN.5.4.14_1","GID_0":"CAN","country":"Canada","GID_1":"CAN.5_1","province":"NewfoundlandandLabrador","NL_NAME_1":"NA","GID_2":"CAN.5.4_1","county":"DivisionNo.2","NL_NAME_2":"NA","city":"EnglishHarbourEast","VARNAME_3":"NA","NL_NAME_3":"NA","TYPE_3":"Town","ENGTYPE_3":"Town","CC_3":"NA","HASC_3":"NA","name":"English_Harbour_East.city"},
"geometry":{"type": "MultiPolygon","coordinates": [[[[-54.8924,47.624,12.9717],[-54.8836,47.6258,13.7363],[-54.8858,47.6322,5.6756],[-54.8903,47.635,1.1011],[-54.8914,47.6383,30.3575],[-54.89,47.6392,5.1165],[-54.885,47.6387,20.3301],[-54.8866,47.6345,10.0279],[-54.8819,47.6317,0.0],[-54.8772,47.6331,9.8186],[-54.8758,47.63,0.0],[-54.8731,47.631,9.3967],[-54.8777,47.6415,133.9483],[-54.8808,47.6447,143.2993],[-54.8878,47.6498,21.8179],[-54.894,47.6518,152.4018],[-54.8993,47.6513,162.2952],[-54.9087,47.6396,76.7037],[-54.9018,47.626,102.5258],[-54.8996,47.6273,82.6971],[-54.8924,47.624,12.9717]]]]}}