{"type":"Feature","properties":{"GID_3":"CAN.2.4.49_1","GID_0":"CAN","country":"Canada","GID_1":"CAN.2_1","province":"BritishColumbia","NL_NAME_1":"NA","GID_2":"CAN.2.4_1","county":"Cariboo","NL_NAME_2":"NA","city":"DeepCreek2","VARNAME_3":"NA","NL_NAME_3":"NA","TYPE_3":"RéserveIndienne","ENGTYPE_3":"IndianReserve","CC_3":"NA","HASC_3":"NA","name":"Deep_Creek2.city"},
"geometry":{"type": "MultiPolygon","coordinates": [[[[-122.044,52.2421,941.9879],[-122.0421,52.2633,773.6857],[-122.0755,52.2641,796.8885],[-122.0751,52.2708,920.2715],[-122.1233,52.2717,750.7456],[-122.123,52.2814,880.8921],[-122.1476,52.282,693.0995],[-122.1482,52.2589,942.0529],[-122.0939,52.2571,744.6095],[-122.0954,52.2419,921.9899],[-122.044,52.2421,941.9879]]]]}}