{"type":"Feature","properties":{"GID_3":"CAN.9.34.7_1","GID_0":"CAN","country":"Canada","GID_1":"CAN.9_1","province":"Ontario","NL_NAME_1":"NA","GID_2":"CAN.9.34_1","county":"Northumberland","NL_NAME_2":"NA","city":"Hamilton","VARNAME_3":"NA","NL_NAME_3":"NA","TYPE_3":"Township","ENGTYPE_3":"Township","CC_3":"NA","HASC_3":"NA","name":"Hamilton.city"},
"geometry":{"type": "MultiPolygon","coordinates": [[[[-78.2066,43.9487,73.5],[-78.2149,43.9677,91.6434],[-78.2028,43.9706,104.3315],[-78.2061,43.9788,107.5191],[-78.1863,43.9819,102.8949],[-78.1702,43.9872,114.873],[-78.1609,43.9922,118.3069],[-78.1456,43.9933,140.659],[-78.1387,43.9962,133.8527],[-78.1204,43.9557,73.5],[-78.1039,43.9574,73.5],[-78.0875,43.9648,73.5],[-78.081,43.9645,73.5],[-78.1181,44.0459,208.8832],[-78.1774,44.1688,185.0],[-78.1856,44.1611,185.0],[-78.1759,44.1573,185.0],[-78.1846,44.1555,185.0],[-78.2053,44.144,185.0],[-78.2118,44.1373,185.0],[-78.2264,44.1324,185.0],[-78.2308,44.1361,185.0],[-78.2339,44.1456,185.0],[-78.2537,44.1338,185.0],[-78.271,44.1265,185.0],[-78.2925,44.1249,185.0],[-78.3009,44.1262,185.0],[-78.3078,44.1294,190.2687],[-78.347,44.1199,227.7214],[-78.2681,43.9587,84.5464],[-78.2668,43.9587,84.7305],[-78.2637,43.9508,74.586],[-78.2652,43.9505,74.586],[-78.2641,43.9483,73.5],[-78.2252,43.9515,73.5],[-78.2066,43.9487,73.5]]]]}}