{"type": "Feature","bbox": [-124.5336,49.7728,-124.4066,50.0135],"geometry": {"type": "MultiPolygon","coordinates": [[[[-124.5317,49.8947,50.5],[-124.5242,49.8838,50.5],[-124.5251,49.8805,90.1553],[-124.5213,49.8803,135.5569],[-124.5181,49.875,211.4867],[-124.5201,49.8751,162.7017],[-124.5201,49.8736,98.356],[-124.4985,49.8735,195.6102],[-124.4985,49.8675,206.9275],[-124.5039,49.8672,137.2315],[-124.5036,49.8587,153.7991],[-124.4972,49.8587,167.7379],[-124.4972,49.8481,153.5814],[-124.5033,49.8479,129.3863],[-124.5034,49.8407,139.2852],[-124.4917,49.8409,106.5172],[-124.4917,49.8347,109.4672],[-124.4869,49.8348,104.9141],[-124.4867,49.8301,99.9295],[-124.5031,49.8298,158.2057],[-124.5028,49.8164,137.6249],[-124.5085,49.8163,124.5846],[-124.5075,49.8,0.0],[-124.498,49.7951,0.0],[-124.4827,49.7955,10.5181],[-124.478,49.793,0.0],[-124.4718,49.7941,7.4626],[-124.4586,49.7864,12.983],[-124.4503,49.7771,5.3026],[-124.436,49.7728,1.7971],[-124.4361,49.7791,85.9383],[-124.4316,49.7776,86.2836],[-124.4316,49.7806,97.7716],[-124.436,49.7804,85.9383],[-124.4363,49.8033,130.7464],[-124.4071,49.8035,114.6194],[-124.4066,49.8411,258.1707],[-124.4294,49.841,218.9145],[-124.4303,49.8571,194.0267],[-124.4403,49.8571,220.5209],[-124.4399,49.8756,200.3738],[-124.436,49.8757,202.2799],[-124.4359,49.8859,179.7901],[-124.4309,49.886,188.1254],[-124.4315,49.8944,169.5],[-124.4188,49.9037,169.5],[-124.4169,49.9135,169.5],[-124.4151,49.9522,169.5],[-124.4282,49.9522,207.6481],[-124.4282,49.9557,211.6292],[-124.4344,49.9558,308.7841],[-124.4332,49.9782,286.6339],[-124.4386,49.9783,323.1923],[-124.4382,49.987,185.4964],[-124.4447,49.9873,174.603],[-124.443,50.0135,50.5],[-124.4971,49.9919,50.5],[-124.5263,49.9849,50.5],[-124.5335,49.9765,50.5],[-124.5313,49.9638,50.5],[-124.5336,49.9592,50.5],[-124.5305,49.9425,50.5],[-124.5314,49.9376,50.5],[-124.5281,49.9334,50.5],[-124.5287,49.9118,50.5],[-124.5257,49.9075,76.9369],[-124.5251,49.8992,50.5],[-124.5317,49.8947,50.5]]]]}
,"properties": {"GID_3": "CAN.2.23.4_1","GID_0": "CAN","country": "Canada","GID_1": "CAN.2_1","province": "BritishColumbia","NL_NAME_1": "NA","GID_2": "CAN.2.23_1","county": "PowellRiver","NL_NAME_2": "NA","city": "PowellRiverB","VARNAME_3": "NA","NL_NAME_3": "NA","TYPE_3": "RegionalDistrictElectoralArea","ENGTYPE_3": "RegionalDistrictElectoralArea","CC_3": "NA","HASC_3": "NA","name": "Powell_River_B.city","area_km2": 152.9222,"hist_schema_id": "Elevation0-9000","hist_area_km2": {"0": 0.5202,"25": 1.2045,"50": 13.472,"75": 4.6355,"100": 9.4526,"125": 11.2471,"150": 13.7908,"175": 20.6014,"200": 14.4167,"225": 11.2581,"250": 5.8462,"275": 3.2764,"300": 3.549,"325": 2.8937,"350": 3.2621,"375": 2.3063,"400": 1.7331,"425": 1.6784,"450": 1.5695,"475": 1.4875,"500": 1.2828,"525": 1.5011,"550": 1.31,"575": 1.2553,"600": 1.1462,"625": 1.5415,"650": 1.6234,"675": 1.9508,"700": 1.3915,"725": 1.6235,"750": 1.5144,"775": 1.2142,"800": 0.7775,"825": 0.7639,"850": 0.6821,"875": 0.8185,"900": 0.9958,"925": 0.6957,"950": 0.5729,"975": 0.6139,"1000": 0.5457,"1025": 0.573,"1050": 0.2729,"1075": 0.0546}}}