{"type":"Feature","properties":{"GID_3":"CAN.2.3.27_1","GID_0":"CAN","country":"Canada","GID_1":"CAN.2_1","province":"BritishColumbia","NL_NAME_1":"NA","GID_2":"CAN.2.3_1","county":"Capital","NL_NAME_2":"NA","city":"UnionBay4","VARNAME_3":"NA","NL_NAME_3":"NA","TYPE_3":"RéserveIndienne","ENGTYPE_3":"IndianReserve","CC_3":"NA","HASC_3":"NA","name":"Union_Bay4.city"},
"geometry":{"type": "MultiPolygon","coordinates": [[[[-123.444,48.6663,13.0762],[-123.458,48.6662,6.609],[-123.4499,48.6626,8.5051],[-123.4441,48.6627,12.6486],[-123.444,48.6663,13.0762]]]]}}