{"type": "Feature","bbox": [-117.5453320522779,63.691974329678516,-116.97529592008743,64.076119515585333],"geometry": {"type": "Polygon","coordinates": [[[-117.11467733428427,64.016069233650484,263.4348],[-117.20857949083927,64.020779059684571,232.7012],[-117.24169545514158,64.026371978100087,225.2578],[-117.24566937085785,64.035791630168291,261.1376],[-117.23463071609042,64.051392928906267,289.6314],[-117.22226742275089,64.076119515585333,237.4148],[-117.2450806426036,64.073175874314018,212.5],[-117.30218728326714,64.05580839081324,212.5],[-117.34619472027333,64.031376168261318,212.5],[-117.37489522266867,64.02490015746443,222.7464],[-117.43523986873066,64.020779059684571,219.9693],[-117.46070236572754,64.014303048887683,212.5],[-117.50809499019574,63.991637011098561,212.5],[-117.53046666385775,63.9866328209373,212.5],[-117.54106377243448,63.981334266648929,212.5],[-117.5453320522779,63.969559701563668,212.5],[-117.54297713926084,63.957785136478407,212.5],[-117.53385185131977,63.952486582190033,224.3093],[-117.52016391940815,63.954547131079948,220.3871],[-117.49646760717405,63.963378054893894,212.5],[-117.48307403938955,63.965438603783838,212.5],[-117.49072750669498,63.954547131079948,212.5],[-117.50323798209807,63.945716207266,212.5],[-117.53076102798488,63.932175457417941,212.5],[-117.49558451479265,63.922755805349738,263.329],[-117.4630572787446,63.9371796475792,238.2308],[-117.43185468126865,63.959551321241207,217.0329],[-117.39976899141129,63.973092071089241,212.5],[-117.40079926585625,63.963378054893894,212.5],[-117.40374290712757,63.954252766952834,212.5],[-117.40801118697098,63.946010571393145,212.5],[-117.41404565157717,63.938357104087714,212.5],[-117.40786400490741,63.934824734562142,212.5],[-117.40447881744541,63.931292365036569,212.5],[-117.40256545061905,63.927759995510968,212.5],[-117.39976899141129,63.924521990112538,212.5],[-117.44480670286244,63.902739044704788,212.5],[-117.46688401239732,63.887432110093926,212.5],[-117.47615648240196,63.873008267864492,212.5],[-117.4682086509694,63.847398588804026,212.5],[-117.44804470826088,63.835624023718765,212.5],[-117.4212575726919,63.833269110701707,229.0316],[-117.32603077756481,63.847987317058283,217.3572],[-117.28761625897413,63.847987317058283,218.7183],[-117.27069032166406,63.832091654193192,212.5],[-117.25347002022684,63.820905817362188,212.5],[-117.21417240925477,63.820611453235045,212.5],[-117.17222552113851,63.826793099904819,223.0931],[-117.14720457033232,63.835918387845908,217.4699],[-117.13528282318349,63.831208561811792,242.7357],[-117.1227723477804,63.828853648794734,229.849],[-117.11217523920365,63.825026915142018,213.4898],[-117.10555204634318,63.815312898946672,220.7767],[-117.1339581846114,63.815018534819558,214.0],[-117.16530796415091,63.808542524022641,214.0],[-117.19238946384704,63.795296138301723,214.0],[-117.20857949083927,63.774396285275373,216.2928],[-117.17369734177417,63.765565361461427,214.0],[-117.1628058690703,63.757323165901738,214.0],[-117.16707414891371,63.740250046528104,214.0],[-117.18120362701603,63.730241666205615,214.0],[-117.21799914290749,63.723176927154469,214.0],[-117.22918497973849,63.71228545445058,214.0],[-117.23139271069198,63.707869992543607,214.0],[-117.23595535466251,63.691974329678516,219.9913],[-117.1731086135199,63.695212335076945,242.1322],[-117.15397494525635,63.699333432856804,217.0954],[-117.13999264921759,63.704926351272292,235.9198],[-117.13513564111992,63.710224905560665,237.5573],[-117.1326335460393,63.718172736993239,225.6744],[-117.12615753524241,63.732890943349815,234.9002],[-117.12071179889047,63.7376007693839,237.0907],[-117.11394142396644,63.740544410655247,232.0699],[-117.10820132348738,63.743782416053676,234.3262],[-117.10555204634318,63.750258426850564,242.8165],[-117.10702386697885,63.756440073520338,246.9172],[-117.11261678539435,63.769392095114142,254.6214],[-117.11246960333078,63.774396285275373,273.2192],[-117.10466895396179,63.784993393852119,326.4761],[-117.09333593506722,63.793235589411807,222.4768],[-117.0796480031556,63.798828507827295,214.0],[-117.06463543267188,63.80177214909861,218.7772],[-117.06242770171841,63.824438186887761,220.0334],[-117.03549338408585,63.841216942134253,221.7591],[-116.97529592008743,63.862999887542,231.4005],[-116.99796195787656,63.872713903737349,237.2827],[-117.04785667742539,63.874185724373007,212.5],[-117.07155298965948,63.883605376441238,212.5],[-117.08126700585483,63.897146126289272,218.5],[-117.07228889997731,63.9056826859761,212.5],[-117.05359677790445,63.909803783755933,212.5],[-117.0340215634502,63.910981240264476,222.4291],[-117.01812590058509,63.917457251061364,216.9503],[-116.99899223232153,63.931881093290826,214.5941],[-116.98971976231687,63.946010571393145,259.2395],[-117.00326051216493,63.952486582190033,243.5718],[-117.02460191138198,63.9483654844102,216.7561],[-117.04388276170911,63.940417652977629,212.5],[-117.06331079409979,63.935119098689256,212.5],[-117.08524092157111,63.938357104087714,225.6032],[-117.07626281569358,63.957785136478407,223.7769],[-117.04417712583623,63.981039902521815,224.7894],[-117.0374067509122,63.993403195861333,217.5041],[-117.03990884599283,63.998113021895449,231.1302],[-117.05256650345949,64.003705940310937,227.5111],[-117.05727632949359,64.007238309836538,232.2693],[-117.05536296266723,64.009593222853567,235.6492],[-117.05197777520522,64.015774869523341,221.4238],[-117.04962286218817,64.022545244447372,229.8689],[-117.05094750076026,64.0275494346086,227.8484],[-117.06640161743468,64.033731081278376,217.4006],[-117.07773463632924,64.030493075879917,223.0876],[-117.08406346506257,64.024017065083029,222.9735],[-117.08524092157111,64.020779059684571,221.9817],[-117.11467733428427,64.016069233650484,263.4348]]]}
,"properties": {"featurecla": "Lake","scalerank": 7,"name": "null118","name_abb": null,"name_alt": null,"note": "_untitled_50","delta": null,"dam_name": null,"year": -99,"admin": null,"min_zoom": 5.7,"min_label": 6.7,"area_km2": 521.1744,"hist_schema_id": "Elevation0-9000","hist_area_km2": {"225": 502.4105,"250": 13.7559,"275": 3.7969,"300": 0.7451,"325": 0.3355,"350": 0.1211,"375": 0.0093}}}