{"type": "Feature","bbox": [-121.61565202019106,60.391563736278243,-121.04708770863624,60.781596204727691],"geometry": {"type": "Polygon","coordinates": [[[-121.0481179830812,60.550814729056469,496.2322],[-121.06489673832772,60.577013136371193,491.0],[-121.06931220023469,60.591436978600626,491.0],[-121.0606284584843,60.601445358923115,491.0],[-121.06990092848895,60.622345211949465,491.0],[-121.09271414834166,60.658257635459535,496.8392],[-121.10169225421916,60.676508211341684,491.0],[-121.10419434929979,60.687399684045545,491.0],[-121.10448871342692,60.695053151350976,491.0],[-121.1066964443804,60.70211789040215,495.6397],[-121.11464427581296,60.71124317834321,496.5794],[-121.12097310454629,60.713598091360268,498.012],[-121.14128422931839,60.715953004377326,491.0],[-121.14879051456023,60.718013553267241,491.0],[-121.15762143837418,60.734497944386618,491.0],[-121.16247844647185,60.738619042166476,491.0],[-121.1829367533075,60.742151411692049,496.3813],[-121.23356738317415,60.743623232327707,496.538],[-121.25873551604391,60.752159792014538,494.9649],[-121.2967084884439,60.776592014566461,495.8334],[-121.320404800678,60.781596204727691,493.5251],[-121.34807502862837,60.772765280913745,493.4787],[-121.3432180205307,60.762168172337,491.0],[-121.34336520259427,60.741562683437792,497.765],[-121.34056874338651,60.731259938988188,498.1854],[-121.3329152760811,60.722723379301357,494.7148],[-121.31334006162683,60.71212627072461,491.0],[-121.30642250463924,60.703884075164922,491.0],[-121.30553941225784,60.685044771028515,491.0],[-121.31054360241909,60.638240874814556,496.7684],[-121.30303731717723,60.628821222746353,495.9845],[-121.29244020860048,60.625583217347895,495.2671],[-121.28331492065941,60.617341021788206,494.6121],[-121.26859671430282,60.5976186252704,494.2278],[-121.2571165133447,60.592025706854884,496.4969],[-121.2251780055509,60.589670793837854,496.4883],[-121.2139921687199,60.584077875422338,496.4499],[-121.20501406284238,60.581428598278166,495.8141],[-121.18632194076952,60.572892038591334,494.5887],[-121.17454737568426,60.564061114777388,491.0],[-121.18661630489666,60.559940016997558,491.0],[-121.23459765761912,60.557879468107615,496.8423],[-121.25181795905632,60.559940016997558,491.0],[-121.30951332797412,60.574069495099877,491.0],[-121.3380666483059,60.57760186462545,497.4087],[-121.36794460720976,60.574069495099877,494.1062],[-121.43962227216633,60.543749990005296,498.2792],[-121.46066930725624,60.539334528098323,510.4073],[-121.47700651631204,60.532269789047177,518.8099],[-121.516009763157,60.496651729664222,507.5153],[-121.52925614887792,60.481639159180531,506.5555],[-121.54750672476008,60.466920952823926,497.7734],[-121.59342752859263,60.445138007416205,515.8286],[-121.61565202019106,60.430714165186743,526.2068],[-121.59063106938487,60.424532518516969,493.7264],[-121.55545455619264,60.429831072805342,495.775],[-121.5202780430004,60.443371822653404,499.5171],[-121.4827466167911,60.469570229968127,491.0],[-121.45345738614151,60.479872974417731,491.0],[-121.42858361739889,60.496946093791365,491.0],[-121.41312950072447,60.503127740461139,491.0],[-121.3966451096051,60.506365745859569,491.0],[-121.38163253912138,60.505777017605311,491.0],[-121.3845761803927,60.491353175375878,494.4844],[-121.38487054451983,60.451908382340235,544.1916],[-121.39237682976169,60.443666186780547,563.7902],[-121.44683419328105,60.405987578507677,598.8765],[-121.44462646232756,60.393918649295273,521.7928],[-121.41960551152137,60.391563736278243,491.0],[-121.35322640085317,60.396862290566588,491.0],[-121.3441011129121,60.398922839456532,491.0],[-121.33438709671675,60.402160844854961,491.0],[-121.32776390385629,60.406870670889077,491.0],[-121.3139287898811,60.420411420737139,491.0],[-121.31010205622839,60.423355062008454,491.0],[-121.29391202923614,60.426593067406912,496.2728],[-121.2307709239664,60.450730925831692,493.4601],[-121.21634708173696,60.461622398535553,495.1183],[-121.19588877490131,60.483699708070446,491.0],[-121.18352548156177,60.492236267757249,491.0],[-121.07299175182382,60.523733229360346,491.0],[-121.0494426216533,60.5472823595309,491.0],[-121.04841234720834,60.5472823595309,491.0],[-121.04782361895407,60.548165451912269,491.0],[-121.0476764368905,60.549048544293669,498.2346],[-121.04782361895407,60.550226000802212,491.0],[-121.04752925482694,60.551109093183584,497.8139],[-121.04708770863624,60.55169782143787,497.4095],[-121.04738207276338,60.551403457310727,497.4095],[-121.0481179830812,60.550814729056469,496.2322]]]}
,"properties": {"featurecla": "Lake","scalerank": 5,"name": "Trout Lake","name_abb": "Trout L.","name_alt": null,"note": null,"delta": null,"dam_name": null,"year": -99,"admin": null,"min_zoom": 4.7,"min_label": 6.0,"area_km2": 509.2744,"hist_schema_id": "Elevation0-9000","hist_area_km2": {"500": 497.6816,"525": 5.2511,"550": 2.7728,"575": 2.0617,"600": 1.2351,"625": 0.2721}}}