{"type": "Feature","bbox": [-118.88351137421847,64.769347034980427,-118.09255496461567,65.308916480012755],"geometry": {"type": "Polygon","coordinates": [[[-118.68893668618443,64.9598006252346,190.5288],[-118.67539593633637,64.952147157929176,190.1329],[-118.64860880076739,64.9244769299788,181.119],[-118.64434052092399,64.91829528330905,180.5],[-118.63315468409299,64.914174185529191,184.0138],[-118.53513142975814,64.850002805814484,183.8678],[-118.52615332388064,64.847942256924568,180.5],[-118.50746120180776,64.837933876602108,180.5],[-118.49715845735815,64.835873327712164,180.5],[-118.4556531154326,64.83646205596645,180.5],[-118.44549755304655,64.832635322313735,183.4082],[-118.44064054494888,64.826453675643961,190.2962],[-118.43887436018608,64.820860757228473,188.3585],[-118.43607790097833,64.815267838812957,201.7591],[-118.42901316192717,64.809086192143184,189.2578],[-118.41959350985897,64.805848186744754,180.5],[-118.38736063793804,64.802315817219153,180.5],[-118.31303369583731,64.783476513082746,180.5],[-118.11404354589629,64.769347034980427,180.5],[-118.09638169826839,64.7711132197432,180.5],[-118.0993253395397,64.781121600065688,180.5],[-118.09432114937846,64.787303246735462,180.5],[-118.0928493287428,64.790246888006777,180.5],[-118.09255496461567,64.794956714040865,192.9064],[-118.178214925611,64.790835616261035,186.7328],[-118.20235278403578,64.794956714040865,182.4992],[-118.1824832054544,64.806731279126154,180.5],[-118.17453537402184,64.809086192143184,180.5],[-118.17453537402184,64.815856567067215,187.9557],[-118.27064526153033,64.809086192143184,189.3109],[-118.27064526153033,64.815856567067215,180.5],[-118.25107004707607,64.81791711595713,180.5],[-118.21515762356601,64.832340958186592,180.5],[-118.19926196070091,64.835873327712164,180.5],[-118.155843251949,64.830869137550934,195.0901],[-118.1350905809862,64.832340958186592,180.5],[-118.11993082843892,64.843232430890481,180.5],[-118.14877851289782,64.8426437026362,180.5],[-118.16231926274588,64.844704251526139,185.5402],[-118.17453537402184,64.850002805814484,180.5],[-118.17026709417843,64.855890088357143,180.5],[-118.16541008608075,64.859422457882715,183.5845],[-118.15392988512264,64.863837919789688,190.2508],[-118.17615437672107,64.863543555662545,189.9244],[-118.20353024054432,64.858539365501315,202.4641],[-118.2294342837319,64.850297169941626,184.7222],[-118.2470961313598,64.839405697237765,232.0886],[-118.2651995251784,64.831752229932334,196.671],[-118.34585529601247,64.822626941991246,180.5],[-118.34585529601247,64.829691681042419,180.5],[-118.33776028251636,64.833812778822249,180.5],[-118.3315786358466,64.839994425492023,180.5],[-118.32745753806674,64.847942256924568,180.5],[-118.32524980711327,64.857656273119915,180.5],[-118.38736063793804,64.857656273119915,188.6062],[-118.37367270602641,64.870608294713719,183.8056],[-118.42901316192717,64.870608294713719,183.9413],[-118.38559445317526,64.902105256316787,180.5],[-118.3702875185644,64.920944560453222,180.5],[-118.37367270602641,64.939489500462514,180.5],[-118.35233130680938,64.948026060149346,180.5],[-118.29478311995513,64.9598006252346,181.356],[-118.27064526153033,64.9598006252346,188.6761],[-118.22354700118927,64.94508241887803,190.6998],[-118.19926196070091,64.944788054750887,196.7714],[-118.18881203418773,64.963332994760179,180.9618],[-118.19793732212881,64.9792286576253,180.5216],[-118.219573085473,64.983644119532272,180.5966],[-118.31185623932876,64.978934293498156,180.5],[-118.33820182870706,64.982761027150872,180.5],[-118.35998477411479,64.993946863981876,186.0821],[-118.36292841538611,65.005132700812879,180.5],[-118.34467783950396,65.008665070338452,187.1821],[-118.20882879483268,65.00778197795708,180.5],[-118.2014696916544,65.009253798592738,194.084],[-118.19308031403114,65.013374896372568,180.5],[-118.1876345776792,65.019850907169456,188.9482],[-118.18881203418773,65.027504374474887,180.5],[-118.19926196070091,65.034569113526061,200.7487],[-118.2126555284854,65.033686021144661,206.9069],[-118.24032575643577,65.027504374474887,195.3054],[-118.25798760406367,65.028387466856287,196.387],[-118.27785718264506,65.031625472254746,184.256],[-118.28654092439544,65.038395847178776,192.7805],[-118.27064526153033,65.049287319882637,180.5],[-118.27962336740785,65.058412607823726,203.977],[-118.29257538900166,65.057529515442326,209.1468],[-118.30685204916753,65.0507591405183,180.5],[-118.31906816044349,65.041928216704349,273.0163],[-118.32260052996907,65.0637111621121,204.2423],[-118.30302531551482,65.080195553231448,187.5271],[-118.27447199518305,65.091087025935337,180.5],[-118.25077568294896,65.096385580223711,201.9503],[-118.25077568294896,65.104039047529113,205.5355],[-118.26387488660632,65.104039047529113,180.5],[-118.24827358786833,65.109337601817487,180.5],[-118.23061174024042,65.113458699597345,182.7071],[-118.21412734912106,65.119640346267119,180.5],[-118.20235278403578,65.13141491135238,180.5],[-118.20323587641718,65.141128927547726,180.5],[-118.21383298499393,65.147310574217471,188.6853],[-118.2281096451598,65.147899302471757,187.7715],[-118.25445523453809,65.134652916750809,180.5],[-118.30405558995977,65.126410721191121,191.2894],[-118.31877379631636,65.127588177699664,180.5],[-118.35380312744503,65.1558471339043,183.9679],[-118.36631360284812,65.159085139302761,180.5],[-118.36631360284812,65.1652667859725,180.5],[-118.35512776601712,65.169387883752364,180.5],[-118.34379474712256,65.171448432642279,189.2277],[-118.31877379631636,65.172331525023679,180.5],[-118.31009005456599,65.169093519625221,180.5],[-118.30228940519699,65.1549640415229,180.5],[-118.2949303020187,65.151726036124444,183.5814],[-118.26961498708538,65.1531978567601,180.5],[-118.25239468564817,65.1576133186671,180.5],[-118.23841238960941,65.165855514226763,180.5],[-118.222958272935,65.178513171693453,180.5],[-118.23605747659236,65.1838117259818,186.0925],[-118.24959822644041,65.185872274871741,191.3547],[-118.27815154677219,65.185872274871741,193.2192],[-118.24326939770708,65.206772127898091,190.8691],[-118.26181433771639,65.215603051712037,180.5],[-118.30376122583266,65.221195970127525,192.5583],[-118.33952646727914,65.233559263467072,195.4441],[-118.35159539649155,65.251809839349221,182.7795],[-118.36086786649619,65.254459116493422,187.3084],[-118.37705789348843,65.24415637204379,185.9052],[-118.39324792048068,65.238269089501159,191.1446],[-118.40369784699385,65.2479831056965,186.0122],[-118.40502248556595,65.265350589197283,194.3995],[-118.39413101286206,65.282129344443774,180.5],[-118.40987949366362,65.277419518409687,189.4939],[-118.42562797446516,65.275358969519772,187.7843],[-118.44108209113958,65.276830790155429,192.0918],[-118.4556531154326,65.282129344443774,180.5],[-118.44623346336438,65.297730643181751,183.8558],[-118.44196518352098,65.302440469215867,180.5],[-118.43946308844035,65.30361792572441,186.4343],[-118.4366666292326,65.303323561597267,180.5],[-118.4349004444698,65.304206653978667,180.5],[-118.43519480859695,65.308916480012755,192.832],[-118.66906710760304,65.268882958722855,214.5738],[-118.72013928366039,65.252398567603478,180.5],[-118.75973125875962,65.250926746967821,180.5],[-118.77768747051464,65.247394377442248,195.2389],[-118.77915929115029,65.243273279662418,193.8842],[-118.77901210908672,65.236502904738387,193.8126],[-118.78077829384952,65.229732529814356,204.2561],[-118.78828457909137,65.226788888543041,212.0188],[-118.79829295941386,65.225905796161641,211.1705],[-118.81639635323245,65.221195970127525,205.7914],[-118.82596318736424,65.22001851361901,209.5952],[-118.86526079833631,65.219724149491867,201.2412],[-118.88351137421847,65.215603051712037,191.8882],[-118.88145082532856,65.206477763770948,180.5],[-118.86555516246344,65.201767937736832,180.5],[-118.82301954609292,65.20412285075389,180.5],[-118.80506333433789,65.20000175297406,185.4298],[-118.81816253799525,65.1958806551942,190.4559],[-118.8317032878433,65.193231378050029,196.9113],[-118.84553840181849,65.192053921541486,195.9866],[-118.85966787992081,65.192642649795772,199.533],[-118.83523565736888,65.174980802167852,180.5],[-118.71631255000769,65.144955661200441,199.3631],[-118.70365489254102,65.13730219389501,194.9459],[-118.69320496602785,65.127882541826779,180.5],[-118.68981977856583,65.11551924848726,191.2352],[-118.69894506650692,65.100212313876426,180.5],[-118.70350771047745,65.0843166510113,180.5],[-118.68496277046816,65.077251911960133,180.5],[-118.6412496975891,65.076074455451618,180.5],[-118.65420171918291,65.0601787925865,180.5],[-118.67672057490847,65.055468966552411,185.2585],[-118.7020358898418,65.054585874171011,184.0289],[-118.7230829249317,65.049287319882637,180.5],[-118.70468516698598,65.039278939560148,185.5704],[-118.66038336585267,65.027210010347773,193.2787],[-118.64743134425888,65.014552352881111,191.8048],[-118.64522361330538,64.9921806792191,198.7072],[-118.65596790394569,64.978934293498156,188.2319],[-118.68893668618443,64.9598006252346,190.5288]],
[[-118.56795302993332,64.972458282701268,180.5],[-118.50569501704497,64.975696288099726,193.4448],[-118.47979097385739,64.9904144944563,180.5],[-118.47169596036127,65.001011603033049,180.5],[-118.47243187067909,65.0071932497028,180.5],[-118.48700289497211,65.018084722406684,180.5],[-118.4948035443411,65.032508564636117,180.5],[-118.48670853084498,65.039278939560148,180.5],[-118.47096005004343,65.040162031941549,180.5],[-118.4556531154326,65.035157841780318,180.5],[-118.44196518352098,65.024266369076457,187.8875],[-118.43328144177059,65.013669260499711,204.0712],[-118.43136807494423,65.002777787795821,195.9301],[-118.43857999605896,64.9904144944563,191.9875],[-118.44564473511011,64.98688212493073,242.7295],[-118.46580867781864,64.981583570642357,180.5],[-118.46992977559847,64.976579380481127,230.3928],[-118.47022413972562,64.960389353488864,290.3051],[-118.47199032448839,64.953030250310576,365.5442],[-118.47611142226825,64.945671147132288,323.9261],[-118.50230982958297,64.9288923918858,269.9526],[-118.53689761452094,64.930364212521454,180.5],[-118.57192694564961,64.94508241887803,180.5],[-118.59959717359997,64.966865364285781,180.5],[-118.56795302993332,64.972458282701268,180.5]]]}
,"properties": {"featurecla": "Lake","scalerank": 5,"name": "Hottah Lake","name_abb": "Hottah L.","name_alt": null,"note": null,"delta": null,"dam_name": null,"year": -99,"admin": null,"min_zoom": 4.7,"min_label": 6.0,"area_km2": 926.4059,"hist_schema_id": "Elevation0-9000","hist_area_km2": {"175": 818.2981,"200": 96.5786,"225": 6.6737,"250": 1.4985,"275": 0.9872,"300": 1.1489,"325": 0.5654,"350": 0.422,"375": 0.2245,"400": 0.009}}}