{"type":"Feature","properties":{"featurecla":"Lake","scalerank":9,"name":"null278","name_abb":null,"name_alt":null,"note":"_untitled_55","delta":null,"dam_name":null,"year":-99,"admin":null,"min_zoom":7.0,"min_label":8.0},
"geometry":{"type": "Polygon","coordinates": [[[-104.18708796304274,61.648792923257588,378.2859],[-104.24345869338846,61.636135265790926,371.7696],[-104.31204553501013,61.6423169124607,413.7679],[-104.32543910279463,61.640256363570785,395.2999],[-104.35119596391864,61.630836711502553,389.549],[-104.39122948520856,61.624360700705665,373.0565],[-104.4465699411093,61.60552139656923,378.4854],[-104.4836598211279,61.599045385772342,379.9981],[-104.51751169574804,61.582266630525822,387.3983],[-104.53635099988446,61.57961735338165,391.5241],[-104.56990851037747,61.582855358780108,382.4941],[-104.58639290149685,61.582266630525822,385.7565],[-104.60184701817127,61.577556804491735,372.822],[-104.60420193118831,61.571963886076219,363.0],[-104.60434911325189,61.564604782897931,363.0],[-104.61303285500227,61.554302038448327,364.0],[-104.62686796897745,61.545765478761496,363.0],[-104.77817113032313,61.505731957471596,380.4205],[-104.83454186066885,61.503671408581681,383.6876],[-104.85882690115722,61.495429213021993,375.5253],[-104.87383947164092,61.472174446978585,363.0],[-104.79627452414174,61.482477191428188,363.0],[-104.75668254904252,61.483360283809589,381.5302],[-104.64099744707977,61.464815343800296,363.0],[-104.57270496958523,61.467758985071612,366.2584],[-104.55165793449531,61.464815343800296,363.0],[-104.54164955417284,61.459811153639066,363.0],[-104.52810880432477,61.450685865697977,363.0],[-104.51603987511238,61.439794392994116,363.0],[-104.51059413876045,61.430669105053028,363.0],[-104.51324341590463,61.422132545366196,363.0],[-104.52016097289223,61.416833991077823,365.0074],[-104.52752007607052,61.41330162155225,363.0],[-104.5310524455961,61.410357980280935,371.0957],[-104.5310524455961,61.3829821164577,374.6429],[-104.54930302147827,61.355017524380173,377.5941],[-104.57741479561933,61.341771138659254,363.0],[-104.6477678220038,61.328230388811193,389.1819],[-104.62053914024412,61.320871285632904,363.0],[-104.62053914024412,61.314100910708873,377.2165],[-104.65071146327512,61.307919264039128,388.6853],[-104.66116138978829,61.307330535784843,377.5],[-104.67293595487357,61.30468125864067,387.4101],[-104.67426059344565,61.29879397609804,390.1282],[-104.67072822392008,61.291140508792608,363.0],[-104.66822612883945,61.283487041487177,363.0],[-104.67455495757278,61.2705350198934,382.3645],[-104.68942034599293,61.260821003698055,377.1359],[-104.72283067442238,61.245808433214336,388.4138],[-104.71503002505339,61.23697750940039,371.8912],[-104.69589635678983,61.233150775747674,363.0],[-104.63187215913869,61.230207134476359,372.8824],[-104.6115610343666,61.223731123679471,363.0],[-104.6025829284891,61.211367830339924,364.7278],[-104.61303285500227,61.191056705567831,391.3955],[-104.58212462165343,61.191939797949232,363.0],[-104.5500389317961,61.20106508589032,363.0],[-104.53237708416819,61.217255112882555,363.0],[-104.54474037750772,61.239038058290305,378.0042],[-104.57697324942863,61.252873172265481,372.2321],[-104.58712881181468,61.261704096079455,380.0421],[-104.56902541799609,61.265530829732143,369.5],[-104.55209948068601,61.266413922113543,369.5],[-104.51839478812944,61.273773025291831,369.5],[-104.50323503558215,61.279954671961605,369.5],[-104.52987498908757,61.303503802132155,372.8665],[-104.52693134781626,61.311157269437558,363.0],[-104.4841013673186,61.316455823725931,364.5],[-104.42802500110001,61.337944405006539,370.2557],[-104.416839164269,61.3402993180236,364.5199],[-104.40889133283646,61.336472584370881,371.438],[-104.40197377584886,61.330879665955393,373.5173],[-104.394467490607,61.328230388811193,370.5298],[-104.38313447171244,61.329407845319736,366.5],[-104.36326489313105,61.333528943099566,366.5],[-104.35237342042717,61.334412035480966,369.3893],[-104.30954343992951,61.331762758336794,366.5],[-104.28717176626751,61.327641660556935,366.5],[-104.270393011021,61.320871285632904,373.0],[-104.27480847292797,61.315572731344531,373.0],[-104.28040139134347,61.305858715149185,373.0],[-104.28466967118689,61.300854524987955,384.6739],[-104.2661247311776,61.30291507387787,373.0],[-104.24360587545202,61.308213628166243,380.8451],[-104.22874048703187,61.317633280234475,374.9768],[-104.23286158481172,61.331468394209651,379.9879],[-104.25140652482101,61.34059368215074,378.6018],[-104.32573346692176,61.355017524380173,378.9962],[-104.32573346692176,61.361787899304204,376.5812],[-104.26259236165201,61.388575034873185,377.5761],[-104.24713824497761,61.399466507577074,363.0],[-104.22932921528614,61.407119974882477,363.0],[-104.20754626987839,61.40918052377242,369.9573],[-104.18738232716987,61.414184713933651,375.2018],[-104.17487185176678,61.430669105053028,376.6566],[-104.20960681876831,61.43508456696,383.7404],[-104.32926583644733,61.413890349806508,377.0178],[-104.38033801250468,61.395934138051473,363.0],[-104.39520340092483,61.394462317415815,368.8833],[-104.4423016612659,61.395934138051473,379.3007],[-104.43759183523179,61.411829800916593,382.3547],[-104.43141018856203,61.422721273620482,371.0378],[-104.42199053649381,61.430669105053028,370.0417],[-104.40756669426436,61.4368507517228,363.0],[-104.41875253109536,61.442149306011146,370.6628],[-104.42993836792637,61.440971849502631,367.4999],[-104.44215447920233,61.437733844104173,367.443],[-104.45598959317752,61.4368507517228,365.9305],[-104.45157413127055,61.447153496172405,379.3024],[-104.44848330793566,61.451274593952235,371.7283],[-104.46099378333876,61.457456240622008,363.0],[-104.47070779953411,61.464520979673154,367.0],[-104.4780669027124,61.473646267614242,373.9123],[-104.48336545700077,61.4854208326995,367.5],[-104.47129652778837,61.495723577149136,381.7161],[-104.45598959317752,61.505731957471596,369.8683],[-104.45598959317752,61.513385424777027,374.6546],[-104.47173807397907,61.512502332395627,378.8889],[-104.50323503558215,61.504260136835939,387.771],[-104.51751169574804,61.505731957471596,381.6129],[-104.52604825543486,61.51279669652277,380.8337],[-104.5292862608333,61.522216348590973,363.0],[-104.52575389130773,61.530164180023519,367.9947],[-104.51397932622245,61.53369654954912,363.0],[-104.48998864986123,61.53781764732895,363.0],[-104.47541762556821,61.548120391778554,377.8355],[-104.46217123984728,61.561661141626615,379.0497],[-104.4423016612659,61.57461316322042,377.2723],[-104.39638085743336,61.590803190212654,363.0],[-104.33323975216362,61.603166483552172,366.0],[-104.27333665229231,61.6014002987894,366.0],[-104.23624677227373,61.57461316322042,366.0],[-104.1592705530288,61.621711423561464,377.2341],[-104.14690725968927,61.632308532138211,387.3665],[-104.15897618890166,61.649381651511845,366.0],[-104.18708796304274,61.648792923257588,378.2859]]]}}