{"type": "Feature","bbox": [-67.8335,48.3228,-67.6487,48.4512],"geometry": {"type": "MultiPolygon","coordinates": [[[[-67.778,48.4512,536.5434],[-67.8335,48.4145,597.0665],[-67.7921,48.3872,608.3011],[-67.8077,48.3753,568.6613],[-67.755,48.3628,533.3257],[-67.6942,48.3228,469.951],[-67.6487,48.354,346.2375],[-67.7452,48.4165,671.011],[-67.7354,48.4229,659.2626],[-67.778,48.4512,536.5434]]]]}
,"properties": {"GID_3": "CAN.11.40.4_1","GID_0": "CAN","country": "Canada","GID_1": "CAN.11_1","province": "Québec","NL_NAME_1": "NA","GID_2": "CAN.11.40_1","county": "LaMatapédia","NL_NAME_2": "NA","city": "Lac-Alfred","VARNAME_3": "NA","NL_NAME_3": "NA","TYPE_3": "NonOrganisé","ENGTYPE_3": "Unorganized","CC_3": "NA","HASC_3": "NA","name": "Lac-Alfred.city","area_km2": 76.96388,"hist_schema_id": "Elevation0-9000","hist_area_km2": {"325": 0.42265,"350": 2.57838,"375": 2.59245,"400": 3.07163,"425": 2.33891,"450": 2.70544,"475": 3.40985,"500": 4.29713,"525": 4.52113,"550": 5.74574,"575": 6.85785,"600": 7.19474,"625": 4.73,"650": 3.27915,"675": 4.19357,"700": 3.81371,"725": 3.89795,"750": 3.22249,"775": 2.87062,"800": 2.20924,"825": 1.30861,"850": 0.9287,"875": 0.57693,"900": 0.197}}}