{"type": "Feature","bbox": [-124.3992,49.423,-124.1614,49.526],"geometry": {"type": "MultiPolygon","coordinates": [[[[-124.1937,49.423,0.0],[-124.1924,49.4238,0.0],[-124.1949,49.4266,0.0],[-124.2053,49.4297,1.8211],[-124.2019,49.425,5.5986],[-124.1937,49.423,0.0]]],
[[[-124.1764,49.4856,0.0],[-124.1808,49.485,0.0],[-124.1805,49.4826,0.0],[-124.1745,49.4815,3.6482],[-124.174,49.4831,3.9392],[-124.1764,49.4856,0.0]]],
[[[-124.2019,49.4878,19.4048],[-124.2092,49.4881,0.0],[-124.2054,49.4844,25.7163],[-124.1969,49.4818,0.0],[-124.1858,49.48,0.0],[-124.1836,49.4811,0.0],[-124.1864,49.4817,4.8275],[-124.1892,49.4858,0.0],[-124.1908,49.485,22.8895],[-124.1961,49.4875,3.5656],[-124.2019,49.4878,19.4048]]],
[[[-124.1697,49.4861,0.0],[-124.1708,49.4875,0.0],[-124.1731,49.4875,0.0],[-124.1717,49.4858,0.0],[-124.1697,49.4861,0.0]]],
[[[-124.2989,49.4564,10.7414],[-124.3025,49.4567,2.7449],[-124.3036,49.4553,0.0],[-124.2988,49.449,21.7975],[-124.2873,49.4478,5.5222],[-124.2838,49.4489,1.827],[-124.2867,49.4534,14.3996],[-124.2989,49.4564,10.7414]]],
[[[-124.3478,49.5164,6.0617],[-124.3494,49.5183,7.9478],[-124.3453,49.5192,0.0],[-124.345,49.5206,0.0],[-124.3481,49.5206,0.0],[-124.3588,49.526,0.4943],[-124.3633,49.5258,0.0],[-124.3646,49.5248,3.2654],[-124.3616,49.5212,0.0],[-124.3755,49.5176,0.0],[-124.3828,49.5103,0.0],[-124.383,49.5073,1.5011],[-124.3801,49.5021,6.2084],[-124.3827,49.5002,0.0],[-124.3786,49.4942,1.4115],[-124.3683,49.4953,9.946],[-124.3672,49.4969,8.2326],[-124.3594,49.4978,6.4363],[-124.3578,49.4997,8.9141],[-124.3556,49.4978,0.0],[-124.3531,49.4989,23.3709],[-124.3519,49.4978,29.7253],[-124.3547,49.4967,0.0],[-124.3561,49.4936,0.0],[-124.3517,49.493899999999996,10.3957],[-124.3531,49.4906,0.0],[-124.3657,49.4858,0.0],[-124.3655,49.4834,3.8168],[-124.3693,49.4805,0.0],[-124.3654,49.4758,4.8753],[-124.3596,49.4768,0.0],[-124.3554,49.4738,3.1934],[-124.3475,49.4731,0.0],[-124.336,49.468,4.2031],[-124.3323,49.4684,0.0],[-124.3284,49.4653,0.0],[-124.325,49.4654,2.9237],[-124.3223,49.462,0.0],[-124.317,49.4595,12.5605],[-124.3089,49.4578,1.144],[-124.3061,49.4611,8.6796],[-124.2943,49.4567,0.0],[-124.2837,49.4552,0.0],[-124.2808,49.457,0.0],[-124.2773,49.4567,2.5394],[-124.2762,49.4598,0.0],[-124.274,49.4608,11.9644],[-124.2697,49.4566,0.0],[-124.2634,49.4553,0.0],[-124.2578,49.4558,0.0],[-124.2619,49.4606,47.0738],[-124.2582,49.4585,0.0],[-124.2454,49.458,0.0],[-124.2433,49.4594,0.0],[-124.2443,49.4662,18.1561],[-124.2431,49.4684,0.0],[-124.2407,49.4644,18.1102],[-124.2244,49.4555,17.5228],[-124.2068,49.4528,7.5052],[-124.2016,49.4493,19.2543],[-124.1974,49.4489,12.283],[-124.1925,49.4439,25.3955],[-124.18,49.4387,0.0],[-124.1682,49.4402,0.0],[-124.1652,49.4431,0.0],[-124.167,49.4474,0.0],[-124.1614,49.4506,3.6385],[-124.1655,49.4546,3.2027],[-124.169,49.4612,0.0],[-124.1786,49.4644,0.0],[-124.1772,49.4664,1.4875],[-124.1736,49.4672,4.7089],[-124.175,49.4686,4.7089],[-124.1742,49.4706,0.0],[-124.1853,49.473,0.0],[-124.1911,49.4775,3.4622],[-124.1953,49.4787,36.2007],[-124.2002,49.4786,37.4396],[-124.2055,49.4808,0.0],[-124.2124,49.4788,0.0],[-124.2148,49.4817,28.8273],[-124.2196,49.4836,21.9417],[-124.2213,49.4912,3.4174],[-124.2367,49.4997,0.0],[-124.2344,49.5,0.0],[-124.2337,49.5021,11.1878],[-124.2382,49.5055,0.0],[-124.2527,49.5072,0.0],[-124.2539,49.5055,0.0],[-124.2528,49.5036,0.0],[-124.2553,49.5042,0.0],[-124.2589,49.5022,0.0],[-124.2597,49.4981,5.9696],[-124.2608,49.5011,4.726],[-124.2637,49.5024,0.0],[-124.2703,49.5019,0.0],[-124.2697,49.5001,9.0198],[-124.2713,49.4987,43.3905],[-124.2728,49.5015,9.4324],[-124.2793,49.501,19.9586],[-124.2806,49.5022,9.7587],[-124.2781,49.5037,0.0],[-124.2826,49.5034,12.4344],[-124.288,49.5075,0.0],[-124.2914,49.515,4.9905],[-124.2975,49.5136,0.2917],[-124.2944,49.5114,1.3452],[-124.295,49.5092,4.5948],[-124.3006,49.5121,0.0],[-124.3053,49.5089,0.0],[-124.3338,49.5137,22.2192],[-124.3439,49.5128,6.7863],[-124.3475,49.5147,33.2619],[-124.3428,49.5139,22.2258],[-124.3414,49.5147,2.1148],[-124.3422,49.5161,0.0],[-124.3478,49.5164,6.0617]]],
[[[-124.2299,49.501,11.4026],[-124.2322,49.5019,3.9966],[-124.2331,49.4994,9.7659],[-124.2267,49.4978,2.6275],[-124.2258,49.4961,1.0336],[-124.2242,49.4967,0.0],[-124.2261,49.5,3.5389],[-124.2299,49.501,11.4026]]],
[[[-124.2603,49.5138,0.0],[-124.2606,49.5124,0.0],[-124.2589,49.512,0.0],[-124.2584,49.513,8.3515],[-124.2603,49.5138,0.0]]],
[[[-124.1805,49.4902,2.1189],[-124.1797,49.489,2.1189],[-124.1778,49.4906,0.0],[-124.18,49.4917,2.6801],[-124.1805,49.4902,2.1189]]],
[[[-124.1931,49.5017,0.0],[-124.1952,49.504,0.0],[-124.2126,49.5106,0.0],[-124.2156,49.5069,0.0],[-124.2144,49.505,20.5442],[-124.2157,49.5038,0.0],[-124.2119,49.5028,27.2887],[-124.2133,49.5014,4.2712],[-124.2114,49.5003,4.1166],[-124.2131,49.4981,0.0],[-124.2117,49.4951,0.0],[-124.201,49.4892,21.8502],[-124.1856,49.4872,0.7153],[-124.1838,49.4899,18.5085],[-124.188,49.4917,72.5736],[-124.1892,49.495,4.0049],[-124.1925,49.4961,3.1193],[-124.19,49.4975,12.9384],[-124.1931,49.5017,0.0]]],
[[[-124.2197,49.5102,9.407],[-124.2222,49.5108,0.0],[-124.2235,49.5077,0.0],[-124.2178,49.5034,0.0],[-124.217,49.5067,35.6351],[-124.2197,49.5102,9.407]]],
[[[-124.373,49.4938,0.0],[-124.3762,49.4943,2.2744],[-124.3781,49.4933,0.0],[-124.375,49.4924,7.8801],[-124.373,49.4938,0.0]]],
[[[-124.3664,49.4925,9.1126],[-124.3628,49.4922,17.982],[-124.3614,49.4961,1.5676],[-124.3689,49.4943,9.946],[-124.3664,49.4925,9.1126]]],
[[[-124.3942,49.4983,4.4325],[-124.3964,49.5006,0.0],[-124.3992,49.4997,0.0],[-124.3974,49.4957,4.5043],[-124.3942,49.4967,0.0],[-124.3942,49.4983,4.4325]]],
[[[-124.3881,49.5028,2.2747],[-124.3914,49.5047,0.0],[-124.3953,49.5011,2.0522],[-124.3908,49.4969,0.0],[-124.3872,49.5008,0.0],[-124.3881,49.5028,2.2747]]],
[[[-124.2458,49.5191,0.0],[-124.251,49.5193,0.0],[-124.2524,49.5161,2.8262],[-124.2458,49.5097,0.0],[-124.2351,49.508,2.0833],[-124.238,49.5155,0.0],[-124.2458,49.5191,0.0]]],
[[[-124.3069,49.5147,1.1543],[-124.3105,49.5152,0.0],[-124.3075,49.5117,0.0],[-124.305,49.5114,0.0],[-124.3047,49.5128,0.0],[-124.3069,49.5147,1.1543]]],
[[[-124.2598,49.5172,3.2385],[-124.2594,49.5189,0.0],[-124.2618,49.5203,0.0],[-124.2643,49.5178,0.0],[-124.261,49.5162,6.6285],[-124.2598,49.5172,3.2385]]],
[[[-124.254,49.5187,9.581],[-124.2531,49.52,0.0],[-124.2542,49.5211,0.0],[-124.2578,49.5202,7.6579],[-124.2571,49.517,0.0],[-124.254,49.5187,9.581]]],
[[[-124.3833,49.5161,0.0],[-124.3839,49.5169,2.3928],[-124.3873,49.5171,0.0],[-124.3853,49.5147,0.0],[-124.3833,49.5161,0.0]]],
[[[-124.3377,49.5193,0.0],[-124.3403,49.5206,0.0],[-124.3433,49.52,4.6083],[-124.3397,49.5183,0.0],[-124.3377,49.5193,0.0]]],
[[[-124.3794,49.5231,3.2109],[-124.3811,49.5244,0.0],[-124.3844,49.5228,0.0],[-124.3792,49.5197,0.3685],[-124.3783,49.5219,0.0],[-124.3794,49.5231,3.2109]]],
[[[-124.3847,49.5218,1.7798],[-124.3889,49.5236,1.0403],[-124.3863,49.5206,5.5483],[-124.3847,49.5204,0.0],[-124.3847,49.5218,1.7798]]]]}
,"properties": {"GID_3": "CAN.2.23.7_1","GID_0": "CAN","country": "Canada","GID_1": "CAN.2_1","province": "BritishColumbia","NL_NAME_1": "NA","GID_2": "CAN.2.23_1","county": "PowellRiver","NL_NAME_2": "NA","city": "PowellRiverE","VARNAME_3": "NA","NL_NAME_3": "NA","TYPE_3": "RegionalDistrictElectoralArea","ENGTYPE_3": "RegionalDistrictElectoralArea","CC_3": "NA","HASC_3": "NA","name": "Powell_River_E.city","area_km2": 76.73801,"hist_schema_id": "Elevation0-9000","hist_area_km2": {"0": 5.9916,"25": 9.75153,"50": 14.31104,"75": 14.36675,"100": 12.42485,"125": 9.29827,"150": 4.98692,"175": 2.86543,"200": 1.37768,"225": 0.68888,"250": 0.44087,"275": 0.13777,"300": 0.08266,"325": 0.01378}}}