{"type": "Feature","bbox": [-110.4972,51.3285,-110.4606,51.3573],"geometry": {"type": "MultiPolygon","coordinates": [[[[-110.4735,51.3573,766.6935],[-110.4972,51.3573,764.0574],[-110.4965,51.3285,746.2806],[-110.483,51.3285,748.2061],[-110.4837,51.343,763.7039],[-110.4612,51.3432,760.8348],[-110.4606,51.3459,764.2534],[-110.4668,51.3494,766.4328],[-110.4664,51.3562,760.9987],[-110.4722,51.3542,765.0789],[-110.4735,51.3573,766.6935]]]]}
,"properties": {"GID_3": "CAN.1.14.6_1","GID_0": "CAN","country": "Canada","GID_1": "CAN.1_1","province": "Alberta","NL_NAME_1": "NA","GID_2": "CAN.1.14_1","county": "DivisionNo.4","NL_NAME_2": "NA","city": "Oyen","VARNAME_3": "NA","NL_NAME_3": "NA","TYPE_3": "Town","ENGTYPE_3": "Town","CC_3": "NA","HASC_3": "NA","name": "Oyen.city","area_km2": 4.953016,"hist_schema_id": "Elevation0-9000","hist_area_km2": {"750": 2.278121,"775": 2.674894}}}