{"type":"Feature","properties":{"GID_3":"CAN.12.14.14_1","GID_0":"CAN","country":"Canada","GID_1":"CAN.12_1","province":"Saskatchewan","NL_NAME_1":"NA","GID_2":"CAN.12.14_1","county":"DivisionNo.5","NL_NAME_2":"NA","city":"Esterhazy","VARNAME_3":"NA","NL_NAME_3":"NA","TYPE_3":"Town","ENGTYPE_3":"Town","CC_3":"NA","HASC_3":"NA","name":"Esterhazy.city"},
"geometry":{"type": "MultiPolygon","coordinates": [[[[-102.0523,50.664,514.4518],[-102.0857,50.6639,514.4497],[-102.0861,50.6604,517.951],[-102.0901,50.6606,517.4371],[-102.0902,50.6569,513.9028],[-102.0866,50.6567,516.2823],[-102.0867,50.6537,519.1472],[-102.0889,50.6537,515.4692],[-102.0889,50.6497,514.5172],[-102.0867,50.6496,516.457],[-102.0867,50.6484,515.8336],[-102.0789,50.6483,517.9661],[-102.0785,50.647,516.9849],[-102.0759,50.647,517.1527],[-102.0759,50.6446,517.4135],[-102.0731,50.6446,518.5114],[-102.073,50.6431,518.679],[-102.0646,50.6431,514.7106],[-102.0644,50.6495,514.6172],[-102.0522,50.6495,513.1655],[-102.0523,50.664,514.4518]]]]}}