{"type":"Feature","properties":{"GID_3":"CAN.11.12.8_1","GID_0":"CAN","country":"Canada","GID_1":"CAN.11_1","province":"Québec","NL_NAME_1":"NA","GID_2":"CAN.11.12_1","county":"Bellechasse","NL_NAME_2":"NA","city":"Saint-Damien-de-Buckland","VARNAME_3":"NA","NL_NAME_3":"NA","TYPE_3":"MunicipalitéDeParoisse","ENGTYPE_3":"ParishMunicipality","CC_3":"NA","HASC_3":"NA","name":"Saint-Damien-de-Buckland.city"},
"geometry":{"type": "MultiPolygon","coordinates": [[[[-70.6314,46.6834,419.3737],[-70.6708,46.6571,374.03],[-70.6873,46.6686,318.2164],[-70.7154,46.6498,305.3113],[-70.7265,46.6488,317.116],[-70.7125,46.6371,297.6153],[-70.7202,46.6361,304.1968],[-70.7055,46.6252,342.0312],[-70.7324,46.6206,318.8107],[-70.7273,46.6159,306.7549],[-70.7435,46.6148,354.9329],[-70.704,46.5838,342.5775],[-70.69,46.5936,327.0962],[-70.6699,46.578,408.4446],[-70.6427,46.5969,424.1778],[-70.622,46.5814,430.9827],[-70.621,46.582,430.9827],[-70.6086,46.5907,443.9131],[-70.6141,46.5947,473.3223],[-70.5942,46.6102,427.3056],[-70.6339,46.6359,407.4061],[-70.5618,46.6679,371.9077],[-70.5903,46.6876,406.1142],[-70.6148,46.6719,433.6773],[-70.6314,46.6834,419.3737]]]]}}