{"type": "Feature","bbox": [-110.1652,54.456,-110.1405,54.4619],"geometry": {"type": "MultiPolygon","coordinates": [[[[-110.1652,54.4619,542.7581],[-110.1652,54.456,552.5878],[-110.1405,54.456,535.3273],[-110.1408,54.461,537.4955],[-110.1445,54.4584,544.2319],[-110.1511,54.4581,555.6858],[-110.1652,54.4619,542.7581]]]]}
,"properties": {"GID_3": "CAN.1.3.7_1","GID_0": "CAN","country": "Canada","GID_1": "CAN.1_1","province": "Alberta","NL_NAME_1": "NA","GID_2": "CAN.1.3_1","county": "DivisionNo.12","NL_NAME_2": "NA","city": "ColdLake149A","VARNAME_3": "NA","NL_NAME_3": "NA","TYPE_3": "RéserveIndienne","ENGTYPE_3": "IndianReserve","CC_3": "NA","HASC_3": "NA","name": "Cold_Lake149_A.city","area_km2": 0.5546173,"hist_schema_id": "Elevation0-9000","hist_area_km2": {"525": 0.0123252,"550": 0.4806679,"575": 0.0616242}}}