{"type": "Feature","bbox": [-90.3148,51.0315,-90.2219,51.1245],"geometry": {"type": "MultiPolygon","coordinates": [[[[-90.3136,51.0431,378.0],[-90.3148,51.0331,381.0501],[-90.2223,51.0315,389.3646],[-90.2219,51.1021,385.0157],[-90.2277,51.1105,371.5],[-90.2293,51.1178,371.5],[-90.2385,51.1244,376.5474],[-90.2476,51.1245,384.7162],[-90.2502,51.122,372.2814],[-90.2432,51.116,390.9283],[-90.2463,51.1101,386.9834],[-90.2489,51.1092,387.8846],[-90.2525,51.1111,374.256],[-90.2587,51.1082,380.8401],[-90.267,51.101,383.9456],[-90.2714,51.1006,386.7886],[-90.2953,51.0904,399.8459],[-90.2947,51.0877,374.6484],[-90.2827,51.0873,371.5],[-90.2639,51.0959,371.5],[-90.2551,51.0969,380.4583],[-90.2516,51.0942,399.3708],[-90.3088,51.074,378.3185],[-90.3131,51.0697,371.9138],[-90.311,51.063,389.923],[-90.3136,51.0431,378.0]]]]}
,"properties": {"GID_3": "CAN.9.48.19_1","GID_0": "CAN","country": "Canada","GID_1": "CAN.9_1","province": "Ontario","NL_NAME_1": "NA","GID_2": "CAN.9.48_1","county": "ThunderBay","NL_NAME_2": "NA","city": "Osnaburgh63A","VARNAME_3": "NA","NL_NAME_3": "NA","TYPE_3": "RéserveIndienne","ENGTYPE_3": "IndianReserve","CC_3": "NA","HASC_3": "NA","name": "Osnaburgh63_A.city","area_km2": 46.07288,"hist_schema_id": "Elevation0-9000","hist_area_km2": {"375": 27.60806,"400": 17.67905,"425": 0.78576}}}