{"type": "Feature","bbox": [-71.9954,45.2627,-71.9648,45.2819],"geometry": {"type": "MultiPolygon","coordinates": [[[[-71.9954,45.2715,263.2468],[-71.995,45.2627,160.0],[-71.9648,45.2648,231.8829],[-71.9648,45.2799,166.6109],[-71.9663,45.2819,162.6238],[-71.9953,45.2819,270.5435],[-71.9954,45.2715,263.2468]]]]}
,"properties": {"GID_3": "CAN.11.78.9_1","GID_0": "CAN","country": "Canada","GID_1": "CAN.11_1","province": "Québec","NL_NAME_1": "NA","GID_2": "CAN.11.78_1","county": "Memphrémagog","NL_NAME_2": "NA","city": "NorthHatley","VARNAME_3": "NA","NL_NAME_3": "NA","TYPE_3": "Village","ENGTYPE_3": "Village","CC_3": "NA","HASC_3": "NA","name": "North_Hatley.city","area_km2": 4.893976,"hist_schema_id": "Elevation0-9000","hist_area_km2": {"150": 1.342938,"175": 0.969818,"200": 0.790805,"225": 0.969868,"250": 0.253633,"275": 0.298379,"300": 0.253617,"325": 0.014918}}}