{"type":"Feature","properties":{"GID_3":"CAN.2.16.10_1","GID_0":"CAN","country":"Canada","GID_1":"CAN.2_1","province":"BritishColumbia","NL_NAME_1":"NA","GID_2":"CAN.2.16_1","county":"KootenayBoundary","NL_NAME_2":"NA","city":"Montrose","VARNAME_3":"NA","NL_NAME_3":"NA","TYPE_3":"Village","ENGTYPE_3":"Village","CC_3":"NA","HASC_3":"NA","name":"Montrose.city"},
"geometry":{"type": "MultiPolygon","coordinates": [[[[-117.5943,49.0846,829.0999],[-117.5943,49.0802,617.3534],[-117.5969,49.079,649.9244],[-117.5984,49.0768,618.0607],[-117.5974,49.0762,618.0607],[-117.6035,49.0758,647.6488],[-117.6043,49.0738,598.692],[-117.6,49.0724,568.301],[-117.5944,49.0739,585.5836],[-117.5945,49.0715,476.3984],[-117.5929,49.0715,476.3984],[-117.5824,49.0759,513.4368],[-117.5823,49.0746,554.8599],[-117.5777,49.0777,543.7633],[-117.5831,49.0813,590.2814],[-117.5829,49.0846,637.5482],[-117.5943,49.0846,829.0999]]]]}}