{"type": "Feature","bbox": [-124.0,51.0439,-122.2652,52.5073],"geometry": {"type": "MultiPolygon","coordinates": [[[[-122.2947,51.5572,371.0186],[-122.2965,51.5749,349.1327],[-122.2905,51.5808,433.1196],[-122.3057,51.5959,396.345],[-122.3132,51.6161,332.2389],[-122.3259,51.6294,386.5834],[-122.328,51.6349,375.1203],[-122.3268,51.6483,351.035],[-122.3297,51.6532,338.456],[-122.3355,51.6557,370.5065],[-122.3384,51.6632,386.6185],[-122.3435,51.6665,366.6231],[-122.3503,51.6843,466.9512],[-122.3609,51.6908,387.5388],[-122.3605,51.6935,338.499],[-122.3508,51.7026,338.0],[-122.3533,51.7095,344.6918],[-122.3632,51.72,367.5133],[-122.3914,51.7325,461.2018],[-122.4013,51.734,369.4199],[-122.399,51.7437,345.5],[-122.3911,51.7578,359.8488],[-122.3896,51.7645,352.8195],[-122.3935,51.7754,368.7335],[-122.3901,51.7814,399.2039],[-122.3919,51.7848,391.6533],[-122.4018,51.7894,353.4952],[-122.404,51.7972,352.5],[-122.4021,51.8043,412.9915],[-122.4082,51.8171,358.7013],[-122.4056,51.8223,359.4866],[-122.4,51.8251,385.93],[-122.3985,51.8308,389.6055],[-122.4024,51.8472,370.7856],[-122.3997,51.8543,511.5954],[-122.3875,51.8622,358.0],[-122.3897,51.8652,368.5349],[-122.4044,51.8726,404.3826],[-122.4051,51.8781,410.2521],[-122.4039,51.8799,399.8573],[-122.3847,51.8817,457.6541],[-122.3589,51.8783,446.6385],[-122.327,51.8873,411.066],[-122.3148,51.8941,374.501],[-122.3043,51.9023,385.7912],[-122.296,51.9176,476.1937],[-122.2904,51.9208,476.5188],[-122.2782,51.9232,378.4102],[-122.273,51.928,387.0571],[-122.2691,51.9366,370.5],[-122.2687,51.9428,395.174],[-122.2769,51.9643,388.9677],[-122.2716,51.9759,407.2745],[-122.2778,51.984,394.4343],[-122.2748,52.0014,442.686],[-122.2678,52.017,411.9372],[-122.2699,52.036,391.1699],[-122.2745,52.0447,424.8924],[-122.2779,52.0473,394.9886],[-122.2776,52.0911,393.9264],[-122.2858,52.107,388.0],[-122.2823,52.1289,390.5],[-122.2791,52.131,425.6859],[-122.2734,52.1458,417.9863],[-122.2748,52.1787,396.0],[-122.2705,52.1948,419.2708],[-122.2755,52.2128,418.3494],[-122.2798,52.2217,398.5],[-122.2719,52.2442,455.8859],[-122.2685,52.2475,449.606],[-122.2652,52.2603,410.893],[-122.2691,52.2647,434.1803],[-122.2701,52.2716,410.3436],[-122.2753,52.2828,407.4532],[-122.2867,52.294,405.1093],[-122.2868,52.304,406.3827],[-122.2792,52.3102,443.0722],[-122.2773,52.3148,429.486],[-122.2824,52.329,406.0865],[-122.2875,52.3338,529.3184],[-122.2945,52.3376,523.0275],[-122.353,52.3497,523.23],[-122.3578,52.3523,423.882],[-122.3627,52.3528,498.0608],[-122.3733,52.3608,411.5],[-122.3721,52.3701,417.0754],[-122.3873,52.3819,440.3847],[-122.3904,52.3878,416.069],[-122.3953,52.4006,420.4275],[-122.3948,52.4088,417.0],[-122.4051,52.4237,447.7938],[-122.4051,52.4313,421.4719],[-122.41,52.4432,432.6335],[-122.4159,52.4485,440.7499],[-122.4236,52.4641,426.2664],[-122.4349,52.477,435.0241],[-122.436,52.4801,427.7879],[-122.4333,52.4874,428.3346],[-122.4342,52.4932,425.3793],[-122.4391,52.5033,434.1193],[-122.4481,52.5036,489.9596],[-122.4479,52.5073,452.7448],[-123.3061,52.5013,1141.5839],[-123.9998,52.5014,1304.3707],[-124.0,52.326,1008.5101],[-123.9985,52.3228,999.5822],[-123.9995,52.3215,1012.3879],[-123.9965,52.3162,988.7233],[-123.9826,52.3141,980.2584],[-123.9709,52.3094,990.218],[-123.9608,52.3077,978.4962],[-123.9434,52.2964,980.7157],[-123.9349,52.2857,972.9318],[-123.9215,52.2836,961.3021],[-123.9162,52.2804,959.4001],[-123.9058,52.2695,958.1068],[-123.8958,52.2696,949.046],[-123.892,52.2658,986.1497],[-123.8883,52.2532,946.7329],[-123.8787,52.2408,945.7233],[-123.8639,52.2299,958.89469999999994],[-123.8475,52.2086,940.4061],[-123.8406,52.2025,932.3671],[-123.837,52.1906,912.5297],[-123.8294,52.1831,897.7275],[-123.8208,52.1805,894.0719],[-123.8037,52.1792,874.8741],[-123.8004,52.1836,872.4435],[-123.7919,52.1834,871.3568],[-123.7821,52.1805,862.3029],[-123.776,52.173,863.482],[-123.7468,52.1616,869.0782],[-123.7443,52.1646,858.1857],[-123.723,52.1588,855.9072],[-123.7225,52.1547,843.2238],[-123.7142,52.1497,843.1505],[-123.7059,52.1413,837.6812],[-123.6958,52.14,834.5268],[-123.6906,52.1355,851.1844],[-123.6941,52.1254,825.1251],[-123.6866,52.1209,823.8519],[-123.6819,52.112,820.6715],[-123.6713,52.0995,815.1851],[-123.6469,52.0851,827.011],[-123.6246,52.0811,799.7607],[-123.6186,52.0773,798.4192],[-123.6119,52.0782,796.5114],[-123.6067,52.0746,812.478],[-123.5986,52.0767,846.2294],[-123.5863,52.0761,831.9062],[-123.56,52.0794,833.3539],[-123.5531,52.0831,779.7817],[-123.5523,52.0652,792.0504],[-123.5591,52.0601,794.8534],[-123.5645,52.0595,782.4431],[-123.5767,52.0524,788.3586],[-123.574,52.0476,830.5619],[-123.5993,52.0315,829.3741],[-123.6045,52.031,813.8051],[-123.6107,52.0261,834.5875],[-123.634,52.0246,846.8008],[-123.6527,52.0142,832.7811],[-123.6782,52.009,856.2095],[-123.6796,52.0074,832.7949],[-123.6785,52.0056,846.2649],[-123.6828,51.9982,858.5712],[-123.6915,51.9913,845.1714],[-123.6929,51.9881,882.0194],[-123.6838,51.9729,869.6525],[-123.6851,51.9628,915.1011],[-123.6693,51.9504,927.4718],[-123.665,51.9394,892.888],[-123.6665,51.9312,914.7718],[-123.6721,51.9218,944.9991],[-123.6848,51.9109,909.6572],[-123.691,51.9031,936.918],[-123.6946,51.8791,962.8879],[-123.6874,51.8527,977.0688],[-123.6778,51.8324,979.9047],[-123.6785,51.8109,1050.2412],[-123.6595,51.8003,1002.7384],[-123.6563,51.7941,1042.8315],[-123.659,51.7907,1084.1202],[-123.6718,51.7876,1022.6856],[-123.6736,51.7835,1042.5298],[-123.6687,51.7788,1054.6233],[-123.654,51.7773,1070.666],[-123.6502,51.7736,1037.4387],[-123.65,51.7444,1092.408],[-123.654,51.7412,1148.2502],[-123.6621,51.7386,1081.9989],[-123.6779,51.7188,1172.9194],[-123.6827,51.7177,1207.7334],[-123.6912,51.719,1177.4485],[-123.6959,51.7162,1203.3535],[-123.7114,51.6976,1088.9766],[-123.7152,51.6854,1121.5266],[-123.7245,51.671,1206.1184],[-123.7295,51.6675,1228.8987],[-123.7387,51.6679,1232.6947],[-123.742,51.6651,1215.5249],[-123.7435,51.6494,1127.2756],[-123.7378,51.6403,1132.7667],[-123.7368,51.6286,1140.4854],[-123.7312,51.6236,1197.4648],[-123.7325,51.6136,1169.3635],[-123.726,51.6017,1253.1763],[-123.7236,51.5892,1244.8666],[-123.6972,51.5905,1178.7983],[-123.6931,51.5894,1279.6427],[-123.6923,51.5864,1314.2179],[-123.7,51.5816,1301.325],[-123.6995,51.577,1328.1832],[-123.7079,51.5722,1193.8191],[-123.7037,51.5672,1188.7898],[-123.7051,51.5614,1198.5553],[-123.7021,51.5592,1197.0334],[-123.6922,51.5565,1197.3357],[-123.6884,51.5529,1214.1476],[-123.6941,51.5444,1225.7756],[-123.6798,51.523,1238.6655],[-123.6763,51.5121,1270.7823],[-123.679,51.4997,1239.2128],[-123.689,51.4852,1249.4413],[-123.7012,51.4714,1250.4812],[-123.7074,51.4693,1251.2153],[-123.7076,51.4657,1257.1365],[-123.7021,51.4621,1260.0885],[-123.7024,51.4584,1317.9961],[-123.6983,51.4543,1323.1318],[-123.6931,51.4537,1275.4465],[-123.6898,51.4514,1279.174],[-123.6912,51.4487,1410.4111],[-123.6787,51.4428,1286.968],[-123.6794,51.4401,1310.8679],[-123.6834,51.4398,1313.4597],[-123.6841,51.4373,1405.9586],[-123.6756,51.4355,1303.0261],[-123.6741,51.4323,1294.7832],[-123.6777,51.4273,1390.7166],[-123.6698,51.417,1457.3875],[-123.661,51.4178,1329.064],[-123.6314,51.3833,1321.6134],[-123.6315,51.3761,1359.2761],[-123.6251,51.3631,1323.5],[-123.6272,51.3558,1323.5],[-123.6195,51.3414,1323.5],[-123.6199,51.3299,1323.5],[-123.6164,51.3215,1323.5],[-123.6096,51.3131,1323.5],[-123.6143,51.3031,1326.9048],[-123.6111,51.2985,1446.7957],[-123.5993,51.2921,1323.5],[-123.5897,51.2808,1323.5],[-123.5885,51.2759,1323.5],[-123.5955,51.2451,1323.5],[-123.5988,51.2379,1323.5],[-123.6024,51.2342,1323.5],[-123.6006,51.2273,1323.5],[-123.5947,51.2224,1327.995],[-123.594,51.2143,1329.8328],[-123.5915,51.211,1324.3162],[-123.5933,51.2025,1324.0],[-123.5876,51.1969,1324.0],[-123.5872,51.1942,1324.0],[-123.5686,51.183,1324.0],[-123.553,51.1621,1324.0],[-123.5527,51.1594,1324.0605],[-123.54,51.1553,1327.2246],[-123.5352,51.149,1338.0106],[-123.5223,51.1397,1388.5498],[-123.5172,51.1379,1399.8728],[-123.495,51.1355,1506.7565],[-123.4702,51.1258,1589.494],[-123.448,51.1206,1547.9114],[-123.4207,51.1173,1588.9277],[-123.4075,51.1094,1606.4229],[-123.3531,51.1038,1621.62],[-123.2798,51.0857,1873.0737],[-123.2704,51.0807,1905.8176],[-123.2666,51.0759,1920.2151],[-123.2555,51.0683,1975.5601],[-123.2517,51.0582,2049.3569],[-123.2522,51.0532,2103.8892],[-123.2494,51.0439,2484.9722],[-123.2375,51.0519,2461.186],[-123.2352,51.058,2487.5432],[-123.2212,51.0615,2492.615],[-123.2166,51.0663,2553.0791],[-123.2004,51.0721,2748.7666],[-123.1824,51.0722,2658.9822],[-123.1795,51.0771,2551.3965],[-123.1709,51.0816,2478.4922],[-123.1625,51.0934,2573.1387],[-123.1468,51.1226,2487.4893],[-123.1287,51.1324,2281.5073],[-123.1093,51.1392,2210.074],[-123.1007,51.1383,2296.8757],[-123.0881,51.1325,2229.0366],[-123.0836,51.1332,2186.6702],[-123.0682,51.1409,2407.2959],[-123.0546,51.14,2304.248],[-123.0491,51.1433,2139.0308],[-123.0503,51.1496,2137.3352],[-123.0586,51.1594,2144.2734],[-123.057,51.1734,2129.0608],[-123.059,51.1807,2223.8682],[-123.0701,51.1946,1965.2438],[-123.0798,51.212,2195.7556],[-123.0681,51.2198,2071.27],[-123.033,51.2003,2203.23],[-122.97,51.1937,2223.1309],[-122.9048,51.1836,1906.6667],[-122.8881,51.177,1850.8688],[-122.8217,51.1448,2045.2148],[-122.79,51.1489,1959.1322],[-122.775,51.1379,1817.1812],[-122.7418,51.1595,1705.8298],[-122.7249,51.1587,1628.1038],[-122.7097,51.162,1580.0615],[-122.7131,51.1476,1714.5046],[-122.7123,51.1375,1732.2174],[-122.7072,51.1248,1844.6028],[-122.6973,51.1159,1850.1447],[-122.6832,51.1039,2011.0125],[-122.6616,51.0926,2048.4756],[-122.6335,51.0815,2004.9937],[-122.6257,51.08,2163.1511],[-122.6175,51.0813,2296.1821],[-122.6038,51.0863,2053.697],[-122.5869,51.0962,1874.8484],[-122.579,51.1034,1945.9012],[-122.5823,51.1054,1947.6355],[-122.5804,51.1103,1902.2606],[-122.592,51.112,1883.537],[-122.5935,51.1133,1840.2307],[-122.5953,51.1182,1767.1875],[-122.5905,51.1224,1708.4182],[-122.5862,51.1223,1699.4811],[-122.586,51.1276,1830.6729],[-122.5959,51.1326,2024.1783],[-122.6017,51.1425,2134.1152],[-122.5929,51.1664,2020.0225],[-122.5932,51.1733,2070.8074],[-122.5888,51.1766,2042.4287],[-122.5671,51.1788,1964.5485],[-122.557,51.1843,2020.5812],[-122.5512,51.191,2141.1301],[-122.5464,51.2016,2335.2173],[-122.5387,51.2049,2269.3472],[-122.5406,51.2082,2260.0115],[-122.5344,51.2164,2020.4573],[-122.5365,51.2198,1912.5731],[-122.5492,51.2258,1839.0608],[-122.5535,51.2386,1672.5074],[-122.5724,51.2446,1631.7198],[-122.5961,51.2453,1569.4438],[-122.603,51.2401,1645.7739],[-122.6088,51.2403,1607.0764],[-122.615,51.2442,1488.3816],[-122.6237,51.2445,1487.1161],[-122.6365,51.2502,1553.0209],[-122.6495,51.2598,1424.4299],[-122.6597,51.2628,1488.1482],[-122.6684,51.2683,1465.056],[-122.6739,51.2752,1341.6897],[-122.672,51.2825,1339.4379],[-122.6789,51.2889,1442.5282],[-122.6782,51.2944,1305.444],[-122.6683,51.3099,1275.6033],[-122.6632,51.3145,1268.8281],[-122.6533,51.3188,1217.2864],[-122.6488,51.3359,1239.1323],[-122.636,51.3498,1162.4408],[-122.6228,51.3567,1240.6023],[-122.6192,51.3635,1133.9674],[-122.6199,51.3667,1148.9603],[-122.6268,51.3708,1217.3438],[-122.6253,51.3775,1103.3182],[-122.6391,51.3896,1225.6003],[-122.642,51.3962,1125.1641],[-122.6405,51.4024,1107.6334],[-122.6347,51.4079,1035.3506],[-122.6255,51.4117,1100.3459],[-122.5951,51.4201,1293.2495],[-122.5808,51.4272,1052.9867],[-122.5658,51.431,1032.1187],[-122.5583,51.4311,1024.0007],[-122.5597,51.4354,926.3489],[-122.5596,51.4854,1364.9553],[-122.4671,51.4848,670.8571],[-122.4335,51.5033,686.8941],[-122.4148,51.5091,718.2807],[-122.3935,51.5138,649.7677],[-122.3613,51.5155,572.9288],[-122.3455,51.5202,501.6949],[-122.3268,51.5218,536.1492],[-122.2876,51.5156,341.1287],[-122.2817,51.522,321.0],[-122.2874,51.5316,327.227],[-122.2947,51.5572,371.0186]],
[[-123.2422,52.0546,683.7032],[-123.2327,52.0533,680.3214],[-123.1294,52.0544,1056.8019],[-123.1283,51.9876,840.9456],[-123.17,51.9864,661.614],[-123.2194,52.0243,722.7461],[-123.2418,52.0375,731.9168],[-123.244,52.0413,714.5228],[-123.2422,52.0546,683.7032]],
[[-123.2243,52.1064,1027.4006],[-123.2214,52.1064,1030.1455],[-123.221,52.1021,1025.1664],[-123.2036,52.1022,1043.0264],[-123.2034,52.0957,1051.0769],[-123.2242,52.0956,1040.1797],[-123.2243,52.098,1029.656],[-123.2359,52.0978,1033.0079],[-123.2357,52.1028,1024.3927],[-123.2494,52.1028,1026.1881],[-123.2496,52.1154,1026.3069],[-123.2243,52.1172,1032.8491],[-123.2243,52.1064,1027.4006]],
[[-122.5424,52.0,1007.7423],[-122.5427,51.9905,970.7333],[-122.5655,51.9909,991.6885],[-122.5647,52.003,1026.5476],[-122.5423,52.0025,1019.8529],[-122.5424,52.0,1007.7423]],
[[-123.1369,51.9352,642.8253],[-123.1343,51.9301,685.7359],[-123.1299,51.9304,685.4318],[-123.1273,51.935,640.7057],[-123.1214,51.9345,661.9893],[-123.1184,51.9277,675.1494],[-123.1121,51.9257,675.4762],[-123.1117,51.9111,858.4258],[-123.1706,51.9108,924.5719],[-123.171,51.9574,699.3477],[-123.1604,51.9559,715.1232],[-123.1474,51.9511,712.0594],[-123.1455,51.9488,702.2637],[-123.1525,51.942,661.9548],[-123.1499,51.9379,686.715],[-123.141,51.9374,675.6799],[-123.1369,51.9352,642.8253]],
[[-122.4487,51.9093,715.485],[-122.4489,51.8981,1088.0813],[-122.518,51.899,975.3641],[-122.5188,51.941,842.845],[-122.4481,51.9405,880.4681],[-122.4487,51.9093,715.485]]]]}
,"properties": {"GID_3": "CAN.2.4.42_1","GID_0": "CAN","country": "Canada","GID_1": "CAN.2_1","province": "BritishColumbia","NL_NAME_1": "NA","GID_2": "CAN.2.4_1","county": "Cariboo","NL_NAME_2": "NA","city": "CaribooK","VARNAME_3": "NA","NL_NAME_3": "NA","TYPE_3": "RegionalDistrictElectoralArea","ENGTYPE_3": "RegionalDistrictElectoralArea","CC_3": "NA","HASC_3": "NA","name": "Cariboo_K.city","area_km2": 13826.18,"hist_schema_id": "Elevation0-9000","hist_area_km2": {"325": 1.54,"350": 4.83,"375": 5.25,"400": 7.55,"425": 11.16,"450": 11.51,"475": 14.62,"500": 18.81,"525": 21.01,"550": 26.67,"575": 28.14,"600": 34.32,"625": 41.1,"650": 39.53,"675": 38.32,"700": 54.24,"725": 51.15,"750": 53.72,"775": 64.18,"800": 71.95,"825": 78.98,"850": 88.6,"875": 142.46,"900": 235.93,"925": 318.91,"950": 357.71,"975": 320.78,"1000": 307.01,"1025": 381.64,"1050": 560.19,"1075": 611.38,"1100": 770.23,"1125": 654.27,"1150": 730.62,"1175": 675.75,"1200": 633.52,"1225": 630.82,"1250": 461.92,"1275": 337.66,"1300": 291.77,"1325": 276.09,"1350": 224.6,"1375": 195.54,"1400": 186.76,"1425": 186.94,"1450": 197.51,"1475": 228.78,"1500": 227.84,"1525": 192.93,"1550": 193.18,"1575": 176.57,"1600": 173.29,"1625": 176.41,"1650": 171.43,"1675": 168.83,"1700": 182.72,"1725": 141.89,"1750": 114.33,"1775": 90.74,"1800": 83.68,"1825": 74.87,"1850": 74.04,"1875": 72.97,"1900": 67.98,"1925": 64.36,"1950": 55.47,"1975": 46.83,"2000": 42.19,"2025": 40.16,"2050": 35.98,"2075": 34.98,"2100": 33.51,"2125": 31.81,"2150": 30.84,"2175": 31.41,"2200": 28.64,"2225": 26.28,"2250": 24.4,"2275": 25.46,"2300": 23.38,"2325": 21.19,"2350": 19.77,"2375": 16.86,"2400": 14.91,"2425": 13.64,"2450": 12.95,"2475": 12.08,"2500": 10.29,"2525": 9.42,"2550": 8.65,"2575": 7.46,"2600": 6.62,"2625": 5.06,"2650": 4.41,"2675": 3.93,"2700": 3.18,"2725": 2.68,"2750": 1.99,"2775": 1.57,"2800": 1.1,"2825": 0.92,"2850": 0.6,"2875": 0.42,"2900": 0.39,"2925": 0.29,"2950": 0.17}}}