{"type":"Feature","properties":{"GID_3":"CAN.5.3.75_1","GID_0":"CAN","country":"Canada","GID_1":"CAN.5_1","province":"NewfoundlandandLabrador","NL_NAME_1":"NA","GID_2":"CAN.5.3_1","county":"DivisionNo.1","NL_NAME_2":"NA","city":"SalmonCove","VARNAME_3":"NA","NL_NAME_3":"NA","TYPE_3":"Town","ENGTYPE_3":"Town","CC_3":"NA","HASC_3":"NA","name":"Salmon_Cove.city"},
"geometry":{"type": "MultiPolygon","coordinates": [[[[-53.1976,47.7799,22.4594],[-53.1986,47.7773,22.7155],[-53.1973,47.7722,20.6511],[-53.1856,47.7723,17.661],[-53.184,47.7695,88.0829],[-53.1483,47.7821,0.0],[-53.1492,47.7842,0.0],[-53.1572,47.7827,1.5707],[-53.1594,47.7844,2.5749],[-53.1506,47.7864,5.8873],[-53.1471,47.7902,4.3305],[-53.1749,47.7879,60.4734],[-53.1976,47.7799,22.4594]]]]}}