{"type": "Feature","bbox": [-121.6808,50.3899,-121.6721,50.3996],"geometry": {"type": "MultiPolygon","coordinates": [[[[-121.6721,50.3996,253.023],[-121.6807,50.3995,254.7184],[-121.6808,50.3905,205.5027],[-121.673,50.3899,228.8048],[-121.6721,50.3996,253.023]]]]}
,"properties": {"GID_3": "CAN.2.28.7_1","GID_0": "CAN","country": "Canada","GID_1": "CAN.2_1","province": "BritishColumbia","NL_NAME_1": "NA","GID_2": "CAN.2.28_1","county": "Thompson-Nicola","NL_NAME_2": "NA","city": "CameronBar13","VARNAME_3": "NA","NL_NAME_3": "NA","TYPE_3": "RéserveIndienne","ENGTYPE_3": "IndianReserve","CC_3": "NA","HASC_3": "NA","name": "Cameron_Bar13.city","area_km2": 0.621744,"hist_schema_id": "Elevation0-9000","hist_area_km2": {"150": 0.1621975,"175": 0.2432924,"200": 0.0810957,"225": 0.1081281,"250": 0.0270303}}}