{"type":"Feature","properties":{"featurecla":"River","scalerank":11,"rivernum":20862,"dissolve":"20862River","name":"MacKay","name_alt":null,"note":"ID is link back to CEC data","name_full":"MacKay River","min_zoom":6.7,"strokeweig":0.15,"uident":1554301,"min_label":7.7},
"geometry":{"type": "LineString","coordinates": [[-113.27660071522872,56.653143621869027,530.9159],[-113.2352595693954,56.649237371869027,530.3258],[-113.1429744131454,56.653509832806527,522.1313],[-113.0865779287704,56.669948634889863,521.5398],[-113.07725989491622,56.676865952598192,515.9099],[-113.07111568918705,56.695827541139863,521.4623],[-113.07062740793705,56.719265041139863,512.4623],[-113.06322180897872,56.727118231244027,503.8066],[-113.06281490793705,56.727118231244027,503.8066],[-113.01911373606205,56.730169989056527,516.1443],[-112.95734615793705,56.741644598431527,498.2961],[-112.8968806631454,56.745062567181527,487.4154],[-112.85020911366622,56.747503973431527,487.8947],[-112.83079993397872,56.747097072389863,487.5009],[-112.80842037668705,56.746283270306527,488.2393]]}}