{"type":"Feature","properties":{"featurecla":"River","scalerank":11,"rivernum":20838,"dissolve":"20838River","name":"Utikuma","name_alt":null,"note":"ID is link back to CEC data","name_full":"Utikuma River","min_zoom":6.7,"strokeweig":0.2,"uident":2109801,"min_label":7.7},
"geometry":{"type": "LineString","coordinates": [[-115.39842688710372,55.922145900514863,639.0],[-115.39338131418705,55.951442775514863,662.5178],[-115.37995357981205,55.966660874473192,648.6472],[-115.35753333241622,55.983587957806527,636.8513],[-115.33824622304122,56.010809637494027,644.8546],[-115.29649817616622,56.049383856244027,627.7831],[-115.21873938710372,56.065700588014863,666.8195],[-115.1700740225204,56.092881577598192,660.5],[-115.13581295481205,56.117295640098192,666.5739],[-115.01366126210372,56.185126043744027,594.3807],[-114.99510657460372,56.192084051556527,578.1501],[-114.9842830068954,56.195868231244027,579.869],[-114.94318600168705,56.203436590619027,572.3257],[-114.9110408193954,56.203884181764863,573.4713],[-114.82030188710372,56.193182684369027,597.3397],[-114.74738522043705,56.179266668744027,596.231],[-114.6988826162704,56.162787176556527,570.5657],[-114.69831295481205,56.162461655723192,570.5657]]}}