{"type":"Feature","properties":{"featurecla":"River","scalerank":12,"rivernum":20877,"dissolve":"20877River","name":"Cadotte","name_alt":null,"note":"ID is link back to CEC data","name_full":"Cadotte River","min_zoom":7.0,"strokeweig":0.15,"uident":1555201,"min_label":8.0},
"geometry":{"type": "LineString","coordinates": [[-116.47545325429122,56.499131577598192,566.4039],[-116.46104895741622,56.494208074994027,576.7883],[-116.43390865793705,56.477606512494027,590.5022],[-116.40949459543705,56.449530340619027,567.5],[-116.4051814443954,56.437567449994027,567.5],[-116.40465247304122,56.421332098431527,577.6078],[-116.3993220693954,56.407782293744027,577.5136],[-116.36945553293705,56.397162176556527,599.9539],[-116.35448157460372,56.389105535931527,620.0339],[-116.3363337881454,56.370713608848192,621.8608],[-116.33185787668705,56.353379624473192,632.9324],[-116.33531653554122,56.338161525514863,659.9554],[-116.3631892568954,56.319932358848192,661.9597],[-116.37328040272872,56.299668686973192,703.0831],[-116.37389075429122,56.284979559369027,723.5909],[-116.3851619131454,56.271836655723192,717.462],[-116.41344153554122,56.258246160931527,697.8436]]}}