{"type":"Feature","properties":{"featurecla":"Lake Centerline","scalerank":11,"rivernum":21217,"dissolve":"21217Lake Centerline","name":"Petitot4","name_alt":null,"note":"ID is link back to CEC data","name_full":"Petitot River","min_zoom":6.7,"strokeweig":0.2,"uident":1453601,"min_label":7.7},
"geometry":{"type": "LineString","coordinates": [[-118.83210201731205,59.820379949994027,563.8191],[-118.86290442616622,59.789821681764863,552.5],[-118.97199459543705,59.771592515098192,552.5],[-119.00975501210372,59.779364324994027,552.5],[-119.11913001210372,59.777411199994027,552.5],[-119.1346736318954,59.758612371869027,562.6321]]}}