{"type":"Feature","properties":{"featurecla":"River","scalerank":12,"rivernum":20792,"dissolve":"20792River","name":"null373","name_alt":null,"note":"ID is link back to CEC data","name_full":null,"min_zoom":7.0,"strokeweig":0.2,"uident":1589401,"min_label":8.0},
"geometry":{"type": "LineString","coordinates": [[-116.95726477772872,55.317450262494027,581.2834],[-116.92039954335372,55.302435614056527,620.0129],[-116.89020748606205,55.264715887494027,670.8298],[-116.8614802725204,55.239691473431527,695.5618],[-116.81175696522872,55.211615301556527,747.5641],[-116.78449459543705,55.170843817181527,749.8911]]}}