{"type": "Feature","bbox": [-72.3272,45.9152,-72.1413,46.0491],"geometry": {"type": "MultiPolygon","coordinates": [[[[-72.1452,46.0344,103.3861],[-72.1413,46.0384,119.5017],[-72.1785,46.0312,90.5727],[-72.194,46.0394,88.0324],[-72.2126,46.0217,83.255],[-72.2289,46.03,82.862],[-72.2271,46.0316,80.5136],[-72.2417,46.0394,82.7656],[-72.2383,46.043,80.9556],[-72.2412,46.0468,80.0988],[-72.2439,46.045,86.7648],[-72.2622,46.0491,83.3313],[-72.2836,46.0488,84.7307],[-72.2897,46.0459,68.8714],[-72.3051,46.033,91.7177],[-72.2839,46.0218,87.4402],[-72.2987,46.0085,90.7555],[-72.285,45.9999,91.0224],[-72.3143,45.9763,85.22],[-72.3165,45.9776,85.4455],[-72.3272,45.9686,89.6133],[-72.2967,45.9509,94.3083],[-72.3101,45.9386,107.33],[-72.2877,45.9261,104.0766],[-72.2723,45.9152,97.2987],[-72.2155,45.9607,102.3389],[-72.192,45.9474,106.5398],[-72.1646,45.9716,109.6106],[-72.164,45.9724,113.931],[-72.1797,45.9806,113.8583],[-72.144,46.0137,116.4544],[-72.1583,46.022,106.2715],[-72.1452,46.0344,103.3861]]]]}
,"properties": {"GID_3": "CAN.11.6.18_1","GID_0": "CAN","country": "Canada","GID_1": "CAN.11_1","province": "Québec","NL_NAME_1": "NA","GID_2": "CAN.11.6_1","county": "Arthabaska","NL_NAME_2": "NA","city": "Sainte-Clotilde-de-Horton","VARNAME_3": "NA","NL_NAME_3": "NA","TYPE_3": "Municipalité","ENGTYPE_3": "Municipality","CC_3": "NA","HASC_3": "NA","name": "Sainte-Clotilde-de-Horton.city","area_km2": 116.25838,"hist_schema_id": "Elevation0-9000","hist_area_km2": {"75": 30.45465,"100": 79.4829,"125": 6.32083}}}