{"type": "Feature","bbox": [-71.7699,45.8702,-71.6543,45.968],"geometry": {"type": "MultiPolygon","coordinates": [[[[-71.7524,45.9017,268.4513],[-71.7699,45.8855,352.4464],[-71.7406,45.8702,329.127],[-71.6776,45.9283,385.6528],[-71.6789,45.9291,391.1573],[-71.6543,45.9523,469.4584],[-71.6849,45.968,458.8263],[-71.7091,45.9446,366.5281],[-71.7076,45.9437,363.9832],[-71.7524,45.9017,268.4513]]]]}
,"properties": {"GID_3": "CAN.11.6.8_1","GID_0": "CAN","country": "Canada","GID_1": "CAN.11_1","province": "Québec","NL_NAME_1": "NA","GID_2": "CAN.11.6_1","county": "Arthabaska","NL_NAME_2": "NA","city": "Notre-Dame-de-Ham","VARNAME_3": "NA","NL_NAME_3": "NA","TYPE_3": "Municipalité","ENGTYPE_3": "Municipality","CC_3": "NA","HASC_3": "NA","name": "Notre-Dame-de-Ham.city","area_km2": 32.47911,"hist_schema_id": "Elevation0-9000","hist_area_km2": {"200": 0.841,"225": 1.53438,"250": 1.72616,"275": 2.3311,"300": 2.67051,"325": 4.13147,"350": 3.52616,"375": 3.96752,"400": 4.24691,"425": 2.69804,"450": 3.22843,"475": 1.57744}}}