{"type": "Feature","bbox": [-69.6953,47.7127,-69.5166,47.8096],"geometry": {"type": "MultiPolygon","coordinates": [[[[-69.6918,47.7477,13.2092],[-69.6882,47.7493,8.7601],[-69.6878,47.7526,0.0575],[-69.6953,47.75,4.5825],[-69.6918,47.7477,13.2092]]],
[[[-69.552,47.7298,113.467],[-69.5166,47.7582,115.1494],[-69.5304,47.7616,108.1888],[-69.5339,47.7642,95.9028],[-69.5364,47.7625,111.4155],[-69.5427,47.762,113.2646],[-69.552,47.7556,115.1992],[-69.573,47.7704,135.8188],[-69.5673,47.7769,130.9435],[-69.5746,47.7816,131.1626],[-69.5653,47.787,133.8182],[-69.5647,47.7891,138.0597],[-69.5673,47.7908,128.1848],[-69.5645,47.7925,129.4241],[-69.5668,47.7945,125.1557],[-69.5651,47.7955,120.1143],[-69.5859,47.8096,2.2919],[-69.5893,47.8045,1.1993],[-69.5868,47.8034,2.2706],[-69.5872,47.8022,2.2706],[-69.5969,47.7935,0.0449],[-69.5905,47.794,1.4673],[-69.59,47.7895,-0.015],[-69.5931,47.7859,7.5203],[-69.6382,47.7393,3.3939],[-69.648,47.7317,4.9123],[-69.662,47.7273,0.2077],[-69.6405,47.7127,105.8046],[-69.6255,47.7164,103.4426],[-69.6042,47.7349,115.8686],[-69.6009,47.7325,124.8757],[-69.5932,47.7321,127.6686],[-69.5884,47.7359,131.0499],[-69.5746,47.737,125.1261],[-69.552,47.7298,113.467]]]]}
,"properties": {"GID_3": "CAN.11.89.3_1","GID_0": "CAN","country": "Canada","GID_1": "CAN.11_1","province": "Québec","NL_NAME_1": "NA","GID_2": "CAN.11.89_1","county": "Rivière-du-Loup","NL_NAME_2": "NA","city": "Notre-Dame-du-Portage","VARNAME_3": "NA","NL_NAME_3": "NA","TYPE_3": "MunicipalitéDeParoisse","ENGTYPE_3": "ParishMunicipality","CC_3": "NA","HASC_3": "NA","name": "Notre-Dame-du-Portage.city","area_km2": 39.45728,"hist_schema_id": "Elevation0-9000","hist_area_km2": {"0": 2.22277,"25": 1.96698,"50": 1.3398,"75": 1.66766,"100": 16.23871,"125": 15.30865,"150": 0.7127}}}