{"type": "Feature","bbox": [-77.7889,44.8136,-77.5562,44.9956],"geometry": {"type": "MultiPolygon","coordinates": [[[[-77.7889,44.952,354.2136],[-77.7858,44.9434,375.9432],[-77.7828,44.9406,372.4517],[-77.7818,44.9356,390.3066],[-77.7786,44.9317,377.7838],[-77.777,44.927,371.0789],[-77.7781,44.9251,367.7219],[-77.776,44.9248,365.0258],[-77.7737,44.9203,350.5821],[-77.7739,44.9166,370.4942],[-77.7677,44.9096,343.4568],[-77.7618,44.8966,356.7461],[-77.7536,44.8898,362.0709],[-77.747,44.8872,360.5426],[-77.751,44.8819,350.4315],[-77.7491,44.8791,350.4203],[-77.751,44.8706,371.1768],[-77.7473,44.868899999999996,371.2137],[-77.7451,44.861,368.1376],[-77.7396,44.8522,361.2695],[-77.7314,44.845,360.4995],[-77.7334,44.8389,360.4362],[-77.7262,44.8347,356.2325],[-77.729,44.8306,351.4776],[-77.7205,44.8136,326.4149],[-77.5562,44.8586,345.3875],[-77.6302,44.9956,366.8083],[-77.7889,44.952,354.2136]]]]}
,"properties": {"GID_3": "CAN.9.17.8_1","GID_0": "CAN","country": "Canada","GID_1": "CAN.9_1","province": "Ontario","NL_NAME_1": "NA","GID_2": "CAN.9.17_1","county": "Hastings","NL_NAME_2": "NA","city": "Limerick","VARNAME_3": "NA","NL_NAME_3": "NA","TYPE_3": "Township","ENGTYPE_3": "Township","CC_3": "NA","HASC_3": "NA","name": "Limerick.city","area_km2": 221.4876,"hist_schema_id": "Elevation0-9000","hist_area_km2": {"300": 10.4243,"325": 52.3754,"350": 107.5479,"375": 48.048,"400": 3.077,"425": 0.015}}}