{"type": "Feature","bbox": [-79.3903,42.9637,-79.2674,43.1087],"geometry": {"type": "MultiPolygon","coordinates": [[[[-79.3894,43.096,180.7789],[-79.3862,42.9861,173.8558],[-79.3903,42.985,175.2927],[-79.3889,42.983,176.6776],[-79.3817,42.9829,171.7266],[-79.361,42.9693,172.4238],[-79.3516,42.9657,183.822],[-79.3437,42.9664,176.2852],[-79.3338,42.9722,172.6833],[-79.3273,42.9721,176.9773],[-79.3206,42.969,174.6896],[-79.3036,42.9675,174.8152],[-79.2961,42.9637,176.0818],[-79.291,42.9639,175.6314],[-79.2906,43.0172,193.1547],[-79.2803,43.0174,192.4591],[-79.2804,43.027,193.5594],[-79.2674,43.0273,184.624],[-79.2679,43.0543,187.1241],[-79.2784,43.0525,191.0355],[-79.2858,43.0588,183.0704],[-79.2872,43.1087,125.8356],[-79.3902,43.1056,179.3042],[-79.3894,43.096,180.7789]]]]}
,"properties": {"GID_3": "CAN.9.32.6_1","GID_0": "CAN","country": "Canada","GID_1": "CAN.9_1","province": "Ontario","NL_NAME_1": "NA","GID_2": "CAN.9.32_1","county": "Niagara","NL_NAME_2": "NA","city": "Pelham","VARNAME_3": "NA","NL_NAME_3": "NA","TYPE_3": "Town","ENGTYPE_3": "Town","CC_3": "NA","HASC_3": "NA","name": "Pelham.city","area_km2": 129.19272,"hist_schema_id": "Elevation0-9000","hist_area_km2": {"100": 0.10837,"125": 2.1985,"150": 3.06595,"175": 71.50216,"200": 40.06104,"225": 7.56179,"250": 4.67942,"275": 0.01549}}}