{"type":"Feature","properties":{"GID_3":"CAN.11.84.21_1","GID_0":"CAN","country":"Canada","GID_1":"CAN.11_1","province":"Québec","NL_NAME_1":"NA","GID_2":"CAN.11.84_1","county":"Nord-du-Québec","NL_NAME_2":"NA","city":"Kawawachikamach","VARNAME_3":"NA","NL_NAME_3":"NA","TYPE_3":"VillageNaskapi","ENGTYPE_3":"VillageNaskapi","CC_3":"NA","HASC_3":"NA","name":"Kawawachikamach.city"},
"geometry":{"type": "MultiPolygon","coordinates": [[[[-67.0,55.188,454.4885],[-66.8627,55.0928,456.198],[-66.7788,55.0366,471.9686],[-66.7563,55.0426,519.8795],[-66.7483,55.0533,506.5018],[-66.7474,55.065,500.1985],[-66.7601,55.0779,491.3568],[-66.7925,55.1199,509.0619],[-66.785,55.1727,504.8214],[-66.7689,55.1638,507.9187],[-66.7644,55.1652,507.4788],[-66.7677,55.1886,503.9213],[-66.7707,55.1919,503.2665],[-66.7764,55.1944,504.7329],[-66.7791,55.1994,508.6767],[-66.7746,55.2045,511.9897],[-66.7622,55.1972,510.269],[-66.7602,55.2003,514.3386],[-66.7741,55.2084,512.9499],[-66.765,55.2493,540.6801],[-66.8138,55.2855,570.4869],[-66.8165,55.2861,593.1947],[-66.8347,55.3021,543.5748],[-66.8391,55.3019,535.7283],[-66.8373,55.2961,543.6221],[-66.8466,55.2919,530.2783],[-66.852,55.2925,533.2159],[-66.8507,55.2885,534.1061],[-66.8665,55.2859,526.6862],[-66.8847,55.2884,526.6609],[-66.9061,55.3042,528.8348],[-66.9097,55.304,535.9476],[-66.9122,55.3021,549.5612],[-66.8946,55.2905,540.9735],[-66.913,55.2928,526.8315],[-66.9342,55.3018,527.5285],[-66.94,55.3026,533.2327],[-66.9418,55.2989,547.8094],[-66.9273,55.291,541.2512],[-66.928,55.2533,507.7801],[-66.9637,55.2532,479.6863],[-66.9681,55.2569,490.0141],[-66.971,55.2543,482.0747],[-66.9684,55.25,483.5969],[-67.0577,55.2501,452.6899],[-67.0631,55.2556,453.8192],[-67.0707,55.2567,448.97],[-67.0743,55.259,448.9214],[-67.0761,55.2633,450.5449],[-67.0826,55.2656,452.2815],[-67.0841,55.2642,450.3577],[-67.0732,55.2535,455.6309],[-67.073,55.2506,456.1177],[-67.0633,55.2441,461.2621],[-67.0691,55.2393,458.0915],[-67.0,55.188,454.4885]]]]}}