{"type": "Feature","bbox": [-99.9347,50.0634,-99.6595,50.2407],"geometry": {"type": "MultiPolygon","coordinates": [[[[-99.6599,50.2407,482.0142],[-99.8209,50.2404,529.4494],[-99.8208,50.2328,547.6713],[-99.845,50.2326,540.4079],[-99.8774,50.2328,553.6709],[-99.8772,50.2407,552.7481],[-99.9347,50.2402,500.3549],[-99.9343,50.0639,511.0334],[-99.6595,50.0634,415.2091],[-99.6599,50.2407,482.0142]]]]}
,"properties": {"GID_3": "CAN.3.6.18_1","GID_0": "CAN","country": "Canada","GID_1": "CAN.3_1","province": "Manitoba","NL_NAME_1": "NA","GID_2": "CAN.3.6_1","county": "DivisionNo.15","NL_NAME_2": "NA","city": "Odanah","VARNAME_3": "NA","NL_NAME_3": "NA","TYPE_3": "RuralMunicipality","ENGTYPE_3": "RuralMunicipality","CC_3": "NA","HASC_3": "NA","name": "Odanah.city","area_km2": 382.5152,"hist_schema_id": "Elevation0-9000","hist_area_km2": {"425": 6.7763,"450": 33.4972,"475": 64.4435,"500": 89.3154,"525": 104.5263,"550": 83.9295,"575": 0.0271}}}