{"type": "Feature","bbox": [-116.3501,60.4597,-116.0234,60.6322],"geometry": {"type": "MultiPolygon","coordinates": [[[[-116.0234,60.6203,210.7589],[-116.3501,60.6322,261.9019],[-116.3467,60.4597,280.6337],[-116.0472,60.4751,274.5707],[-116.0375,60.615,214.3946],[-116.0234,60.6203,210.7589]]]]}
,"properties": {"GID_3": "CAN.6.1.2_1","GID_0": "CAN","country": "Canada","GID_1": "CAN.6_1","province": "NorthwestTerritories","NL_NAME_1": "NA","GID_2": "CAN.6.1_1","county": "FortSmith","NL_NAME_2": "NA","city": "Enterprise","VARNAME_3": "NA","NL_NAME_3": "NA","TYPE_3": "Settlement","ENGTYPE_3": "Settlement","CC_3": "NA","HASC_3": "NA","name": "Enterprise.city","area_km2": 296.5221,"hist_schema_id": "Elevation0-9000","hist_area_km2": {"175": 1.8527,"200": 4.9384,"225": 47.3905,"250": 37.4493,"275": 203.6166,"300": 1.2744}}}