{"type":"Feature","properties":{"GID_3":"CAN.11.18.6_1","GID_0":"CAN","country":"Canada","GID_1":"CAN.11_1","province":"Québec","NL_NAME_1":"NA","GID_2":"CAN.11.18_1","county":"Coaticook","NL_NAME_2":"NA","city":"Martinville","VARNAME_3":"NA","NL_NAME_3":"NA","TYPE_3":"Municipalité","ENGTYPE_3":"Municipality","CC_3":"NA","HASC_3":"NA","name":"Martinville.city"},
"geometry":{"type": "MultiPolygon","coordinates": [[[[-71.7372,45.2458,330.7937],[-71.6434,45.2474,441.1185],[-71.6449,45.3065,422.5867],[-71.7395,45.3051,273.0347],[-71.7372,45.2458,330.7937]]]]}}