{"type": "Feature","bbox": [-73.1758,45.9553,-73.0121,46.0578],"geometry": {"type": "MultiPolygon","coordinates": [[[[-73.1649,45.9688,20.9533],[-73.1466,45.9553,5.0],[-73.1423,45.9683,5.0],[-73.1421,45.9752,5.0],[-73.1461,45.9868,5.0],[-73.1458,45.9943,5.0],[-73.1168,45.9851,32.1783],[-73.115,45.9883,32.307],[-73.1045,45.9793,13.099],[-73.0969,45.9894,15.6496],[-73.0919,45.9909,29.1565],[-73.0889,45.9947,26.209],[-73.0879,45.9981,16.7278],[-73.0894,46.0061,33.6114],[-73.0815,46.0131,34.2549],[-73.0602,46.0049,12.9302],[-73.0611,46.0037,14.3021],[-73.0415,45.9887,30.198],[-73.0394,45.9941,29.2964],[-73.043,45.9949,33.0061],[-73.0406,45.9979,20.3156],[-73.0375,45.9979,20.8013],[-73.0368,46.0017,17.6338],[-73.0389,46.004,34.6193],[-73.0356,46.0173,17.1057],[-73.0301,46.0235,10.0199],[-73.0235,46.0224,7.9205],[-73.0208,46.0302,7.4671],[-73.0165,46.027,10.9883],[-73.0149,46.0315,7.8205],[-73.0121,46.0336,8.2905],[-73.0183,46.0348,7.811],[-73.0222,46.0327,9.9467],[-73.0283,46.035,8.988],[-73.0313,46.0329,7.6444],[-73.0456,46.0312,9.2633],[-73.051,46.0281,11.6913],[-73.0538,46.0203,15.944],[-73.0891,46.0483,12.1365],[-73.0946,46.0578,3.0],[-73.1034,46.0547,3.0],[-73.1227,46.0523,3.0],[-73.118,46.0412,3.125],[-73.1541,46.0421,3.0],[-73.1653,46.001,24.3089],[-73.1758,45.9769,29.9195],[-73.1649,45.9688,20.9533]]]]}
,"properties": {"GID_3": "CAN.11.50.12_1","GID_0": "CAN","country": "Canada","GID_1": "CAN.11_1","province": "Québec","NL_NAME_1": "NA","GID_2": "CAN.11.50_1","county": "LeBas-Richelieu","NL_NAME_2": "NA","city": "Sorel-Tracy","VARNAME_3": "NA","NL_NAME_3": "NA","TYPE_3": "Ville","ENGTYPE_3": "Ville","CC_3": "NA","HASC_3": "NA","name": "Sorel-Tracy.city","area_km2": 58.17763,"hist_schema_id": "Elevation0-9000","hist_area_km2": {"0": 10.89455,"25": 45.5302,"50": 1.75289}}}