{"type": "Feature","bbox": [-71.414,46.2317,-71.2467,46.3492],"geometry": {"type": "MultiPolygon","coordinates": [[[[-71.3192,46.2581,380.813],[-71.3059,46.2699,505.9465],[-71.29,46.2626,413.4675],[-71.2467,46.3006,283.7139],[-71.2528,46.3007,316.1695],[-71.322,46.3492,279.3185],[-71.414,46.29,297.1918],[-71.3724,46.2683,244.1162],[-71.3888,46.2528,354.4152],[-71.3485,46.2317,443.9346],[-71.3192,46.2581,380.813]]]]}
,"properties": {"GID_3": "CAN.11.29.14_1","GID_0": "CAN","country": "Canada","GID_1": "CAN.11_1","province": "Québec","NL_NAME_1": "NA","GID_2": "CAN.11.29_1","county": "L'Amiante","NL_NAME_2": "NA","city": "Saint-Jacques-de-Leeds","VARNAME_3": "NA","NL_NAME_3": "NA","TYPE_3": "Municipalité","ENGTYPE_3": "Municipality","CC_3": "NA","HASC_3": "NA","name": "Saint-Jacques-de-Leeds.city","area_km2": 81.2367,"hist_schema_id": "Elevation0-9000","hist_area_km2": {"200": 0.61523,"225": 8.36513,"250": 12.86172,"275": 14.88219,"300": 13.38741,"325": 8.36495,"350": 4.73253,"375": 3.91256,"400": 2.96049,"425": 2.81427,"450": 2.71159,"475": 2.24255,"500": 2.25744,"525": 1.08468,"550": 0.04397}}}