{"type": "Feature","bbox": [-123.0297,49.2999,-123.0182,49.3128],"geometry": {"type": "MultiPolygon","coordinates": [[[[-123.0253,49.3021,6.1735],[-123.0256,49.3036,6.1735],[-123.0211,49.3062,11.0619],[-123.0215,49.3097,9.233],[-123.0182,49.3119,14.0957],[-123.0192,49.3128,21.845],[-123.0245,49.3125,23.6867],[-123.0251,49.3095,10.8408],[-123.0277,49.3094,10.8965],[-123.0291,49.311,14.8095],[-123.0297,49.2999,3.5272],[-123.0283,49.3016,1.6547],[-123.0272,49.3,0.5879],[-123.0238,49.3,4.9965],[-123.0253,49.3021,6.1735]]]]}
,"properties": {"GID_3": "CAN.2.14.31_1","GID_0": "CAN","country": "Canada","GID_1": "CAN.2_1","province": "BritishColumbia","NL_NAME_1": "NA","GID_2": "CAN.2.14_1","county": "GreaterVancouver","NL_NAME_2": "NA","city": "SeymourCreek2","VARNAME_3": "NA","NL_NAME_3": "NA","TYPE_3": "RéserveIndienne","ENGTYPE_3": "IndianReserve","CC_3": "NA","HASC_3": "NA","name": "Seymour_Creek2.city","area_km2": 0.6359016,"hist_schema_id": "Elevation0-9000","hist_area_km2": {"0": 0.4285511,"25": 0.2073505}}}