{"type":"Feature","properties":{"GID_3":"CAN.2.4.63_1","GID_0":"CAN","country":"Canada","GID_1":"CAN.2_1","province":"BritishColumbia","NL_NAME_1":"NA","GID_2":"CAN.2.4_1","county":"Cariboo","NL_NAME_2":"NA","city":"Nazco20","VARNAME_3":"NA","NL_NAME_3":"NA","TYPE_3":"RéserveIndienne","ENGTYPE_3":"IndianReserve","CC_3":"NA","HASC_3":"NA","name":"Nazco20.city"},
"geometry":{"type": "MultiPolygon","coordinates": [[[[-123.584,52.9652,836.2649],[-123.5844,52.9711,851.7362],[-123.6035,52.9711,836.1219],[-123.6031,52.9629,878.1729],[-123.5901,52.963,838.4192],[-123.5899,52.9376,907.5751],[-123.5663,52.9358,843.808],[-123.5662,52.9449,904.1569],[-123.5722,52.9448,840.2694],[-123.5726,52.9631,874.4136],[-123.5839,52.9629,838.1599],[-123.584,52.9652,836.2649]]]]}}