{"type": "Feature","bbox": [-100.6941,52.7357,-100.6666,52.7655],"geometry": {"type": "MultiPolygon","coordinates": [[[[-100.6729,52.7628,252.3299],[-100.6734,52.7602,254.6919],[-100.6804,52.7552,253.3422],[-100.682,52.7507,256.4001],[-100.685,52.7504,255.7442],[-100.6895,52.7437,255.8449],[-100.6941,52.7435,260.1618],[-100.6937,52.7357,262.6739],[-100.6706,52.7358,263.6238],[-100.6706,52.7571,257.9303],[-100.6666,52.7573,261.9897],[-100.6667,52.7655,256.62],[-100.6725,52.7653,252.0],[-100.6729,52.7628,252.3299]]]]}
,"properties": {"GID_3": "CAN.3.10.18_1","GID_0": "CAN","country": "Canada","GID_1": "CAN.3_1","province": "Manitoba","NL_NAME_1": "NA","GID_2": "CAN.3.10_1","county": "DivisionNo.19","NL_NAME_2": "NA","city": "ShoalRiverIndianReserve65A","VARNAME_3": "NA","NL_NAME_3": "NA","TYPE_3": "RéserveIndienne","ENGTYPE_3": "IndianReserve","CC_3": "NA","HASC_3": "NA","name": "Shoal_River_Indian_Reserve65_A.city","area_km2": 3.439658,"hist_schema_id": "Elevation0-9000","hist_area_km2": {"250": 2.849296,"275": 0.590362}}}