{"type":"Feature","properties":{"featurecla":"River","scalerank":11,"rivernum":20257,"dissolve":"20257River","name":"Elk4","name_alt":null,"note":"ID is link back to CEC data","name_full":"Elk River","min_zoom":6.7,"strokeweig":0.2,"uident":1769201,"min_label":7.7},
"geometry":{"type": "LineString","coordinates": [[-114.96349036366622,50.1780866557232,1364.9377],[-114.91169186106205,50.0848249369732,1388.4552],[-114.9046931631454,50.068426824994027,1343.6948],[-114.89460201731205,50.044378973431527,1481.9402],[-114.88683020741622,50.014431056764863,1494.6143],[-114.87096106679122,49.968044338014863,1646.5105],[-114.86412512929122,49.931179103639863,1397.9608],[-114.86607825429122,49.925075588014863,1298.5494],[-114.87413489491622,49.899969793744027,1258.5159],[-114.88263912668705,49.819647528119027,1160.5935],[-114.8876033193954,49.723334051556527,1138.6709],[-114.91368567616622,49.661200262494027,1156.6648],[-114.99982662668705,49.580023504681527,1201.4288],[-115.02806555897872,49.547186590619027,1025.2799],[-115.04889889231205,49.5230573588482,1005.0663],[-115.0660701162704,49.503119207806527,1003.9615],[-115.05980384022872,49.458441473431527,977.6599],[-115.03563391835372,49.4285749369732,1002.5124],[-115.01984615793705,49.406927801556527,1017.4589],[-115.00983639231205,49.393133856244027,1006.8973],[-115.0035701162704,49.3726667338482,996.8847],[-115.02696692616622,49.336940822389863,1379.3112],[-115.06501217356205,49.319606838014863,1131.724],[-115.0675349600204,49.319118556764863,1096.001],[-115.11009680897872,49.311061916139863,1184.4316],[-115.1014705068954,49.2879499369732,988.535],[-115.09581458241622,49.264471746869027,926.5863],[-115.09825598866622,49.2520612650982,1149.5131],[-115.10228430897872,49.246852931764863,988.6158],[-115.13988196522872,49.213893947389863,911.9511],[-115.18895423085372,49.181219793744027,850.1052]]}}