{"type": "Feature","bbox": [-73.1475,46.0628,-72.9758,46.1573],"geometry": {"type": "MultiPolygon","coordinates": [[[[-73.1475,46.0759,9.2849],[-73.1457,46.0648,8.5431],[-73.1432,46.0628,18.5649],[-73.1322,46.0645,11.4578],[-73.1327,46.0666,10.3832],[-73.1302,46.069,8.6323],[-73.1236,46.0716,7.8392],[-73.1085,46.0719,21.6762],[-73.1028,46.0753,9.0428],[-73.0923,46.0781,7.1274],[-73.0785,46.0873,3.0],[-73.0565,46.1091,10.3781],[-73.0447,46.1159,9.403],[-73.035,46.1241,7.3066],[-73.0054,46.1276,8.042],[-72.9837,46.1328,5.5273],[-72.9775,46.1393,2.5],[-72.9758,46.1472,2.5],[-72.9909,46.1564,5.7144],[-73.0015,46.1573,2.5],[-73.0179,46.1472,2.5],[-73.0242,46.1453,2.5],[-73.0333,46.1456,2.5],[-73.0708,46.1307,3.8988],[-73.0829,46.1252,5.2953],[-73.0912,46.1186,6.1295],[-73.0932,46.115,3.6868],[-73.0915,46.1119,3.0],[-73.092,46.1096,3.9289],[-73.0961,46.105,6.4376],[-73.1062,46.1024,5.1806],[-73.1253,46.089,7.4132],[-73.1274,46.0851,4.6221],[-73.135,46.0851,8.4223],[-73.1475,46.0759,9.2849]]]]}
,"properties": {"GID_3": "CAN.11.22.13_1","GID_0": "CAN","country": "Canada","GID_1": "CAN.11_1","province": "Québec","NL_NAME_1": "NA","GID_2": "CAN.11.22_1","county": "D'Autray","NL_NAME_2": "NA","city": "Saint-Ignace-de-Loyola","VARNAME_3": "NA","NL_NAME_3": "NA","TYPE_3": "MunicipalitéDeParoisse","ENGTYPE_3": "ParishMunicipality","CC_3": "NA","HASC_3": "NA","name": "Saint-Ignace-de-Loyola.city","area_km2": 37.25957,"hist_schema_id": "Elevation0-9000","hist_area_km2": {"0": 33.89306,"25": 3.36651}}}