{"type": "Feature","bbox": [-107.7254,53.5702,-107.64,53.6137],"geometry": {"type": "MultiPolygon","coordinates": [[[[-107.7254,53.5773,590.9379],[-107.701,53.5774,586.0198],[-107.7012,53.5848,590.3195],[-107.7132,53.5846,597.8974],[-107.7133,53.5918,600.1368],[-107.7254,53.5917,600.52],[-107.7254,53.5773,590.9379]]],
[[[-107.6646,53.6066,583.6422],[-107.6648,53.6136,584.448],[-107.6773,53.6137,586.8359],[-107.6771,53.5921,599.1504],[-107.6645,53.5921,587.0116],[-107.6645,53.586,591.1202],[-107.6815,53.5849,583.1957],[-107.6864,53.5812,584.007],[-107.6849,53.5849,587.4168],[-107.6889,53.5849,590.8236],[-107.6889,53.5702,595.6564],[-107.6522,53.5704,603.1321],[-107.6523,53.5778,597.2086],[-107.6646,53.5777,600.1933],[-107.6645,53.5839,595.979],[-107.6401,53.585,595.7838],[-107.64,53.5994,578.0522],[-107.6524,53.5994,581.928],[-107.6524,53.6066,581.1849],[-107.6646,53.6066,583.6422]]]]}
,"properties": {"GID_3": "CAN.12.7.43_1","GID_0": "CAN","country": "Canada","GID_1": "CAN.12_1","province": "Saskatchewan","NL_NAME_1": "NA","GID_2": "CAN.12.7_1","county": "DivisionNo.16","NL_NAME_2": "NA","city": "PelicanLake191B","VARNAME_3": "NA","NL_NAME_3": "NA","TYPE_3": "RéserveIndienne","ENGTYPE_3": "IndianReserve","CC_3": "NA","HASC_3": "NA","name": "Pelican_Lake191_B.city","area_km2": 10.67231,"hist_schema_id": "Elevation0-9000","hist_area_km2": {"575": 4.315811,"600": 6.356499}}}