{"type":"Feature","properties":{"GID_3":"CAN.1.2.6_1","GID_0":"CAN","country":"Canada","GID_1":"CAN.1_1","province":"Alberta","NL_NAME_1":"NA","GID_2":"CAN.1.2_1","county":"DivisionNo.11","NL_NAME_2":"NA","city":"BrazeauNo.77","VARNAME_3":"NA","NL_NAME_3":"NA","TYPE_3":"MunicipalDistrict","ENGTYPE_3":"MunicipalDistrict","CC_3":"NA","HASC_3":"NA","name":"Brazeau_No.77.city"},
"geometry":{"type": "MultiPolygon","coordinates": [[[[-114.5614,53.308,747.2004],[-114.5717,53.3076,725.2489],[-114.5812,53.3121,691.6371],[-114.5915,53.3121,724.8807],[-114.607,53.3072,734.1658],[-114.6177,53.3077,689.9678],[-114.6237,53.3045,729.0477],[-114.6401,53.3049,713.6181],[-114.6462,53.3071,708.8963],[-114.649,53.3159,699.7643],[-114.6568,53.3182,729.8901],[-114.673,53.3177,750.0862],[-114.6849,53.3155,730.4617],[-114.7176,53.301,766.4823],[-114.7226,53.3008,763.7328],[-114.7319,53.3067,707.0354],[-114.7403,53.3071,710.4493],[-114.7504,53.3105,710.0076],[-114.7697,53.3077,772.5698],[-114.7803,53.3082,775.4354],[-114.787,53.3114,772.9426],[-114.7879,53.3172,733.0088],[-114.7961,53.3241,729.3795],[-114.8048,53.3238,730.5245],[-114.8074,53.3216,725.1362],[-114.8086,53.3228,723.2289],[-114.8081,53.3372,773.1877],[-114.8528,53.337,778.058],[-114.8528,53.3523,789.4316],[-114.8774,53.3522,778.1917],[-114.8775,53.3672,788.5317],[-115.6106,53.3668,957.3778],[-115.611,53.0197,1054.7444],[-115.5983,53.0191,1044.2307],[-115.5974,52.9454,959.5],[-115.594,52.9417,959.5],[-115.5934,52.9365,979.3497],[-115.6012,52.9335,959.5],[-115.6009,52.9288,959.5],[-115.5958,52.9258,959.5],[-115.5999,52.9232,959.5],[-115.5973,52.9237,965.9088],[-115.5981,52.8431,999.1379],[-115.5005,52.8439,964.0292],[-115.502,52.8583,959.5742],[-115.2811,52.8589,941.0233],[-115.2825,52.843,938.6975],[-115.1602,52.8431,852.6268],[-115.1648,52.8454,887.3983],[-115.1653,52.8525,865.9616],[-115.1587,52.8581,854.045],[-115.1696,52.8625,891.7123],[-115.1751,52.8693,894.8981],[-115.1886,52.8732,897.8663],[-115.1881,52.8788,865.0726],[-115.1847,52.8841,828.9727],[-115.1913,52.8917,862.1479],[-115.2107,52.8964,884.9465],[-115.2229,52.9025,882.4292],[-115.2302,52.9066,877.4854],[-115.2314,52.9127,838.7596],[-115.2239,52.9101,820.0828],[-115.2264,52.9197,815.4771],[-115.211,52.9341,808.5],[-115.2072,52.9403,829.2811],[-115.2098,52.9476,806.0],[-115.2015,52.9603,824.1451],[-115.201,52.9654,811.3757],[-115.2125,52.984,804.2672],[-115.2066,53.0006,801.0966],[-115.2078,53.0067,805.3771],[-115.2179,53.0188,795.8107],[-115.2259,53.034,795.2037],[-115.2132,53.0415,797.9936],[-115.205,53.049,835.1031],[-115.1973,53.0517,805.5253],[-115.1025,53.0488,827.0417],[-115.0918,53.0511,811.8115],[-115.0791,53.0643,788.0296],[-115.0698,53.0651,794.7844],[-115.0479,53.0536,778.8687],[-115.0418,53.0534,804.9216],[-115.0294,53.0642,764.5],[-115.024,53.0642,780.7162],[-115.0239,53.0623,801.4531],[-114.8354,53.0615,874.6972],[-114.3637,53.0615,914.3637],[-114.3629,53.1357,853.1611],[-114.3968,53.1359,828.3002],[-114.3966,53.1457,826.1671],[-114.4407,53.1457,843.3864],[-114.4408,53.1922,800.9184],[-114.4895,53.1924,831.0389],[-114.4894,53.2213,833.2482],[-114.5379,53.2214,868.3351],[-114.5375,53.2506,828.2777],[-114.5609,53.2505,805.278],[-114.5614,53.308,747.2004]],
[[-114.4649,53.1122,852.9925],[-114.4649,53.105,849.925],[-114.4772,53.105,833.4762],[-114.4772,53.1075,835.0273],[-114.482,53.1074,828.2947],[-114.484,53.1092,838.8207],[-114.4772,53.1096,836.7561],[-114.4779,53.1124,842.106],[-114.4833,53.1124,836.5034],[-114.4836,53.117,848.13],[-114.4803,53.117,846.1516],[-114.4815,53.1196,853.6279],[-114.465,53.1195,861.8256],[-114.4649,53.1122,852.9925]],
[[-114.9502,53.2199,831.5856],[-114.9502,53.2137,835.8314],[-114.9616,53.214,863.5991],[-114.9616,53.2084,869.9433],[-114.9744,53.2083,872.2702],[-114.9745,53.2003,853.819],[-114.9868,53.2002,840.0674],[-114.9871,53.2082,842.161],[-114.9993,53.2083,853.8029],[-114.9989,53.2286,865.0068],[-114.9829,53.2289,862.428],[-114.9736,53.2354,847.0906],[-114.974,53.229,861.4062],[-114.9502,53.229,825.7482],[-114.9502,53.2199,831.5856]]]]}}