{"type":"Feature","properties":{"GID_3":"CAN.2.28.17_1","GID_0":"CAN","country":"Canada","GID_1":"CAN.2_1","province":"BritishColumbia","NL_NAME_1":"NA","GID_2":"CAN.2.28_1","county":"Thompson-Nicola","NL_NAME_2":"NA","city":"Halhalaeden14A","VARNAME_3":"NA","NL_NAME_3":"NA","TYPE_3":"RéserveIndienne","ENGTYPE_3":"IndianReserve","CC_3":"NA","HASC_3":"NA","name":"Halhalaeden14_A.city"},
"geometry":{"type": "MultiPolygon","coordinates": [[[[-121.6305,50.2923,166.2854],[-121.6288,50.2892,150.3386],[-121.6223,50.2854,206.2809],[-121.6223,50.2926,367.4439],[-121.6139,50.2926,463.4573],[-121.6141,50.2996,822.7057],[-121.6299,50.2997,356.5946],[-121.6305,50.2923,166.2854]]]]}}