{"type":"Feature","properties":{"featurecla":"Lake Centerline","scalerank":11,"rivernum":20561,"dissolve":"20561Lake Centerline","name":"Magpie5","name_alt":null,"note":"ID is link back to CEC data","name_full":"Rivire Magpie","min_zoom":6.7,"strokeweig":0.2,"uident":1620801,"min_label":7.7},
"geometry":{"type": "LineString","coordinates": [[-64.833078579812067,51.285345770306527,385.9883],[-64.837880012103739,51.255926824994027,495.4535],[-64.830067512103739,51.209051824994027,553.0568],[-64.791005012103739,51.156317449994027,595.6409],[-64.742176887103739,51.097723699994027,420.1766],[-64.720692512103739,51.029364324994027,246.6643],[-64.705067512103739,50.992254949994027,232.1266],[-64.679676887103739,50.941473699994027,501.4868],[-64.648426887103739,50.888739324994027,254.4343],[-64.648426887103739,50.849676824994027,497.5771],[-64.656239387103739,50.789129949994027,501.6111],[-64.652088996478739,50.759222723431527,578.8561]]}}