{"type": "Feature","bbox": [-108.4604,52.1933,-108.4435,52.2009],"geometry": {"type": "MultiPolygon","coordinates": [[[[-108.4436,52.2009,649.1312],[-108.4604,52.2009,652.2646],[-108.4603,52.1977,651.6521],[-108.455,52.1966,651.3339],[-108.455,52.1933,651.0284],[-108.4435,52.1934,650.8422],[-108.4436,52.2009,649.1312]]]]}
,"properties": {"GID_3": "CAN.12.4.20_1","GID_0": "CAN","country": "Canada","GID_1": "CAN.12_1","province": "Saskatchewan","NL_NAME_1": "NA","GID_2": "CAN.12.4_1","county": "DivisionNo.13","NL_NAME_2": "NA","city": "Landis","VARNAME_3": "NA","NL_NAME_3": "NA","TYPE_3": "Village","ENGTYPE_3": "Village","CC_3": "NA","HASC_3": "NA","name": "Landis.city","area_km2": 0.7927336,"hist_schema_id": "Elevation0-9000","hist_area_km2": {"650": 0.7927336}}}