{"type": "Feature","bbox": [-63.5245,46.1686,-63.3856,46.3069],"geometry": {"type": "MultiPolygon","coordinates": [[[[-63.5245,46.2883,52.8126],[-63.508,46.2457,20.9921],[-63.4991,46.2481,20.3832],[-63.4899,46.2419,51.3812],[-63.4902,46.2379,36.6633],[-63.4929,46.2342,11.541],[-63.4993,46.2321,13.6252],[-63.5038,46.2335,35.4003],[-63.4999,46.2211,18.4549],[-63.4875,46.2245,3.4034],[-63.4892,46.2286,2.2104],[-63.4881,46.2297,0.2563],[-63.4858,46.2258,2.5964],[-63.4836,46.2258,7.2581],[-63.4811,46.2233,2.0531],[-63.4814,46.2211,1.431],[-63.4794,46.2203,0.4945],[-63.4783,46.2156,0.0],[-63.4739,46.2136,0.5113],[-63.4708,46.2094,0.3677],[-63.4749,46.2055,4.0569],[-63.4636,46.1969,1.3031],[-63.4628,46.1942,2.1738],[-63.4544,46.1903,0.6314],[-63.4517,46.1861,0.7106],[-63.4431,46.1892,5.2834],[-63.4339,46.1883,0.0],[-63.4258,46.1939,1.1316],[-63.4239,46.199,2.9602],[-63.4217,46.1978,12.1315],[-63.4217,46.195,4.5728],[-63.4194,46.1928,0.863],[-63.4208,46.1892,0.2976],[-63.4253,46.1869,0.5771],[-63.4261,46.1836,1.359],[-63.425,46.1825,1.359],[-63.4208,46.1816,2.874],[-63.4163,46.1765,1.7379],[-63.4111,46.1744,3.0455],[-63.4064,46.175,0.0],[-63.3978,46.1686,0.0],[-63.3856,46.17,0.0],[-63.4157,46.2501,71.7437],[-63.4351,46.3069,88.024],[-63.5245,46.2883,52.8126]]]]}
,"properties": {"GID_3": "CAN.10.3.13_1","GID_0": "CAN","country": "Canada","GID_1": "CAN.10_1","province": "PrinceEdwardIsland","NL_NAME_1": "NA","GID_2": "CAN.10.3_1","county": "Queens","NL_NAME_2": "NA","city": "Lot29","VARNAME_3": "NA","NL_NAME_3": "NA","TYPE_3": "TownshipandRoyalty","ENGTYPE_3": "TownshipandRoyalty","CC_3": "NA","HASC_3": "NA","name": "Lot29.city","area_km2": 83.58097,"hist_schema_id": "Elevation0-9000","hist_area_km2": {"0": 8.21796,"25": 17.92685,"50": 22.50813,"75": 18.66222,"100": 13.36509,"125": 2.90071}}}