{"type":"Feature","properties":{"GID_3":"CAN.12.14.38_1","GID_0":"CAN","country":"Canada","GID_1":"CAN.12_1","province":"Saskatchewan","NL_NAME_1":"NA","GID_2":"CAN.12.14_1","county":"DivisionNo.5","NL_NAME_2":"NA","city":"MoosominNo.121","VARNAME_3":"NA","NL_NAME_3":"NA","TYPE_3":"RuralMunicipality","ENGTYPE_3":"RuralMunicipality","CC_3":"NA","HASC_3":"NA","name":"Moosomin_No.121.city"},
"geometry":{"type": "MultiPolygon","coordinates": [[[[-101.4758,50.3287,490.2182],[-101.5107,50.3289,503.9674],[-101.5108,50.3217,506.7587],[-101.522,50.3218,511.6208],[-101.522,50.329,509.0889],[-101.7525,50.3279,547.001],[-101.7524,50.2403,567.1218],[-101.7208,50.2404,556.3221],[-101.7212,50.0779,575.3023],[-101.7225,50.0636,578.6504],[-101.5037,50.0639,547.011],[-101.5038,50.0705,544.4377],[-101.5152,50.0703,548.8264],[-101.5153,50.0786,547.5139],[-101.4915,50.0785,535.9492],[-101.4911,50.064,542.126],[-101.4454,50.064,533.413],[-101.446,50.2403,505.7897],[-101.4774,50.2402,509.3156],[-101.4758,50.3287,490.2182]],
[[-101.6698,50.1593,569.157],[-101.6692,50.1519,573.1768],[-101.6537,50.1519,568.8373],[-101.6526,50.1555,563.6962],[-101.6438,50.1555,558.261],[-101.6385,50.1519,562.3157],[-101.6526,50.1512,565.9333],[-101.6524,50.1335,576.4396],[-101.6756,50.1333,576.0727],[-101.6756,50.1296,575.5558],[-101.6872,50.1296,572.8365],[-101.6872,50.1377,576.4709],[-101.6779,50.1415,581.2707],[-101.6779,50.1447,579.2148],[-101.6872,50.1446,579.3719],[-101.6871,50.1519,578.5601],[-101.6756,50.1519,578.447],[-101.6756,50.1545,575.6865],[-101.6852,50.1593,576.1917],[-101.6698,50.1593,569.157]]]]}}