{"type":"Feature","properties":{"featurecla":"River","scalerank":11,"rivernum":21717,"dissolve":"21717River","name":"Rae4","name_alt":null,"note":"ID is link back to CEC data","name_full":"Rae River","min_zoom":6.7,"strokeweig":0.2,"uident":1263701,"min_label":7.7},
"geometry":{"type": "LineString","coordinates": [[-118.29784094960372,68.11823151249402,159.2578],[-118.25511634022872,68.10590241093152,155.869],[-118.1832576162704,68.094020900514863,134.2623],[-118.09821529856205,68.09332916874402,139.727],[-118.02647864491622,68.08136627811902,110.9332],[-117.93171139231205,68.07074616093152,97.1467]]}}