{"type":"Feature","properties":{"featurecla":"River","scalerank":11,"rivernum":21827,"dissolve":"21827River","name":"null85","name_alt":null,"note":"ID is link back to CEC data","name_full":null,"min_zoom":6.7,"strokeweig":0.15,"uident":1216201,"min_label":7.7},
"geometry":{"type": "LineString","coordinates": [[-106.9591365225204,70.513780015098192,146.1883],[-106.94981848866622,70.519395249473192,147.0963],[-106.92784583241622,70.55414459843152,139.5798],[-106.90021725168705,70.56122467655652,140.4276],[-106.8209529287704,70.56976959843152,161.7218],[-106.7347712881454,70.575222072389863,181.2182],[-106.6825251943954,70.58551666874402,172.4907]]}}