{"type":"Feature","properties":{"featurecla":"Lake Centerline","scalerank":12,"rivernum":21883,"dissolve":"21883Lake Centerline","name":"Ekatuk5","name_alt":null,"note":"ID is link back to CEC data","name_full":"Ekatuk River","min_zoom":7.0,"strokeweig":0.2,"uident":1192701,"min_label":8.0},
"geometry":{"type": "LineString","coordinates": [[-106.4659724600204,71.486436265098192,66.4026],[-106.52562415272872,71.487087306764863,65.168],[-106.5804744131454,71.47992584843152,65.641],[-106.69029700429122,71.48468659061902,66.5683],[-106.7899470693954,71.494981186973192,72.518]]}}