{"type":"Feature","properties":{"featurecla":"River","scalerank":11,"rivernum":21682,"dissolve":"21682River","name":"Rae","name_alt":null,"note":"ID is link back to CEC data","name_full":"Rae River","min_zoom":6.7,"strokeweig":0.2,"uident":1273701,"min_label":7.7},
"geometry":{"type": "LineString","coordinates": [[-117.93171139231205,68.07074616093152,97.1467],[-117.8976130850204,68.08112213749402,87.5291],[-117.8424373037704,68.085313218223192,111.2953],[-117.80988522043705,68.082546291139863,92.0178],[-117.73713131418705,68.04474518436902,94.8965],[-117.64509029856205,68.016953843223192,88.8773],[-117.53880774647872,68.00421784061902,95.6864],[-117.44074459543705,67.99957916874402,78.3432],[-117.3241267568954,68.00104401249402,71.1087],[-117.02501380116622,67.98139069218152,86.0316],[-116.9584041006454,67.979356186973192,97.3524]]}}