{"type":"Feature","properties":{"featurecla":"River","scalerank":12,"rivernum":21650,"dissolve":"21650River","name":"null697","name_alt":null,"note":"ID is link back to CEC data","name_full":null,"min_zoom":7.0,"strokeweig":0.2,"uident":1272601,"min_label":8.0},
"geometry":{"type": "LineString","coordinates": [[-92.3055720693954,68.46588776249402,104.942],[-92.201283332416224,68.505479233848192,109.6561],[-92.119252082416224,68.563015041139863,98.5567],[-92.0646052725204,68.63336823124402,75.0109],[-92.029896613666224,68.64667389530652,155.6767],[-91.978016730853724,68.638780015098192,72.3907]]}}