{"type":"Feature","properties":{"featurecla":"River","scalerank":11,"rivernum":21626,"dissolve":"21626River","name":"null689","name_alt":null,"note":"ID is link back to CEC data","name_full":null,"min_zoom":6.7,"strokeweig":0.2,"uident":1286801,"min_label":7.7},
"geometry":{"type": "LineString","coordinates": [[-92.261463996478724,67.831895249473192,218.0233],[-92.234242316791224,67.82807037968152,205.2134],[-92.1930232412704,67.829128322389863,209.1102],[-92.1639705068954,67.84247467655652,220.92],[-92.148793098041224,67.85614655155652,238.0601],[-92.1244197256454,67.867946681764863,203.2359],[-92.096506314187067,67.87262604374402,188.2241],[-92.0765681631454,67.88617584843152,183.7922],[-92.0689998037704,67.911973374473192,248.6853],[-92.035145637103724,67.92706940311902,265.3666],[-91.982248501687067,67.945176499473192,192.5929],[-91.932687954812067,67.97553131718152,173.6744],[-91.884388801166224,67.99201080936902,183.6065],[-91.7645564443954,67.99164459843152,215.0858],[-91.702463345437067,68.00775787968152,190.5726],[-91.670277473041224,68.00714752811902,191.3423],[-91.6163630850204,67.99579498905652,187.0396],[-91.546620246478724,67.99787018436902,196.7938],[-91.430246548562067,68.00604889530652,165.3674],[-91.351918098041224,68.00446198124402,204.689],[-91.2713923818954,67.98541901249402,149.3512]]}}