{"type":"Feature","properties":{"featurecla":"Lake Centerline","scalerank":12,"rivernum":21883,"dissolve":"21883Lake Centerline","name":"Ekatuk6","name_alt":null,"note":"ID is link back to CEC data","name_full":"Ekatuk River","min_zoom":7.0,"strokeweig":0.2,"uident":1192701,"min_label":8.0},
"geometry":{"type": "LineString","coordinates": [[-105.96491451731205,71.572862046348192,84.2112],[-105.9527888662704,71.539577541139863,82.5397],[-105.95759029856205,71.520534572389863,81.9918],[-105.97069251210372,71.50458405155652,91.4921]]}}