{"type":"Feature","properties":{"featurecla":"River","scalerank":10,"rivernum":21764,"dissolve":"21764River","name":"Lord Lindsay","name_alt":null,"note":"ID is link back to CEC data","name_full":"Lord Lindsay River","min_zoom":6.0,"strokeweig":0.2,"uident":1227401,"min_label":7.0},
"geometry":{"type": "LineString","coordinates": [[-94.405954556374567,70.569606838014863,514.2618],[-94.4369197256454,70.558701890098192,421.7178],[-94.473459439187067,70.53461334843152,360.7675],[-94.4945369131454,70.500270900514863,332.143],[-94.5206599600204,70.479600327598192,338.9734],[-94.593006965228724,70.436794338014863,367.5132],[-94.644846157937067,70.386826890098192,318.4242],[-94.650257941791224,70.355821030723192,356.6883],[-94.629994269916224,70.328233140098192,307.6567],[-94.568918423562067,70.307481186973192,322.1019],[-94.5077205068954,70.29889557499402,312.5388],[-94.272775845437067,70.301784572389863,309.6927],[-94.170969204812067,70.29279205936902,302.0514],[-94.095041470437067,70.27533600468152,279.6671],[-93.939076301166224,70.224717515098192,237.4015],[-93.873605923562067,70.20892975468152,213.5618],[-93.741322394916224,70.20819733280652,219.1254],[-93.696400519916224,70.19586823124402,192.494],[-93.6175837881454,70.15058014530652,205.7505],[-93.5675349600204,70.13641998905652,178.607],[-93.471424933978724,70.13580963749402,157.7606],[-93.4315486318954,70.12518952030652,137.0251],[-93.434152798562067,70.083848374473192,87.4906],[-93.415272590228724,70.06305573124402,72.9905],[-93.3905330068954,70.054225978639863,70.0242],[-93.319894986062067,70.055446681764863,82.0356],[-93.2687068350204,70.06354401249402,62.7518],[-93.196522590228724,70.08539459843152,100.1681],[-93.164296027728724,70.109238999473192,177.6151],[-93.148671027728724,70.11603424686902,134.4477],[-93.097523566791224,70.12067291874402,141.9819],[-92.915394660541224,70.11896393436902,88.5931],[-92.864328579812067,70.12531159061902,85.7584],[-92.7494197256454,70.160264390098192,168.7884],[-92.687814907937067,70.16815827030652,146.2657],[-92.616932746478724,70.16730377811902,132.5122],[-92.519846157937067,70.17133209843152,26.2234],[-92.484201626687067,70.174912827598192,24.5713]]}}