{"type":"Feature","properties":{"featurecla":"River","scalerank":12,"rivernum":21780,"dissolve":"21780River","name":"null774","name_alt":null,"note":"ID is link back to CEC data","name_full":null,"min_zoom":7.0,"strokeweig":0.2,"uident":1222301,"min_label":8.0},
"geometry":{"type": "LineString","coordinates": [[-93.076771613666224,70.35858795780652,353.829],[-93.032297329812067,70.36127350468152,347.8506],[-92.954823371478724,70.36920807499402,185.4396],[-92.893422004291224,70.36859772343152,293.2349],[-92.848378058978724,70.356065171348192,208.1668],[-92.672922329812067,70.31964752811902,167.2536],[-92.5768123037704,70.31000397343152,151.9833],[-92.5165095693954,70.30060455936902,140.8682],[-92.352040168353724,70.26410553593152,161.8209],[-92.2992244131454,70.25690338749402,104.5114]]}}