{"type":"Feature","properties":{"featurecla":"River","scalerank":12,"rivernum":21802,"dissolve":"21802River","name":"null790","name_alt":null,"note":"ID is link back to CEC data","name_full":null,"min_zoom":7.0,"strokeweig":0.2,"uident":1215601,"min_label":8.0},
"geometry":{"type": "LineString","coordinates": [[-95.547718879291224,71.14594147343152,64.3969],[-95.448312954812067,71.02081940311902,105.3297],[-95.419667121478724,70.96930573124402,150.6052],[-95.441151496478724,70.91046784061902,83.6205],[-95.447824673562067,70.86139557499402,86.3434],[-95.4320369131454,70.83795807499402,95.7031],[-95.358469204812067,70.82330963749402,238.638],[-95.321359829812067,70.81134674686902,144.8374],[-95.299916144916224,70.79071686405652,130.2131],[-95.289133267312067,70.77008698124402,135.9952],[-95.241810676166224,70.758164780723192,161.0702],[-95.204945441791224,70.73590729374402,238.9397],[-95.189279751687067,70.72907135624402,294.2071],[-95.1627498037704,70.706813869264863,305.7895],[-95.128651496478724,70.68817780155652,338.6536]]}}