{"type":"Feature","properties":{"featurecla":"River","scalerank":11,"rivernum":22026,"dissolve":"22026River","name":"null893","name_alt":null,"note":"ID is link back to CEC data","name_full":null,"min_zoom":6.7,"strokeweig":0.2,"uident":1177201,"min_label":7.7},
"geometry":{"type": "LineString","coordinates": [[-100.44713294179122,72.61933014530652,3.5209],[-100.4815974600204,72.611599025514863,13.9131],[-100.55475826731207,72.607448634889863,10.6006],[-100.56843014231207,72.584743556764863,8.5126],[-100.58897864491622,72.55914948124402,17.4002],[-100.49421139231207,72.545762436973192,16.1139],[-100.45982825429122,72.523220119264863,19.0423],[-100.39329993397872,72.48932526249402,24.3166],[-100.27977454335372,72.496852931764863,27.1991],[-100.18797766835372,72.46662018436902,30.3316],[-100.1600642568954,72.448513088014863,29.9363],[-100.11571204335372,72.380235093223192,31.3747],[-100.07331295481207,72.357041733848192,34.762],[-100.02037512929122,72.333278713014863,40.3708],[-99.965891079812067,72.287380275514863,44.7091],[-99.956044074603724,72.261094468223192,43.9588],[-99.880441861062067,72.197292384889863,44.6523],[-99.877797004291224,72.17706940311902,44.1241],[-99.833607551166224,72.151393947389863,46.9038],[-99.7167048818954,72.152940171348192,52.8435],[-99.610340949603724,72.15277741093152,53.2838],[-99.524769660541224,72.15546295780652,55.6474],[-99.449777798562067,72.157009181764863,57.1496],[-99.410715298562067,72.177272853639863,57.2399],[-99.338449673562067,72.19684479374402,56.5917],[-99.2735896475204,72.19891998905652,56.52],[-99.277170376687067,72.22052643436902,60.9177],[-99.2325740225204,72.21979401249402,64.2368],[-99.200917121478724,72.223008530723192,60.0399],[-99.165272590228724,72.23566315311902,56.8884]]}}