{"type":"Feature","properties":{"featurecla":"River","scalerank":12,"rivernum":21622,"dissolve":"21622River","name":"null68","name_alt":null,"note":"ID is link back to CEC data","name_full":null,"min_zoom":7.0,"strokeweig":0.15,"uident":1298101,"min_label":8.0},
"geometry":{"type": "LineString","coordinates": [[-106.28888912668705,67.55219147343152,129.075],[-106.1905818350204,67.505641994264863,137.5247],[-106.18097897043705,67.48517487186902,150.9044],[-106.19383704335372,67.47370026249402,152.3485],[-106.2616267568954,67.46198151249402,154.3166],[-106.27696692616622,67.45563385624402,151.789],[-106.31212317616622,67.423203843223192,164.2143],[-106.30671139231205,67.40253327030652,169.3698],[-106.25609290272872,67.35333893436902,182.4282],[-106.22032630116622,67.325954494264863,182.6621]]}}