{"type":"Feature","properties":{"featurecla":"River","scalerank":12,"rivernum":21895,"dissolve":"21895River","name":"null835","name_alt":null,"note":"ID is link back to CEC data","name_full":null,"min_zoom":7.0,"strokeweig":0.2,"uident":1189701,"min_label":8.0},
"geometry":{"type": "LineString","coordinates": [[-108.46165930897872,71.553981838014863,59.5],[-108.3094783193954,71.55036041874402,109.2508],[-108.18830318918705,71.55158112186902,61.7383],[-108.1373591787704,71.55853912968152,33.0265],[-108.04967200429122,71.60126373905652,29.1238],[-107.98521887929122,71.63483307499402,5.8971]]}}