{"type":"Feature","properties":{"featurecla":"River","scalerank":12,"rivernum":21697,"dissolve":"21697River","name":"null720","name_alt":null,"note":"ID is link back to CEC data","name_full":null,"min_zoom":7.0,"strokeweig":0.2,"uident":1264101,"min_label":8.0},
"geometry":{"type": "LineString","coordinates": [[-111.40538489491622,68.923854884889863,166.1359],[-111.35993404856205,68.939805405723192,169.5999],[-111.28180904856205,68.934841213014863,159.9824],[-111.23668372304122,68.94086334843152,164.1239],[-111.21491451731205,68.95184967655652,162.6403],[-111.18000240793705,68.95160553593152,153.9156],[-111.01984615793705,68.93634674686902,143.5],[-110.9508357412704,68.923203843223192,143.5],[-110.74982662668705,68.86347077030652,178.7481],[-110.69994055897872,68.855495509889863,163.8496],[-110.64997311106205,68.85480377811902,135.9381],[-110.57457434804122,68.84564850468152,130.9009],[-110.51764889231205,68.827663478639863,129.0443],[-110.51183020741622,68.819362697389863,132.1918],[-110.52448482981205,68.80927155155652,83.1547],[-110.6029353506454,68.78778717655652,78.3274],[-110.6131892568954,68.76727936405652,72.68],[-110.6000056631454,68.720322983848192,25.5],[-110.60448157460372,68.69855377811902,38.0917],[-110.63658606679122,68.68134186405652,36.5226],[-110.72166907460372,68.65387604374402,12.0339],[-110.86750240793705,68.60993073124402,0.0]]}}