{"type":"Feature","properties":{"featurecla":"River","scalerank":12,"rivernum":21608,"dissolve":"21608River","name":"Kuugaarjuk","name_alt":null,"note":"ID is link back to CEC data","name_full":"Kuugaarjuk River","min_zoom":7.0,"strokeweig":0.15,"uident":1302801,"min_label":8.0},
"geometry":{"type": "LineString","coordinates": [[-104.78571529856207,67.35236237186902,112.6439],[-104.78331458241622,67.327012436973192,114.6019],[-104.82648678293707,67.26654694218152,136.4715],[-104.94196529856207,67.173447983848192,175.8469],[-104.98127193918707,67.137722072389863,174.1112],[-104.98839270741622,67.089951890098192,192.8519]]}}