{"type":"Feature","properties":{"featurecla":"River","scalerank":12,"rivernum":21720,"dissolve":"21720River","name":"null181","name_alt":null,"note":"ID is link back to CEC data","name_full":null,"min_zoom":7.0,"strokeweig":0.15,"uident":1260001,"min_label":8.0},
"geometry":{"type": "LineString","coordinates": [[-115.4369197256454,68.59992096561902,71.9979],[-115.41071529856205,68.580837306764863,73.4086],[-115.38361568918705,68.56781647343152,74.219],[-115.33136959543705,68.54865143436902,83.2223],[-115.30589759022872,68.52631256718152,75.5411],[-115.24494381418705,68.50824616093152,76.2732],[-115.2210994131454,68.50385162968152,76.0038],[-115.14216061106205,68.477077541139863,84.2424],[-115.07966061106205,68.47370026249402,79.6344]]}}