{"type":"Feature","properties":{"featurecla":"River","scalerank":11,"rivernum":21682,"dissolve":"21682River","name":"Rae3","name_alt":null,"note":"ID is link back to CEC data","name_full":"Rae River","min_zoom":6.7,"strokeweig":0.25,"uident":1273701,"min_label":7.7},
"geometry":{"type": "LineString","coordinates": [[-116.9584041006454,67.979356186973192,97.3524],[-116.90379798085372,67.97772858280652,104.325],[-116.76838131418705,67.979518947389863,146.254],[-116.74665279856205,67.982448634889863,147.3618],[-116.67357337147872,67.97760651249402,121.8165],[-116.34845943918705,67.93842194218152,130.7778],[-116.01838131418705,67.94513580936902,186.0747],[-115.72704016835372,67.92975494999402,84.6649],[-115.6310115225204,67.931016343223192,61.6284],[-115.5433650381454,67.92340729374402,0.3346]]}}