{"type":"Feature","properties":{"featurecla":"River","scalerank":12,"rivernum":21801,"dissolve":"21801River","name":"null789","name_alt":null,"note":"ID is link back to CEC data","name_full":null,"min_zoom":7.0,"strokeweig":0.15,"uident":1230101,"min_label":8.0},
"geometry":{"type": "LineString","coordinates": [[-114.22069251210372,69.64813873905652,300.0629],[-114.21666419179122,69.648952541139863,294.6024],[-114.16331946522872,69.65302155155652,297.593],[-113.98155676991622,69.65289948124402,279.3914],[-113.90294348866622,69.65778229374402,295.9964],[-113.8475642568954,69.66559479374402,280.649],[-113.77717037668705,69.68573639530652,279.263],[-113.7591853506454,69.69489166874402,313.8575]]}}