{"type":"Feature","properties":{"featurecla":"Lake Centerline","scalerank":11,"rivernum":21769,"dissolve":"21769Lake Centerline","name":"null1192","name_alt":null,"note":"ID is link back to CEC data","name_full":null,"min_zoom":6.7,"strokeweig":0.2,"uident":1238801,"min_label":7.7},
"geometry":{"type": "LineString","coordinates": [[-109.32689368397872,69.68866608280652,68.3474],[-109.29491126210372,69.68170807499402,57.3157],[-109.23436438710372,69.66217682499402,57.5862],[-109.13475501210372,69.66608307499402,57.8751],[-108.95897376210372,69.68952057499402,59.3583],[-108.84959876210372,69.70123932499402,56.6316],[-108.76671301991622,69.71503327030652,57.1534]]}}