{"type":"Feature","properties":{"featurecla":"River","scalerank":12,"rivernum":21649,"dissolve":"21649River","name":"Kendall","name_alt":null,"note":"ID is link back to CEC data","name_full":"Kendall River","min_zoom":7.0,"strokeweig":0.2,"uident":1290901,"min_label":8.0},
"geometry":{"type": "LineString","coordinates": [[-116.61481686106205,67.22272369999402,271.5493],[-116.50987708241622,67.20453522343152,323.6058],[-116.40221106679122,67.16425202030652,311.3072],[-116.30821692616622,67.138535874473192,281.1279],[-116.18834387929122,67.131130275514863,258.7726],[-116.12621009022872,67.124863999473192,236.3516],[-116.10285397043705,67.13349030155652,210.1635]]}}