{"type": "Feature","bbox": [-79.923,44.1624,-79.7046,44.362],"geometry": {"type": "MultiPolygon","coordinates": [[[[-79.8832,44.1691,233.0391],[-79.859,44.1751,224.218],[-79.8421,44.1774,220.1902],[-79.8392,44.1673,219.5706],[-79.8308,44.1689,219.6235],[-79.8293,44.1624,212.5988],[-79.7217,44.1856,238.3243],[-79.7239,44.1963,246.4498],[-79.7046,44.2019,244.2646],[-79.7201,44.2634,300.5509],[-79.7123,44.2651,299.9048],[-79.714,44.2715,295.0577],[-79.7165,44.2768,296.6593],[-79.7232,44.2754,289.0355],[-79.7456,44.362,233.562],[-79.8525,44.3385,188.0425],[-79.8615,44.3494,190.7749],[-79.8873,44.3442,204.7074],[-79.8896,44.336,185.7756],[-79.8934,44.3303,189.1461],[-79.923,44.3238,195.0843],[-79.8832,44.1691,233.0391]]]]}
,"properties": {"GID_3": "CAN.9.45.7_1","GID_0": "CAN","country": "Canada","GID_1": "CAN.9_1","province": "Ontario","NL_NAME_1": "NA","GID_2": "CAN.9.45_1","county": "Simcoe","NL_NAME_2": "NA","city": "Essa","VARNAME_3": "NA","NL_NAME_3": "NA","TYPE_3": "Township","ENGTYPE_3": "Township","CC_3": "NA","HASC_3": "NA","name": "Essa.city","area_km2": 280.0912,"hist_schema_id": "Elevation0-9000","hist_area_km2": {"175": 3.2301,"200": 34.9731,"225": 120.3289,"250": 47.248,"275": 56.1198,"300": 17.4173,"325": 0.7738}}}