{"type":"Feature","properties":{"GID_3":"CAN.12.17.7_1","GID_0":"CAN","country":"Canada","GID_1":"CAN.12_1","province":"Saskatchewan","NL_NAME_1":"NA","GID_2":"CAN.12.17_1","county":"DivisionNo.8","NL_NAME_2":"NA","city":"DeerForksNo.232","VARNAME_3":"NA","NL_NAME_3":"NA","TYPE_3":"RuralMunicipality","ENGTYPE_3":"RuralMunicipality","CC_3":"NA","HASC_3":"NA","name":"Deer_Forks_No.232.city"},
"geometry":{"type": "MultiPolygon","coordinates": [[[[-110.0039,50.572,760.6774],[-109.7445,50.5721,726.3469],[-109.744,50.9216,633.1552],[-109.772,50.9215,629.7318],[-109.7718,50.9427,584.5931],[-109.7826,50.9431,579.2997],[-109.8117,50.9531,581.1929],[-109.8496,50.9559,596.3395],[-109.8651,50.9531,575.0],[-109.8693,50.9519,577.5167],[-109.8736,50.9461,577.1913],[-109.8683,50.9333,595.9894],[-109.8702,50.928,578.2067],[-109.8833,50.9196,577.4318],[-109.8884,50.9199,576.0],[-109.8939,50.9159,576.6307],[-109.9012,50.9202,581.2842],[-109.9092,50.9205,581.9182],[-109.9136,50.9243,579.7894],[-109.9099,50.9268,581.9404],[-109.9068,50.9329,581.9527],[-109.9077,50.9365,581.506],[-109.9103,50.9379,581.4027],[-109.9169,50.9375,578.0642],[-109.9285,50.9306,585.2169],[-109.9329,50.9298,587.0186],[-109.938,50.9427,614.3501],[-109.9635,50.9485,583.8813],[-109.9753,50.9619,582.4685],[-109.9868,50.9685,584.6867],[-110.0047,50.969,582.2219],[-110.003,50.8338,594.2481],[-110.0039,50.572,760.6774]],
[[-109.8999,50.6596,728.4654],[-109.8995,50.6522,729.188],[-109.9183,50.6523,728.9091],[-109.919,50.6596,725.0718],[-109.8999,50.6596,728.4654]]]]}}