{"type": "Feature","bbox": [-113.9589,53.5195,-113.8663,53.5705],"geometry": {"type": "MultiPolygon","coordinates": [[[[-113.9589,53.5488,695.5262],[-113.9589,53.5415,701.6086],[-113.9477,53.5415,700.0259],[-113.9474,53.5273,703.0962],[-113.9218,53.5273,704.7919],[-113.9213,53.5196,709.3719],[-113.9182,53.5198,708.764],[-113.9182,53.5216,705.9959],[-113.9098,53.5217,711.8025],[-113.9098,53.5195,712.6978],[-113.8851,53.5197,723.0453],[-113.885,53.5417,707.9996],[-113.8729,53.5417,698.5869],[-113.873,53.5563,692.255],[-113.8663,53.556399999999996,686.093],[-113.8663,53.5627,676.1874],[-113.885,53.563,675.9152],[-113.8851,53.5705,669.3115],[-113.9587,53.5705,678.3198],[-113.9589,53.5488,695.5262]]]]}
,"properties": {"GID_3": "CAN.1.2.38_1","GID_0": "CAN","country": "Canada","GID_1": "CAN.1_1","province": "Alberta","NL_NAME_1": "NA","GID_2": "CAN.1.2_1","county": "DivisionNo.11","NL_NAME_2": "NA","city": "SpruceGrove","VARNAME_3": "NA","NL_NAME_3": "NA","TYPE_3": "Cité","ENGTYPE_3": "City","CC_3": "NA","HASC_3": "NA","name": "Spruce_Grove.city","area_km2": 26.52988,"hist_schema_id": "Elevation0-9000","hist_area_km2": {"675": 8.13494,"700": 16.61795,"725": 1.77699}}}