{"type":"Feature","properties":{"GID_3":"CAN.3.8.7_1","GID_0":"CAN","country":"Canada","GID_1":"CAN.3_1","province":"Manitoba","NL_NAME_1":"NA","GID_2":"CAN.3.8_1","county":"DivisionNo.17","NL_NAME_2":"NA","city":"EthelbertVillage","VARNAME_3":"NA","NL_NAME_3":"NA","TYPE_3":"Village","ENGTYPE_3":"Village","CC_3":"NA","HASC_3":"NA","name":"Ethelbert_Village.city"},
"geometry":{"type": "MultiPolygon","coordinates": [[[[-100.3868,51.5264,338.8924],[-100.3868,51.537,337.7868],[-100.3998,51.5368,342.7615],[-100.3999,51.5334,341.3835],[-100.4091,51.5332,342.5495],[-100.4085,51.5224,344.0188],[-100.4029,51.5225,343.0743],[-100.4027,51.5203,348.6059],[-100.3868,51.5203,340.3423],[-100.3868,51.5264,338.8924]]]]}}