{"type": "Feature","bbox": [-64.2125,46.9064,-63.9872,47.0587],"geometry": {"type": "MultiPolygon","coordinates": [[[[-64.2125,46.9064,5.637],[-64.0232,46.9403,1.9199],[-64.0308,46.9428,8.0626],[-64.0357,46.9397,6.1547],[-64.0372,46.9411,2.6859],[-64.0467,46.9398,6.8477],[-64.0473,46.9414,6.8838],[-64.055,46.9399,12.0626],[-64.0392,46.9623,24.062],[-64.0295,46.9641,15.5524],[-64.0136,46.9615,13.5942],[-64.0162,46.9517,6.347],[-64.016,46.944,4.8006],[-64.0144,46.9423,2.7407],[-63.9932,46.9451,4.1305],[-63.9942,46.9656,2.0834],[-63.9894,46.9844,0.9157],[-63.9897,46.9947,0.0],[-63.9917,47.0,0.0],[-63.989,47.0156,3.0819],[-63.9897,47.0375,1.8017],[-63.9872,47.0425,3.6987],[-63.99,47.0519,0.7231],[-63.9947,47.0583,0.0],[-63.9965,47.0587,4.5285],[-64.0126,47.0431,0.0],[-64.0146,47.0387,9.5241],[-64.0199,47.0341,0.0],[-64.0203,47.0301,1.7534],[-64.0244,47.0262,3.3619],[-64.0386,47.0165,0.0],[-64.051,47.0039,0.0],[-64.0644,46.9953,0.8015],[-64.0847,46.9892,0.0],[-64.1277,46.9639,0.0],[-64.1367,46.9599,2.4374],[-64.1506,46.9564,7.6458],[-64.1664,46.9486,6.4224],[-64.1756,46.9411,13.9964],[-64.1881,46.9342,1.7935],[-64.1877,46.9286,2.7326],[-64.2125,46.9064,5.637]]]]}
,"properties": {"GID_3": "CAN.10.2.10_1","GID_0": "CAN","country": "Canada","GID_1": "CAN.10_1","province": "PrinceEdwardIsland","NL_NAME_1": "NA","GID_2": "CAN.10.2_1","county": "Prince","NL_NAME_2": "NA","city": "Lot1","VARNAME_3": "NA","NL_NAME_3": "NA","TYPE_3": "TownshipandRoyalty","ENGTYPE_3": "TownshipandRoyalty","CC_3": "NA","HASC_3": "NA","name": "Lot1.city","area_km2": 97.09771,"hist_schema_id": "Elevation0-9000","hist_area_km2": {"0": 31.59005,"25": 58.37098,"50": 7.13668}}}