{"type": "Feature","bbox": [-101.7144,49.5625,-101.6916,49.578],"geometry": {"type": "MultiPolygon","coordinates": [[[[-101.6916,49.578,593.1881],[-101.7142,49.5774,594.9121],[-101.7144,49.5625,591.4086],[-101.6916,49.5625,590.6655],[-101.6916,49.578,593.1881]]]]}
,"properties": {"GID_3": "CAN.12.10.46_1","GID_0": "CAN","country": "Canada","GID_1": "CAN.12_1","province": "Saskatchewan","NL_NAME_1": "NA","GID_2": "CAN.12.10_1","county": "DivisionNo.1","NL_NAME_2": "NA","city": "Redvers","VARNAME_3": "NA","NL_NAME_3": "NA","TYPE_3": "Town","ENGTYPE_3": "Town","CC_3": "NA","HASC_3": "NA","name": "Redvers.city","area_km2": 3.066265,"hist_schema_id": "Elevation0-9000","hist_area_km2": {"600": 3.066265}}}