{"type":"Feature","properties":{"GID_3":"CAN.2.18.2_1","GID_0":"CAN","country":"Canada","GID_1":"CAN.2_1","province":"BritishColumbia","NL_NAME_1":"NA","GID_2":"CAN.2.18_1","county":"Nanaimo","NL_NAME_2":"NA","city":"NanaimoA","VARNAME_3":"NA","NL_NAME_3":"NA","TYPE_3":"RegionalDistrictElectoralArea","ENGTYPE_3":"RegionalDistrictElectoralArea","CC_3":"NA","HASC_3":"NA","name":"Nanaimo_A.city"},
"geometry":{"type": "MultiPolygon","coordinates": [[[[-123.7667,49.0572,0.0],[-123.7704,49.0594,13.7313],[-123.7673,49.0612,0.0],[-123.7684,49.0628,3.9971],[-123.7773,49.0665,9.5785],[-123.7777,49.0703,1.4703],[-123.7853,49.0769,15.639],[-123.7837,49.0783,0.0],[-123.7909,49.0846,10.6591],[-123.7931,49.09,18.6536],[-123.7961,49.0916,7.1202],[-123.7999,49.0911,0.0],[-123.8043,49.0951,14.0831],[-123.8028,49.0972,0.0],[-123.80029999999999,49.0972,0.0],[-123.8012,49.0985,0.0],[-123.8,49.0999,0.0],[-123.8027,49.1026,0.0],[-123.8016,49.1044,0.0],[-123.8054,49.1139,16.7614],[-123.8038,49.1196,9.1811],[-123.8089,49.1268,3.9241],[-123.8506,49.1268,25.0413],[-123.8509,49.13,47.5212],[-123.8642,49.1299,11.5562],[-123.8645,49.1194,20.2553],[-123.878,49.1197,20.3088],[-123.8781,49.1231,23.8812],[-123.8848,49.1231,3.6799],[-123.8797,49.118,3.199],[-123.8797,49.1144,5.3922],[-123.889,49.1145,25.3931],[-123.8888,49.1097,47.1208],[-123.9195,49.1099,51.1611],[-123.9195,49.0974,25.7698],[-123.9129,49.0973,101.9642],[-123.913,49.0942,62.6931],[-123.9097,49.0941,70.976],[-123.9093,49.0827,101.9977],[-123.8924,49.0826,62.9505],[-123.8923,49.0473,45.7312],[-123.8838,49.0468,40.9174],[-123.8838,49.043,47.81],[-123.8784,49.0431,37.6377],[-123.8781,49.0371,50.7431],[-123.865,49.0368,21.5187],[-123.8648,49.0431,23.0787],[-123.8676,49.0433,24.7064],[-123.8674,49.0504,25.2725],[-123.8648,49.0503,36.6645],[-123.8645,49.0575,25.7472],[-123.7667,49.0572,0.0]]]]}}