{"type": "Feature","bbox": [-114.1248,52.2934,-114.0528,52.3228],"geometry": {"type": "MultiPolygon","coordinates": [[[[-114.0783,52.3228,936.5],[-114.082,52.3191,936.5],[-114.101,52.3088,941.0054],[-114.1062,52.309,941.6174],[-114.1121,52.3135,941.9724],[-114.1124,52.3094,945.5882],[-114.1182,52.3144,952.8024],[-114.1246,52.3153,957.4832],[-114.1248,52.2934,979.5589],[-114.089,52.2934,984.6276],[-114.0888,52.3006,954.3734],[-114.0652,52.3006,940.8683],[-114.0652,52.2938,949.644],[-114.0528,52.2939,943.5297],[-114.0532,52.3153,935.5016],[-114.073,52.3153,938.0692],[-114.0733,52.3174,937.7006],[-114.0653,52.3226,939.3425],[-114.074,52.3225,937.6998],[-114.0773,52.3181,939.0846],[-114.0783,52.3228,936.5]]]]}
,"properties": {"GID_3": "CAN.1.18.29_1","GID_0": "CAN","country": "Canada","GID_1": "CAN.1_1","province": "Alberta","NL_NAME_1": "NA","GID_2": "CAN.1.18_1","county": "DivisionNo.8","NL_NAME_2": "NA","city": "SylvanLake","VARNAME_3": "NA","NL_NAME_3": "NA","TYPE_3": "Town","ENGTYPE_3": "Town","CC_3": "NA","HASC_3": "NA","name": "Sylvan_Lake.city","area_km2": 10.345363,"hist_schema_id": "Elevation0-9000","hist_area_km2": {"925": 1.374061,"950": 6.598485,"975": 2.26908,"1000": 0.103738}}}