{"type": "Feature","bbox": [-54.8891,47.3886,-54.8383,47.412],"geometry": {"type": "MultiPolygon","coordinates": [[[[-54.8538,47.3886,0.0],[-54.8553,47.3936,0.5046],[-54.845,47.3979,0.0],[-54.8399,47.4046,14.862],[-54.8408,47.4083,10.3293],[-54.8383,47.4117,30.8972],[-54.8891,47.412,108.7412],[-54.8889,47.3887,139.8507],[-54.8538,47.3886,0.0]]]]}
,"properties": {"GID_3": "CAN.5.4.27_1","GID_0": "CAN","country": "Canada","GID_1": "CAN.5_1","province": "NewfoundlandandLabrador","NL_NAME_1": "NA","GID_2": "CAN.5.4_1","county": "DivisionNo.2","NL_NAME_2": "NA","city": "ParkersCove","VARNAME_3": "NA","NL_NAME_3": "NA","TYPE_3": "Town","ENGTYPE_3": "Town","CC_3": "NA","HASC_3": "NA","name": "Parkers_Cove.city","area_km2": 8.567494,"hist_schema_id": "Elevation0-9000","hist_area_km2": {"0": 0.330089,"25": 0.301384,"50": 0.617126,"75": 0.932823,"100": 2.210006,"125": 2.568721,"150": 1.564299,"175": 0.043047}}}