{"type":"Feature","properties":{"featurecla":"Lake","scalerank":5,"name":"Teslin Lake","name_abb":"Teslin L.","name_alt":null,"note":null,"delta":null,"dam_name":null,"year":-99,"admin":null,"min_zoom":4.7,"min_label":6.0},
"geometry":{"type": "Polygon","coordinates": [[[-132.14123011403817,59.644467581618045,705.4009],[-132.14726457864435,59.665956162898652,685.7601],[-132.14917794547074,59.68597292354363,739.5707],[-132.15447649975908,59.700985494027321,728.882],[-132.20554867581643,59.775459618191633,707.7034],[-132.20937540946915,59.789589096293952,757.2729],[-132.21585142026606,59.8019523896335,725.7783],[-132.24675965361487,59.831388802346652,739.3057],[-132.25720958012806,59.847873193466029,680.5],[-132.22306334138077,59.841102818542,729.4291],[-132.23675127329238,59.863180128076891,734.4748],[-132.25706239806448,59.88143070395904,727.1906],[-132.29812619379936,59.909395296036564,717.7433],[-132.31564085936367,59.924996594774541,716.2461],[-132.38952625527372,60.018898751329544,865.111],[-132.4095430159187,60.038621147847351,918.3833],[-132.4352998770427,60.046568979279925,838.5017],[-132.46208701261168,60.050690077059755,770.9785],[-132.49682197961323,60.061581549763616,756.6671],[-132.52817175915274,60.076888484374479,761.9521],[-132.54450896820856,60.094255967875256,758.9329],[-132.5336174955047,60.098082701527943,720.6468],[-132.52169574835585,60.100731978672144,680.5],[-132.50947963707989,60.101909435180659,680.5],[-132.49741070786749,60.1013207069264,696.0777],[-132.49741070786749,60.107502353596175,693.5529],[-132.56570318536203,60.107502353596175,697.2041],[-132.61015216855893,60.119571282808579,746.6543],[-132.62369291840696,60.121631831698494,772.4476],[-132.64267940460695,60.126930385986867,785.8967],[-132.68389038240539,60.15312879330159,794.1656],[-132.70287686860539,60.162548445369794,680.5],[-132.85844830979448,60.2128847111093,749.2247],[-132.9014254723557,60.23820002604262,747.0485],[-132.98296433557118,60.309141780681358,916.4202],[-133.10703881515718,60.373313160396066,770.3805],[-133.14236251041297,60.397156654693731,811.8713],[-133.16355672756646,60.40716503501622,799.5271],[-133.18283757789357,60.419233964228596,768.9648],[-133.19564241742381,60.436895811856516,838.2048],[-133.231849205061,60.450142197577435,680.5],[-133.24627304729046,60.45131965408595,680.5],[-133.24038576474783,60.440428181382089,680.5],[-133.18887204249978,60.402160844854961,680.5],[-133.18519249091062,60.395684834058073,680.5],[-133.18092421106724,60.378906078811582,680.5],[-133.17856929805018,60.375668073413124,680.5],[-133.16576445851996,60.375373709285981,680.5],[-133.15766944502383,60.374196252777466,680.5],[-133.15148779835405,60.370958247379008,680.5],[-132.96942358572312,60.233784564135647,680.5],[-132.84505474201,60.171968097438,680.5],[-132.81679578580534,60.168141363785281,680.5],[-132.77838126721468,60.157544255208563,680.5],[-132.76763697657435,60.152834429174447,680.5],[-132.74776739799296,60.139588043453529,680.5],[-132.47150666467991,60.0186043872024,680.5],[-132.4383907003776,59.994466528777622,708.2121],[-132.43338651021634,59.985341240836533,681.5104],[-132.43014850481791,59.972683583369871,695.3792],[-132.42573304291093,59.961497746538868,764.9932],[-132.40365573337604,59.947073904309406,751.4202],[-132.39305862479932,59.9255853230288,680.5],[-132.38010660320552,59.888789807137329,767.6481],[-132.31519931317297,59.823735335041249,682.1566],[-132.2948881884009,59.807839672176129,682.5638],[-132.25043920520403,59.781935628988549,680.5],[-132.23675127329238,59.764862509614915,680.5],[-132.24072518900869,59.7610357759622,680.5],[-132.24572937916992,59.751321759766853,680.5],[-132.25029202314045,59.744845748969965,680.5],[-132.23233581138541,59.723357167689329,680.5],[-132.19568747755753,59.66242379337308,726.9195],[-132.1703721626242,59.630043739388611,725.938],[-132.1708137088149,59.615031168904892,690.5905],[-132.18214672770947,59.587360940954511,694.466],[-132.14019983959321,59.602962239692488,748.1208],[-132.1191528045033,59.606494609218061,733.8868],[-132.09207130480718,59.607672065726604,690.6333],[-132.12651190768159,59.628277554625811,680.5],[-132.14123011403817,59.644467581618045,705.4009]]]}}