{"type":"Feature","properties":{"featurecla":"River","scalerank":12,"rivernum":20829,"dissolve":"20829River","name":"Kitlope","name_alt":null,"note":"ID is link back to CEC data","name_full":"Kitlope River","min_zoom":7.0,"strokeweig":0.15,"uident":1612001,"min_label":8.0},
"geometry":{"type": "LineString","coordinates": [[-127.76520748606205,53.177313543744027,70.6203],[-127.74242102772872,53.177272853639863,326.4283],[-127.71715247304122,53.165106512494027,417.0006],[-127.6620173818954,53.139471746869027,453.0535],[-127.6188044912704,53.120184637494027,806.5448],[-127.57404537668705,53.126776434369027,563.7899],[-127.53075110585372,53.112982489056527,531.684],[-127.50914466054122,53.096258856244027,249.1424],[-127.50731360585372,53.094794012494027,244.4758],[-127.5043025381454,53.073268947389863,59.193],[-127.52424068918705,53.057684637494027,583.4862],[-127.54645748606205,53.042792059369027,559.803],[-127.55418860585372,53.023260809369027,97.9993],[-127.53620357981205,52.970526434369027,115.1238],[-127.5248103506454,52.964789129681527,471.2374],[-127.4994197256454,52.951971746869027,832.7553],[-127.47411048085372,52.936468817181527,676.7134],[-127.46979732981205,52.927842515098192,856.6385],[-127.46202551991622,52.912461655723192,385.702],[-127.4332576162704,52.888861395306527,1016.6827],[-127.42235266835372,52.857936916139863,472.9866],[-127.4271541006454,52.822373765098192,336.1952],[-127.44660397043705,52.774725653119027,365.5753],[-127.4374080068954,52.746039129681527,815.8712],[-127.4498591787704,52.734076239056527,767.9279]]}}