{"type":"Feature","properties":{"featurecla":"River","scalerank":12,"rivernum":20841,"dissolve":"20841River","name":"Tezwa","name_alt":null,"note":"ID is link back to CEC data","name_full":"Tezwa River","min_zoom":7.0,"strokeweig":0.15,"uident":1608901,"min_label":8.0},
"geometry":{"type": "LineString","coordinates": [[-127.78148352772872,53.053574936973192,1011.335],[-127.7809138662704,53.041205145306527,798.3022],[-127.77082272043705,53.030625718223192,424.9039],[-127.7555232412704,53.010687567181527,343.4129],[-127.76520748606205,52.994004624473192,24.1678],[-127.77326412668705,52.990749416139863,19.983],[-127.80077063710372,52.979437567181527,683.0574],[-127.85460364491622,52.969549871869027,686.5475],[-127.85505123606205,52.956122137494027,275.2764],[-127.85313880116622,52.942002671348192,432.1182],[-127.83189856679122,52.930121160931527,1101.2317],[-127.80085201731205,52.921942449994027,933.0792],[-127.79987545481205,52.921698309369027,933.0792],[-127.76488196522872,52.917303778119027,1310.4546],[-127.7345271475204,52.902940171348192,1172.5624],[-127.73704993397872,52.886419989056527,366.0226],[-127.73737545481205,52.884548244264863,402.3917],[-127.75780188710372,52.864365952598192,902.9339],[-127.7694392568954,52.845038153119027,485.4307],[-127.77379309804122,52.807725327598192,538.4075]]}}