{"type":"Feature","properties":{"featurecla":"River","scalerank":11,"rivernum":21079,"dissolve":"21079River","name":"Nass1","name_alt":null,"note":"ID is link back to CEC data","name_full":"Nass River","min_zoom":6.7,"strokeweig":0.2,"uident":1528001,"min_label":7.7},
"geometry":{"type": "LineString","coordinates": [[-129.62559973866621,55.009711004681527,130.7107],[-129.61188717356205,55.032578843223192,386.3206],[-129.54076087147871,55.064479884889863,50.7139],[-129.43199622304121,55.107245184369027,14.7826],[-129.32892818918705,55.182196356244027,21.9203],[-129.27794348866621,55.203680731244027,496.1444],[-129.2110896475204,55.216660874473192,313.7006],[-129.16685950429121,55.227891343223192,67.1343],[-129.13996334543705,55.239121811973192,51.9872],[-129.11363684804121,55.264186916139863,92.8999],[-129.07262122304121,55.322088934369027,154.7051],[-129.0616755850204,55.361883856244027,154.4012],[-129.05113684804121,55.415391343223192,151.7092],[-129.02293860585371,55.449001369264863,182.4516],[-128.99596106679121,55.470160223431527,233.2679],[-128.91161048085371,55.520615952598192,415.5376],[-128.84483801991621,55.551092840619027,338.4394],[-128.79816647043705,55.580674546348192,345.82],[-128.76829993397871,55.612819728639863,285.0917],[-128.75641842356205,55.638698634889863,119.7238],[-128.7589412100204,55.667792059369027,200.126],[-128.78246009022871,55.703802801556527,364.3111],[-128.83006751210371,55.755804754681527,276.1914],[-128.89122473866621,55.807318426556527,209.5678],[-128.97419186106205,55.865545965619027,217.2443],[-129.03620357981205,55.940781968223192,251.3344],[-129.07188880116621,55.970892645306527,278.7859],[-129.13170325429121,56.026922918744027,280.7838],[-129.14903723866621,56.053168035931527,286.1116],[-129.1537166006454,56.077704168744027,267.7571],[-129.16120357981205,56.091253973431527,266.2612],[-129.19078528554121,56.132188218223192,255.2053],[-129.1881404287704,56.158392645306527,300.5656],[-129.1600642568954,56.167181707806527,417.8053],[-129.14875240793705,56.166937567181527,452.7486],[-129.1290583975204,56.166449285931527,547.0371],[-129.06281490793705,56.159491278119027,551.1218],[-129.03685462147871,56.162868556764863,374.9735],[-129.02086341054121,56.168158270306527,288.9362]]}}