{"type":"Feature","properties":{"featurecla":"River","scalerank":11,"rivernum":21150,"dissolve":"21150River","name":"Nass2","name_alt":null,"note":"ID is link back to CEC data","name_full":"Nass River","min_zoom":6.7,"strokeweig":0.2,"uident":1499701,"min_label":7.7},
"geometry":{"type": "LineString","coordinates": [[-128.82502193918705,56.885768947389863,909.5695],[-128.79198157460371,56.862005926556527,773.2195],[-128.76329505116621,56.834987697389863,766.5579],[-128.75450598866621,56.831000067181527,774.2004],[-128.71149654856205,56.811712957806527,778.2009],[-128.7027888662704,56.807196356244027,799.9083],[-128.65916907460371,56.784694728639863,788.9048],[-128.64216061106205,56.769151108848192,724.8592],[-128.64338131418705,56.731878973431527,661.1082],[-128.6429744131454,56.730780340619027,661.1082],[-128.6361384756454,56.707871811973192,659.5571],[-128.58356686106205,56.659247137494027,632.8926],[-128.57917232981205,56.656846421348192,635.5123],[-128.54649817616621,56.639186916139863,681.9],[-128.43077551991621,56.611761785931527,889.1334],[-128.3607478506454,56.573268947389863,640.408],[-128.34056555897871,56.553330796348192,621.8778],[-128.33653723866621,56.530056056764863,504.7032],[-128.37047278554121,56.485459702598192,502.596],[-128.37486731679121,56.479681707806527,558.6384],[-128.42536373606205,56.408880926556527,558.7306],[-128.42454993397871,56.393988348431527,462.3654],[-128.42414303293705,56.386175848431527,519.0007],[-128.45417232981205,56.355495509889863,446.0549],[-128.49132239491621,56.346136785931527,677.9988],[-128.5343318350204,56.353379624473192,678.8388],[-128.58600826731205,56.371527410931527,625.5435],[-128.5980525381454,56.377875067181527,671.1829],[-128.62559973866621,56.392279364056527,618.9036],[-128.6412654287704,56.391424871869027,551.0242],[-128.66710364491621,56.379421291139863,419.0779],[-128.67821204335371,56.349391994264863,532.0239],[-128.67699134022871,56.327704168744027,518.4128],[-128.6822810537704,56.292059637494027,507.0201],[-128.6947322256454,56.270046291139863,422.3524],[-128.74193274647871,56.236517645306527,392.5718],[-128.83454342356205,56.202012436973192,702.6755],[-128.85020911366621,56.200018621869027,697.3206],[-128.9264216787704,56.199896551556527,633.0069],[-128.97899329335371,56.189520574994027,526.2512],[-129.02086341054121,56.168158270306527,288.9362]]}}