{"type":"Feature","properties":{"GID_3":"CAN.10.2.35_1","GID_0":"CAN","country":"Canada","GID_1":"CAN.10_1","province":"PrinceEdwardIsland","NL_NAME_1":"NA","GID_2":"CAN.10.2_1","county":"Prince","NL_NAME_2":"NA","city":"O'Leary","VARNAME_3":"NA","NL_NAME_3":"NA","TYPE_3":"Community","ENGTYPE_3":"Community","CC_3":"NA","HASC_3":"NA","name":"O'Leary.city"},
"geometry":{"type": "MultiPolygon","coordinates": [[[[-64.2223,46.7121,27.1055],[-64.2272,46.714,29.0026],[-64.2282,46.7099,32.7921],[-64.2398,46.7078,36.4654],[-64.2362,46.6994,30.2947],[-64.2275,46.6992,28.6136],[-64.2287,46.7032,31.3972],[-64.2256,46.704,30.0935],[-64.226,46.7053,30.0935],[-64.2153,46.707,26.3057],[-64.2161,46.7099,22.9242],[-64.2195,46.7093,28.18],[-64.2227,46.7192,34.6413],[-64.2248,46.7188,39.7629],[-64.2223,46.7121,27.1055]]]]}}