{"type":"Feature","properties":{"GID_3":"CAN.11.34.6_1","GID_0":"CAN","country":"Canada","GID_1":"CAN.11_1","province":"Québec","NL_NAME_1":"NA","GID_2":"CAN.11.34_1","county":"LaCôte-de-Beaupré","NL_NAME_2":"NA","city":"Saint-Ferréol-les-Neiges","VARNAME_3":"NA","NL_NAME_3":"NA","TYPE_3":"Municipalité","ENGTYPE_3":"Municipality","CC_3":"NA","HASC_3":"NA","name":"Saint-Ferréol-les-Neiges.city"},
"geometry":{"type": "MultiPolygon","coordinates": [[[[-70.8905,47.067,38.8316],[-70.8889,47.0713,168.1452],[-70.8805,47.0716,132.3944],[-70.8785,47.073,118.6723],[-70.8771,47.0788,182.868],[-70.8708,47.0823,200.1219],[-70.8688,47.0922,225.7906],[-70.8582,47.0948,145.9642],[-70.8516,47.1176,272.113],[-70.8428,47.1168,185.7368],[-70.834,47.1224,265.1997],[-70.8286,47.1211,204.9891],[-70.8216,47.1219,254.5237],[-70.8053,47.1341,291.7863],[-70.8052,47.1389,296.0851],[-70.7981,47.1618,304.2766],[-70.7939,47.1662,307.8454],[-70.7996,47.1771,334.933],[-70.8069,47.1834,327.5133],[-70.8112,47.1838,334.3997],[-70.8108,47.1902,327.5216],[-70.8144,47.1993,340.6175],[-70.811,47.2139,356.3173],[-70.8925,47.1676,597.2455],[-70.8795,47.1563,493.8864],[-70.9589,47.1119,549.028],[-70.948,47.1009,493.5414],[-70.9343,47.1063,567.6724],[-70.9352,47.107,567.6724],[-70.9292,47.11,609.0704],[-70.906,47.0896,354.3917],[-70.9097,47.0874,381.5441],[-70.9024,47.0816,172.2881],[-70.9042,47.0791,165.0219],[-70.8905,47.067,38.8316]]]]}}