{"type":"Feature","properties":{"GID_3":"CAN.4.8.6_1","GID_0":"CAN","country":"Canada","GID_1":"CAN.4_1","province":"NewBrunswick","NL_NAME_1":"NA","GID_2":"CAN.4.8_1","county":"Northumberland","NL_NAME_2":"NA","city":"BurntChurch14","VARNAME_3":"NA","NL_NAME_3":"NA","TYPE_3":"RéserveIndienne","ENGTYPE_3":"IndianReserve","CC_3":"NA","HASC_3":"NA","name":"Burnt_Church14.city"},
"geometry":{"type": "MultiPolygon","coordinates": [[[[-65.3184,47.0893,4.5922],[-65.32,47.0903,4.1339],[-65.3253,47.0891,0.0],[-65.323,47.0863,0.0],[-65.3181,47.0882,5.3951],[-65.3184,47.0893,4.5922]]],
[[[-65.129,47.2007,13.4691],[-65.1269,47.1981,2.4077],[-65.1141,47.2057,0.0],[-65.1142,47.2083,3.9387],[-65.1172,47.2114,1.7288],[-65.1334,47.2064,12.4174],[-65.129,47.2007,13.4691]]],
[[[-65.1369,47.2122,8.345],[-65.1337,47.2083,0.0],[-65.129,47.2097,3.3125],[-65.1267,47.2127,6.7788],[-65.1236,47.2119,0.0],[-65.12,47.2149,0.0],[-65.1126,47.212,0.0],[-65.1,47.2183,4.0509],[-65.1078,47.2202,2.5277],[-65.1133,47.2181,6.047],[-65.1125,47.2195,0.2155],[-65.1193,47.2217,0.8979],[-65.1264,47.2465,31.9698],[-65.1619,47.2417,47.2253],[-65.1559,47.2357,48.7325],[-65.1369,47.2122,8.345]]]]}}