{"type":"Feature","properties":{"featurecla":"Lake","scalerank":0,"name":"Great Bear Lake","name_abb":"Great Bear L.","name_alt":null,"note":null,"delta":null,"dam_name":null,"year":-99,"admin":null,"min_zoom":1.0,"min_label":3.0},
"geometry":{"type": "Polygon","coordinates": [[[-118.8368546600681,65.775189257389343,155.5],[-118.80462178814719,65.764003420558339,155.5],[-118.77768747051464,65.748107757693219,155.5],[-118.8317032878433,65.746635937057562,176.513],[-118.85996224404794,65.742514839277732,183.4532],[-118.88145082532856,65.7339782795909,188.6877],[-118.85466368975958,65.728679725302527,155.5],[-118.76399953860302,65.727796632921127,155.5],[-118.75884816637821,65.724852991649811,155.5],[-118.75031160669138,65.715433339581608,155.5],[-118.74324686764024,65.7133727906917,155.5],[-118.71631255000769,65.7133727906917,155.5],[-118.68790641173948,65.70895732878472,155.5],[-118.67480720808211,65.705424959259119,155.5],[-118.66170800442475,65.699832040843631,155.5],[-118.69246905571002,65.691589845283943,174.6441],[-118.70424362079528,65.683936377978512,155.5],[-118.70880626476583,65.668629443367678,155.5],[-118.6412496975891,65.645080313197127,155.5],[-118.5477890872248,65.635660661128924,199.1423],[-118.51084638926977,65.625063552552177,163.1585],[-118.49038808243412,65.624180460170777,328.4925],[-118.512465391969,65.637426845891724,255.5964],[-118.58590924168836,65.658915427172332,165.494],[-118.56132983707286,65.679815280198682,155.5],[-118.482293068938,65.679815280198682,155.5],[-118.4344588982791,65.696299671318059,243.3961],[-118.36690233110239,65.68629129099557,155.5],[-118.35866013554271,65.682170193215711,155.5],[-118.36866851586518,65.673044905274651,190.4041],[-118.39413101286206,65.658915427172332,162.6312],[-118.36749105935665,65.655088693519616,155.5],[-118.18513248259859,65.688351839885485,155.5],[-118.17115018655983,65.687468747504084,155.5],[-118.14097786352883,65.6792265519444,155.5],[-118.11051117637071,65.675694182418823,155.5],[-118.07651211968701,65.679520916071539,155.5],[-118.04383770157538,65.689823660521142,186.5878],[-118.01749211219709,65.706013687513376,227.5748],[-118.00807246012889,65.71719952434438,174.0599],[-118.00498163679401,65.7245586275227,197.1099],[-117.99953590044207,65.729562817683927,155.5],[-117.98275714519556,65.7339782795909,155.5],[-117.92947723818473,65.725441719904069,155.5],[-117.91446466770103,65.720143165615724,190.322],[-117.90489783356924,65.738688105625016,155.5],[-117.87251777958475,65.737805013243616,155.5],[-117.83366171480337,65.731623366573842,171.4395],[-117.81599986717546,65.7330951872095,205.4183],[-117.82615542956151,65.734567007845158,232.0971],[-117.83425044305764,65.739571198006388,195.4722],[-117.83940181528244,65.748107757693219,155.5],[-117.82909907083283,65.750462670710277,155.5],[-117.81982660082818,65.754583768490107,155.5],[-117.81158440526849,65.760765415159881,179.7504],[-117.80451966621735,65.768713246592426,208.1087],[-117.86015448624522,65.7663583335754,258.4685],[-117.91402312151033,65.755761224998651,283.8413],[-117.96303474867774,65.75487813261725,226.2663],[-118.00380418028547,65.782253996440488,167.9905],[-117.99114652281881,65.792851105017235,155.5],[-117.9756924061444,65.79667783866995,172.7081],[-117.94169334946069,65.796089110415693,201.9103],[-117.94669753962194,65.806097490738154,155.5],[-117.94919963470255,65.809629860263726,155.5],[-117.90239573848862,65.819049512331958,155.5],[-117.90077673578939,65.8158115069335,155.5],[-117.84617219020646,65.843187370756738,155.5],[-117.7986323836747,65.851135202189312,155.5],[-117.78465008763595,65.857022484731942,200.1545],[-117.81187876939563,65.864675952037373,242.4868],[-117.84425882338012,65.863204131401716,172.1536],[-117.87501987466537,65.854373207587741,210.338],[-117.9166723986545,65.830529713290076,220.2163],[-118.0885810488994,65.801682028831181,226.1405],[-118.11993082843892,65.802270757085438,185.4355],[-118.16923681973347,65.814634050424985,253.1618],[-118.19263876784044,65.824642430747446,308.2178],[-118.20927034102338,65.837005724086993,208.0129],[-118.19955632482804,65.847897196790854,155.5],[-118.19617113736602,65.850546473935054,162.7074],[-118.22045617785439,65.852607022824969,283.3028],[-118.25062850088538,65.850252109807911,264.7761],[-118.26622979962336,65.8558450282234,242.8783],[-118.2470961313598,65.881454707283865,158.5764],[-118.222958272935,65.898233462530357,192.0893],[-118.22030899579082,65.902354560310215,215.8919],[-118.22104490610866,65.905592565708673,165.5327],[-118.22075054198152,65.908536206979988,155.5],[-118.21545198769314,65.912068576505561,155.5],[-118.19705422974741,65.916484038412534,155.5],[-118.14715951019861,65.912068576505561,342.9675],[-118.16173053449162,65.93031915238771,184.2115],[-118.16732345290711,65.940916260964457,174.5878],[-118.16452699369937,65.950041548905546,172.2928],[-118.15128060797844,65.958283744465234,155.5],[-118.12464065447303,65.970647037804753,155.5],[-118.11301327145134,65.980949782254356,201.0842],[-118.11860618986682,65.9838934235257,163.1639],[-118.12184419526528,65.98713142892413,155.5],[-118.12419910828234,65.9906637984497,155.5],[-118.12728993161721,65.993901803848161,155.5],[-118.09255496461567,66.001555271153592,178.2243],[-118.13347157828699,66.015096021001654,172.6513],[-118.11051117637071,66.033052232756688,155.5],[-118.0355955060157,66.035701509900861,164.4434],[-118.00718936774749,66.04570989022335,155.5],[-117.99453171028082,66.052185901020238,155.5],[-117.95081863740177,66.062488645469841,393.6154],[-117.93551170279093,66.062783009596984,277.2799],[-117.92462023008706,66.057190091181468,155.5],[-117.930065966439,66.05071408038458,201.812],[-117.95538128137233,66.035701509900861,398.6535],[-117.93816097993511,66.033640961010946,228.0067],[-117.89444790705606,66.046004254350464,155.5],[-117.87281214371188,66.049242259748922,155.5],[-117.77729098445766,66.029519863231087,161.9248],[-117.775819163822,66.0351127816466,155.5],[-117.77375861493208,66.038350787045033,157.6822],[-117.77184524810572,66.040411335934976,167.414],[-117.77037342747006,66.042471884824892,177.9807],[-117.77169806604215,66.049536623876037,245.1366],[-117.77316988667781,66.052185901020238,155.5],[-117.77316988667781,66.055129542291553,155.5],[-117.77037342747006,66.062783009596984,182.3221],[-117.78700500065301,66.0630773737241,241.6407],[-117.83248425829484,66.056012634672953,349.606],[-117.84955737766848,66.058073183562868,302.3285],[-117.90077673578939,66.070436476902387,311.3776],[-117.96700866439403,66.068964656266729,320.1606],[-117.99276552551804,66.073968846427988,155.5],[-117.98275714519556,66.090158873420222,313.9609],[-117.99364861789942,66.09575179183571,230.1735],[-118.0054231829847,66.097812340725653,221.0696],[-118.03103286204515,66.09751797659851,182.5868],[-117.98790851742037,66.129603666455864,163.8055],[-117.96303474867774,66.142261323922526,155.5],[-117.91726112690877,66.1569795302791,155.5],[-117.90062955372582,66.159923171550417,155.5],[-117.88429234467003,66.160511899804675,155.5],[-117.86663049704211,66.15845135091476,155.5],[-117.85250101893979,66.153152796626387,155.5],[-117.83984336147313,66.146382421702356,155.5],[-117.82674415781578,66.142261323922526,155.5],[-117.81129004114138,66.1449106010667,259.1247],[-117.81629423130261,66.155507709643445,155.5],[-117.81320340796772,66.164632997584533,155.5],[-117.80437248415377,66.170520280127164,155.5],[-117.79142046255998,66.172580829017079,155.5],[-117.78200081049177,66.1699315518729,155.5],[-117.76860724270728,66.156685166151988,155.5],[-117.75742140587627,66.152269704245015,155.5],[-117.75006230269798,66.153741524880672,155.5],[-117.74093701475689,66.15845135091476,155.5],[-117.73210609094295,66.16433863345739,155.5],[-117.72636599046388,66.169342823618649,155.5],[-117.71768224871349,66.174641377907022,183.7622],[-117.6810339148856,66.185827214738,190.5302],[-117.69648803156002,66.192891953789172,155.5],[-117.71400269712436,66.192597589662029,163.6333],[-117.74991512063441,66.185827214738,286.8823],[-117.76860724270728,66.1884764918822,349.6069],[-117.77832125890262,66.188182127755056,403.5959],[-117.79510001414911,66.17846811155971,257.6055],[-117.8055499406623,66.1755244702884,218.9241],[-117.82571388337081,66.172580829017079,155.5],[-117.80893512812432,66.192303225534914,264.9514],[-117.80525557653516,66.201722877603117,161.7231],[-117.81129004114138,66.213791806815522,155.5],[-117.723275167129,66.24116767063876,155.5],[-117.72592444427318,66.231453654443413,155.5],[-117.73181172681581,66.225566371900783,201.9995],[-117.74991512063441,66.213791806815522,155.5],[-117.6861852871104,66.224977643646525,155.5],[-117.66101715424065,66.234986023969014,251.4038],[-117.66793471122824,66.248526773817048,155.5],[-117.66086997217708,66.249409866198448,155.5],[-117.64762358645615,66.2535309639783,232.6205],[-117.64070602946856,66.254708420486821,223.8145],[-117.64423839899413,66.264422436682167,155.5],[-117.64688767613833,66.268249170334883,155.5],[-117.63069764914609,66.273842088750371,155.5],[-117.62260263564997,66.275608273513171,155.5],[-117.61333016564532,66.275313909386028,198.2605],[-117.61333016564532,66.282673012564345,252.9414],[-117.629373010574,66.292387028759663,215.1656],[-117.64997849947321,66.302101044955009,250.2726],[-117.67102553456313,66.307105235116268,253.2465],[-117.68839301806389,66.302984137336409,215.7322],[-117.68324164583909,66.299746131937979,177.0422],[-117.68029800456777,66.296802490666664,155.5],[-117.67485226821583,66.289443387488348,155.5],[-117.70208094997551,66.290032115742633,244.5471],[-117.71179496617086,66.3026897732093,216.5],[-117.70649641188248,66.32064598496433,164.8609],[-117.68839301806389,66.337130376083678,178.709],[-117.65939815154142,66.349493669423225,155.5],[-117.62863710025616,66.355380951965856,181.4425],[-117.56490726673215,66.357147136728656,207.5478],[-117.58183320404223,66.367155517051117,241.1535],[-117.62539909485773,66.371276614830975,195.2266],[-117.64688767613833,66.377752625627863,155.5],[-117.63820393438795,66.382168087534836,155.5],[-117.61715689929804,66.390704647221668,155.5],[-117.60965061405616,66.3957088373829,155.5],[-117.60479360595849,66.402773576434043,155.5],[-117.59625704627169,66.420729788189078,155.5],[-117.5922831305554,66.426028342477451,168.5132],[-117.56917554657556,66.432504353274339,155.5],[-117.51883928083606,66.425733978350308,155.5],[-117.49690915336474,66.429560712003024,155.5],[-117.47527339002056,66.437214179308455,155.5],[-117.46658964827017,66.442807097723971,155.5],[-117.46246855049034,66.453992934554975,183.1181],[-117.46423473525313,66.463706950750321,184.3861],[-117.47056356398646,66.467828048530151,163.0128],[-117.47954166986398,66.467533684403008,160.5945],[-117.51162735972133,66.454876026936347,208.2425],[-117.53105539211202,66.452815478046432,197.979],[-117.57241355197402,66.46017458122472,200.9921],[-117.56063898688875,66.4681224126573,182.2827],[-117.5359124002097,66.479602613615413,155.5],[-117.52399065306085,66.487550445047987,160.3674],[-117.54783414735851,66.49608700473479,227.1922],[-117.57226636991045,66.487550445047987,247.065],[-117.59640422833525,66.474009695199925,244.3763],[-117.61995335850578,66.466944956148751,271.0136],[-117.64070602946856,66.464295679004579,249.3144],[-117.69516339298792,66.447222559630944,260.6707],[-117.7228336209383,66.429855076130167,249.227],[-117.73637437078636,66.426911434858852,246.27],[-117.78729936478013,66.424850885968937,249.0903],[-117.86044885037236,66.409543951358074,292.881],[-117.8865000756235,66.40836649484956,214.2143],[-117.90754711071342,66.412193228502275,157.2925],[-117.89606690975529,66.4263227066046,155.5],[-117.87546142085607,66.43397617391,155.5],[-117.83174834797703,66.44015782057977,177.1364],[-117.86398121989794,66.45104929328366,231.5935],[-117.87693324149173,66.4598802170976,164.4985],[-117.88017124689017,66.474304059327039,155.5],[-117.87207623339405,66.482840619013871,155.5],[-117.83675253813826,66.503740472040221,155.5],[-117.82571388337081,66.508450298074308,155.5],[-117.76404459873673,66.513748852362681,155.5],[-117.74373347396465,66.522285412049513,155.5],[-117.72989835998946,66.533176884753374,155.5],[-117.71959561553984,66.546128906347178,155.5],[-117.71959561553984,66.5576091073053,189.2359],[-117.73622718872279,66.56379075397507,168.092],[-117.72724908284528,66.573799134297559,155.5],[-117.69369157235226,66.594993351451023,155.5],[-117.66116433630421,66.609711557807628,193.3181],[-117.5922831305554,66.6253128565456,165.872],[-117.61288861945462,66.63149450321535,272.0541],[-117.72945681379876,66.610889014316143,155.5],[-117.72592444427318,66.620603030511489,195.3519],[-117.72842653935379,66.628256497816921,208.1677],[-117.73490255015071,66.634143780359551,183.8229],[-117.74373347396465,66.638264878139381,159.0266],[-117.72092025411195,66.645918345444812,155.5],[-117.67632408885149,66.635615600995209,155.5],[-117.65365805106237,66.638264878139381,155.5],[-117.64453276312128,66.645623981317669,191.4515],[-117.64320812454918,66.652983084495958,180.8404],[-117.64394403486702,66.660047823547131,155.5],[-117.64070602946856,66.6662294702169,155.5],[-117.63275819803602,66.670350567996735,157.2413],[-117.61450762215384,66.675649122285108,206.5297],[-117.60597106246703,66.679770220064967,234.4275],[-117.6233385459678,66.680358948319224,286.8128],[-117.73622718872279,66.6662294702169,260.297],[-117.76551641937239,66.656809818148673,199.7712],[-117.82218151384524,66.630611410833978,179.6911],[-117.98555360440332,66.615304476223116,218.7326],[-118.05207989713507,66.597348264468081,163.7036],[-118.11360199970559,66.559080927940983,159.4449],[-118.13921167876605,66.547306362855693,155.5],[-118.16158335242805,66.530821971736316,164.8881],[-118.17615437672107,66.523168504430913,165.7483],[-118.19175567545905,66.5175755860154,155.5],[-118.2173653545195,66.512571395854167,157.879],[-118.22472445769779,66.505212292675878,160.4958],[-118.2285511913505,66.495203912353389,155.5],[-118.22972864785903,66.484312439649528,155.5],[-118.234144109766,66.47783642885264,155.5],[-118.27977054947141,66.438980364071256,155.5],[-118.27461917724662,66.438685999944113,155.5],[-118.24341657977067,66.441924005342571,161.12],[-118.22649064246059,66.445456374868144,155.5],[-118.21030061546834,66.450460565029374,155.5],[-118.18807612386991,66.464001314877436,155.5],[-118.17527128433967,66.469299869165809,155.5],[-118.16496853989007,66.47695333647124,155.5],[-118.16084744211022,66.491082814573559,158.5359],[-118.15613761607611,66.500208102514648,163.7789],[-118.14554050749938,66.501385559023163,191.9893],[-118.1342074886048,66.498441917751848,155.5],[-118.12728993161721,66.494909548226275,155.5],[-118.13111666526993,66.48195752663247,155.5],[-118.12876175225287,66.479013885361155,155.5],[-118.11993082843892,66.474304059327039,155.5],[-118.16084744211022,66.449871836775117,155.5],[-118.25931224263576,66.424262157714651,166.7444],[-118.32112870933341,66.391293375475925,155.5],[-118.41414777350703,66.36744988117826,218.9265],[-118.44343700415664,66.363623147525544,167.8778],[-118.46521994956437,66.3633287833984,156.0],[-118.46242349035663,66.371276614830975,157.9188],[-118.49347890576901,66.3642118757798,155.5],[-118.55279327738604,66.3418402021178,227.3433],[-118.58664515200618,66.337130376083678,155.5],[-118.64331024647903,66.35067112593174,164.2253],[-118.67819239554413,66.353320403075941,170.5595],[-118.72793993302938,66.33065436528679,161.4809],[-118.83332229054253,66.309165784006183,162.4485],[-118.84730458658127,66.311520697023241,155.5],[-118.87850718405724,66.3215290773457,171.9825],[-118.8949915751766,66.323589626235645,172.2876],[-119.20171899564781,66.318585436074386,168.6207],[-119.37627692303688,66.343017658626337,170.0307],[-119.51801325025079,66.339485289100736,170.6183],[-119.5455362961376,66.330360001159676,155.5],[-119.53081808978101,66.32977127290539,155.5],[-119.51654142961513,66.327121995761217,155.5],[-119.50314786183063,66.323000897981359,155.5],[-119.49093175055467,66.316819251311614,163.5544],[-119.5200737991407,66.306222142734867,157.859],[-119.55731086122287,66.3018066808279,160.7003],[-119.76439602465999,66.309165784006183,167.4202],[-119.79500989388168,66.314169974167413,171.6625],[-119.80339927150493,66.3250614468713,163.4893],[-119.79236061673751,66.336836011956564,155.5],[-119.76469038878713,66.344195115134852,155.5],[-119.69890000637319,66.34978803355034,155.5],[-119.66239885460887,66.348904941168968,155.5],[-119.6278110696709,66.336541647829421,168.2475],[-119.61662523283989,66.338602196719336,167.6975],[-119.60853021934378,66.345961299897652,163.5446],[-119.60691121664455,66.357147136728656,170.2609],[-119.61515341220424,66.362740055144144,172.9986],[-119.65018274333291,66.370393522449575,173.0886],[-119.72627587019645,66.370982250703833,169.077],[-119.75644819322744,66.367155517051117,169.2206],[-119.83622087168013,66.336836011956564,164.1004],[-119.86080027629561,66.332126185922448,164.688],[-119.88788177599173,66.330360001159676,176.8678],[-119.94910951443512,66.3362472837023,161.925],[-119.9801649298475,66.344489479262,166.2321],[-119.99797395953897,66.357147136728656,155.5],[-119.9638277207917,66.377752625627863,164.7995],[-120.0056274268444,66.379518810390664,169.096],[-120.14000465088,66.40836649484956,170.76],[-120.15751931644434,66.40836649484956,167.9709],[-120.17312061518231,66.4042453970697,160.1406],[-120.20123238932339,66.387172277696067,155.5],[-120.22007169345981,66.384817364679009,157.1857],[-120.2580446658598,66.385111728806152,167.857],[-120.29410427143344,66.378930082136378,163.2479],[-120.31264921144273,66.379813174517778,166.5038],[-120.34620672193574,66.39747502214567,175.6033],[-120.36519320813574,66.399241206908471,186.8753],[-120.43525187039307,66.3818737234077,159.6874],[-120.45217780770314,66.380990631026322,165.2408],[-120.46733756025043,66.38834973420461,174.5143],[-120.4704283835853,66.393648288492983,167.61],[-120.47513820961942,66.408072130722417,173.1563],[-120.47778748676359,66.412193228502275,178.1612],[-120.48455786168762,66.414548141519333,171.8858],[-120.50398589407831,66.4171974186635,155.5],[-120.51193372551086,66.41925796755342,155.5],[-120.49338878550157,66.4236734294604,155.5],[-120.48382195136979,66.43338744565574,165.1736],[-120.47808185089073,66.444573282486743,165.6455],[-120.47101711183956,66.453992934554975,155.5],[-120.45423835659307,66.462823858368921,155.5],[-120.43539905245663,66.467828048530151,155.5],[-120.41508792768454,66.469005505038666,155.5],[-120.39462962084889,66.466944956148751,155.5],[-120.38668178941634,66.464001314877436,155.5],[-120.3718164009962,66.455759119317747,155.5],[-120.36092492829232,66.453992934554975,155.5],[-120.27879733682258,66.462823858368921,155.5],[-120.26157703538539,66.468711140911552,155.5],[-120.24509264426601,66.481368798378213,168.8355],[-120.31677030922256,66.472832238691382,168.6091],[-120.35400737130473,66.47518715170844,155.5],[-120.37476004226751,66.494909548226275,159.0912],[-120.34576517574504,66.4878448091751,155.5],[-120.33207724383342,66.488433537429358,162.8747],[-120.31956676843032,66.494909548226275,173.5419],[-120.38094168893727,66.508450298074308,159.0353],[-120.38094168893727,66.515220672998339,155.5],[-120.36431011575434,66.514926308871225,155.5],[-120.34841445288922,66.517281221888283,155.5],[-120.33354906446908,66.521696683795255,158.0951],[-120.31956676843032,66.528467058719286,161.5293],[-120.33340188240551,66.534648705389031,159.5464],[-120.34002507526597,66.535826161897575,159.8346],[-120.32118577112954,66.548778183491351,155.5],[-120.29528172794195,66.552016188889809,155.5],[-120.24509264426601,66.550250004127008,155.5],[-120.20667812567532,66.554076737779724,155.5],[-120.18783882153889,66.55878656381384,158.2149],[-120.17253188692806,66.567028759373528,162.3149],[-120.13882719437149,66.60559046002777,155.5],[-120.1283772678583,66.610889014316143,155.5],[-120.10777177895909,66.612066470824658,155.5],[-120.08907965688623,66.615598840350259,155.5],[-120.07112344513119,66.622074851147147,155.5],[-120.0525785051219,66.632083231469636,168.7496],[-120.07053471687692,66.6420916117921,155.5],[-120.09172893403041,66.649745079097528,169.711],[-120.13529482484589,66.658870367038617,155.5],[-120.13529482484589,66.6662294702169,155.5],[-120.10629995832343,66.668878747361077,155.5],[-120.01475271478549,66.651805627987443,155.5],[-120.00077041874673,66.653866176877358,155.5],[-119.97118682396999,66.66328582894559,155.5],[-119.80604854864913,66.677415307047909,155.5],[-119.78205787228789,66.69007296451457,171.1264],[-119.76351293227859,66.703319350235489,155.5],[-119.73510679401039,66.716565735956408,155.5],[-119.7053760171701,66.725985388024611,155.5],[-119.68270997938095,66.727751572787412,155.5],[-119.68889162605072,66.720686833736266,157.8025],[-119.67270159905848,66.715682643575008,155.5],[-119.65710030032051,66.717448828337808,155.5],[-119.64208772983679,66.723630475007582,157.39],[-119.62751670554377,66.731283942312984,155.5],[-119.60970767585229,66.736582496601358,155.5],[-119.5524538531252,66.7351106759657,155.5],[-119.53111245390815,66.730400849931613,164.1824],[-119.52198716596706,66.730695214058727,175.1795],[-119.51830761437792,66.7386430454913,158.9465],[-119.51860197850505,66.744824692161046,165.7449],[-119.52036816326785,66.747768333432361,165.8292],[-119.52434207898412,66.748357061686619,164.5749],[-119.53125963597171,66.7480626975595,163.0778],[-119.54730248090038,66.751300702957963,162.6038],[-119.56717205948178,66.758365442009108,175.713],[-119.57938817075774,66.765430181060282,155.5],[-119.57247061377015,66.768668186458711,155.5],[-119.55009894010814,66.7666076375688,155.5],[-119.49093175055467,66.754244344229278,157.993],[-119.47135653610042,66.757776713754851,155.5],[-119.45928760688801,66.767196365823054,155.5],[-119.45089822926477,66.777499110272657,155.5],[-119.44309757989578,66.782208936306773,155.5],[-119.37627692303688,66.793394773137777,155.5],[-119.34419123317954,66.804580609968781,155.5],[-119.34007013539969,66.8169439033083,182.6033],[-119.30224434506327,66.831073381410619,155.5],[-118.98050435410835,66.866102712539288,155.5],[-118.96902415315023,66.869340717937746,155.5],[-118.959604501082,66.874933636353262,155.5],[-118.95518903917502,66.884058924294322,159.1709],[-118.96298968854401,66.8884743862013,161.664],[-118.98374235950681,66.8920067557269,162.3026],[-118.99110146268509,66.89730531001527,163.7465],[-118.99448665014711,66.901132043667957,164.5358],[-118.99934365824478,66.903781320812158,187.5678],[-119.01052949507579,66.905841869702073,203.6866],[-119.02097942158896,66.90554750557493,210.4543],[-119.04070181810678,66.900837679540842,200.2025],[-119.12371250195791,66.89730531001527,199.0861],[-119.14829190657341,66.8996602230323,196.6615],[-119.15844746895945,66.902603864303615,179.5267],[-119.17831704754084,66.9108460598633,204.6725],[-119.188766974054,66.9126122446261,205.601],[-119.20024717501215,66.910551695736189,191.6853],[-119.21025555533463,66.90731369033773,178.8094],[-119.21967520740284,66.906724962083473,171.8668],[-119.23027231597958,66.9126122446261,155.5],[-119.20230772390207,66.939988108449342,198.7626],[-119.2207054818478,66.945875390991972,203.8292],[-119.23983915011135,66.942931749720657,199.504],[-119.25897281837491,66.937044467178026,205.6699],[-119.27810648663848,66.933217733525311,186.9308],[-119.48636910658414,66.9432261138478,171.4906],[-119.52448926104768,66.9535288582974,155.5],[-119.5144808807252,66.959710504967177,155.5],[-119.50815205199187,66.967952700526865,158.4366],[-119.50314786183063,66.975900531959411,163.7316],[-119.49711339722444,66.981493450374927,170.4947],[-119.48136491642289,66.986497640536157,180.069],[-119.42940964798416,66.9944454719687,163.6893],[-119.59852183902129,66.969718885289637,167.9996],[-119.63134343919648,66.969718885289637,175.9029],[-119.65548129762126,66.981493450374927,155.5],[-119.60087675203835,66.9944454719687,166.0467],[-119.65150738190499,66.998566569748562,171.7647],[-119.71788649257319,66.9832596351377,159.2979],[-119.77852550276231,66.977077988467926,157.285],[-119.81252455944602,67.008869314198165,155.5],[-119.75217991338403,67.015050960867939,160.008],[-119.73672579670961,67.022410064046227,162.063],[-119.76056929100727,67.03683390627566,161.239],[-119.78397123911425,67.044781737708234,183.1164],[-119.8095809181747,67.046547922471,191.6169],[-119.8397532412057,67.043015552945434,189.3325],[-119.84681798025686,67.039777547546976,198.8859],[-119.85800381708786,67.031240987860173,158.192],[-119.86712910502894,67.029180438970258,155.5],[-119.86668755883825,67.0362451780214,211.6267],[-119.86830656153748,67.040955004055519,193.3712],[-119.87389947995297,67.043015552945434,204.3569],[-119.93601031077776,67.03683390627566,199.1394],[-120.0525785051219,67.001510211019877,188.211],[-120.15428131104589,67.001804575146991,174.8164],[-120.17930226185209,66.991501830697388,163.8208],[-120.19990775075129,66.979138537357869,155.5],[-120.26672840761019,66.957355591950119,155.5],[-120.29263245079778,66.9535288582974,155.5],[-120.34370462685513,66.9552950430602,159.063],[-120.4290702237233,66.946169755119115,164.1002],[-120.53592440187211,66.9535288582974,163.1961],[-120.58493602903951,66.934395190033854,161.629],[-120.64277858002089,66.919088255422992,167.2036],[-120.64910740875422,66.905841869702073,155.5],[-120.75581440483946,66.89730531001527,168.149],[-120.79467046962083,66.888180022074181,158.9091],[-120.85575102600066,66.881704011277264,161.3406],[-120.93419906588124,66.8622759788866,169.3057],[-120.9774705925696,66.8578605169796,162.5415],[-121.162772810599,66.8716956309548,174.1487],[-121.17925720171837,66.867574533174945,170.2448],[-121.22458927729664,66.837549392207535,158.4384],[-121.25608623889973,66.827835376012189,157.814],[-121.26491716271369,66.820770636961015,155.5],[-121.25873551604391,66.809584800130011,155.5],[-121.25873551604391,66.80281442520598,155.5],[-121.26962698874777,66.803108789333123,159.0083],[-121.2958253960625,66.807229887112953,157.7902],[-121.30303731717723,66.806052430604439,157.2078],[-121.3134872436904,66.796632778536235,160.2673],[-121.36029113990435,66.776321653764143,167.3048],[-121.37971917229503,66.770728735348627,164.2161],[-121.3962035634144,66.768668186458711,167.8621],[-121.44006381835702,66.773966740747085,176.0821],[-121.46287703820973,66.773672376619942,177.2865],[-121.48142197821902,66.765135816933139,167.4652],[-121.48215788853685,66.755716164864936,157.0654],[-121.4681755924981,66.747768333432361,155.5],[-121.43682581295857,66.7351106759657,155.5],[-121.46390731265468,66.7239248391347,161.3078],[-121.74855742359101,66.693899698167286,177.5182],[-121.99685356482658,66.6226635794014,171.2258],[-122.25295035543112,66.599703177485139,173.0493],[-122.27605793941096,66.587634248272735,162.0],[-122.29666342831018,66.573799134297559,165.7178],[-122.32639420515048,66.563202025720813,180.2426],[-122.35759680262643,66.5593752920681,155.5],[-122.3827649354962,66.56379075397507,155.5],[-122.3827649354962,66.569972400644843,155.5],[-122.36525026993186,66.572621677789016,155.5],[-122.346558147859,66.572916041916159,155.5],[-122.33036812086675,66.577037139695989,155.5],[-122.32006537641715,66.591166617798308,159.5],[-122.33713849579078,66.608534101299085,190.7795],[-122.34788278643109,66.615598840350259,244.0095],[-122.36186508246985,66.618248117494431,223.5],[-122.37790792739852,66.615304476223116,208.8574],[-122.40704997598456,66.6011749981208,164.8316],[-122.44031312235043,66.594110259069623,163.9375],[-122.46960235300003,66.578214596204532,162.7506],[-122.485203651738,66.576742775568874,158.2249],[-122.49815567333181,66.5826300581115,164.7662],[-122.50330704555661,66.5917553460526,155.5],[-122.50124649666668,66.601763726375054,161.7651],[-122.49256275491631,66.610889014316143,193.7827],[-122.515375974769,66.608239737171971,181.7724],[-122.53230191207908,66.596170807959567,161.1678],[-122.54790321081705,66.5808638733487,165.4527],[-122.56703687908062,66.569972400644843,163.7392],[-122.54157438208372,66.564085118102213,155.5],[-122.48829447507291,66.570855493026244,165.4172],[-122.4645981628388,66.56379075397507,155.5],[-122.54024974351164,66.548778183491351,165.6169],[-122.61855060132865,66.5425965368216,174.9246],[-122.7554299204449,66.554371101906867,172.7682],[-122.79428598522627,66.5425965368216,172.4262],[-122.79428598522627,66.550250004127008,172.3329],[-122.82180903111308,66.54289090094872,165.6379],[-122.89230923956111,66.555548558415381,185.205],[-122.92027383163862,66.546423270474321,168.905],[-122.951329247051,66.51875304252394,161.4115],[-122.95854116816574,66.490199722192159,155.5],[-122.96119044530992,66.484312439649528,155.5],[-122.97428964896729,66.4775420647255,163.5308],[-122.98930221945099,66.474892787581325,182.307],[-123.02021045279983,66.474304059327039,189.1873],[-123.02403718645253,66.476364608216983,161.5839],[-123.02683364566028,66.485195532030929,157.4694],[-123.03007165105873,66.487550445047987,158.1411],[-123.03551738741066,66.485489896158043,158.1367],[-123.04302367265254,66.4766589723441,212.9924],[-123.04743913455951,66.474304059327039,213.7046],[-123.1073422344308,66.4672393202759,187.3132],[-123.1361899188897,66.469888597420066,177.2939],[-123.16356578271294,66.481368798378213,155.5],[-123.1460511171486,66.489316629810759,167.1526],[-123.13883919603389,66.501385559023163,195.172],[-123.14399056825869,66.511982667599909,185.7014],[-123.16356578271294,66.515220672998339,155.5],[-123.1473757557207,66.523462868558028,157.5181],[-123.12941954396567,66.528467058719286,158.7825],[-123.14134129111451,66.535531797770432,159.2536],[-123.1538517665176,66.534648705389031,172.9617],[-123.16680378811139,66.530821971736316,199.7244],[-123.18063890208659,66.528467058719286,180.7641],[-123.18888109764626,66.524345960939428,168.9741],[-123.19108882859976,66.515220672998339,158.1503],[-123.19226628510827,66.505212292675878,155.5],[-123.19771202146022,66.49785318949759,155.5],[-123.24569337418268,66.4766589723441,173.0252],[-123.2701255967346,66.469594233292952,162.0524],[-123.32458296025396,66.463706950750321,195.77],[-123.38198396504464,66.449577472647974,186.6199],[-123.50164298272367,66.439863456452656,219.4989],[-123.54741660449264,66.4171974186635,172.2642],[-123.64337930993756,66.412193228502275,183.5014],[-123.71814779822901,66.394531380874355,169.316],[-123.80071693588945,66.389232826585982,175.7071],[-123.82441324812353,66.383345544043351,186.6357],[-123.87416078560879,66.359207685618571,176.803],[-124.01339501774208,66.315936158930214,184.4987],[-124.04798280268005,66.3121094252775,182.8049],[-124.11553936985676,66.331243093541048,173.2625],[-124.18618676036837,66.3427232944992,168.7979],[-124.25050532214664,66.3650949681612,182.3386],[-124.28450437883035,66.369510430068175,172.4994],[-124.31820907138692,66.364800604034059,171.9011],[-124.34852857648148,66.350376761804625,155.5],[-124.35868413886752,66.339190924973622,179.1515],[-124.36795660887216,66.32565017512556,155.5],[-124.37884808157605,66.314169974167413,161.2266],[-124.39371346999619,66.309165784006183,161.7937],[-124.42447452128145,66.309460148133326,164.4238],[-124.43904554557447,66.30475032209921,169.6065],[-124.44522719224423,66.2926813928868,155.5],[-124.45567711875741,66.259712610648052,157.5159],[-124.481581161945,66.252059143342649,254.51],[-124.54766590848605,66.268249170334883,214.2651],[-124.5918205275558,66.274430817004657,181.0222],[-124.63700542107051,66.275313909386028,170.4299],[-124.65422572250772,66.277668822403086,175.2045],[-124.69852752364103,66.295625034158121,159.2176],[-124.75754753113094,66.292092664632548,177.2307],[-124.81951117989215,66.274136452877514,165.7184],[-124.8826522851619,66.265599893190682,183.3343],[-124.9454990263045,66.289443387488348,162.3952],[-124.94167229265179,66.2926813928868,187.1553],[-124.93181109439288,66.302984137336409,185.9896],[-124.96198341742388,66.308282691624783,200.4548],[-124.98332481664093,66.297685583048036,155.5],[-125.00186975665022,66.282673012564345,155.5],[-125.02409424824867,66.275313909386028,161.4306],[-125.07295869335252,66.265894257317825,163.5998],[-125.08281989161142,66.26206752366511,164.6278],[-125.08870717415407,66.252942235724021,164.9711],[-125.0881184458998,66.245877496672875,155.5],[-125.08473325843778,66.239107121748845,155.5],[-125.08281989161142,66.230864926189156,155.5],[-125.08664662526414,66.22291709475661,155.5],[-125.11343376083312,66.196424323314744,161.6979],[-125.11902667924863,66.188770856009342,159.0797],[-125.12226468464708,66.17935120394111,155.5],[-125.12373650528274,66.168754095364363,155.5],[-125.12373650528274,66.15845135091476,155.5],[-125.11902667924863,66.1372571337613,155.5],[-125.10975420924399,66.122244563277576,155.5],[-125.03174771555409,66.04983098800318,155.5],[-124.93534346391846,65.987720157178387,155.5],[-124.90531832295103,65.978006140983041,155.5],[-124.89398530405646,65.970352673677638,155.5],[-124.87897273357275,65.942093717473,155.5],[-124.86984744563168,65.932674065404768,155.5],[-124.85601233165647,65.92619805460788,155.5],[-124.8227491852906,65.920605136192364,155.5],[-124.79625641384875,65.911774212378418,157.6767],[-124.79022194924255,65.913246033014076,157.7217],[-124.78963322098829,65.918544587302449,158.3184],[-124.79463741114952,65.925609326353623,159.9921],[-124.79552050353092,65.94709790763423,165.9407],[-124.80361551702704,65.9794779616187,162.7959],[-124.80464579147201,66.00891437433188,158.0338],[-124.78418748463636,66.021866395925684,155.5],[-124.7688805500255,66.027164950214029,155.5],[-124.73502867540537,66.05071408038458,155.5],[-124.7158950071418,66.056012634672953,155.5],[-124.67306502664414,66.0545408140373,155.5],[-124.65378417631703,66.048653531494665,155.5],[-124.63700542107051,66.035701509900861,155.5],[-124.69278742316197,66.039822607680691,181.0084],[-124.70941899634491,66.035701509900861,188.6471],[-124.69852752364103,66.015096021001654,155.5],[-124.677186124424,66.000672178772192,155.5],[-124.64981026060074,65.99301871146676,155.5],[-124.62096257614184,65.991252526703988,155.5],[-124.57180376691085,65.998611629882276,155.5],[-124.56032356595271,66.0044989124249,161.5207],[-124.55458346547366,66.015096021001654,168.5806],[-124.55723274261783,66.025693129578372,173.5878],[-124.56576930230466,66.0324635045024,181.1078],[-124.5754833185,66.037173330536518,198.6246],[-124.58240087548759,66.042471884824892,198.8059],[-124.59005434279302,66.060133732452783,175.9717],[-124.58549169882247,66.072202661665187,159.3741],[-124.55458346547366,66.09751797659851,201.6785],[-124.56930167183023,66.104288351522541,198.718],[-124.60506691327673,66.111058726446572,175.7552],[-124.61654711423486,66.11753473724346,169.5042],[-124.61993230169688,66.1281318458202,169.1958],[-124.6163999321713,66.139612046778353,155.5],[-124.60801055454804,66.148737334719414,155.5],[-124.59608880739921,66.152269704245015,155.5],[-124.18515648592341,66.179645568068253,155.5],[-124.16337354051566,66.174052649652737,155.5],[-124.10950490525056,66.131075487091522,155.5],[-124.07683048713895,66.1178291013706,155.5],[-124.04415606902734,66.111941818827972,155.5],[-123.86385804115919,66.1057601721582,155.5],[-123.77231079762123,66.125482568676,155.5],[-123.52283719987715,66.149031698846542,155.5],[-123.27336360213306,66.172580829017079,155.5],[-123.25746793926794,66.170225916000021,155.5],[-123.25010883608965,66.163749905203133,155.5],[-123.24598773830982,66.154918981389187,155.5],[-123.23921736338579,66.1449106010667,155.5],[-123.20448239638425,66.11753473724346,155.5],[-123.18108044827727,66.093985607072938,155.5],[-123.17416289128968,66.090158873420222,155.5],[-123.17077770382767,66.084860319131849,155.5],[-123.17107206795481,66.073085754046588,155.5],[-123.16945306525558,66.061605553088441,155.5],[-123.16047495937806,66.056012634672953,155.5],[-123.12338507935948,66.0445324337148,155.5],[-123.10322113665094,66.043354977206292,160.9127],[-123.08850293029437,66.056012634672953,159.0164],[-123.08865011235794,66.0666097432497,169.1322],[-123.09542048728196,66.07661812357216,165.2087],[-123.10837250887576,66.090158873420222,162.288],[-123.11367106316413,66.098106704852768,160.9936],[-123.11882243538894,66.102227802632626,161.198],[-123.11970552777032,66.106348900412456,157.353],[-123.1120520604649,66.114296731845,155.5],[-123.1046929572866,66.11753473724346,155.5],[-123.09468457696414,66.118712193752,155.5],[-123.08467619664165,66.11753473724346,155.5],[-123.07761145759051,66.114296731845,155.5],[-123.06451225393315,66.105465808031056,155.5],[-123.05494541980136,66.105171443903942,155.5],[-123.04670322424167,66.111058726446572,155.5],[-123.03728357217346,66.120772742641918,155.5],[-123.01520626263859,66.138140226142667,155.5],[-122.93764131513939,66.179645568068253,162.9691],[-122.96030735292854,66.201428513476,184.3973],[-123.04022721344478,66.2276269207907,168.2306],[-123.06112706647113,66.248526773817048,155.5],[-123.0444954932882,66.252942235724021,155.5],[-122.66535449754259,66.2518629005912,157.5752],[-122.28621350179701,66.2507835654584,155.5],[-121.90707250605141,66.249704230325591,155.5],[-121.66201437021431,66.184944122356626,155.5],[-121.62786813146703,66.161394992186075,155.5],[-121.60446618336006,66.148737334719414,155.5],[-121.59445780303759,66.138728954396953,155.5],[-121.58400787652441,66.110175634065172,155.5],[-121.58076987112597,66.1039939873954,155.5],[-121.5500088198407,66.09339687881868,155.5],[-121.4435961878826,66.111353090573687,155.5],[-121.43314626136943,66.108703813429514,155.5],[-121.42181324247485,66.104288351522541,155.5],[-121.41033304151672,66.102522166759741,158.3147],[-121.39399583246092,66.110764362319429,155.5],[-121.37545089245162,66.11665164486206,155.5],[-121.36853333546402,66.11753473724346,155.5],[-121.32702799353845,66.113708003590745,155.5],[-121.25461441826407,66.0928081505644,155.5],[-121.23636384238191,66.081327949606276,155.5],[-121.23503920380981,66.0648435584869,155.5],[-121.25520314651834,66.038939515299319,155.5],[-121.26035451874313,66.029225499103973,155.5],[-121.26447561652299,66.005676368933422,155.5],[-121.2716875376377,65.993901803848161,155.5],[-121.28257901034158,65.987425793051273,155.5097],[-121.39502610690587,65.9523964619226,198.0148],[-121.83804411823904,65.928847331752053,171.6655],[-122.01701750753509,65.982421602890042,251.0598],[-122.07574315089786,65.98889761368693,225.3264],[-122.17023403570713,65.987425793051273,170.9466],[-122.18745433714433,65.990075070195445,177.2851],[-122.20084790492882,65.997728537500876,209.5232],[-122.23072586383269,66.009503102586137,212.4959],[-122.39718877772565,66.0127411079846,170.4707],[-122.49256275491631,65.993901803848161,165.8308],[-122.55482076780466,65.996551080992361,173.0823],[-122.57071643066976,65.990958162576845,172.9465],[-122.58455154464495,65.9838934235257,171.6595],[-122.60162466401859,65.9812441463815,170.6786],[-122.7549883742542,65.976828684474526,189.4348],[-122.78677969998441,65.966525940024923,175.7032],[-122.75572428457201,65.958872472719491,155.5],[-122.5899972809969,65.967409032406323,155.5],[-122.55408485748683,65.9618161139908,155.5],[-122.53362655065118,65.946803543507087,155.5],[-122.55423203955039,65.933851521913311,155.7334],[-122.54024974351164,65.917955859048192,155.5],[-122.51096051286203,65.904120745073016,155.5],[-122.20099508699238,65.851429566316426,155.5],[-122.14859827236295,65.82169878947613,155.5],[-122.15625173966836,65.7748948932622,155.5],[-122.17965368777534,65.756644317380051,155.5],[-122.23263923065903,65.7330951872095,198.6498],[-122.25574681463888,65.716905160217266,157.8601],[-122.2586904559102,65.711606605928893,155.5],[-122.26281155369003,65.697477127826573,155.5],[-122.26546083083423,65.6930616659196,155.5],[-122.27164247750399,65.6904123887754,155.5],[-122.28768532243267,65.688351839885485,163.4681],[-122.29327824084817,65.68629129099557,170.816],[-122.32345056387916,65.658915427172332,155.5],[-122.33434203658302,65.6512619598669,164.5461],[-122.36215944659698,65.638604302400239,172.8912],[-122.43059910615509,65.6206480906452,167.581],[-122.4766670920512,65.616232628738231,208.6185],[-122.54834475700775,65.600631330000255,199.7473],[-122.58072481099224,65.583263846499477,163.4238],[-122.61590132418448,65.574138558558388,185.1721],[-122.76087565679683,65.565601998871585,174.6392],[-122.78206987395031,65.554710526167725,163.8232],[-122.82092593873168,65.514088276623539,155.5],[-122.79428598522627,65.514088276623539,155.5],[-122.82151466698595,65.490833510580131,160.7111],[-122.86287282684795,65.489950418198731,181.4422],[-122.90746899210839,65.4961320648685,155.5],[-122.94441169006342,65.49495460835999,216.5867],[-122.94441169006342,65.4875955051817,194.7455],[-122.89010150860763,65.482296950893328,179.5827],[-122.83858778635958,65.466990016282466,155.5],[-122.79237261839991,65.443440886111944,155.5],[-122.7532221894914,65.411943924508847,155.5],[-122.75822637965264,65.3936933486267,155.5],[-122.75336937155497,65.375737136871663,155.5],[-122.73158642614723,65.343357082887167,155.5],[-122.84977362319059,65.27094350761277,155.5],[-122.91703582624018,65.256519665383337,165.8456],[-122.95751089372078,65.234736719975587,180.7534],[-122.97929383912853,65.226788888543041,191.8059],[-122.99710286881998,65.226200160288755,177.6934],[-123.03066037931299,65.232676171085672,176.507],[-123.04743913455951,65.233559263467072,179.8497],[-123.05862497139051,65.230909986322871,178.4842],[-123.08055509886182,65.222079062508925,168.7796],[-123.09159375362925,65.22001851361901,169.0589],[-123.43070122808493,65.202062301863975,195.0462],[-123.48456986335003,65.187049731380256,175.0393],[-123.49251769478258,65.1652667859725,155.5],[-123.45174826317485,65.14142329167484,155.5],[-123.33885962041985,65.112575607215945,155.5],[-122.96722490991613,65.074308270688832,155.5],[-122.59559019941238,65.0360409341617,155.5],[-122.22395548890866,64.997773597634591,155.5],[-122.20423309239084,64.9904144944563,155.5],[-122.16670166618155,64.966865364285781,155.5],[-122.08869517249165,64.948909152530746,155.5],[-122.04748419469323,64.94508241887803,155.5],[-122.01907805642502,64.9598006252346,161.7211],[-122.04851446913818,64.966571000158638,158.5506],[-122.06234958311337,64.971869554447011,159.9712],[-122.07427133026221,64.980406114133814,155.5],[-122.05763975707927,64.98599903254933,155.5],[-121.99199655672891,64.986587760803587,155.5],[-121.97271570640177,64.989825766202046,155.5],[-121.93974692416303,65.004543972558622,155.5],[-121.84084057744678,65.021322727805114,155.5],[-121.83671947966695,65.0192621789152,155.5],[-121.82656391728091,65.009253798592738,155.5],[-121.82097099886539,65.00778197795708,155.5],[-121.81714426521269,65.009253798592738,155.5],[-121.81478935219565,65.0116087116098,155.5],[-121.81199289298789,65.013669260499711,159.1228],[-121.79756905075843,65.016024173516769,160.4645],[-121.79447822742355,65.0192621789152,155.5],[-121.79595004805921,65.023677640822171,155.5],[-121.79992396377548,65.027504374474887,158.1928],[-121.79992396377548,65.035157841780318,155.5],[-121.78520575741891,65.035157841780318,155.5],[-121.76018480661271,65.046343678611322,155.5],[-121.74531941819257,65.049287319882637,155.5],[-121.72795193469179,65.0442831297214,155.5],[-121.72044564944994,65.0442831297214,155.5],[-121.71735482611506,65.0525253252811,169.8223],[-121.71956255706854,65.058706971950841,155.5],[-121.72486111135692,65.061650613222156,155.5],[-121.7317786683445,65.062533705603556,155.5],[-121.73840186120498,65.062239341476442,155.5],[-121.71087881531815,65.0731308141803,155.5],[-121.61521047400036,65.068420988146187,155.5],[-121.58768742811355,65.090203933553937,176.5067],[-121.61167810447478,65.097268672605111,167.6246],[-121.64876798449338,65.116696704995775,168.1238],[-121.670256565774,65.123761444046949,155.5],[-121.65244753608252,65.137890922149268,155.5],[-121.60785137082208,65.152020400251587,155.5],[-121.59445780303759,65.172331525023679,155.5],[-121.59416343891044,65.18233990534614,164.9585],[-121.5965183519275,65.191465193287229,155.5],[-121.60137536002517,65.20323975837249,155.5],[-121.59799017256316,65.210893225677921,155.5],[-121.59151416176627,65.215897415839152,163.0762],[-121.58650997160503,65.222079062508925,168.529],[-121.58768742811355,65.233559263467072,181.0673],[-121.59283880033836,65.235031084102729,176.1905],[-121.6029943627244,65.234736719975587,171.2231],[-121.61418019955541,65.2359141764841,167.5562],[-121.62168648479727,65.241212730772475,161.2397],[-121.62095057447942,65.243862007916675,163.9056],[-121.61800693320811,65.247394377442248,163.5077],[-121.61609356638175,65.251809839349221,163.9654],[-121.61859566146238,65.257697121891852,164.631],[-121.61874284352595,65.267999866341455,155.5],[-121.60608518605929,65.277125154282544,155.5],[-121.58076987112597,65.288310991113548,155.5],[-121.53970607539108,65.313626306046871,155.5],[-121.52381041252599,65.329227604784847,155.5],[-121.51188866537714,65.3510105501926,161.5007],[-121.52660687173373,65.355720376226714,160.737],[-121.54191380634458,65.357486560989486,167.9371],[-121.57341076794768,65.357192196862371,155.5],[-121.53308288253064,65.389866614973982,155.5],[-121.47524033154926,65.408705919110417,155.5],[-121.3548454035524,65.43225504928094,155.5],[-121.27389526859119,65.4652238315197,155.5],[-121.15556088948426,65.494365880105732,155.5],[-121.12833220772458,65.507906629953766,166.5157],[-121.14216732169977,65.513499548369282,168.4581],[-121.14879051456023,65.514088276623539,157.3261],[-121.12803784359745,65.5249797493274,155.5],[-121.08241140389205,65.526451569963086,155.5],[-120.95774819605178,65.567956911888643,155.5],[-120.90947247920218,65.572961102049874,155.5],[-120.87665087902701,65.5879736725336,155.5],[-120.83043571106734,65.601808786508769,155.5],[-120.71739988624877,65.617998813501032,155.5],[-120.38844797417913,65.583263846499477,155.5],[-120.39168597957757,65.571783645541359,155.5],[-120.38888952036983,65.562952721727413,155.5],[-120.38079450687371,65.5573598033119,155.5],[-120.36798966734348,65.555299254421982,155.5],[-120.3765262270303,65.54676269473515,155.5],[-120.3868289714799,65.54175850457392,155.5],[-120.40890628101479,65.535282493777032,155.5],[-120.38933106656053,65.530572667742916,155.5],[-120.35268273273263,65.513499548369282,155.5],[-120.33325470034194,65.507906629953766,155.5],[-120.34296871653729,65.492305331215789,155.5],[-120.34753136050783,65.4875955051817,155.5],[-120.34002507526597,65.480825130257671,155.5],[-120.36077774622876,65.436670511187913,158.4233],[-120.37328822163185,65.41635938641582,174.5717],[-120.39153879751402,65.395165169262356,155.5],[-120.41229146847679,65.378386414015836,155.5],[-120.53592440187211,65.305678474614325,169.7156],[-120.54387223330465,65.2962588225461,159.6831],[-120.55049542616511,65.280068795553859,155.5],[-120.55638270870776,65.271532235867056,155.5],[-120.56859881998372,65.263878768561625,157.6242],[-120.59818241476044,65.257991486019,163.3933],[-120.62114281667672,65.243862007916675,155.5],[-120.64675249573718,65.232381806958529,159.3482],[-120.66721080257282,65.217663600601952,158.7337],[-120.67427554162398,65.216486144093437,162.7734],[-120.68148746273872,65.216486144093437,164.4494],[-120.69002402242552,65.213836866949237,168.3577],[-120.69443948433251,65.209421405042264,169.5159],[-120.70371195433715,65.192642649795772,155.5],[-120.71828297863017,65.189110280270171,159.3029],[-120.76523405690767,65.185872274871741,171.5444],[-120.82911107249524,65.167621698989564,168.7532],[-120.8887198082394,65.141128927547726,162.5901],[-120.91756749269831,65.132003639606637,171.7515],[-120.98041423384092,65.121112166902776,174.968],[-121.00543518464711,65.104039047529113,155.5],[-121.01353019814323,65.082844830375649,155.5],[-120.99969508416805,65.070187172908987,155.5],[-120.9765875001882,65.059001336077984,155.5],[-120.95701228573395,65.041928216704349,155.5],[-121.02353857846572,65.017790358279541,193.5623],[-121.04267224672927,65.014552352881111,207.8317],[-121.05518272213237,65.01013689097411,199.5932],[-121.07387484420522,64.99100322271056,155.5],[-121.08358886040057,64.986587760803587,155.5],[-121.14305041408116,64.985704668422187,161.4788],[-121.15556088948426,64.981289206515214,158.8264],[-121.162772810599,64.980406114133814,159.4695],[-121.16924882139588,64.982172298896614,161.0103],[-121.17086782409511,64.99100322271056,172.8968],[-121.17616637838347,64.993946863981876,178.1096],[-121.20310069601604,64.998951054143134,176.8879],[-121.23135965222068,65.001011603033049,171.3568],[-121.24254548905168,64.997773597634591,168.1157],[-121.26476998065012,64.983644119532272,157.8876],[-121.27536708922685,64.980406114133814,155.5],[-121.29979931177878,64.984232847786529,171.3523],[-121.3087774176563,64.982761027150872,176.067],[-121.3139287898811,64.973047010955526,155.5],[-121.29317611891832,64.967454092540038,155.5],[-121.28596419780359,64.966865364285781,155.5],[-121.28596419780359,64.9598006252346,155.5],[-121.36691433276479,64.976873744608241,155.5],[-121.38899164229969,64.986587760803587,162.4972],[-121.38163253912138,64.993946863981876,182.7781],[-121.39738101992293,64.993063771600475,173.4942],[-121.40783094643611,64.985410304295073,167.1018],[-121.41710341644075,64.976873744608241,155.5],[-121.42961389184384,64.973047010955526,158.8391],[-121.44212436724695,64.971280826192753,165.6736],[-121.47803679075702,64.956562619836149,155.5],[-121.49908382584692,64.94331623411523,159.4984],[-121.50879784204227,64.92830366363151,155.5],[-121.50673729315234,64.910936180130761,155.5],[-121.49143035854149,64.890919419485812,155.5],[-121.50511829045311,64.884149044561781,155.5],[-121.39473174277875,64.841466246127681,155.5],[-121.36691433276479,64.821449485482731,155.5],[-121.34807502862837,64.815856567067215,155.5],[-121.33615328147954,64.81791711595713,155.5],[-121.31157387686405,64.827631132152476,155.5],[-121.29994649384236,64.826159311516818,155.5],[-121.28817192875708,64.821155121355588,155.5],[-121.25034613842067,64.810852376905984,155.5],[-121.22841601094936,64.807320007380412,155.5],[-121.20471969871525,64.809380556270327,155.5],[-121.18175929679899,64.814973474685814,162.831],[-121.16247844647185,64.822626941991246,162.4122],[-121.17145655234938,64.823804398499789,159.6877],[-121.19662468521912,64.829691681042419,156.9402],[-121.17086782409511,64.8461760721618,155.5],[-121.12774347947033,64.855890088357143,155.5],[-121.09698242818506,64.869725202332319,164.9434],[-121.10787390088893,64.898572886791214,155.5],[-121.08211703976491,64.899161615045472,155.5],[-121.07372766214166,64.898572886791214,155.5],[-121.07990930881142,64.904754533460988,155.5],[-121.03281104847036,64.904754533460988,157.3122],[-121.03281104847036,64.912113636639276,159.1639],[-121.038698331013,64.914468549656334,160.7793],[-121.05326935530601,64.925065658233081,155.5],[-121.00366899988433,64.937723315699742,155.5],[-120.91609567206265,64.939489500462514,155.5],[-120.90417392491382,64.942138777606715,155.5],[-120.87459033013708,64.956268255709034,155.5],[-120.86458194981461,64.963332994760179,155.5],[-120.85059965377584,64.9689259131757,155.5],[-120.81512877645649,64.970986462065611,155.5],[-120.80305984724409,64.976579380481127,155.5],[-120.77965789913712,64.984232847786529,155.5],[-120.66956571558987,64.986587760803587,155.5],[-120.55299752124574,65.021322727805114,160.8702],[-120.55123133648294,65.033980385271775,158.8319],[-120.53651313012637,65.0416338525772,155.5],[-120.47675721231863,65.054880238298125,155.5],[-120.45732917992794,65.062239341476442,161.1458],[-120.45306090008452,65.066949167510529,163.8871],[-120.44879262024112,65.07371954243456,155.5],[-120.44261097357136,65.080195553231448,155.5],[-120.4178843868923,65.086965928155479,155.5],[-120.38197196338223,65.105805232291914,155.5],[-120.34841445288922,65.114341791978745,155.5],[-120.29910846159467,65.144955661200441,155.5],[-120.26246012776679,65.158496411048475,155.5],[-120.18489518026757,65.175863894549252,157.0864],[-120.14824684643969,65.189404644397314,155.5],[-120.13102654500248,65.192348285668629,155.5],[-120.05581651052034,65.192642649795772,155.5],[-120.04536658400717,65.198824296465517,157.9614],[-120.01166189145059,65.241212730772475,163.7673],[-120.01946254081957,65.252987295857764,155.5],[-120.0065105192258,65.268588594595741,155.5],[-119.98502193794518,65.282423708570917,155.5],[-119.95043415300721,65.293020817147664,160.397],[-119.90348307472971,65.317747403826729,155.5],[-119.88817614011886,65.3298163330391,159.8502],[-119.89259160202583,65.338352892725936,155.5],[-119.88376067821189,65.3398247133616,155.5],[-119.85373553724446,65.336586707963136,155.5],[-119.84299124660416,65.340707805743,161.174],[-119.83209977390027,65.348361273048425,155.5],[-119.82076675500571,65.3527767349554,155.5],[-119.809139371984,65.347183816539882,155.5],[-119.79810071721657,65.3398247133616,155.5],[-119.78529587768634,65.337175436217422,155.5],[-119.77219667402898,65.3398247133616,155.5],[-119.74805881560418,65.354248555591056,155.5],[-119.73598988639179,65.352188006701112,155.5],[-119.72347941098869,65.346595088285625,155.5],[-119.7100858432042,65.343357082887167,155.5],[-119.61647805077632,65.348361273048425,155.5],[-119.47724381864305,65.322457229860817,156.5608],[-119.48990147610971,65.338352892725936,160.2984],[-119.5106541470725,65.358369653370886,161.9491],[-119.52316462247559,65.378092049888721,155.5],[-119.51080132913606,65.3919271638639,160.0392],[-119.52596108168333,65.404290457203416,164.0399],[-119.55009894010814,65.428428315628224,160.0143],[-119.61736114315772,65.469639293426667,170.7413],[-119.63119625713291,65.4737603912065,173.9482],[-119.73672579670961,65.4737603912065,160.5345],[-119.81429074420882,65.486123684546044,160.4815],[-119.8298920429468,65.491422238834417,155.5],[-119.84667079819329,65.5146770048778,164.8461],[-119.85977000185065,65.524391021073143,163.07],[-119.89995070520413,65.532633216632831,164.3051],[-119.94955106062582,65.56265835760027,162.9535],[-120.00827670398857,65.576787835702589,155.5],[-120.01225061970486,65.580025841101047,155.5],[-120.01828508431106,65.594744047457624,165.0949],[-120.02167027177308,65.600336965873112,165.5275],[-120.10733023276839,65.624180460170777,155.5],[-120.08981556720406,65.636249389383181,155.5],[-120.06611925496995,65.635660661128924,155.5],[-119.92232237886614,65.6103453461956,179.1864],[-119.94336941395605,65.624180460170777,159.1768],[-119.92364701743823,65.6391930306545,155.5],[-119.89877324869559,65.647435226214185,155.5],[-119.84652361612973,65.6512619598669,167.0153],[-119.84990880359175,65.655677421773873,155.5],[-119.85196935248166,65.658915427172332,155.5],[-119.84946725740105,65.661859068443647,161.458],[-119.8397532412057,65.665097073842077,162.3241],[-119.84475743136693,65.668629443367678,155.5],[-119.85402990137159,65.6792265519444,155.5],[-119.71715058225536,65.6836420138514,155.5],[-119.64944683301508,65.693944758301,155.5],[-119.58660009187247,65.7133727906917,169.1947],[-119.61309286331431,65.729562817683927,168.1736],[-119.68064943049103,65.718965709107181,165.2639],[-119.71067457145847,65.727796632921127,155.5],[-119.7062591095515,65.728679725302527,155.5],[-119.7031682862166,65.730151545938185,159.0127],[-119.69639791129258,65.7339782795909,166.1926],[-119.74997218243054,65.741631746896331,159.7128],[-119.76469038878713,65.748107757693219,155.5],[-119.75041372862124,65.7628259640498,155.5],[-119.74202435099798,65.766947061829654,155.5],[-119.73024978591272,65.768713246592426,155.5],[-119.72186040828947,65.772539980245142,155.5],[-119.70934993288637,65.790201827873034,155.5],[-119.7031682862166,65.796089110415693,155.5],[-119.68815571573289,65.79667783866995,155.5],[-119.65607002587554,65.789024371364519,155.5],[-119.6329624418957,65.797560931051351,155.5],[-119.30533516839816,65.789024371364519,155.5],[-119.27869521489274,65.791968012635834,155.5],[-119.22467939756407,65.8055087624839,155.5],[-119.19553734897804,65.809629860263726,155.5],[-118.90073167565568,65.789024371364519,155.5],[-118.8368546600681,65.775189257389343,155.5]],
[[-118.54646444865271,65.71307842656455,155.5],[-118.54042998404651,65.717788252598666,155.5],[-118.53307088086822,65.719848801488581,155.5],[-118.52453432118139,65.720143165615724,180.2587],[-118.50451756053644,65.738982469752131,155.5],[-118.45447565892405,65.757527409761423,155.5],[-118.41503086588841,65.7843145453304,155.5],[-118.31759633980784,65.8252311590017,157.4132],[-118.2884542912218,65.829352256781561,155.5],[-118.23002301198616,65.830235349162962,155.5],[-118.20882879483268,65.824936794874588,202.739],[-118.14657078194433,65.798149659305608,155.5],[-118.13347157828699,65.785786365966061,161.3123],[-118.1364152195583,65.771362523736627,155.5],[-118.14421586892729,65.766947061829654,155.5],[-118.16761781703426,65.768713246592426,189.912],[-118.18366066196293,65.767535790083912,204.5872],[-118.19352186022184,65.764297784685454,189.8328],[-118.20220560197222,65.759882322778481,178.9353],[-118.21545198769314,65.7551724967444,155.5],[-118.25210032152104,65.751051398964535,295.8813],[-118.26387488660632,65.748107757693219,253.6746],[-118.27579663375514,65.741337382769188,189.3529],[-118.29934576392567,65.723969899268411,231.0252],[-118.49760000354885,65.688351839885485,295.1501],[-118.55191018500464,65.706013687513376,155.5],[-118.54646444865271,65.71307842656455,155.5]],
[[-119.45001513688337,66.837549392207535,155.5],[-119.41778226496245,66.837255028080392,155.5],[-119.40203378416091,66.839315576970307,155.5],[-119.38731557780432,66.844908495385823,162.1665],[-119.43382510989113,66.851384506182711,155.5],[-119.45001513688337,66.8510901420556,155.5],[-119.45001513688337,66.8578605169796,155.5],[-119.43014555830197,66.851678870309854,155.5],[-119.40659642813145,66.850795777928454,163.9785],[-119.38584375716866,66.856977424598227,163.7474],[-119.37421637414697,66.8716956309548,170.3988],[-119.38996485494852,66.865219620157916,162.8894],[-119.42499418607719,66.862864707140858,163.3961],[-119.44250885164152,66.8578605169796,155.5],[-119.4377990256074,66.8622759788866,160.3326],[-119.42205054480587,66.8716956309548,155.5],[-119.35022569778573,66.899071494778042,155.5],[-119.27133611171445,66.905253141447815,155.5],[-119.19068034088036,66.896716581760984,159.6295],[-119.11355693957188,66.878466005878835,155.5],[-119.13327933608969,66.8716956309548,177.4599],[-119.21790902264004,66.861981614759458,191.6109],[-119.27118892965089,66.844908495385823,172.4994],[-119.36038126017178,66.832839566173419,170.894],[-119.45001513688337,66.8307790172835,164.02],[-119.45001513688337,66.837549392207535,155.5]],
[[-122.37349246549155,66.297096854793779,171.4514],[-122.44620040489306,66.290915208124,158.1999],[-122.58072481099224,66.295625034158121,155.5],[-122.56674251495349,66.299451767810837,155.5],[-122.55364331129613,66.301512316700752,155.5],[-122.54378211303722,66.305927778607725,155.5],[-122.53980819732094,66.316819251311614,155.5],[-122.49992185809459,66.33153745766819,155.5],[-122.43295401917214,66.34566693577051,155.5],[-122.36966573183884,66.346255664024767,155.5],[-122.3418483218249,66.320057256710044,155.5],[-122.37349246549155,66.297096854793779,171.4514]]]}}