{"type":"Feature","properties":{"GID_3":"CAN.2.1.2_1","GID_0":"CAN","country":"Canada","GID_1":"CAN.2_1","province":"BritishColumbia","NL_NAME_1":"NA","GID_2":"CAN.2.1_1","county":"Alberni-Clayoquot","NL_NAME_2":"NA","city":"Alberni-ClayoquotA","VARNAME_3":"NA","NL_NAME_3":"NA","TYPE_3":"RegionalDistrictElectoralArea","ENGTYPE_3":"RegionalDistrictElectoralArea","CC_3":"NA","HASC_3":"NA","name":"Alberni-Clayoquot_A.city"},
"geometry":{"type": "MultiPolygon","coordinates": [[[[-125.1539,48.7478,0.0748],[-125.1536,48.75,2.1297],[-125.1561,48.7511,0.0],[-125.1572,48.7483,0.0],[-125.1558,48.7467,0.0],[-125.1539,48.7478,0.0748]]],
[[[-125.1672,48.7747,0.0],[-125.1694,48.7767,0.0],[-125.1719,48.7744,0.0],[-125.1689,48.7725,0.0],[-125.1672,48.7747,0.0]]],
[[[-125.2294,48.8178,0.0],[-125.2306,48.8198,0.0],[-125.2347,48.8169,0.0],[-125.2312,48.8162,0.0],[-125.2294,48.8178,0.0]]],
[[[-125.2038,48.8338,10.9914],[-125.2054,48.8331,20.5958],[-125.213,48.8368,0.0],[-125.2158,48.8361,0.0],[-125.2175,48.8347,0.0],[-125.2161,48.8333,0.3448],[-125.2189,48.8317,0.0],[-125.2189,48.8286,21.1195],[-125.2227,48.8288,0.0],[-125.2228,48.825,55.4541],[-125.2247,48.8267,0.0],[-125.2264,48.8258,0.0],[-125.2251,48.8216,0.0],[-125.2202,48.8198,0.0],[-125.2186,48.8219,0.0],[-125.2133,48.8231,0.0],[-125.2153,48.8244,35.5602],[-125.2125,48.8247,0.0],[-125.2098,48.8276,7.197],[-125.2042,48.8283,0.0],[-125.201,48.8316,0.0],[-125.1978,48.8286,0.0],[-125.1953,48.8308,0.0],[-125.1982,48.8354,17.887],[-125.2047,48.8358,0.0],[-125.2038,48.8338,10.9914]]],
[[[-125.2392,48.8311,0.0],[-125.2411,48.8328,0.0],[-125.2458,48.8302,15.8734],[-125.2503,48.8313,0.0],[-125.2527,48.8296,0.0],[-125.2515,48.8263,0.0],[-125.2485,48.8258,12.9338],[-125.2389,48.8294,0.0],[-125.2392,48.8311,0.0]]],
[[[-125.206,48.8404,6.9367],[-125.2083,48.8422,0.0],[-125.2103,48.8411,0.3475],[-125.2074,48.8384,0.0],[-125.2055,48.839,6.9367],[-125.206,48.8404,6.9367]]],
[[[-125.1986,48.8503,0.0],[-125.201,48.8513,0.0],[-125.2066,48.8499,0.0],[-125.2087,48.8469,0.0],[-125.2033,48.8413,0.0],[-125.193,48.8347,0.0],[-125.1931,48.8308,0.0],[-125.1898,48.8295,1.4862],[-125.1886,48.8303,1.4862],[-125.1897,48.8328,4.2756],[-125.185,48.8336,0.0],[-125.1861,48.836,2.9558],[-125.1824,48.8473,0.0],[-125.189,48.8496,0.0],[-125.2006,48.8486,26.5136],[-125.1986,48.8503,0.0]]],
[[[-125.166,48.8528,1.5184],[-125.1697,48.8565,0.0],[-125.1725,48.8551,8.8766],[-125.1745,48.8562,0.0],[-125.1785,48.8546,0.2572],[-125.1805,48.8501,0.0],[-125.1754,48.8473,19.5013],[-125.1664,48.8465,0.0],[-125.1618,48.8488,12.9173],[-125.1635,48.8523,0.0],[-125.166,48.8528,1.5184]]],
[[[-125.1681,48.8649,0.0],[-125.1637,48.8669,4.8048],[-125.1642,48.8713,10.8032],[-125.1666,48.8737,8.531],[-125.1696,48.8692,0.0],[-125.1738,48.8667,0.0],[-125.1681,48.8649,0.0]]],
[[[-125.1243,48.8981,3.8032],[-125.134,48.8977,9.268],[-125.1371,48.8923,0.0],[-125.1399,48.8919,18.5724],[-125.1421,48.8896,6.8741],[-125.1417,48.8857,0.7584],[-125.1449,48.8823,0.0],[-125.15,48.8849,4.3337],[-125.1588,48.8823,0.0],[-125.1598,48.8795,0.0],[-125.1631,48.8774,0.5529],[-125.1617,48.8733,0.0],[-125.1595,48.8725,1.2432],[-125.1559,48.875,0.0],[-125.1511,48.8748,3.081],[-125.1485,48.8776,6.3404],[-125.1398,48.8813,2.2386],[-125.1307,48.881,5.8071],[-125.1251,48.8851,0.0],[-125.1216,48.8846,3.1021],[-125.1213,48.8874,14.5505],[-125.1142,48.8925,2.7456],[-125.1183,48.8941,5.5155],[-125.1211,48.898,0.0],[-125.1243,48.8981,3.8032]]],
[[[-125.1358,48.9162,0.0],[-125.1342,48.9148,0.0],[-125.1279,48.9182,4.0282],[-125.1322,48.9185,42.3707],[-125.1358,48.9162,0.0]]],
[[[-125.11,48.9286,0.0],[-125.1117,48.93,2.9232],[-125.1136,48.9294,0.0],[-125.1119,48.9278,0.0],[-125.11,48.9286,0.0]]],
[[[-125.1063,48.9342,10.7062],[-125.1038,48.9365,1.0506],[-125.1196,48.9317,0.0],[-125.1165,48.9303,0.0],[-125.1063,48.9342,10.7062]]],
[[[-125.1002,48.9346,0.0],[-125.0986,48.9344,0.0],[-125.0954,48.9362,3.9617],[-125.0988,48.9364,4.1782],[-125.1002,48.9346,0.0]]],
[[[-125.0939,48.9425,0.0],[-125.0919,48.9426,4.4309],[-125.0923,48.9441,0.0],[-125.0942,48.9433,0.0],[-125.0939,48.9425,0.0]]],
[[[-125.1172,48.8542,0.0],[-125.1211,48.8547,0.0],[-125.1244,48.8519,0.0],[-125.1197,48.8508,15.8538],[-125.1161,48.8533,1.2782],[-125.1172,48.8542,0.0]]],
[[[-125.1158,48.9113,0.0],[-125.1109,48.9111,0.0],[-125.1143,48.9139,0.0],[-125.1164,48.913,0.0],[-125.1158,48.9113,0.0]]],
[[[-125.0585,48.9534,38.5593],[-125.0655,48.9541,3.3727],[-125.0708,48.9489,0.0],[-125.0816,48.9468,0.0],[-125.0817,48.9446,19.0302],[-125.089,48.9393,10.3148],[-125.0857,48.9371,0.0],[-125.0981,48.9333,0.0],[-125.1082,48.9247,0.0],[-125.1064,48.9211,0.0],[-125.1014,48.9189,12.2367],[-125.1033,48.9181,47.0103],[-125.108,48.9197,7.7358],[-125.1087,48.9176,9.1979],[-125.1131,48.9151,0.0],[-125.1124,48.9136,0.0],[-125.1082,48.9135,0.0],[-125.1069,48.9087,26.0589],[-125.1212,48.904,0.0],[-125.1176,48.9016,29.476],[-125.1166,48.8958,4.7764],[-125.113,48.8933,0.0],[-125.1068,48.8931,0.0],[-125.0997,48.8969,7.9899],[-125.0952,48.8954,0.0],[-125.0856,48.897,0.0],[-125.0805,48.9014,0.0],[-125.0833,48.903,28.9696],[-125.0786,48.9056,0.0],[-125.0811,48.9067,6.1273],[-125.0803,48.9078,8.3401],[-125.0727,48.9069,0.0],[-125.067,48.9093,20.2916],[-125.0623,48.915,0.0],[-125.0624,48.9178,0.0],[-125.057,48.9207,4.6312],[-125.0585,48.9254,37.8213],[-125.0552,48.9315,0.0],[-125.055,48.9369,0.0],[-125.0497,48.9382,0.0],[-125.0455,48.9415,0.0],[-125.0501,48.9526,18.0704],[-125.0585,48.9534,38.5593]]],
[[[-125.1225,48.9242,0.0],[-125.1195,48.9253,0.0],[-125.1193,48.927,0.7346],[-125.1256,48.9247,0.0],[-125.1225,48.9242,0.0]]],
[[[-125.0767,48.8853,0.4179],[-125.0778,48.8847,0.0],[-125.0778,48.8842,0.0],[-125.0758,48.8842,0.4179],[-125.0767,48.8853,0.4179]]],
[[[-125.0286,48.8925,6.1951],[-125.0303,48.89,0.0],[-125.0236,48.8922,29.1621],[-125.0206,48.8958,0.0],[-125.0222,48.8956,0.0],[-125.0286,48.8925,6.1951]]],
[[[-124.6352,49.0863,972.1754],[-124.6296,49.0862,985.0099],[-124.629,49.0955,931.8997],[-124.633,49.0976,1006.4564],[-124.6349,49.1015,960.4088],[-124.6328,49.1051,1079.7451],[-124.627,49.1086,1228.9987],[-124.6293,49.117,1045.9596],[-124.6442,49.1152,829.6699],[-124.6461,49.1214,1043.7465],[-124.6578,49.1195,754.4004],[-124.6607,49.1256,1079.3495],[-124.6691,49.1243,814.7109],[-124.6704,49.1282,850.4428],[-124.6797,49.127,586.1755],[-124.6819,49.1335,677.1711],[-124.7153,49.1296,803.1385],[-124.7148,49.1264,658.9082],[-124.7255,49.1255,625.9161],[-124.7284,49.1386,762.5382],[-124.7448,49.137,526.3817],[-124.7424,49.1248,398.5665],[-124.7406,49.125,376.4509],[-124.7391,49.1201,358.3942],[-124.7475,49.1193,400.3372],[-124.7465,49.1156,316.6741],[-124.7614,49.1146,265.6783],[-124.7934,49.1405,0.0],[-124.7977,49.1318,21.7877],[-124.8014,49.1303,0.0],[-124.8053,49.1216,7.1201],[-124.8115,49.1175,0.0],[-124.8147,49.1128,20.5038],[-124.8112,49.108,81.2535],[-124.8199,49.102,0.0],[-124.8202,49.0997,0.0],[-124.815,49.095,25.2654],[-124.8208,49.0914,0.0],[-124.8196,49.089,61.9162],[-124.8205,49.0868,18.5069],[-124.8367,49.0683,0.0],[-124.8364,49.0636,0.0],[-124.8408,49.0592,0.0],[-124.8386,49.0558,1.5381],[-124.83839999999999,49.0443,0.0],[-124.8427,49.0412,7.3518],[-124.8481,49.0325,5.5946],[-124.8472,49.0292,0.0],[-124.8531,49.0252,22.4549],[-124.8538,49.0215,53.0657],[-124.8571,49.0181,0.0],[-124.8568,49.0121,0.0],[-124.8603,49.004,0.0],[-124.8703,48.9983,49.9659],[-124.8822,48.995,0.0],[-124.8856,48.9906,0.0],[-124.8919,48.9892,0.0],[-124.8947,48.985,8.2596],[-124.8936,48.9808,64.8155],[-124.9062,48.9732,32.1875],[-124.9119,48.9748,9.5689],[-124.9153,48.9733,42.395],[-124.9275,48.9756,0.0],[-124.94,48.9753,49.8065],[-124.9464,48.9772,0.0],[-124.9503,48.9744,15.992],[-124.9561,48.9753,60.1271],[-124.9642,48.9733,22.7418],[-124.9822,48.9644,0.0],[-124.9819,48.9599,22.2112],[-124.9892,48.9567,0.0],[-124.9767,48.9522,21.5354],[-124.9869,48.9508,0.0],[-124.9854,48.9465,67.0062],[-124.9864,48.9397,0.0],[-124.9828,48.9372,34.4664],[-124.9839,48.9363,18.456],[-124.9972,48.94,40.0355],[-125.0039,48.9442,27.6814],[-125.0039,48.9472,0.0],[-125.0183,48.9439,6.4778],[-125.0205,48.9397,22.0766],[-125.0236,48.9383,25.0824],[-125.033,48.9379,0.0],[-125.0319,48.936,0.0],[-125.0286,48.9356,18.3456],[-125.032,48.9345,0.0],[-125.0319,48.9323,0.0],[-125.0281,48.93,0.0],[-125.0214,48.9289,10.3787],[-125.025,48.9264,18.5049],[-125.0221,48.9209,0.0],[-125.0156,48.9215,0.0],[-125.0145,48.9173,8.365],[-125.0108,48.9173,6.929],[-125.0074,48.9194,17.6857],[-125.0069,48.9156,0.0],[-125.0011,48.9156,27.0978],[-125.0015,48.9082,64.7877],[-124.9834,48.9085,270.7571],[-124.9839,48.8873,17.4928],[-125.0012,48.8874,47.2272],[-125.0015,48.8945,32.4254],[-125.0184,48.8944,30.2368],[-125.0293,48.8893,7.8962],[-125.0322,48.8839,0.0],[-125.0375,48.8864,0.0],[-125.0406,48.8836,13.9932],[-125.0449,48.8851,2.2674],[-125.0477,48.8838,10.3867],[-125.0475,48.8786,11.3814],[-125.0489,48.8772,0.0],[-125.0533,48.8769,14.2585],[-125.0492,48.8817,4.9561],[-125.0494,48.8839,0.0],[-125.0568,48.8831,25.7041],[-125.0685,48.8851,25.4999],[-125.0745,48.8846,38.2521],[-125.0742,48.8812,9.7089],[-125.0863,48.8769,32.1237],[-125.0903,48.878,5.458],[-125.091,48.8744,24.3189],[-125.0981,48.8673,1.6422],[-125.1072,48.8639,6.299],[-125.1053,48.8617,25.7434],[-125.1118,48.8525,1.7349],[-125.1197,48.8494,14.6747],[-125.1243,48.85,6.4006],[-125.1298,48.8467,0.0],[-125.1292,48.8448,22.0851],[-125.1344,48.8406,33.5659],[-125.1347,48.8386,0.0],[-125.1328,48.8364,0.0],[-125.1374,48.835,0.0],[-125.1375,48.8242,0.0],[-125.1403,48.8254,2.9644],[-125.1385,48.8349,0.0],[-125.1387,48.8376,3.2033],[-125.1413,48.8397,2.2241],[-125.1448,48.8369,0.0],[-125.1433,48.8356,8.2977],[-125.1442,48.8347,33.7524],[-125.1492,48.8339,0.0],[-125.1561,48.8264,0.0],[-125.155,48.8256,3.1388],[-125.1602,48.8247,2.6125],[-125.162,48.8208,2.3221],[-125.1619,48.8165,20.678],[-125.1644,48.8143,33.2044],[-125.1619,48.8139,3.3612],[-125.162,48.807,24.0157],[-125.1817,48.807,13.8042],[-125.1804,48.8041,0.0],[-125.1836,48.8019,5.202],[-125.1883,48.8017,0.0],[-125.1892,48.8,43.6217],[-125.1931,48.8008,0.0],[-125.1914,48.7978,13.1303],[-125.1925,48.7964,49.6478],[-125.1947,48.7983,0.0],[-125.201,48.7991,0.0],[-125.2113,48.7977,0.0],[-125.2133,48.7958,0.0],[-125.2106,48.7931,0.0],[-125.2181,48.7894,0.0],[-125.2207,48.7851,0.0],[-125.2139,48.7799,0.0],[-125.2076,48.781,17.5818],[-125.2017,48.785,0.0],[-125.1989,48.7807,4.9586],[-125.1912,48.7841,15.5861],[-125.1866,48.7813,0.0],[-125.1844,48.7822,0.0],[-125.1853,48.7839,0.0],[-125.1836,48.7858,1.2404],[-125.1769,48.7875,8.6026],[-125.1667,48.7839,23.196],[-125.1644,48.7814,11.9474],[-125.1669,48.7781,1.0057],[-125.1597,48.7761,10.7441],[-125.1611,48.7714,8.95],[-125.1575,48.7687,0.0],[-125.1542,48.7704,0.0],[-125.1544,48.7756,22.1321],[-125.1472,48.7756,5.3732],[-125.1455,48.7793,4.4659],[-125.1414,48.7817,0.0],[-125.1419,48.7875,13.158],[-125.1297,48.7947,0.0],[-125.1287,48.8069,51.4987],[-125.1169,48.8069,7.699],[-125.1174,48.7931,10.8634],[-125.1153,48.7911,20.2021],[-125.1169,48.7875,8.0116],[-125.1342,48.7733,1.8729],[-125.1327,48.7625,0.0],[-125.1268,48.7599,0.0],[-125.1282,48.7577,0.0],[-125.1325,48.7581,0.0],[-125.1331,48.7567,0.0],[-125.1303,48.755,8.423],[-125.1314,48.7533,0.0],[-125.1304,48.748,0.0],[-125.1256,48.7425,16.1863],[-125.1222,48.7411,3.5095],[-125.1222,48.7392,0.1431],[-125.1192,48.74,4.7518],[-125.1175,48.7383,70.8724],[-125.12,48.7378,0.0],[-125.1172,48.7364,35.5252],[-125.118,48.7304,0.0],[-125.1078,48.7269,0.0],[-125.1037,48.7224,0.0],[-125.0944,48.7203,0.0],[-125.09,48.7177,0.0],[-125.0874,48.7209,31.6563],[-125.0834,48.7206,26.04],[-125.0792,48.7234,0.9087],[-125.0703,48.7214,0.0],[-125.0644,48.7221,62.4985],[-125.0208,48.7138,82.7096],[-125.0105,48.7097,18.4278],[-125.0047,48.7053,0.0],[-124.9944,48.7058,22.4965],[-124.9726,48.7007,51.8997],[-124.9536,48.7,1.8355],[-124.9356,48.6918,0.0],[-124.9286,48.6911,24.3016],[-124.9197,48.6871,48.7547],[-124.9114,48.6807,1.6634],[-124.9077,48.6815,13.0889],[-124.9058,48.6794,0.0],[-124.902,48.681,14.2118],[-124.8922,48.677,0.9991],[-124.8833,48.6753,0.0],[-124.8798,48.6767,2.3456],[-124.8739,48.6739,0.0],[-124.8711,48.6761,10.8515],[-124.8664,48.6714,0.0],[-124.86279999999999,48.67,0.6551],[-124.8578,48.6689,1.0843],[-124.8572,48.6703,1.0843],[-124.8548,48.6683,0.0],[-124.8503,48.6706,34.9128],[-124.8486,48.6689,28.572],[-124.85,48.6667,0.0],[-124.8434,48.6661,9.9456],[-124.848,48.6684,37.9317],[-124.851,48.6827,46.242],[-124.8456,48.6862,15.6265],[-124.8203,48.6841,0.0],[-124.8125,48.6857,0.0],[-124.8024,48.6927,0.0],[-124.7942,48.6949,29.4433],[-124.7896,48.6998,12.4362],[-124.7845,48.7014,43.888],[-124.7847,48.7071,0.0],[-124.7744,48.726,0.0],[-124.7664,48.7319,0.0],[-124.7565,48.7341,0.0],[-124.7533,48.7326,0.0],[-124.7485,48.7331,0.0],[-124.7455,48.737,0.0],[-124.7374,48.7406,0.0],[-124.7322,48.7498,0.0],[-124.734,48.7594,0.0],[-124.709,48.7833,0.0],[-124.6846,48.7958,0.0],[-124.6793,48.8098,0.0],[-124.67,48.8114,0.0],[-124.6659,48.8142,0.0],[-124.6705,48.8166,0.0],[-124.6707,48.8207,3.5655],[-124.6816,48.8242,17.153],[-124.6803,48.8281,54.5928],[-124.6704,48.8314,4.1465],[-124.6767,48.8348,93.7059],[-124.6717,48.8387,16.7505],[-124.6589,48.8389,27.855],[-124.6545,48.842,23.8411],[-124.652,48.8473,20.3245],[-124.6574,48.8549,33.1956],[-124.6568,48.8572,21.9867],[-124.6545,48.8582,18.208],[-124.653,48.8646,46.2861],[-124.6492,48.8665,36.864],[-124.6437,48.8664,20.2729],[-124.6398,48.8632,21.44],[-124.6363,48.864,23.9167],[-124.6249,48.8731,37.1374],[-124.6088,48.879,34.7614],[-124.6006,48.8807,59.931399999999996],[-124.595,48.8781,36.8054],[-124.5898,48.8798,30.5532],[-124.5869,48.8851,37.9447],[-124.5824,48.8856,77.8212],[-124.5805,48.8899,36.7954],[-124.5726,48.8905,34.1684],[-124.5673,48.8993,57.0871],[-124.5607,48.8973,115.5172],[-124.5565,48.8979,133.9249],[-124.5505,48.903,71.7531],[-124.5465,48.9165,108.0523],[-124.5505,48.9231,114.1351],[-124.5466,48.9302,100.026],[-124.5396,48.9344,98.1455],[-124.638,49.0144,662.7335],[-124.6332,49.014,590.3958],[-124.6256,49.0161,684.9701],[-124.6256,49.0142,584.3602],[-124.6191,49.0151,699.791],[-124.6186,49.0124,567.2035],[-124.6159,49.0103,437.2602],[-124.6066,49.0102,512.4448],[-124.6054,49.011,693.2703],[-124.6072,49.0141,824.0352],[-124.6016,49.0146,633.9185],[-124.6015,49.0174,579.9244],[-124.605,49.0176,675.6661],[-124.6048,49.02,633.7939],[-124.6024,49.02,527.2159],[-124.6032,49.0258,351.9786],[-124.6059,49.0262,518.5515],[-124.6056,49.035,309.1376],[-124.6109,49.0352,671.4249],[-124.6112,49.0377,608.4786],[-124.6137,49.0375,677.1033],[-124.6154,49.0482,487.8988],[-124.6242,49.049,691.4832],[-124.6245,49.0517,602.8484],[-124.6302,49.0516,713.4767],[-124.6298,49.0596,722.4402],[-124.628,49.0598,678.0312],[-124.6277,49.0615,636.7852],[-124.6298,49.0615,679.9141],[-124.633,49.0701,585.5324],[-124.6387,49.072,629.0676],[-124.6385,49.0757,456.2107],[-124.6356,49.0755,452.7393],[-124.6352,49.0863,972.1754]],
[[-125.1026,48.8373,60.1257],[-125.1029,48.8352,71.6508],[-125.106,48.8354,55.6889],[-125.106,48.8375,20.8424],[-125.1026,48.8373,60.1257]]],
[[[-125.0375,48.9073,6.5631],[-125.0356,48.9083,0.0],[-125.0375,48.9096,2.8364],[-125.0394,48.9081,0.0],[-125.0375,48.9073,6.5631]]],
[[[-125.0364,48.9106,0.0],[-125.0353,48.9097,0.0],[-125.0331,48.9122,0.0],[-125.035,48.9125,0.0],[-125.0364,48.9106,0.0]]],
[[[-125.0281,48.9286,47.2089],[-125.0336,48.9294,8.8404],[-125.0358,48.9283,0.0],[-125.0325,48.9244,13.8096],[-125.0325,48.9203,0.0],[-125.0289,48.9186,0.0],[-125.0261,48.9203,0.0],[-125.0272,48.9219,0.0],[-125.0244,48.9233,0.0],[-125.0269,48.9264,19.4167],[-125.0253,48.9281,19.9935],[-125.0281,48.9286,47.2089]]],
[[[-125.0286,48.9708,0.0],[-125.0308,48.9697,0.0],[-125.031,48.9692,0.0],[-125.0264,48.9697,0.0],[-125.0286,48.9708,0.0]]],
[[[-125.0336,48.9708,0.0],[-125.0353,48.9706,4.7863],[-125.0367,48.9692,2.892],[-125.0339,48.9692,11.9738],[-125.0336,48.9708,0.0]]],
[[[-124.9719,48.9819,0.0],[-124.9728,48.9836,0.4945],[-124.9744,48.9828,0.0],[-124.9736,48.9819,0.0],[-124.9719,48.9819,0.0]]],
[[[-124.9875,48.9894,9.2879],[-124.9926,48.9918,28.7868],[-124.9958,48.9898,0.0],[-124.9886,48.9869,0.0],[-124.9861,48.9878,0.0],[-124.9875,48.9894,9.2879]]],
[[[-124.8117,49.1408,12.2015],[-124.8117,49.1462,48.0332],[-124.82,49.1462,254.1589],[-124.8255,49.1527,446.5529],[-124.841,49.1526,480.0426],[-124.841,49.1454,434.4245],[-124.8902,49.1457,685.2083],[-124.8901,49.1326,882.5967],[-124.9002,49.1329,535.9371],[-124.9017,49.1524,703.9871],[-124.9181,49.1523,668.7679],[-124.9182,49.1493,699.4923],[-124.9954,49.1503,146.6156],[-125.0,49.1535,181.5234],[-125.0004,49.145,97.5],[-125.0122,49.1528,97.5],[-125.0274,49.1602,97.5],[-125.0307,49.1637,97.5],[-125.041,49.1669,97.5],[-125.0409,49.1426,1059.8701],[-125.06,49.145,736.5563],[-125.0687,49.1438,863.9727],[-125.0723,49.145,903.2316],[-125.0724,49.1528,597.8314],[-125.0791,49.1625,400.1674],[-125.087,49.166,702.8064],[-125.1054,49.1698,1061.9421],[-125.1209,49.1829,1043.4187],[-125.1309,49.1874,946.0933],[-125.144,49.19,814.2422],[-125.1487,49.1945,879.6265],[-125.1563,49.1973,1050.8215],[-125.1645,49.1956,1085.9249],[-125.1643,49.192,932.9742],[-125.1679,49.1866,646.6624],[-125.1723,49.184,890.9715],[-125.19,49.188,1126.5938],[-125.1957,49.188,1228.1355],[-125.2004,49.1844,1252.5032],[-125.2032,49.1841,1214.4866],[-125.2067,49.1876,1125.4991],[-125.2173,49.193,961.7449],[-125.2272,49.1928,1233.9369],[-125.2281,49.184,1200.322],[-125.2321,49.1796,1169.1807],[-125.2115,49.1618,933.6531],[-125.21,49.1583,933.7419],[-125.2151,49.15,679.909],[-125.214,49.1472,680.5216],[-125.1974,49.1394,679.8609],[-125.1966,49.1298,1239.4355],[-125.1828,49.1293,1149.4208],[-125.168,49.1209,1218.3903],[-125.1631,49.1207,1210.6848],[-125.1607,49.1183,1295.8302],[-125.1425,49.117,1006.3802],[-125.1338,49.1102,1109.4236],[-125.1321,49.0998,842.4232],[-125.1184,49.1004,782.669],[-125.1137,49.099,920.6687],[-125.1121,49.0942,1026.5913],[-125.1087,49.0938,815.4918],[-125.1077,49.0536,145.3016],[-125.1423,49.0545,75.7153],[-125.1384,49.0485,13.4074],[-125.1373,49.0441,27.0001],[-125.1389,49.0434,4.4912],[-125.1259,49.0337,275.0999],[-125.1147,49.017,632.8995],[-125.1078,48.973,9.308],[-125.1025,48.9744,0.0],[-125.0957,48.9728,10.1258],[-125.0864,48.9753,0.0],[-125.0675,48.9897,34.6694],[-125.0606,48.9908,15.9738],[-125.0497,48.9978,12.5526],[-125.0452,48.9937,10.6546],[-125.0456,48.9912,15.0845],[-125.0434,48.9898,1.0],[-125.0407,48.9914,1.0],[-125.0351,48.9909,18.5019],[-125.0267,48.9942,14.4604],[-125.0256,48.9933,2.0],[-125.0267,48.9922,2.0],[-125.0369,48.9881,8.6671],[-125.0682,48.9855,0.5],[-125.0746,48.9805,28.214],[-125.0756,48.9781,8.3905],[-125.0772,48.9786,12.9778],[-125.0831,48.9758,8.22],[-125.0869,48.9717,0.0],[-125.084,48.9723,6.5698],[-125.0803,48.9708,22.4053],[-125.0821,48.9675,8.8184],[-125.0847,48.9664,0.0],[-125.0839,48.9658,0.0],[-125.0661,48.962,0.0],[-125.0581,48.9669,0.0],[-125.0487,48.9683,11.7411],[-125.0447,48.9786,0.0],[-125.0417,48.98,0.0],[-125.0378,48.9781,4.7072],[-125.0364,48.9814,2.5127],[-125.0328,48.9831,1.5778],[-125.0378,48.9753,0.0],[-125.0361,48.9733,0.0],[-125.0306,48.9744,33.7662],[-125.031,48.9772,0.0],[-125.0292,48.9766,0.0],[-125.0247,48.9793,13.5427],[-125.0183,48.9745,0.0],[-125.0308,48.9605,0.0],[-125.0327,48.9567,0.0],[-125.0314,48.9548,0.0],[-125.0275,48.9558,39.435],[-125.0217,48.9619,0.0],[-125.0172,48.9614,0.0],[-125.0019,48.9658,5.7705],[-125.0011,48.9683,2.7573],[-124.9964,48.9717,0.0],[-124.9978,48.9744,16.37],[-124.9933,48.9772,0.0],[-124.998,48.9797,23.2554],[-124.9973,48.9818,16.5904],[-125.0031,48.9906,4.9181],[-125.0133,49.0,19.1932],[-125.0377,49.0076,0.0],[-125.0402,49.0108,13.2534],[-125.0475,49.0128,0.0],[-125.0495,49.0167,5.8955],[-125.0468,49.0191,65.6321],[-125.0582,49.0195,39.6407],[-125.0573,49.0318,86.1798],[-125.0298,49.0307,117.8013],[-125.03,49.0266,31.0323],[-125.0255,49.0266,0.0],[-125.0244,49.0244,0.0],[-125.0287,49.02,25.9161],[-125.0322,49.0199,7.0736],[-125.0341,49.0165,0.0],[-125.0305,49.0145,0.0],[-125.0264,49.0148,4.9275],[-125.0232,49.012,0.0],[-125.0187,49.0121,35.7002],[-125.0179,49.0097,0.0],[-124.9972,49.0017,0.0],[-124.9842,48.9914,0.0],[-124.9761,48.9875,9.682],[-124.9836,48.9872,0.0],[-124.9861,48.9844,50.9396],[-124.9847,48.9803,0.0],[-124.9783,48.9836,15.2554],[-124.9753,48.9836,0.0],[-124.9747,48.9857,13.7891],[-124.9678,48.9833,0.0],[-124.9606,48.9842,26.914],[-124.955,48.9867,0.0],[-124.9456,48.9861,22.6889],[-124.9372,48.9825,7.8218],[-124.9223,48.9824,12.2414],[-124.9106,48.9853,4.9898],[-124.9033,48.9908,32.0706],[-124.8967,48.9936,0.0],[-124.8952,48.996,0.0],[-124.8958,48.9989,53.2747],[-124.8914,49.0039,69.7845],[-124.8743,49.0106,37.9263],[-124.8712,49.0134,5.4089],[-124.8703,49.0194,0.0],[-124.8656,49.0275,37.2099],[-124.8658,49.0349,25.1808],[-124.862,49.0397,0.0],[-124.86279999999999,49.055,0.0],[-124.8686,49.058,3.6469],[-124.8789,49.0592,0.0],[-124.8831,49.0619,7.9172],[-124.88,49.065,6.7332],[-124.8662,49.0657,33.4569],[-124.8557,49.0697,12.6064],[-124.8547,49.0711,40.0295],[-124.8573,49.0733,9.0807],[-124.8559,49.0753,4.5725],[-124.8459,49.079,0.0],[-124.8442,49.0815,0.0],[-124.8373,49.0835,0.0],[-124.8311,49.0881,5.8104],[-124.8349,49.0959,4.5527],[-124.8356,49.1018,0.0],[-124.8271,49.1047,0.0],[-124.8236,49.1089,0.0],[-124.8239,49.1133,1.0425],[-124.8267,49.1156,10.9198],[-124.8169,49.1203,0.0],[-124.8117,49.1408,12.2015]]],
[[[-125.0956,48.9447,0.0],[-125.0972,48.9464,0.0],[-125.0997,48.9458,0.0],[-125.0961,48.9403,0.0],[-125.0944,48.9411,0.0],[-125.0956,48.9447,0.0]]],
[[[-125.0883,48.9459,5.7515],[-125.0868,48.9473,0.0],[-125.0874,48.9502,29.57],[-125.0907,48.9522,0.0],[-125.0951,48.9506,0.0],[-125.0952,48.948,9.6521],[-125.0883,48.9459,5.7515]]],
[[[-125.0787,48.9563,0.0],[-125.0775,48.9586,4.1161],[-125.0786,48.9599,0.0],[-125.0881,48.957,2.6396],[-125.0866,48.9541,15.9621],[-125.0814,48.9566,0.0],[-125.0787,48.9563,0.0]]]]}}