{"type":"Feature","properties":{"GID_3":"CAN.2.4.85_1","GID_0":"CAN","country":"Canada","GID_1":"CAN.2_1","province":"BritishColumbia","NL_NAME_1":"NA","GID_2":"CAN.2.4_1","county":"Cariboo","NL_NAME_2":"NA","city":"TzetziLake11","VARNAME_3":"NA","NL_NAME_3":"NA","TYPE_3":"RéserveIndienne","ENGTYPE_3":"IndianReserve","CC_3":"NA","HASC_3":"NA","name":"Tzetzi_Lake11.city"},
"geometry":{"type": "MultiPolygon","coordinates": [[[[-124.9989,52.989,1036.4193],[-124.9857,52.9887,1060.7068],[-124.9856,52.9961,1043.4043],[-124.999,52.9959,1106.5669],[-124.9989,52.989,1036.4193]]]]}}