{"type":"Feature","properties":{"GID_3":"CAN.12.2.34_1","GID_0":"CAN","country":"Canada","GID_1":"CAN.12_1","province":"Saskatchewan","NL_NAME_1":"NA","GID_2":"CAN.12.2_1","county":"DivisionNo.11","NL_NAME_2":"NA","city":"Loreburn","VARNAME_3":"NA","NL_NAME_3":"NA","TYPE_3":"Village","ENGTYPE_3":"Village","CC_3":"NA","HASC_3":"NA","name":"Loreburn.city"},
"geometry":{"type": "MultiPolygon","coordinates": [[[[-106.5961,51.2327,616.3746],[-106.596,51.2352,615.4448],[-106.6013,51.2352,613.7957],[-106.6011,51.2279,615.9742],[-106.5852,51.2279,615.061],[-106.5851,51.2308,617.436],[-106.5898,51.2308,614.9054],[-106.59,51.2338,615.4915],[-106.593,51.2338,615.4448],[-106.5928,51.2308,616.022],[-106.5958,51.2308,616.022],[-106.5961,51.2327,616.3746]]]]}}