{"type":"Feature","properties":{"GID_3":"CAN.11.76.9_1","GID_0":"CAN","country":"Canada","GID_1":"CAN.11_1","province":"Québec","NL_NAME_1":"NA","GID_2":"CAN.11.76_1","county":"Matawinie","NL_NAME_2":"NA","city":"Lac-du-Taureau","VARNAME_3":"NA","NL_NAME_3":"NA","TYPE_3":"NonOrganisé","ENGTYPE_3":"Unorganized","CC_3":"NA","HASC_3":"NA","name":"Lac-du-Taureau.city"},
"geometry":{"type": "MultiPolygon","coordinates": [[[[-74.6015,47.23,452.4322],[-74.6417,47.2551,394.5],[-74.6455,47.2548,394.5],[-74.6545,47.2471,398.7952],[-74.6572,47.2406,398.7531],[-74.654,47.2328,404.6042],[-74.6015,47.23,452.4322]]]]}}