{"type":"Feature","properties":{"GID_3":"CAN.12.9.14_1","GID_0":"CAN","country":"Canada","GID_1":"CAN.12_1","province":"Saskatchewan","NL_NAME_1":"NA","GID_2":"CAN.12.9_1","county":"DivisionNo.18","NL_NAME_2":"NA","city":"Cumberland20","VARNAME_3":"NA","NL_NAME_3":"NA","TYPE_3":"RéserveIndienne","ENGTYPE_3":"IndianReserve","CC_3":"NA","HASC_3":"NA","name":"Cumberland20.city"},
"geometry":{"type": "MultiPolygon","coordinates": [[[[-102.2866,53.9232,265.1995],[-102.1942,53.9218,268.892],[-102.1955,53.9444,280.6002],[-102.2007,53.9484,274.8461],[-102.2057,53.9487,279.3083],[-102.2094,53.9513,270.7952],[-102.2163,53.9472,278.5001],[-102.2218,53.946,280.4107],[-102.2287,53.9492,268.5815],[-102.2346,53.949,268.7316],[-102.2541,53.9438,266.7584],[-102.2873,53.9431,272.674],[-102.2866,53.9232,265.1995]]]]}}