{"type":"Feature","properties":{"GID_3":"CAN.5.4.33_1","GID_0":"CAN","country":"Canada","GID_1":"CAN.5_1","province":"NewfoundlandandLabrador","NL_NAME_1":"NA","GID_2":"CAN.5.4_1","county":"DivisionNo.2","NL_NAME_2":"NA","city":"St.Bernard's-JacquesFontaine","VARNAME_3":"NA","NL_NAME_3":"NA","TYPE_3":"Town","ENGTYPE_3":"Town","CC_3":"NA","HASC_3":"NA","name":"St.Bernard's-Jacques_Fontaine.city"},
"geometry":{"type": "MultiPolygon","coordinates": [[[[-54.8933,47.5366,128.1514],[-54.8983,47.5358,0.0],[-54.9008,47.5328,22.6046],[-54.9169,47.5278,4.072],[-54.9183,47.5247,1.3454],[-54.9214,47.5242,0.0],[-54.9281,47.525,1.3114],[-54.9311,47.5283,43.9362],[-54.9481,47.5339,0.0],[-54.9525,47.5308,10.9958],[-54.9469,47.5283,0.0],[-54.9486,47.5269,4.9942],[-54.9547,47.5278,6.1466],[-54.9672,47.5244,3.0752],[-54.9586,47.5203,36.9418],[-54.9581,47.5175,9.2231],[-54.9533,47.5172,19.4872],[-54.9544,47.5133,0.0],[-54.9525,47.5111,13.7938],[-54.9559,47.508,0.0],[-54.9451,47.5058,182.9477],[-54.9025,47.5162,126.3406],[-54.8878,47.5119,140.5888],[-54.8559,47.5058,193.2706],[-54.84,47.5118,270.2822],[-54.8835,47.5327,310.837],[-54.8859,47.5317,315.5459],[-54.8933,47.5366,128.1514]]]]}}