{"type":"Feature","properties":{"GID_3":"CAN.12.2.63_1","GID_0":"CAN","country":"Canada","GID_1":"CAN.12_1","province":"Saskatchewan","NL_NAME_1":"NA","GID_2":"CAN.12.2_1","county":"DivisionNo.11","NL_NAME_2":"NA","city":"Young","VARNAME_3":"NA","NL_NAME_3":"NA","TYPE_3":"Village","ENGTYPE_3":"Village","CC_3":"NA","HASC_3":"NA","name":"Young.city"},
"geometry":{"type": "MultiPolygon","coordinates": [[[[-105.7592,51.7723,523.1058],[-105.7589,51.7585,526.7231],[-105.7351,51.7584,522.124],[-105.7356,51.7723,510.8175],[-105.7592,51.7723,523.1058]]]]}}