{"type": "Feature","bbox": [-109.4687,53.5334,-109.4456,53.5471],"geometry": {"type": "MultiPolygon","coordinates": [[[[-109.4567,53.5352,607.3878],[-109.4465,53.5354,593.5059],[-109.4464,53.538,559.0803],[-109.453,53.5403,555.2911],[-109.4458,53.5403,555.1696],[-109.4456,53.5467,553.137],[-109.4685,53.5471,556.9616],[-109.4687,53.5335,606.6025],[-109.4567,53.5334,631.8702],[-109.4567,53.5352,607.3878]]]]}
,"properties": {"GID_3": "CAN.12.8.40_1","GID_0": "CAN","country": "Canada","GID_1": "CAN.12_1","province": "Saskatchewan","NL_NAME_1": "NA","GID_2": "CAN.12.8_1","county": "DivisionNo.17","NL_NAME_2": "NA","city": "ParadiseHill","VARNAME_3": "NA","NL_NAME_3": "NA","TYPE_3": "Village","ENGTYPE_3": "Village","CC_3": "NA","HASC_3": "NA","name": "Paradise_Hill.city","area_km2": 2.015906,"hist_schema_id": "Elevation0-9000","hist_area_km2": {"550": 1.474071,"575": 0.415824,"600": 0.126011}}}