{"type":"Feature","properties":{"GID_3":"CAN.11.61.4_1","GID_0":"CAN","country":"Canada","GID_1":"CAN.11_1","province":"Québec","NL_NAME_1":"NA","GID_2":"CAN.11.61_1","county":"LesBasques","NL_NAME_2":"NA","city":"Saint-Éloi","VARNAME_3":"NA","NL_NAME_3":"NA","TYPE_3":"MunicipalitéDeParoisse","ENGTYPE_3":"ParishMunicipality","CC_3":"NA","HASC_3":"NA","name":"Saint-Éloi.city"},
"geometry":{"type": "MultiPolygon","coordinates": [[[[-69.2446,48.068,58.4067],[-69.2501,48.0635,53.973],[-69.2539,48.063,52.2037],[-69.2517,48.0615,63.1957],[-69.2576,48.06,55.9821],[-69.2592,48.0548,51.4661],[-69.2557,48.0507,67.4024],[-69.2752,48.0371,63.2535],[-69.2502,48.0217,109.0429],[-69.2539,48.0188,110.459],[-69.2066,47.9892,162.8991],[-69.1661,48.0167,166.989],[-69.1148,47.9827,146.9844],[-69.1099,47.9917,151.4196],[-69.1024,47.9986,150.7641],[-69.1154,48.0066,161.2716],[-69.1146,48.0095,152.0948],[-69.1166,48.0158,136.5327],[-69.1209,48.0183,138.123],[-69.1233,48.0158,122.7642],[-69.1405,48.0221,161.7565],[-69.15,48.0348,150.7811],[-69.163,48.0446,107.1688],[-69.1706,48.0489,136.7564],[-69.1758,48.0479,186.4048],[-69.1855,48.0549,158.9489],[-69.195,48.0651,159.8385],[-69.2012,48.0669,158.3796],[-69.2027,48.0688,151.5533],[-69.2022,48.0776,149.8069],[-69.2232,48.0742,96.4177],[-69.2253,48.0754,91.2617],[-69.2283,48.0732,82.0014],[-69.232,48.0745,75.9726],[-69.2376,48.0736,75.3924],[-69.2446,48.068,58.4067]]]]}}