{"type": "Feature","bbox": [-53.6564,46.9825,-53.5415,47.0423],"geometry": {"type": "MultiPolygon","coordinates": [[[[-53.6149,46.9935,0.5029],[-53.6056,46.994,52.6077],[-53.5967,46.9914,123.4338],[-53.5415,47.0417,117.8017],[-53.6019,47.0423,0.0],[-53.6261,47.0184,13.1955],[-53.6304,47.0165,0.0],[-53.6397,47.0083,8.9369],[-53.6465,47.0056,0.0],[-53.65,46.9964,26.2484],[-53.6564,46.9872,0.1229],[-53.6542,46.9864,10.118],[-53.6549,46.9849,0.0],[-53.6532,46.9825,5.3206],[-53.6506,46.9825,6.5508],[-53.6352,46.9903,0.0],[-53.6254,46.9988,8.7972],[-53.6167,46.9956,1.0475],[-53.6149,46.9935,0.5029]]]]}
,"properties": {"GID_3": "CAN.5.3.1_1","GID_0": "CAN","country": "Canada","GID_1": "CAN.5_1","province": "NewfoundlandandLabrador","NL_NAME_1": "NA","GID_2": "CAN.5.3_1","county": "DivisionNo.1","NL_NAME_2": "NA","city": "AdmiralsBeach","VARNAME_3": "NA","NL_NAME_3": "NA","TYPE_3": "Town","ENGTYPE_3": "Town","CC_3": "NA","HASC_3": "NA","name": "Admirals_Beach.city","area_km2": 25.88959,"hist_schema_id": "Elevation0-9000","hist_area_km2": {"0": 2.6748,"25": 5.07405,"50": 5.55049,"75": 4.84215,"100": 5.21819,"125": 2.51546,"150": 0.01446}}}