{"type": "Feature","bbox": [-125.1302,52.2806,-125.1058,52.2975],"geometry": {"type": "MultiPolygon","coordinates": [[[[-125.1073,52.2869,1129.8777],[-125.1072,52.2974,1137.8801],[-125.1302,52.2975,1135.9014],[-125.1299,52.283,1141.1799],[-125.1181,52.2828,1132.5494],[-125.1094,52.2806,1131.0571],[-125.1058,52.2814,1128.8394],[-125.1073,52.2869,1129.8777]]]]}
,"properties": {"GID_3": "CAN.2.4.82_1","GID_0": "CAN","country": "Canada","GID_1": "CAN.2_1","province": "BritishColumbia","NL_NAME_1": "NA","GID_2": "CAN.2.4_1","county": "Cariboo","NL_NAME_2": "NA","city": "TowdystanLake3","VARNAME_3": "NA","NL_NAME_3": "NA","TYPE_3": "RéserveIndienne","ENGTYPE_3": "IndianReserve","CC_3": "NA","HASC_3": "NA","name": "Towdystan_Lake3.city","area_km2": 2.580789,"hist_schema_id": "Elevation0-9000","hist_area_km2": {"1125": 2.152803,"1150": 0.427985}}}