{"type":"Feature","properties":{"GID_3":"CAN.1.16.5_1","GID_0":"CAN","country":"Canada","GID_1":"CAN.1_1","province":"Alberta","NL_NAME_1":"NA","GID_2":"CAN.1.16_1","county":"DivisionNo.6","NL_NAME_2":"NA","city":"Carstairs","VARNAME_3":"NA","NL_NAME_3":"NA","TYPE_3":"Town","ENGTYPE_3":"Town","CC_3":"NA","HASC_3":"NA","name":"Carstairs.city"},
"geometry":{"type": "MultiPolygon","coordinates": [[[[-114.0808,51.5779,1045.0502],[-114.1061,51.5768,1063.7119],[-114.1058,51.5701,1062.2505],[-114.109,51.5701,1062.2505],[-114.1064,51.5624,1061.7179],[-114.1096,51.5624,1063.7073],[-114.1099,51.5549,1057.9031],[-114.1067,51.5549,1056.1613],[-114.1069,51.5474,1053.9272],[-114.0834,51.5475,1051.2815],[-114.0889,51.5552,1049.9054],[-114.0816,51.5552,1047.9835],[-114.0816,51.5604,1046.4998],[-114.0839,51.5625,1048.089],[-114.0932,51.5625,1058.1797],[-114.0932,51.5697,1055.6656],[-114.0808,51.5695,1046.2057],[-114.0808,51.5779,1045.0502]]]]}}