{"type": "Feature","bbox": [-97.0004,49.4338,-96.9744,49.447],"geometry": {"type": "MultiPolygon","coordinates": [[[[-96.9746,49.4432,239.8371],[-96.9745,49.4468,239.3265],[-96.9969,49.447,237.0016],[-96.9969,49.4424,239.1361],[-97.0004,49.4425,239.9201],[-97.0004,49.4338,239.2055],[-96.9744,49.4339,238.9453],[-96.9746,49.4432,239.8371]]]]}
,"properties": {"GID_3": "CAN.3.16.9_1","GID_0": "CAN","country": "Canada","GID_1": "CAN.3_1","province": "Manitoba","NL_NAME_1": "NA","GID_2": "CAN.3.16_1","county": "DivisionNo.2","NL_NAME_2": "NA","city": "St-Pierre-Jolys","VARNAME_3": "NA","NL_NAME_3": "NA","TYPE_3": "Village","ENGTYPE_3": "Village","CC_3": "NA","HASC_3": "NA","name": "St-Pierre-Jolys.city","area_km2": 2.702166,"hist_schema_id": "Elevation0-9000","hist_area_km2": {"225": 0.068926,"250": 2.633241}}}