{"type": "Feature","bbox": [-103.2163,49.261,-102.8111,49.5238],"geometry": {"type": "MultiPolygon","coordinates": [[[[-102.8193,49.5226,599.1938],[-102.9484,49.5238,604.1752],[-103.2145,49.5232,601.0323],[-103.2163,49.4358,597.8134],[-103.2159,49.261,581.6801],[-102.8128,49.2612,582.2512],[-102.8111,49.3779,592.9771],[-102.8129,49.5225,598.1766],[-102.8193,49.5226,599.1938]],
[[-103.0042,49.4599,594.1133],[-103.0159,49.4632,596.7719],[-103.0159,49.465,596.4231],[-103.004,49.465,597.8778],[-103.0042,49.4599,594.1133]]]]}
,"properties": {"GID_3": "CAN.12.10.8_1","GID_0": "CAN","country": "Canada","GID_1": "CAN.12_1","province": "Saskatchewan","NL_NAME_1": "NA","GID_2": "CAN.12.10_1","county": "DivisionNo.1","NL_NAME_2": "NA","city": "BensonNo.35","VARNAME_3": "NA","NL_NAME_3": "NA","TYPE_3": "RuralMunicipality","ENGTYPE_3": "RuralMunicipality","CC_3": "NA","HASC_3": "NA","name": "Benson_No.35.city","area_km2": 850.6318,"hist_schema_id": "Elevation0-9000","hist_area_km2": {"575": 184.9628,"600": 665.669}}}