{"type": "Feature","bbox": [-106.5465,53.163,-106.5265,53.1708],"geometry": {"type": "MultiPolygon","coordinates": [[[[-106.53,53.1708,512.3082],[-106.5412,53.1708,514.4796],[-106.5414,53.1654,514.1038],[-106.5465,53.1631,514.9092],[-106.5265,53.163,513.4614],[-106.5265,53.1707,513.8172],[-106.53,53.1708,512.3082]]]]}
,"properties": {"GID_3": "CAN.12.7.40_1","GID_0": "CAN","country": "Canada","GID_1": "CAN.12_1","province": "Saskatchewan","NL_NAME_1": "NA","GID_2": "CAN.12.7_1","county": "DivisionNo.16","NL_NAME_2": "NA","city": "Parkside","VARNAME_3": "NA","NL_NAME_3": "NA","TYPE_3": "Village","ENGTYPE_3": "Village","CC_3": "NA","HASC_3": "NA","name": "Parkside.city","area_km2": 0.8770292,"hist_schema_id": "Elevation0-9000","hist_area_km2": {"500": 0.2160745,"525": 0.6609547}}}