{"type": "Feature","bbox": [-73.9115,46.1917,-73.6777,46.3386],"geometry": {"type": "MultiPolygon","coordinates": [[[[-73.8002,46.1917,403.0136],[-73.6777,46.2785,406.8434],[-73.7604,46.3347,435.97],[-73.7814,46.3214,463.3237],[-73.8066,46.3384,493.0302],[-73.8321,46.3206,325.6319],[-73.858,46.3386,348.1879],[-73.902,46.3082,483.0217],[-73.8751,46.2898,543.2162],[-73.9115,46.2646,362.0072],[-73.8002,46.1917,403.0136]]]]}
,"properties": {"GID_3": "CAN.11.76.18_1","GID_0": "CAN","country": "Canada","GID_1": "CAN.11_1","province": "Québec","NL_NAME_1": "NA","GID_2": "CAN.11.76_1","county": "Matawinie","NL_NAME_2": "NA","city": "Saint-Côme","VARNAME_3": "NA","NL_NAME_3": "NA","TYPE_3": "MunicipalitéDeParoisse","ENGTYPE_3": "ParishMunicipality","CC_3": "NA","HASC_3": "NA","name": "Saint-Côme.city","area_km2": 167.3799,"hist_schema_id": "Elevation0-9000","hist_area_km2": {"225": 0.3812,"250": 10.0816,"275": 14.1256,"300": 12.4127,"325": 14.7418,"350": 17.1183,"375": 18.9199,"400": 19.55,"425": 17.3988,"450": 14.3049,"475": 12.1948,"500": 8.1345,"525": 4.5429,"550": 2.3886,"575": 0.8645,"600": 0.2198}}}