{"type": "Feature","bbox": [-57.8328,49.8872,-57.7242,49.9478],"geometry": {"type": "MultiPolygon","coordinates": [[[[-57.8137,49.9029,0.0],[-57.7878,49.8872,9.1781],[-57.7242,49.9297,59.9344],[-57.7564,49.9478,1.3548],[-57.7586,49.9419,0.5614],[-57.7644,49.9378,0.4031],[-57.7708,49.9356,0.0],[-57.7811,49.9356,0.0],[-57.7778,49.9311,2.4634],[-57.7769,49.9233,0.0],[-57.7789,49.9203,1.5975],[-57.7867,49.9158,0.0],[-57.7981,49.9144,0.8562],[-57.8053,49.9203,0.9252],[-57.8033,49.9225,0.0],[-57.8053,49.9222,0.18],[-57.8081,49.9247,0.0277],[-57.8106,49.9222,4.1281],[-57.8239,49.9228,0.0],[-57.8328,49.9153,0.0],[-57.8297,49.9147,0.0],[-57.8258,49.9167,0.985],[-57.8242,49.9136,0.0],[-57.805,49.9192,0.4712],[-57.7992,49.9128,0.0],[-57.7989,49.91,6.2307],[-57.8137,49.9029,0.0]]]]}
,"properties": {"GID_3": "CAN.5.11.7_1","GID_0": "CAN","country": "Canada","GID_1": "CAN.5_1","province": "NewfoundlandandLabrador","NL_NAME_1": "NA","GID_2": "CAN.5.11_1","county": "DivisionNo.9","NL_NAME_2": "NA","city": "CowHead","VARNAME_3": "NA","NL_NAME_3": "NA","TYPE_3": "Town","ENGTYPE_3": "Town","CC_3": "NA","HASC_3": "NA","name": "Cow_Head.city","area_km2": 18.08885,"hist_schema_id": "Elevation0-9000","hist_area_km2": {"0": 5.55591,"25": 8.6016,"50": 3.93135}}}