{"type":"Feature","properties":{"GID_3":"CAN.11.55.5_1","GID_0":"CAN","country":"Canada","GID_1":"CAN.11_1","province":"Québec","NL_NAME_1":"NA","GID_2":"CAN.11.55_1","county":"LeHaut-Richelieu","NL_NAME_2":"NA","city":"Mont-Saint-Grégoire","VARNAME_3":"NA","NL_NAME_3":"NA","TYPE_3":"Municipalité","ENGTYPE_3":"Municipality","CC_3":"NA","HASC_3":"NA","name":"Mont-Saint-Grégoire.city"},
"geometry":{"type": "MultiPolygon","coordinates": [[[[-73.0987,45.2682,56.5147],[-73.0931,45.3275,49.2349],[-73.1071,45.3369,53.1885],[-73.1042,45.3622,47.0304],[-73.1174,45.3712,52.9604],[-73.1334,45.3595,50.4986],[-73.1795,45.3913,39.7304],[-73.2097,45.3706,54.8883],[-73.2017,45.344,41.4304],[-73.2033,45.3289,43.9342],[-73.2075,45.3235,42.1824],[-73.1903,45.3148,42.942],[-73.1694,45.2999,55.1996],[-73.1696,45.2809,51.9309],[-73.1325,45.2643,50.674],[-73.1322,45.2739,51.0811],[-73.1291,45.2718,56.9961],[-73.1277,45.2886,51.0054],[-73.0987,45.2682,56.5147]]]]}}