{"type": "Feature","bbox": [-99.0542,51.0131,-98.9765,51.0994],"geometry": {"type": "MultiPolygon","coordinates": [[[[-99.0194,51.0993,246.4329],[-99.0542,51.0994,251.7048],[-99.0539,51.0133,270.213],[-98.9779,51.0131,248.2978],[-98.9779,51.0236,248.6575],[-98.9803,51.0353,253.208],[-98.9765,51.0521,249.7411],[-98.9775,51.0549,249.4402],[-98.9809,51.0567,249.6101],[-99.0037,51.055,255.7585],[-99.0093,51.0567,249.3826],[-99.0131,51.0604,248.6234],[-99.0145,51.0659,248.1093],[-99.0042,51.072,246.7654],[-99.0112,51.0738,247.1136],[-99.0205,51.0727,251.2188],[-99.0243,51.0738,251.0734],[-99.0285,51.08,254.2634],[-99.0263,51.0827,249.7697],[-99.0146,51.0832,246.0],[-99.0085,51.0957,247.9142],[-99.0104,51.0974,247.9701],[-99.0177,51.0977,247.7291],[-99.0194,51.0993,246.4329]]]]}
,"properties": {"GID_3": "CAN.3.8.5_1","GID_0": "CAN","country": "Canada","GID_1": "CAN.3_1","province": "Manitoba","NL_NAME_1": "NA","GID_2": "CAN.3.8_1","county": "DivisionNo.17","NL_NAME_2": "NA","city": "EbbandFlow52","VARNAME_3": "NA","NL_NAME_3": "NA","TYPE_3": "RéserveIndienne","ENGTYPE_3": "IndianReserve","CC_3": "NA","HASC_3": "NA","name": "Ebband_Flow52.city","area_km2": 38.91998,"hist_schema_id": "Elevation0-9000","hist_area_km2": {"250": 34.18573,"275": 4.73425}}}