{"type":"Feature","properties":{"GID_3":"CAN.11.11.1_1","GID_0":"CAN","country":"Canada","GID_1":"CAN.11_1","province":"Québec","NL_NAME_1":"NA","GID_2":"CAN.11.11_1","county":"Bécancour","NL_NAME_2":"NA","city":"Bécancour","VARNAME_3":"NA","NL_NAME_3":"NA","TYPE_3":"Ville","ENGTYPE_3":"Ville","CC_3":"NA","HASC_3":"NA","name":"Bécancour.city"},
"geometry":{"type": "MultiPolygon","coordinates": [[[[-72.5785,46.2597,8.3677],[-72.4874,46.1936,54.3694],[-72.4505,46.2185,56.7697],[-72.4459,46.2249,64.7461],[-72.4289,46.237,54.331],[-72.4351,46.2419,56.0025],[-72.4089,46.2594,58.4462],[-72.39,46.2458,54.6646],[-72.373,46.2576,26.0],[-72.372,46.2543,38.9394],[-72.369,46.2519,47.6935],[-72.3651,46.2545,31.8242],[-72.3561,46.2564,29.1431],[-72.3578,46.2524,60.4918],[-72.3562,46.2474,57.2403],[-72.3386,46.2342,42.6218],[-72.3355,46.2225,88.7399],[-72.3318,46.2252,28.6495],[-72.3307,46.2216,33.923],[-72.2521,46.2735,89.4378],[-72.2278,46.2561,92.0083],[-72.183,46.286,83.8043],[-72.2084,46.3037,84.7847],[-72.199,46.3102,88.0779],[-72.2179,46.3236,80.5812],[-72.2306,46.3161,72.4804],[-72.2388,46.3157,73.8253],[-72.2379,46.3177,80.2737],[-72.2407,46.3195,72.1702],[-72.2389,46.3212,60.0201],[-72.2417,46.3245,58.6268],[-72.2391,46.3253,56.4738],[-72.2411,46.3257,69.0524],[-72.2404,46.3268,69.0524],[-72.2381,46.3269,55.6642],[-72.2413,46.3283,62.5357],[-72.2434,46.3271,64.8339],[-72.2423,46.3287,64.8339],[-72.246,46.3317,58.8695],[-72.2437,46.3314,62.6635],[-72.2447,46.3333,59.7312],[-72.2417,46.3327,61.8589],[-72.2411,46.3343,55.6446],[-72.2446,46.3359,44.896],[-72.2439,46.337,45.7282],[-72.2468,46.3376,60.2191],[-72.2468,46.3399,45.6151],[-72.2571,46.3478,53.2975],[-72.2433,46.3542,66.6984],[-72.2341,46.3557,74.2496],[-72.2214,46.3552,83.7498],[-72.2113,46.3575,82.9753],[-72.19,46.3658,87.7831],[-72.1751,46.3685,91.5435],[-72.162,46.3803,85.2361],[-72.1636,46.3811,90.7805],[-72.1614,46.3831,92.2499],[-72.1603,46.39,97.697],[-72.2241,46.4369,39.4944],[-72.2297,46.426,31.6028],[-72.2441,46.4071,31.0252],[-72.2884,46.3776,25.4584],[-72.3147,46.3767,34.1466],[-72.3232,46.3714,17.4018],[-72.3254,46.3662,34.7223],[-72.3773,46.3535,30.6994],[-72.4358,46.3345,8.6821],[-72.4872,46.3131,8.7433],[-72.5249,46.2924,11.8675],[-72.5785,46.2597,8.3677]],
[[-72.4162,46.329,8.0603],[-72.4118,46.3299,7.7217],[-72.4282,46.3191,18.8877],[-72.4313,46.3217,10.3404],[-72.4179,46.3304,7.1071],[-72.4162,46.329,8.0603]]]]}}