{"type": "Feature","bbox": [-78.1156,44.2509,-77.8969,44.4163],"geometry": {"type": "MultiPolygon","coordinates": [[[[-78.0291,44.2691,185.0],[-78.0197,44.2743,200.5284],[-78.0,44.2818,206.1966],[-77.9646,44.2931,216.0132],[-77.9628,44.2956,219.3466],[-77.9726,44.3154,213.3637],[-77.9567,44.3196,205.7759],[-77.9501,44.3081,196.8907],[-77.9337,44.3196,194.1028],[-77.9183,44.3246,192.6964],[-77.9162,44.33,222.4834],[-77.9065,44.3423,194.211],[-77.9025,44.3451,202.8159],[-77.8969,44.3611,187.1789],[-77.9015,44.3654,181.5],[-77.9262,44.4163,220.347],[-77.9301,44.4139,226.1244],[-78.1105,44.3682,222.2621],[-78.1156,44.3656,220.3716],[-78.0575,44.2509,214.2531],[-78.0302,44.267,200.0115],[-78.0326,44.2677,185.0],[-78.0291,44.2691,185.0]]]]}
,"properties": {"GID_3": "CAN.9.40.1_1","GID_0": "CAN","country": "Canada","GID_1": "CAN.9_1","province": "Ontario","NL_NAME_1": "NA","GID_2": "CAN.9.40_1","county": "Peterborough","NL_NAME_2": "NA","city": "Asphodel-Norwood","VARNAME_3": "NA","NL_NAME_3": "NA","TYPE_3": "Township","ENGTYPE_3": "Township","CC_3": "NA","HASC_3": "NA","name": "Asphodel-Norwood.city","area_km2": 175.2152,"hist_schema_id": "Elevation0-9000","hist_area_km2": {"175": 10.3638,"200": 82.8049,"225": 76.9063,"250": 5.0947,"275": 0.0455}}}