{"type":"Feature","properties":{"GID_3":"CAN.5.10.10_1","GID_0":"CAN","country":"Canada","GID_1":"CAN.5_1","province":"NewfoundlandandLabrador","NL_NAME_1":"NA","GID_2":"CAN.5.10_1","county":"DivisionNo.8","NL_NAME_2":"NA","city":"ChangeIslands","VARNAME_3":"NA","NL_NAME_3":"NA","TYPE_3":"Town","ENGTYPE_3":"Town","CC_3":"NA","HASC_3":"NA","name":"Change_Islands.city"},
"geometry":{"type": "MultiPolygon","coordinates": [[[[-54.3993,49.6503,0.5401],[-54.3774,49.6701,1.3315],[-54.3816,49.67,3.0575],[-54.379,49.672,0.6041],[-54.3795,49.6734,1.0342],[-54.3822,49.6722,0.6992],[-54.3828,49.674,0.0],[-54.3871,49.6733,4.3925],[-54.3857,49.6749,0.0],[-54.3871,49.6754,0.0],[-54.3922,49.6742,0.0],[-54.3914,49.6731,2.5057],[-54.3948,49.6718,7.9587],[-54.3931,49.6739,0.0],[-54.3979,49.6739,0.0],[-54.4088,49.6701,0.8451],[-54.415,49.6658,2.4007],[-54.4139,49.6644,0.0],[-54.4069,49.6644,3.9119],[-54.4097,49.6603,0.0],[-54.4047,49.6619,1.6699],[-54.4053,49.6608,1.6699],[-54.4031,49.6603,3.3766],[-54.404,49.658,0.0],[-54.4017,49.6569,1.6764],[-54.4057,49.654,0.0],[-54.3999,49.6526,2.3924],[-54.4005,49.6509,0.0],[-54.3993,49.6503,0.5401]]],
[[[-54.4157,49.6822,0.0],[-54.4219,49.6827,4.4535],[-54.4263,49.6787,4.4368],[-54.4285,49.6786,0.8104],[-54.4287,49.6764,3.2096],[-54.431,49.6765,0.4611],[-54.426,49.6738,10.7493],[-54.4269,49.6714,0.0],[-54.4222,49.67,0.0],[-54.4206,49.6722,8.2798],[-54.4185,49.6684,0.0],[-54.4178,49.6711,1.0078],[-54.4122,49.6722,2.1138],[-54.4119,49.6703,0.7595],[-54.4139,49.6692,0.7595],[-54.4128,49.6683,0.0],[-54.4011,49.6747,0.3668],[-54.3994,49.6742,0.0],[-54.3964,49.6775,0.0],[-54.3969,49.6789,0.6975],[-54.3989,49.6786,3.4371],[-54.3975,49.6794,0.0997],[-54.3983,49.6806,0.0],[-54.4011,49.6808,1.0446],[-54.3994,49.6797,0.0997],[-54.4053,49.6789,0.9011],[-54.4074,49.6765,1.0609],[-54.4157,49.6822,0.0]]],
[[[-54.3925,49.6822,0.0],[-54.3931,49.6839,0.5387],[-54.395,49.6839,0.5375],[-54.3958,49.6806,0.7152],[-54.3925,49.6808,2.3602],[-54.3931,49.6792,1.6605],[-54.3919,49.6792,1.6605],[-54.3897,49.6808,0.4318],[-54.3894,49.6825,0.0],[-54.3925,49.6822,0.0]]]]}}