{"type": "Feature","bbox": [-73.6377,46.0261,-73.4852,46.1255],"geometry": {"type": "MultiPolygon","coordinates": [[[[-73.515,46.089,96.6369],[-73.5669,46.1255,109.4253],[-73.6377,46.0786,158.4202],[-73.5687,46.0302,68.0713],[-73.5496,46.0426,66.6789],[-73.5348,46.0324,64.5218],[-73.5301,46.0356,63.6199],[-73.5173,46.0261,73.821],[-73.4852,46.0483,83.3623],[-73.5125,46.068,92.696],[-73.4995,46.0777,93.839],[-73.5049,46.0827,70.1159],[-73.5084,46.078,78.3772],[-73.5136,46.0773,83.4203],[-73.5164,46.0836,92.6872],[-73.515,46.089,96.6369]]]]}
,"properties": {"GID_3": "CAN.11.27.5_1","GID_0": "CAN","country": "Canada","GID_1": "CAN.11_1","province": "Québec","NL_NAME_1": "NA","GID_2": "CAN.11.27_1","county": "Joliette","NL_NAME_2": "NA","city": "Saint-Ambroise-de-Kildare","VARNAME_3": "NA","NL_NAME_3": "NA","TYPE_3": "MunicipalitéDeParoisse","ENGTYPE_3": "ParishMunicipality","CC_3": "NA","HASC_3": "NA","name": "Saint-Ambroise-de-Kildare.city","area_km2": 67.8084,"hist_schema_id": "Elevation0-9000","hist_area_km2": {"50": 0.30908,"75": 41.70902,"100": 19.93818,"125": 5.70506,"150": 0.14705}}}