{"type": "Feature","bbox": [-127.8092,58.0,-120.0,60.0],"geometry": {"type": "MultiPolygon","coordinates": [[[[-120.0,59.9375,471.6114],[-120.0,60.0,470.8468],[-127.725,60.0,565.7445],[-127.7253,59.8937,779.8661],[-127.6996,59.8942,788.4655],[-127.6749,59.8917,935.8705],[-127.6532,59.8789,812.1902],[-127.6544,59.8633,767.8326],[-127.659,59.8542,869.1534],[-127.6711,59.85,864.5038],[-127.7079,59.8481,757.0521],[-127.7348,59.8422,737.8745],[-127.7579,59.842,760.4209],[-127.7664,59.8374,809.6758],[-127.7681,59.8278,917.4773],[-127.7623,59.8228,960.4075],[-127.7608,59.8166,862.5093],[-127.7564,59.8106,819.8194],[-127.7605,59.7993,833.2114],[-127.8015,59.785,1056.2683],[-127.7855,59.7716,1042.9604],[-127.8092,59.7588,1084.8798],[-127.803,59.7463,1111.4436],[-127.7985,59.7313,1133.5645],[-127.7925,59.7271,1103.4763],[-127.793,59.7233,1114.2031],[-127.7963,59.7203,1178.078],[-127.798,59.7108,1227.5583],[-127.7952,59.708,1194.3403],[-127.7853,59.7042,1213.1039],[-127.7838,59.7009,1178.6311],[-127.7959,59.6946,1186.4683],[-127.7939,59.6919,1206.0137],[-127.7848,59.6869,1230.7858],[-127.7756,59.6748,1214.5974],[-127.7644,59.6705,1239.6658],[-127.7547,59.6689,1207.6532],[-127.7503,59.6661,1184.5435],[-127.749,59.6551,1112.2168],[-127.7253,59.6298,1016.6724],[-127.7108,59.6264,951.9125],[-127.6751,59.613,914.937],[-127.5902,59.5976,921.3724],[-127.57,59.5722,670.5269],[-127.5604,59.565,535.032],[-127.5489,59.5529,630.1259],[-127.5328,59.5308,809.4518],[-127.4928,59.5275,758.8462],[-127.4832,59.5216,743.2692],[-127.4818,59.5133,793.0438],[-127.4434,59.4878,828.8056],[-127.4424,59.4781,839.7102],[-127.425,59.4542,879.6508],[-127.412,59.4467,832.1769],[-127.3891,59.4242,700.9336],[-127.3671,59.3993,876.2355],[-127.3533,59.3908,857.6382],[-127.3401,59.3778,917.9912],[-127.3324,59.36,1046.0927],[-127.3307,59.3458,1080.9792],[-127.2892,59.3041,929.3721],[-127.2773,59.2815,672.0242],[-127.2481,59.2581,820.8052],[-127.2334,59.2524,913.0503],[-127.2249,59.2415,1056.0026],[-127.2205,59.2165,1163.1705],[-127.2056,59.2074,1053.9216],[-127.1956,59.1955,1254.3907],[-127.1904,59.1819,1289.8621],[-127.1907,59.1584,1130.1021],[-127.184,59.1483,1095.3289],[-127.1679,59.1396,1176.4587],[-127.1099,59.1198,1383.4807],[-127.0953,59.12,1280.8209],[-127.0647,59.133,1337.8479],[-127.0424,59.1355,1059.1167],[-127.0241,59.1323,915.9329],[-126.9851,59.1182,1330.2783],[-126.9725,59.1108,1448.4247],[-126.9684,59.1024,1438.4219],[-126.9712,59.0849,1450.4021],[-126.9625,59.0745,1490.4229],[-126.9741,59.0493,1492.8423],[-126.9722,59.0432,1524.176],[-126.9465,59.0243,1574.5801],[-126.9386,59.0,1521.3351],[-126.939,58.9958,1536.6307],[-126.9464,58.9802,1184.3718],[-126.9378,58.9715,1488.2264],[-126.9422,58.9614,1340.9528],[-126.9514,58.9493,1226.9673],[-126.9592,58.9438,1229.7285],[-126.9773,58.9209,1164.0704],[-126.9843,58.9094,1102.7324],[-127.0244,58.8725,1321.5309],[-127.0418,58.8631,1346.6511],[-127.0468,58.857,1341.2373],[-127.0489,58.851,1390.5281],[-127.0461,58.8441,1315.7753],[-127.0394,58.8343,1401.7565],[-127.026,58.8255,1297.4614],[-127.0104,58.8071,1150.2727],[-126.9932,58.8047,1332.291],[-126.9814,58.8066,1341.1281],[-126.9762,58.8099,1256.1744],[-126.9603,58.8146,1181.0237],[-126.949,58.8141,1231.1064],[-126.9384,58.8093,1424.3809],[-126.9217,58.7971,1376.9763],[-126.8858,58.7784,1472.7556],[-126.8704,58.7615,1546.299],[-126.8257,58.7223,1593.5579],[-126.8312,58.7082,1235.6123],[-126.8427,58.6978,1491.2849],[-126.8529,58.6929,1352.9916],[-126.8622,58.6852,1306.2518],[-126.8797,58.6781,1562.4419],[-126.8987,58.6612,1909.425],[-126.9082,58.6467,1781.1862],[-126.9066,58.6388,1937.9819],[-126.8895,58.6308,1448.2794],[-126.8661,58.6367,1899.3634],[-126.837,58.6548,1496.0769],[-126.8284,58.663,1270.8009],[-126.7858,58.6683,1308.4618],[-126.7576,58.6689,1394.3883],[-126.7372,58.6671,1699.3467],[-126.715,58.6559,1439.7885],[-126.6935,58.6487,1406.6997],[-126.6607,58.6278,1502.5359],[-126.6315,58.6034,1412.5879],[-126.6102,58.5923,1426.0951],[-126.6,58.5848,1672.658],[-126.5801,58.5801,1418.8525],[-126.5467,58.5787,1063.8407],[-126.5344,58.5819,1172.1648],[-126.5238,58.5884,1155.9659],[-126.4819,58.6046,1690.8164],[-126.4634,58.5997,1773.1786],[-126.4526,58.6028,1700.9562],[-126.4412,58.6028,1855.2905],[-126.3989,58.5964,1931.8724],[-126.3849,58.598,1603.0831],[-126.3708,58.6028,1736.8627],[-126.3284,58.6094,1961.1702],[-126.316,58.6078,1958.4048],[-126.299,58.5977,1894.5446],[-126.2958,58.5897,1776.9707],[-126.2992,58.5716,1584.4138],[-126.2811,58.5486,1704.9199],[-126.246,58.5214,2006.9719],[-126.2275,58.5118,1851.7],[-126.2041,58.4927,2026.2001],[-126.1751,58.4835,1803.5448],[-126.1555,58.4715,1686.6887],[-126.1348,58.4643,2007.0275],[-126.1068,58.46,1919.1421],[-126.0673,58.4486,1911.3429],[-126.0626,58.431,2006.7903],[-126.0569,58.4196,1951.0957],[-126.0446,58.4138,1834.6914],[-126.0114,58.4057,1691.9966],[-125.9969,58.4059,1420.5944],[-125.9278,58.3944,2000.9696],[-125.9186,58.3998,1971.1316],[-125.906,58.4013,1867.4041],[-125.8948,58.4078,2063.5337],[-125.8915,58.4114,1962.0635],[-125.8741,58.4133,1598.8527],[-125.8544,58.4117,1849.5321],[-125.8422,58.3996,1770.845],[-125.8325,58.3801,2126.5344],[-125.8223,58.3721,2049.3999],[-125.8199,58.3685,1943.4993],[-125.8322,58.36,2228.8381],[-125.8303,58.3552,1969.0216],[-125.8219,58.3517,1950.0455],[-125.7816,58.3451,1912.0697],[-125.7778,58.3306,1458.5911],[-125.7719,58.3207,2048.9011],[-125.7626,58.3194,2109.0244],[-125.7473,58.3226,2113.5647],[-125.7345,58.3171,2039.6404],[-125.7274,58.3103,2082.844],[-125.7144,58.3063,1947.144],[-125.6472,58.303,1509.8901],[-125.6236,58.3058,1968.5664],[-125.6073,58.312,2020.9189],[-125.5897,58.3137,2011.6466],[-125.5816,58.3118,2315.0525],[-125.5698,58.3157,2063.6924],[-125.5489,58.3186,2088.8198],[-125.5145,58.3078,2300.0962],[-125.4775,58.3078,1649.8082],[-125.4736,58.3085,1787.246],[-125.4696,58.3153,1943.717],[-125.4661,58.3265,1826.1405],[-125.4594,58.3343,2247.0947],[-125.4486,58.3393,2097.9644],[-125.4364,58.3403,2144.6943],[-125.4237,58.3354,2258.291],[-125.4126,58.3263,2269.9478],[-125.3879,58.3141,2226.3748],[-125.3744,58.2975,2252.2935],[-125.3684,58.2939,2195.5698],[-125.3587,58.2924,2152.9792],[-125.3511,58.2889,2348.6919],[-125.3535,58.2786,2287.2766],[-125.3364,58.2751,1945.8702],[-125.3256,58.277,2162.2947],[-125.3058,58.2907,1553.9646],[-125.2857,58.3021,1781.6843],[-125.2775,58.3028,1701.1589],[-125.2728,58.2998,1736.0225],[-125.2613,58.2812,2339.2363],[-125.2163,58.2553,2036.2817],[-125.1984,58.2385,2407.1858],[-125.1826,58.2379,2015.5547],[-125.169,58.2427,2166.6404],[-125.1572,58.2431,2414.8589],[-125.1386,58.2356,2377.0137],[-125.1171,58.2379,2314.9512],[-125.0852,58.2346,2067.7363],[-125.0541,58.2347,1871.8004],[-125.0359,58.2409,2334.9846],[-125.0257,58.2408,2155.0312],[-124.9896,58.2325,2115.5618],[-124.9492,58.2303,2298.2695],[-124.9399,58.2348,2149.1199],[-124.9236,58.2527,2002.7388],[-124.914,58.2555,2414.9302],[-124.8963,58.2431,2315.3345],[-124.8896,58.23,2627.9861],[-124.8771,58.2229,2378.4812],[-124.8462,58.2208,2040.1152],[-124.8367,58.215,1623.9587],[-124.827,58.2065,2157.822],[-124.8283,58.1981,2249.9106],[-124.8472,58.1843,2561.9265],[-124.8725,58.1738,2196.5593],[-124.8813,58.1637,2183.3191],[-124.88,58.1569,1885.8561],[-124.8714,58.1389,2188.6726],[-124.8583,58.1243,2172.3364],[-124.8736,58.1034,2087.2148],[-124.8851,58.0936,2650.0322],[-124.9017,58.0844,2134.866],[-124.917,58.0736,2142.104],[-124.9244,58.0646,1683.0173],[-124.9251,58.0532,2376.0955],[-124.9155,58.0303,2363.624],[-124.9179,58.0253,2339.908],[-124.9256,58.0236,2103.8943],[-124.9546,58.0258,2082.6028],[-124.9651,58.022,2223.1064],[-124.9673,58.0166,1995.2751],[-124.9641,58.0107,1880.7997],[-124.9611,58.007,1877.3018],[-124.9475,58.0,2167.7224],[-120.0,58.0,682.3164],[-120.0,59.9375,471.6114]]]]}
,"properties": {"GID_2": "CAN.2.20_1","GID_0": "CAN","country": "Canada","GID_1": "CAN.2_1","province": "BritishColumbia","NL_NAME_1": "NA","county": "NorthernRockies","VARNAME_2": "NA","NL_NAME_2": "NA","TYPE_2": "RegionalDistrict","ENGTYPE_2": "RegionalDistrict","CC_2": "59","HASC_2": "CA.BC.NR","name": "Northern_Rockies.county","area_km2": 85928.41,"hist_schema_id": "Elevation0-9000","hist_area_km2": {"225": 94.85,"250": 200.42,"275": 319.1,"300": 364.88,"325": 478.96,"350": 1538.11,"375": 2861.75,"400": 3201.26,"425": 4402.8,"450": 7233.11,"475": 6522.64,"500": 5160.29,"525": 4080.68,"550": 3226.71,"575": 2849.39,"600": 2432.31,"625": 2847.88,"650": 2644.44,"675": 2566.99,"700": 1904.44,"725": 1460.11,"750": 1245.14,"775": 1160.67,"800": 1057.87,"825": 1038.48,"850": 975.16,"875": 935.27,"900": 916.45,"925": 904.71,"950": 925.73,"975": 894.24,"1000": 864.76,"1025": 852.37,"1050": 832.24,"1075": 823.2,"1100": 794.75,"1125": 774.7,"1150": 746.44,"1175": 710.43,"1200": 670.45,"1225": 622.57,"1250": 581.68,"1275": 551.77,"1300": 518.85,"1325": 492.25,"1350": 474.43,"1375": 464.46,"1400": 440.03,"1425": 429.64,"1450": 412.1,"1475": 394.22,"1500": 376.14,"1525": 354.71,"1550": 339.52,"1575": 330.9,"1600": 321.67,"1625": 309.42,"1650": 296.51,"1675": 290.54,"1700": 279.49,"1725": 272.86,"1750": 266.85,"1775": 258.33,"1800": 248.3,"1825": 237.39,"1850": 224.22,"1875": 220.19,"1900": 205.72,"1925": 196.3,"1950": 185.45,"1975": 175.49,"2000": 164.75,"2025": 153.51,"2050": 141.61,"2075": 131.24,"2100": 119.58,"2125": 108.37,"2150": 99.49,"2175": 89.62,"2200": 80.84,"2225": 74.02,"2250": 67.15,"2275": 61.67,"2300": 52.93,"2325": 48.26,"2350": 43.41,"2375": 38.18,"2400": 33.39,"2425": 27.94,"2450": 23.75,"2475": 19.09,"2500": 15.87,"2525": 12.66,"2550": 10.45,"2575": 7.73,"2600": 5.17,"2625": 3.79,"2650": 2.83,"2675": 1.83,"2700": 1.39,"2725": 0.73}}}