{"type": "Feature","bbox": [-116.296,52.341,-116.2055,52.4078],"geometry": {"type": "MultiPolygon","coordinates": [[[[-116.2128,52.3868,1213.145],[-116.2139,52.3879,1217.4108],[-116.208,52.3903,1218.2422],[-116.2055,52.4068,1285.4636],[-116.254,52.4078,1357.5238],[-116.2804,52.3873,1325.6165],[-116.2796,52.3838,1326.5872],[-116.2825,52.3769,1322.051],[-116.2867,52.373,1288.1975],[-116.296,52.37,1265.6057],[-116.287,52.364,1257.5742],[-116.2834,52.3582,1245.8274],[-116.2778,52.3541,1242.1042],[-116.2775,52.3412,1222.2202],[-116.2734,52.341,1222.2107],[-116.2707,52.3443,1229.8658],[-116.2586,52.347,1218.4088],[-116.2557,52.3641,1231.0436],[-116.2478,52.3733,1215.1086],[-116.2299,52.3822,1243.4443],[-116.2128,52.3868,1213.145]]]]}
,"properties": {"GID_3": "CAN.1.19.1_1","GID_0": "CAN","country": "Canada","GID_1": "CAN.1_1","province": "Alberta","NL_NAME_1": "NA","GID_2": "CAN.1.19_1","county": "DivisionNo.9","NL_NAME_2": "NA","city": "BigHorn144A","VARNAME_3": "NA","NL_NAME_3": "NA","TYPE_3": "RéserveIndienne","ENGTYPE_3": "IndianReserve","CC_3": "NA","HASC_3": "NA","name": "Big_Horn144_A.city","area_km2": 20.59028,"hist_schema_id": "Elevation0-9000","hist_area_km2": {"1200": 0.03882,"1225": 3.24954,"1250": 5.86324,"1275": 2.95036,"1300": 3.1185,"1325": 3.70093,"1350": 1.20323,"1375": 0.46566}}}