{"type": "Feature","bbox": [-103.9062,51.278,-103.8698,51.2921],"geometry": {"type": "MultiPolygon","coordinates": [[[[-103.8701,51.285,676.2168],[-103.8818,51.2852,676.4164],[-103.8819,51.2921,685.3219],[-103.8892,51.292,681.5411],[-103.8893,51.2893,680.8846],[-103.8934,51.2898,677.8087],[-103.8932,51.2857,683.9108],[-103.9061,51.2858,672.5039],[-103.9062,51.278,669.328],[-103.8698,51.2786,673.7442],[-103.8701,51.285,676.2168]]]]}
,"properties": {"GID_3": "CAN.12.1.35_1","GID_0": "CAN","country": "Canada","GID_1": "CAN.12_1","province": "Saskatchewan","NL_NAME_1": "NA","GID_2": "CAN.12.1_1","county": "DivisionNo.10","NL_NAME_2": "NA","city": "Muskowekwan85-17","VARNAME_3": "NA","NL_NAME_3": "NA","TYPE_3": "RéserveIndienne","ENGTYPE_3": "IndianReserve","CC_3": "NA","HASC_3": "NA","name": "Muskowekwan85-17.city","area_km2": 2.493148,"hist_schema_id": "Elevation0-9000","hist_area_km2": {"675": 2.493148}}}