{"type":"Feature","properties":{"GID_3":"CAN.11.98.3_1","GID_0":"CAN","country":"Canada","GID_1":"CAN.11_1","province":"Québec","NL_NAME_1":"NA","GID_2":"CAN.11.98_1","county":"Vallée-de-l'Or","NL_NAME_2":"NA","city":"Kitcisakik","VARNAME_3":"NA","NL_NAME_3":"NA","TYPE_3":"ÉtablissemnetIndien","ENGTYPE_3":"IndianSettlement","CC_3":"NA","HASC_3":"NA","name":"Kitcisakik.city"},
"geometry":{"type": "MultiPolygon","coordinates": [[[[-77.5957,47.4267,338.5173],[-77.592,47.4299,341.5333],[-77.5919,47.432,352.9471],[-77.6001,47.4344,341.052],[-77.6029,47.4323,342.2831],[-77.6029,47.4288,373.2255],[-77.6005,47.4259,341.6394],[-77.5957,47.4267,338.5173]]]]}}