{"type":"Feature","properties":{"GID_3":"CAN.9.52.6_1","GID_0":"CAN","country":"Canada","GID_1":"CAN.9_1","province":"Ontario","NL_NAME_1":"NA","GID_2":"CAN.9.52_1","county":"Wellington","NL_NAME_2":"NA","city":"Minto","VARNAME_3":"NA","NL_NAME_3":"NA","TYPE_3":"Town","ENGTYPE_3":"Town","CC_3":"NA","HASC_3":"NA","name":"Minto.city"},
"geometry":{"type": "MultiPolygon","coordinates": [[[[-80.9917,43.9865,373.5799],[-80.9533,43.8223,383.0033],[-80.8593,43.8331,399.5297],[-80.8563,43.8306,400.0825],[-80.8553,43.8316,394.2678],[-80.8523,43.8304,396.6443],[-80.8549,43.827,396.9097],[-80.8522,43.8258,399.7195],[-80.8532,43.8245,401.3851],[-80.8492,43.8229,399.0751],[-80.8446,43.8273,403.5149],[-80.8386,43.8249,403.0215],[-80.8299,43.8365,398.4904],[-80.7575,43.8452,420.2723],[-80.7418,43.844,425.3157],[-80.7713,43.9746,396.6083],[-80.8272,43.9679,389.8381],[-80.8357,44.0046,376.7373],[-80.9917,43.9865,373.5799]]]]}}