{"type":"Feature","properties":{"featurecla":"River","scalerank":11,"rivernum":20152,"dissolve":"20152River","name":"Kanasuta","name_alt":null,"note":"ID is link back to CEC data","name_full":"Rivire Kanasuta","min_zoom":6.7,"strokeweig":0.2,"uident":1770101,"min_label":7.7},
"geometry":{"type": "LineString","coordinates": [[-79.346669074603739,48.451483465619027,273.589],[-79.3834529287704,48.433661199994027,272.9889],[-79.432199673562067,48.366766668744027,365.2709],[-79.4537654287704,48.338405666139863,406.1364],[-79.464588996478739,48.3091901713482,297.1984]]}}