{"type":"Feature","properties":{"GID_3":"CAN.5.8.16_1","GID_0":"CAN","country":"Canada","GID_1":"CAN.5_1","province":"NewfoundlandandLabrador","NL_NAME_1":"NA","GID_2":"CAN.5.8_1","county":"DivisionNo.6","NL_NAME_2":"NA","city":"Peterview","VARNAME_3":"NA","NL_NAME_3":"NA","TYPE_3":"Town","ENGTYPE_3":"Town","CC_3":"NA","HASC_3":"NA","name":"Peterview.city"},
"geometry":{"type": "MultiPolygon","coordinates": [[[[-55.367,49.1225,8.2622],[-55.3622,49.1212,0.0004],[-55.3634,49.119,4.274],[-55.3271,49.0876,3.9291],[-55.32,49.0903,0.0],[-55.3163,49.0951,1.2684],[-55.3219,49.0978,6.3977],[-55.3216,49.1,3.4182],[-55.3245,49.1028,3.1372],[-55.3236,49.1078,3.9707],[-55.3308,49.1144,7.4117],[-55.3303,49.1164,2.5685],[-55.3334,49.1204,3.8369],[-55.3328,49.1231,2.4109],[-55.3346,49.1269,5.7044],[-55.3456,49.1257,0.0],[-55.3524,49.1203,3.4924],[-55.3629,49.1234,0.8341],[-55.367,49.1225,8.2622]]]]}}