{"type":"Feature","properties":{"GID_3":"CAN.11.81.3_1","GID_0":"CAN","country":"Canada","GID_1":"CAN.11_1","province":"Québec","NL_NAME_1":"NA","GID_2":"CAN.11.81_1","county":"Montcalm","NL_NAME_2":"NA","city":"Saint-Calixte","VARNAME_3":"NA","NL_NAME_3":"NA","TYPE_3":"Municipalité","ENGTYPE_3":"Municipality","CC_3":"NA","HASC_3":"NA","name":"Saint-Calixte.city"},
"geometry":{"type": "MultiPolygon","coordinates": [[[[-73.8834,45.8895,157.8114],[-73.7707,45.9128,121.0403],[-73.7609,45.9206,130.2422],[-73.8266,45.967,281.7676],[-73.7988,45.9858,264.438],[-73.8393,46.0125,300.2594],[-73.8406,46.0117,339.9938],[-73.8731,46.0281,260.8132],[-73.8972,46.0104,361.2743],[-73.9074,46.0161,338.2905],[-73.9104,46.0141,348.4562],[-73.9213,46.0196,350.9311],[-73.9483,46.0009,348.8146],[-73.9779,45.9774,328.2558],[-73.9476,45.9585,373.4278],[-73.9534,45.9545,360.0808],[-73.9358,45.9453,317.3892],[-73.9509,45.934,213.556],[-73.8834,45.8895,157.8114]]]]}}