{"type":"Feature","properties":{"GID_3":"CAN.13.1.13_1","GID_0":"CAN","country":"Canada","GID_1":"CAN.13_1","province":"Yukon","NL_NAME_1":"NA","GID_2":"CAN.13.1_1","county":"Yukon","NL_NAME_2":"NA","city":"KenoHill","VARNAME_3":"NA","NL_NAME_3":"NA","TYPE_3":"Settlement","ENGTYPE_3":"Settlement","CC_3":"NA","HASC_3":"NA","name":"Keno_Hill.city"},
"geometry":{"type": "MultiPolygon","coordinates": [[[[-135.3218,63.8867,1007.6276],[-135.1574,63.9132,1231.7152],[-135.1537,63.9262,1402.1455],[-135.1872,63.9432,1820.5715],[-135.257,63.9482,1570.257],[-135.2354,63.9601,1336.7112],[-135.2476,63.9684,1062.1697],[-135.281,63.9588,1202.7361],[-135.3084,63.942,1010.3425],[-135.3336,63.9372,842.7571],[-135.3545,63.948,814.8746],[-135.3639,63.9381,993.654],[-135.3393,63.9225,974.9626],[-135.3579,63.9159,1234.2214],[-135.3639,63.9048,1192.7197],[-135.3578,63.8934,916.2809],[-135.3352,63.8846,924.2401],[-135.3218,63.8867,1007.6276]]]]}}