{"type": "Feature","bbox": [-106.7658,51.8379,-106.6891,51.918],"geometry": {"type": "MultiPolygon","coordinates": [[[[-106.7658,51.918,484.6795],[-106.7636,51.9117,480.3697],[-106.7434,51.9018,479.5],[-106.7394,51.8969,484.8211],[-106.7432,51.8816,484.3785],[-106.7127,51.8817,486.4486],[-106.7127,51.867,484.3201],[-106.7245,51.867,485.5963],[-106.7245,51.8524,485.7698],[-106.7127,51.8524,485.1151],[-106.7127,51.8379,486.9514],[-106.6891,51.8379,486.3928],[-106.6891,51.8961,513.8312],[-106.7233,51.8962,485.9733],[-106.7242,51.9107,494.431],[-106.7363,51.9107,484.4925],[-106.7363,51.918,484.2274],[-106.7658,51.918,484.6795]]]]}
,"properties": {"GID_3": "CAN.12.2.58_1","GID_0": "CAN","country": "Canada","GID_1": "CAN.12_1","province": "Saskatchewan","NL_NAME_1": "NA","GID_2": "CAN.12.2_1","county": "DivisionNo.11","NL_NAME_2": "NA","city": "WhiteCap94","VARNAME_3": "NA","NL_NAME_3": "NA","TYPE_3": "RéserveIndienne","ENGTYPE_3": "IndianReserve","CC_3": "NA","HASC_3": "NA","name": "White_Cap94.city","area_km2": 19.50208,"hist_schema_id": "Elevation0-9000","hist_area_km2": {"475": 14.6338,"500": 4.47573,"525": 0.39255}}}