{"type": "Feature","bbox": [-104.6661,49.6421,-104.6539,49.6498],"geometry": {"type": "MultiPolygon","coordinates": [[[[-104.6581,49.6421,697.3984],[-104.6539,49.6421,691.3651],[-104.6541,49.6498,681.2783],[-104.6658,49.6497,693.9115],[-104.6661,49.6423,701.5292],[-104.6581,49.6421,697.3984]]]]}
,"properties": {"GID_3": "CAN.12.11.33_1","GID_0": "CAN","country": "Canada","GID_1": "CAN.12_1","province": "Saskatchewan","NL_NAME_1": "NA","GID_2": "CAN.12.11_1","county": "DivisionNo.2","NL_NAME_2": "NA","city": "Pangman","VARNAME_3": "NA","NL_NAME_3": "NA","TYPE_3": "Village","ENGTYPE_3": "Village","CC_3": "NA","HASC_3": "NA","name": "Pangman.city","area_km2": 0.7413472,"hist_schema_id": "Elevation0-9000","hist_area_km2": {"675": 0.0823679,"700": 0.6589793}}}