{"type": "Feature","bbox": [-61.3736,45.5472,-60.6256,45.7714],"geometry": {"type": "MultiPolygon","coordinates": [[[[-61.2025,45.5636,5.8195],[-61.2172,45.5631,1.4286],[-61.2264,45.5608,0.0],[-61.2069,45.5603,0.0],[-61.1989,45.5625,0.249],[-61.2008,45.5642,0.0],[-61.2025,45.5636,5.8195]]],
[[[-61.1986,45.57,0.1758],[-61.1961,45.5714,0.0],[-61.2028,45.5703,0.0],[-61.2011,45.5692,1.3275],[-61.1986,45.57,0.1758]]],
[[[-61.2269,45.5789,0.0],[-61.2292,45.5789,0.6473],[-61.2275,45.5811,0.0],[-61.2328,45.5803,15.9058],[-61.2328,45.5783,6.1106],[-61.2358,45.5772,3.8728],[-61.2342,45.5756,14.2044],[-61.2358,45.5753,6.5909],[-61.2356,45.5736,0.0],[-61.2306,45.5708,3.5326],[-61.2244,45.5717,4.2538],[-61.2158,45.5686,0.0],[-61.205,45.5697,2.6105],[-61.2081,45.5731,0.0],[-61.2186,45.5747,1.4874],[-61.2186,45.5758,6.9936],[-61.2122,45.5767,0.0],[-61.2142,45.5781,0.0],[-61.2192,45.5772,3.1519],[-61.2269,45.5789,0.0]]],
[[[-61.1931,45.5817,6.1844],[-61.1969,45.5825,0.0],[-61.1944,45.5797,1.4149],[-61.19,45.5786,2.2626],[-61.1919,45.5756,9.3246],[-61.1872,45.5739,9.0002],[-61.1836,45.5744,0.0],[-61.1853,45.5764,0.0],[-61.1839,45.5781,0.0],[-61.1864,45.5789,0.0],[-61.1892,45.5769,9.4191],[-61.1867,45.5794,0.0],[-61.1931,45.5817,6.1844]]],
[[[-61.2236,45.5808,6.1056],[-61.2219,45.5803,0.0],[-61.2208,45.5822,0.0],[-61.2242,45.5825,3.3291],[-61.2258,45.5806,1.5939],[-61.2236,45.5808,6.1056]]],
[[[-61.2075,45.5872,3.1829],[-61.205,45.5883,0.8593],[-61.2086,45.5892,0.0],[-61.2086,45.5867,10.563],[-61.2175,45.5828,2.3326],[-61.2161,45.5814,2.4151],[-61.2089,45.5831,5.3787],[-61.1986,45.5819,0.0],[-61.1978,45.5839,8.2793],[-61.1917,45.5856,1.3014],[-61.1839,45.5853,0.0],[-61.1969,45.5875,0.9964],[-61.2022,45.5869,6.9977],[-61.2008,45.5858,6.9977],[-61.2039,45.5853,9.1251],[-61.2075,45.5872,3.1829]]],
[[[-61.2347,45.5872,6.5998],[-61.2286,45.5869,0.0],[-61.2239,45.5889,0.8779],[-61.225,45.5903,0.8779],[-61.2358,45.5897,1.33],[-61.2347,45.5872,6.5998]]],
[[[-61.2346,45.6208,5.7485],[-61.2292,45.6197,0.0],[-61.2311,45.6222,0.0],[-61.2336,45.6225,0.0],[-61.2346,45.6208,5.7485]]],
[[[-61.0039,45.6042,0.0],[-61.0081,45.6036,11.7349],[-61.0072,45.6058,3.2177],[-61.01,45.6064,3.5889],[-61.0236,45.6006,0.0],[-61.0203,45.5983,0.0],[-61.0156,45.5978,2.4169],[-60.9981,45.6031,0.0],[-61.0011,45.6047,4.3152],[-61.0039,45.6042,0.0]]],
[[[-60.9785,45.6091,0.0],[-60.9767,45.6078,0.0],[-60.9719,45.6094,0.0],[-60.9717,45.6111,0.0],[-60.9761,45.6122,0.0],[-60.98,45.6106,0.0],[-60.9785,45.6091,0.0]]],
[[[-60.9586,45.6111,1.0934],[-60.9583,45.6089,3.9757],[-60.9558,45.6089,1.1884],[-60.9558,45.61,1.1884],[-60.9586,45.6111,1.0934]]],
[[[-60.9956,45.6117,0.446],[-60.995,45.6125,4.184],[-60.9972,45.6139,0.0],[-60.9981,45.6123,2.352],[-60.9956,45.6117,0.446]]],
[[[-61.0203,45.6136,0.0],[-61.0206,45.6153,0.0],[-61.0236,45.6139,0.0],[-61.023,45.6128,1.3082],[-61.0203,45.6136,0.0]]],
[[[-60.9961,45.6175,1.5767],[-60.9978,45.6192,0.0],[-61.0011,45.6192,0.5851],[-61.0025,45.6172,10.2303],[-61.0019,45.6153,0.0],[-60.9969,45.615,0.0],[-60.9961,45.6175,1.5767]]],
[[[-61.3,45.6339,64.1915],[-61.327,45.6163,50.8961],[-61.3471,45.6056,1.3439],[-61.3504,45.6075,8.8684],[-61.3561,45.6064,15.4391],[-61.3675,45.6089,0.6008],[-61.3717,45.6086,1.4801],[-61.3736,45.6065,0.0],[-61.3703,45.6058,10.3926],[-61.3628,45.5956,8.1034],[-61.3514,45.5919,4.0365],[-61.3517,45.5861,3.9704],[-61.3411,45.5794,5.5818],[-61.3412,45.5737,0.0],[-61.3311,45.5647,1.9591],[-61.3047,45.5547,0.0],[-61.2964,45.5536,1.0735],[-61.2878,45.5472,1.9322],[-61.2887,45.5502,1.2878],[-61.2925,45.5514,0.0658],[-61.2903,45.5536,0.0],[-61.2919,45.5561,0.7263],[-61.2836,45.5561,8.6683],[-61.2814,45.5531,0.0],[-61.2769,45.5625,1.839],[-61.2814,45.5681,1.249],[-61.2933,45.5714,13.3212],[-61.2978,45.575,10.0606],[-61.2944,45.5756,0.0],[-61.2942,45.5772,6.4927],[-61.2889,45.5744,2.7061],[-61.2758,45.5797,3.3492],[-61.2678,45.5775,5.3264],[-61.2642,45.5783,1.2574],[-61.2578,45.5861,0.725],[-61.2536,45.5869,0.0],[-61.2553,45.59,0.0],[-61.2494,45.595,1.0997],[-61.2528,45.5942,7.5261],[-61.2536,45.5953,7.5261],[-61.2472,45.5953,16.0011],[-61.2478,45.5886,0.0],[-61.2386,45.5894,-0.0888],[-61.2361,45.5917,1.6387],[-61.2317,45.5908,1.4294],[-61.2286,45.5942,0.0],[-61.2364,45.5969,7.5903],[-61.2266,45.5987,0.0],[-61.2303,45.6036,2.4053],[-61.2269,45.6103,0.0],[-61.235,45.6119,12.2196],[-61.2333,45.6142,2.7948],[-61.2364,45.6164,6.8562],[-61.2342,45.6194,0.0],[-61.2358,45.6217,3.9379],[-61.2436,45.6233,17.5029],[-61.2392,45.6264,0.0],[-61.24,45.6283,15.6892],[-61.2361,45.6297,1.4231],[-61.2325,45.6353,3.6749],[-61.2281,45.6367,0.0],[-61.2406,45.6467,11.4863],[-61.2375,45.6486,1.6757],[-61.2253,45.6483,2.6951],[-61.2215,45.6503,9.0048],[-61.2228,45.6472,8.276],[-61.2378,45.6467,1.5613],[-61.2328,45.6447,3.1398],[-61.2242,45.6361,0.0],[-61.2261,45.6339,5.0847],[-61.2314,45.6333,0.0],[-61.2367,45.6261,2.2477],[-61.2283,45.6275,5.6093],[-61.2275,45.6242,0.9232],[-61.2183,45.6172,4.5484],[-61.2192,45.6158,5.0122],[-61.2242,45.6186,10.667],[-61.2283,45.6164,5.8432],[-61.2306,45.6169,7.2963],[-61.2319,45.6147,0.0],[-61.2169,45.6125,1.8925],[-61.2217,45.6111,4.3828],[-61.2263,45.6059,2.3028],[-61.2242,45.6042,3.59],[-61.2258,45.6031,0.3113],[-61.2219,45.6,5.5714],[-61.2083,45.5981,0.0],[-61.1947,45.5983,0.0],[-61.2006,45.6025,3.5813],[-61.1794,45.6022,6.3875],[-61.1764,45.6014,0.6483],[-61.1708,45.5953,0.0],[-61.165,45.5953,0.8937],[-61.1625,45.5917,0.0],[-61.1522,45.5894,14.2073],[-61.1622,45.5828,0.0],[-61.1614,45.5808,0.0],[-61.1625,45.5803,15.0452],[-61.1744,45.5808,3.5748],[-61.1753,45.5794,0.5724],[-61.1728,45.5786,11.1329],[-61.1778,45.5761,0.0],[-61.178,45.574,0.0],[-61.1747,45.5739,7.2175],[-61.1769,45.5722,5.9285],[-61.1997,45.5689,0.1758],[-61.1708,45.5722,10.2224],[-61.1922,45.5661,0.0],[-61.1808,45.5642,4.1132],[-61.1753,45.5656,3.1849],[-61.1658,45.5644,2.9261],[-61.1622,45.5653,0.0],[-61.1583,45.5692,3.8397],[-61.1555,45.5691,5.4945],[-61.1564,45.5672,1.0216],[-61.1503,45.5689,0.5056],[-61.1481,45.5711,6.6581],[-61.1256,45.5725,0.0386],[-61.1247,45.5731,0.0386],[-61.1299,45.5736,4.856],[-61.1119,45.5772,5.5137],[-61.1075,45.5797,0.0],[-61.1033,45.58,0.0],[-61.1011,45.5825,8.9515],[-61.0961,45.5822,6.2967],[-61.0861,45.5847,0.0],[-61.0908,45.5869,1.9065],[-61.0853,45.5908,7.4901],[-61.0831,45.5894,0.0],[-61.0822,45.5919,0.0],[-61.0778,45.5947,2.215],[-61.0767,45.5942,0.4278],[-61.0778,45.5908,0.6479],[-61.0714,45.5906,5.7404],[-61.0686,45.5919,0.0],[-61.0725,45.5953,0.0],[-61.0683,45.5975,0.0],[-61.0692,45.5989,0.3994],[-61.0673,45.6,0.0],[-61.0731,45.5997,5.3444],[-61.0756,45.6022,0.0],[-61.0767,45.5997,2.2597],[-61.0828,45.6036,0.0],[-61.08,45.605,0.0],[-61.0639,45.6058,1.8771],[-61.0614,45.6036,3.4978],[-61.0667,45.6031,0.0],[-61.0656,45.5986,3.2892],[-61.0669,45.5981,0.0],[-61.0667,45.5956,0.0],[-61.0508,45.5969,0.0],[-61.0481,45.595,0.0],[-61.045,45.5961,0.0],[-61.0503,45.6006,3.4914],[-61.0372,45.5961,0.5986],[-61.0331,45.5981,3.3082],[-61.0256,45.5986,0.7263],[-61.0256,45.6022,0.0],[-61.03,45.6028,3.5115],[-61.0178,45.6064,2.0179],[-61.0156,45.6058,1.2139],[-61.0128,45.6092,0.0],[-61.0175,45.6106,0.0],[-61.0194,45.6092,0.8234],[-61.0247,45.6114,4.1762],[-61.0278,45.6114,5.944],[-61.0303,45.6092,2.6212],[-61.0336,45.6106,0.0],[-61.0328,45.6133,1.7755],[-61.0283,45.6158,0.0],[-61.0344,45.6175,5.7795],[-61.0306,45.6172,6.6264],[-61.0272,45.618899999999996,0.0],[-61.0275,45.6219,0.0],[-61.0317,45.6242,0.0],[-61.0364,45.6219,12.2591],[-61.0436,45.6217,8.2226],[-61.0417,45.6244,0.0],[-61.0439,45.6258,1.3077],[-61.0392,45.6269,0.0],[-61.0389,45.6283,4.1582],[-61.0397,45.6311,-0.5],[-61.0467,45.6331,4.1687],[-61.0428,45.6331,0.0787],[-61.0397,45.6358,5.0979],[-61.0361,45.6322,7.4075],[-61.0375,45.6281,2.4493],[-61.0264,45.6267,2.0267],[-61.0225,45.6239,7.0464],[-61.0239,45.62,0.0],[-61.0203,45.6183,0.0],[-61.0153,45.6192,2.1918],[-61.0078,45.6178,1.4706],[-61.0047,45.6217,0.5197],[-61.0006,45.6225,0.0],[-61.0003,45.6264,0.0],[-61.0067,45.6264,11.9798],[-61.0114,45.6289,4.1207],[-61.0047,45.6303,0.0],[-60.9997,45.6283,0.0],[-60.9978,45.6303,0.0],[-61.0103,45.6319,12.4564],[-61.0084,45.6332,5.6174],[-60.9972,45.6331,0.0],[-60.9967,45.6311,0.0],[-60.9883,45.6272,7.4684],[-60.9936,45.6253,5.9415],[-60.9975,45.6261,3.6202],[-60.9986,45.6247,3.2788],[-60.9808,45.6228,3.308],[-60.9808,45.6211,1.6472],[-60.9831,45.6203,3.2648],[-60.993899999999996,45.6225,5.8282],[-60.9917,45.6192,7.7409],[-60.9922,45.6158,8.8163],[-60.9892,45.6144,4.1927],[-60.9792,45.6142,3.4098],[-60.9686,45.618899999999996,0.6213],[-60.9689,45.6208,2.1153],[-60.9653,45.6211,7.7773],[-60.9678,45.6186,0.0],[-60.9642,45.6183,0.0],[-60.9586,45.6222,12.5881],[-60.9489,45.6253,0.0],[-60.9511,45.6267,0.9585],[-60.9503,45.6292,0.0],[-60.9586,45.6315,5.2098],[-60.9586,45.6333,0.0],[-60.9603,45.6339,0.0],[-60.98,45.6344,1.0457],[-60.9803,45.6356,0.0],[-60.9828,45.6344,4.2002],[-60.9839,45.6358,2.1217],[-60.9769,45.6386,0.0],[-60.9694,45.6361,0.7397],[-60.9631,45.6372,11.4666],[-60.9533,45.635,0.0],[-60.94,45.6353,0.0],[-60.9319,45.6331,8.4423],[-60.9347,45.6319,6.9997],[-60.9414,45.6336,1.3517],[-60.9433,45.6311,4.5929],[-60.9453,45.6331,0.5704],[-60.9528,45.6328,1.7495],[-60.9447,45.6275,3.7261],[-60.9478,45.6258,0.0],[-60.9428,45.6231,0.0],[-60.9389,45.6231,0.0],[-60.9361,45.6253,0.0],[-60.9367,45.6275,0.0],[-60.9389,45.6264,6.2908],[-60.9433,45.6273,3.7261],[-60.9411,45.6289,5.417],[-60.9422,45.6306,3.2645],[-60.9406,45.6311,3.4049],[-60.9239,45.6281,0.3428],[-60.9149,45.628,0.0],[-60.9169,45.6294,9.5155],[-60.9144,45.6306,7.3041],[-60.9122,45.6289,18.8694],[-60.9171,45.6252,0.0],[-60.9311,45.6272,0.0],[-60.9353,45.6258,0.6517],[-60.9364,45.6236,0.1116],[-60.9353,45.6223,0.1116],[-60.9283,45.6233,0.0],[-60.9222,45.6217,0.0],[-60.9111,45.6286,0.4164],[-60.9072,45.6294,2.7258],[-60.9064,45.6339,5.7163],[-60.9003,45.6344,3.5992],[-60.8969,45.6375,0.0],[-60.8939,45.6378,0.0],[-60.8981,45.6386,15.8639],[-60.9022,45.6422,0.0],[-60.9075,45.6406,0.8536],[-60.9083,45.6433,8.8032],[-60.9044,45.6447,0.0],[-60.9069,45.6489,4.447],[-60.9064,45.6519,5.5514],[-60.9097,45.6558,4.7408],[-60.8989,45.6517,1.1055],[-60.8992,45.6494,3.2161],[-60.9033,45.6486,7.1971],[-60.9039,45.6469,0.0],[-60.8983,45.6453,0.0],[-60.8969,45.6433,0.0],[-60.8894,45.6481,0.0],[-60.8942,45.6508,0.0],[-60.8956,45.6483,3.255],[-60.8956,45.6522,8.9316],[-60.8781,45.6539,11.7473],[-60.8687,45.6515,33.524],[-60.865,45.6574,1.0772],[-60.8724,45.6608,2.343],[-60.8775,45.6608,1.3907],[-60.8781,45.6622,3.7698],[-60.8686,45.6637,0.0],[-60.867,45.665,1.7204],[-60.8672,45.6681,1.8331],[-60.8544,45.6692,0.9341],[-60.8503,45.6719,0.0],[-60.8494,45.6731,1.1623],[-60.8536,45.6772,0.0],[-60.8522,45.6796,2.3974],[-60.8357,45.6794,4.2078],[-60.8317,45.6775,1.6824],[-60.8313,45.6812,1.5008],[-60.8378,45.6846,5.716],[-60.8414,45.6889,4.9393],[-60.8336,45.6906,7.1501],[-60.8303,45.688,1.0038],[-60.8256,45.691,6.2701],[-60.8206,45.6911,4.1938],[-60.8306,45.7016,2.6194],[-60.8262,45.7015,0.6115],[-60.8183,45.6958,0.8616],[-60.8201,45.7003,5.2755],[-60.8186,45.7067,0.0],[-60.8159,45.7053,0.0],[-60.8111,45.7063,1.6321],[-60.8024,45.701,3.6729],[-60.7994,45.7042,0.0],[-60.8045,45.7056,0.0],[-60.8128,45.7158,5.3634],[-60.8106,45.7175,8.5616],[-60.8081,45.7125,1.4653],[-60.8039,45.7156,0.0419],[-60.8117,45.7225,5.4108],[-60.8208,45.7272,7.315],[-60.8189,45.7276,2.0238],[-60.8183,45.7302,4.4833],[-60.8167,45.7261,4.2512],[-60.8128,45.7247,0.0],[-60.8107,45.7261,6.53],[-60.8091,45.731,0.0],[-60.8114,45.7306,1.4575],[-60.8208,45.7347,6.4693],[-60.8175,45.7361,2.7924],[-60.8115,45.7328,0.0],[-60.8094,45.7333,4.232],[-60.8135,45.7369,15.0598],[-60.8239,45.7353,8.839],[-60.8296,45.7374,2.2387],[-60.8361,45.743899999999996,0.0],[-60.8446,45.7475,0.9222],[-60.8478,45.7524,0.0],[-60.8519,45.7544,1.8898],[-60.8531,45.7506,2.7818],[-60.8547,45.7547,-1.2755],[-60.8565,45.7536,7.3951],[-60.8694,45.7575,0.0],[-60.8728,45.7564,11.2692],[-60.8807,45.7573,0.0],[-60.9036,45.7659,0.0737],[-60.9186,45.7644,-0.4768],[-60.9287,45.768,3.7511],[-60.935,45.7667,4.3368],[-60.9406,45.7714,0.6247],[-60.9414,45.7677,0.0],[-60.9452,45.765,4.5854],[-60.9544,45.7654,7.9101],[-60.9644,45.7681,3.2018],[-60.9659,45.7665,0.0],[-60.9619,45.7672,1.9739],[-60.9607,45.7657,1.2358],[-60.9633,45.765,0.0],[-60.9618,45.7646,0.0],[-60.9642,45.76,6.5605],[-60.9692,45.7611,1.5808],[-60.9805,45.7564,0.4338],[-60.984,45.7512,3.5562],[-60.9876,45.7516,2.0724],[-60.9894,45.7536,3.3984],[-60.9947,45.7456,0.0],[-60.9984,45.7431,13.7117],[-61.0047,45.7425,0.6566],[-61.0107,45.7353,12.7418],[-61.0206,45.7295,12.9968],[-61.0311,45.7254,13.1641],[-61.0377,45.7249,4.9653],[-61.0407,45.7215,1.0561],[-61.0466,45.7222,0.0],[-61.0498,45.7178,2.5818],[-61.0577,45.7137,20.103],[-61.0761,45.7097,5.2615],[-61.0778,45.7088,0.0],[-61.0774,45.7059,0.444],[-61.0809,45.7053,5.962],[-61.0844,45.7009,0.9119],[-61.0897,45.6981,4.9781],[-61.0945,45.6984,-0.5],[-61.0956,45.6998,5.8463],[-61.107,45.6973,2.3885],[-61.1216,45.7064,5.4766],[-61.128,45.7006,0.0],[-61.1379,45.6998,17.0263],[-61.1481,45.7027,4.3029],[-61.1565,45.7088,0.0],[-61.1612,45.7081,7.3836],[-61.1608,45.7056,6.2149],[-61.1622,45.705,3.7363],[-61.1627,45.7083,7.7987],[-61.166,45.7096,4.2793],[-61.2536,45.6615,67.3322],[-61.3,45.6339,64.1915]]],
[[[-61.0611,45.7161,0.8435],[-61.0608,45.7144,0.0],[-61.0589,45.7158,0.9902],[-61.0594,45.7164,0.9902],[-61.0611,45.7161,0.8435]]],
[[[-60.9344,45.6197,0.0],[-60.9386,45.6213,0.0],[-60.9394,45.6206,0.0],[-60.9369,45.6193,0.2195],[-60.9344,45.6197,0.0]]],
[[[-60.6256,45.6217,0.0],[-60.6267,45.6228,2.9348],[-60.6284,45.6241,0.0],[-60.6269,45.6215,3.815],[-60.6256,45.6217,0.0]]],
[[[-60.6408,45.6281,0.0],[-60.6379,45.6272,4.9491],[-60.638,45.6282,4.9491],[-60.6442,45.6293,5.5435],[-60.6425,45.6283,0.0],[-60.6408,45.6281,0.0]]],
[[[-60.8992,45.6328,0.0],[-60.8971,45.6319,0.0],[-60.8965,45.632,0.0],[-60.8981,45.6336,0.0],[-60.8992,45.6328,0.0]]],
[[[-60.8661,45.6614,2.3997],[-60.8627,45.66,0.0],[-60.8596,45.6611,1.8349],[-60.8616,45.6641,0.8428],[-60.8649,45.6652,9.934],[-60.8666,45.6633,6.9326],[-60.8661,45.6614,2.3997]]],
[[[-60.8333,45.6751,0.0],[-60.8342,45.6775,0.0],[-60.8482,45.6765,1.6075],[-60.8461,45.6747,2.6288],[-60.8333,45.6751,0.0]]],
[[[-60.8147,45.7003,2.099],[-60.8178,45.7014,0.0],[-60.8154,45.6973,10.2048],[-60.8113,45.6955,6.3655],[-60.8083,45.6964,0.0],[-60.8138,45.6991,2.099],[-60.8147,45.7003,2.099]]],
[[[-60.8056,45.6986,1.2682],[-60.8076,45.7007,0.0],[-60.8097,45.7,0.0],[-60.806399999999996,45.6978,1.2682],[-60.8056,45.6986,1.2682]]],
[[[-60.9849,45.7609,0.0],[-60.9886,45.7622,0.0],[-60.9898,45.7613,3.0164],[-60.9885,45.7579,0.0],[-60.9863,45.7598,0.0],[-60.9811,45.7599,0.0],[-60.9849,45.7609,0.0]]],
[[[-60.9022,45.7672,0.0],[-60.9003,45.7673,5.1414],[-60.8999,45.7694,0.0],[-60.9011,45.7699,1.8812],[-60.9022,45.7672,0.0]]],
[[[-61.091,45.6997,0.0],[-61.0892,45.7008,0.0],[-61.0904,45.7024,0.0],[-61.0919,45.7006,2.2724],[-61.091,45.6997,0.0]]]]}
,"properties": {"GID_3": "CAN.7.15.2_1","GID_0": "CAN","country": "Canada","GID_1": "CAN.7_1","province": "NovaScotia","NL_NAME_1": "NA","GID_2": "CAN.7.15_1","county": "Richmond","NL_NAME_2": "NA","city": "Richmond,Subd.A","VARNAME_3": "NA","NL_NAME_3": "NA","TYPE_3": "SubdivisionofCountyMunicipali","ENGTYPE_3": "SubdivisionofCountyMunicipali","CC_3": "NA","HASC_3": "NA","name": "Richmond,Subd.A.city","area_km2": 477.9477,"hist_schema_id": "Elevation0-9000","hist_area_km2": {"0": 54.5862,"25": 133.5654,"50": 116.0647,"75": 80.3037,"100": 28.9876,"125": 11.6519,"150": 18.9496,"175": 32.7434,"200": 1.0952}}}