{"type":"Feature","properties":{"GID_3":"CAN.5.3.56_1","GID_0":"CAN","country":"Canada","GID_1":"CAN.5_1","province":"NewfoundlandandLabrador","NL_NAME_1":"NA","GID_2":"CAN.5.3_1","county":"DivisionNo.1","NL_NAME_2":"NA","city":"Holyrood","VARNAME_3":"NA","NL_NAME_3":"NA","TYPE_3":"Town","ENGTYPE_3":"Town","CC_3":"NA","HASC_3":"NA","name":"Holyrood.city"},
"geometry":{"type": "MultiPolygon","coordinates": [[[[-53.0956,47.4568,0.1919],[-53.1001,47.4538,0.0],[-53.1074,47.444,0.0],[-53.1072,47.4408,25.4334],[-53.1114,47.43,0.0],[-53.1197,47.4164,0.0],[-53.1252,47.3966,1.4126],[-53.1241,47.3949,2.2304],[-53.129,47.3863,0.185],[-53.1352,47.386,3.3296],[-53.1374,47.3973,1.2618],[-53.1402,47.3996,1.8078],[-53.1471,47.3991,0.0],[-53.1528,47.3967,3.0985],[-53.1547,47.3936,12.3758],[-53.1572,47.3939,26.1048],[-53.1403,47.4101,4.3827],[-53.1312,47.4213,4.8085],[-53.1292,47.4259,7.3637],[-53.1456,47.421,14.2103],[-53.1557,47.409,51.3641],[-53.1698,47.4044,67.515],[-53.1857,47.4038,72.4681],[-53.1879,47.3949,115.3651],[-53.1944,47.385,96.957],[-53.1947,47.3802,89.8161],[-53.2008,47.373,89.0],[-53.2262,47.3608,103.9889],[-53.2279,47.3581,115.7285],[-53.215,47.3579,117.937],[-53.2101,47.3528,131.73],[-53.2069,47.3465,106.8046],[-53.2131,47.3388,121.8672],[-53.2209,47.3366,120.2999],[-53.2234,47.334,119.8767],[-53.2459,47.2968,148.7897],[-53.2453,47.2816,143.9925],[-53.2383,47.2789,138.7911],[-53.2233,47.2793,156.7504],[-53.22,47.2729,128.1401],[-53.2089,47.2709,121.2065],[-53.2062,47.2685,121.3333],[-53.1946,47.2733,126.1735],[-53.1476,47.2758,210.6262],[-53.1255,47.2912,306.2991],[-53.1104,47.3264,182.0858],[-53.0794,47.3293,214.8923],[-53.0801,47.3309,214.4172],[-53.0839,47.3309,210.5],[-53.0841,47.3328,210.5],[-53.0813,47.3345,222.4983],[-53.0768,47.3335,211.8665],[-53.078,47.3369,210.722],[-53.0758,47.3375,210.5],[-53.0799,47.3388,214.8213],[-53.0769,47.3394,214.5954],[-53.0778,47.3414,227.7791],[-53.082,47.3445,209.2935],[-53.0922,47.3442,195.9715],[-53.0915,47.3472,208.2901],[-53.0862,47.3484,210.2456],[-53.0842,47.3506,208.8103],[-53.0843,47.3619,243.7655],[-53.0927,47.3622,215.8081],[-53.0948,47.3644,167.89],[-53.0851,47.3725,193.6854],[-53.0791,47.3746,217.7762],[-53.0804,47.3772,224.6009],[-53.0794,47.3786,224.6009],[-53.0927,47.4015,196.546],[-53.0834,47.4111,121.2235],[-53.0865,47.4132,90.37],[-53.084,47.4231,90.7824],[-53.0841,47.4312,76.3038],[-53.0849,47.4346,59.4001],[-53.0935,47.4369,28.9887],[-53.0912,47.4511,9.4088],[-53.0933,47.4537,0.9068],[-53.0967,47.4545,-0.3217],[-53.0937,47.4558,-0.1601],[-53.0956,47.4568,0.1919]]]]}}