{"type": "Feature","bbox": [-72.9576,45.577,-72.8684,45.6981],"geometry": {"type": "MultiPolygon","coordinates": [[[[-72.9177,45.5897,32.709],[-72.9011,45.577,41.3508],[-72.8684,45.599,68.0956],[-72.8954,45.6192,33.8564],[-72.9022,45.6144,33.1952],[-72.9149,45.6236,33.0562],[-72.9217,45.619,34.8983],[-72.909,45.6098,33.6261],[-72.9114,45.6081,35.3375],[-72.924,45.6175,34.4647],[-72.9287,45.6143,33.6826],[-72.9232,45.61,32.2193],[-72.9345,45.6024,32.3341],[-72.9177,45.5897,32.709]]],
[[[-72.9547,45.687,35.2768],[-72.95,45.6837,34.1217],[-72.9532,45.6798,39.4072],[-72.9531,45.676,35.4357],[-72.9573,45.6684,50.5265],[-72.9576,45.6628,33.5695],[-72.9541,45.6482,35.1051],[-72.9139,45.6562,34.14],[-72.9037,45.6722,32.8274],[-72.9382,45.6981,34.7506],[-72.9547,45.687,35.2768]]]]}
,"properties": {"GID_3": "CAN.11.68.10_1","GID_0": "CAN","country": "Canada","GID_1": "CAN.11_1","province": "Québec","NL_NAME_1": "NA","GID_2": "CAN.11.68_1","county": "LesMaskoutains","NL_NAME_2": "NA","city": "Saint-Hyacinthe-le-Confesseur","VARNAME_3": "NA","NL_NAME_3": "NA","TYPE_3": "MunicipalitéDeParoisse","ENGTYPE_3": "ParishMunicipality","CC_3": "NA","HASC_3": "NA","name": "Saint-Hyacinthe-le-Confesseur.city","area_km2": 28.13701,"hist_schema_id": "Elevation0-9000","hist_area_km2": {"25": 26.31307,"50": 1.74977,"75": 0.07417}}}