{"type": "Feature","bbox": [-125.9838,55.4698,-125.9547,55.4844],"geometry": {"type": "MultiPolygon","coordinates": [[[[-125.9739,55.4842,735.7242],[-125.9838,55.4835,686.5],[-125.9828,55.4805,686.5],[-125.9558,55.4698,686.5],[-125.9547,55.4844,777.5896],[-125.9739,55.4842,735.7242]]]]}
,"properties": {"GID_3": "CAN.2.2.30_1","GID_0": "CAN","country": "Canada","GID_1": "CAN.2_1","province": "BritishColumbia","NL_NAME_1": "NA","GID_2": "CAN.2.2_1","county": "Bulkley-Nechako","NL_NAME_2": "NA","city": "NorthTaclaLake7","VARNAME_3": "NA","NL_NAME_3": "NA","TYPE_3": "RéserveIndienne","ENGTYPE_3": "IndianReserve","CC_3": "NA","HASC_3": "NA","name": "North_Tacla_Lake7.city","area_km2": 1.790292,"hist_schema_id": "Elevation0-9000","hist_area_km2": {"675": 0.973291,"700": 0.348438,"725": 0.252309,"750": 0.192227,"775": 0.024028}}}