{"type": "Feature","bbox": [-68.9862,47.5751,-68.8151,47.8202],"geometry": {"type": "MultiPolygon","coordinates": [[[[-68.8989,47.8202,243.7399],[-68.9106,47.7701,290.0588],[-68.9504,47.7765,316.204],[-68.9862,47.7167,283.4391],[-68.9636,47.7092,344.5081],[-68.9489,47.7074,279.8155],[-68.9412,47.704,273.5958],[-68.9373,47.7035,285.7993],[-68.9302,47.7064,250.8587],[-68.9316,47.7029,276.9291],[-68.9271,47.6889,201.2149],[-68.9309,47.6866,207.8363],[-68.918,47.6851,208.4954],[-68.9301,47.6692,257.7769],[-68.9321,47.6526,269.0577],[-68.9361,47.6518,273.7764],[-68.9545,47.6074,345.7716],[-68.9599,47.6033,361.9336],[-68.9153,47.5751,232.7968],[-68.9099,47.5805,223.9167],[-68.9048,47.5792,268.3767],[-68.8865,47.5958,253.6773],[-68.8932,47.6066,204.0451],[-68.8879,47.6073,216.6843],[-68.891,47.6168,216.0121],[-68.8932,47.6182,190.7803],[-68.8773,47.6218,231.8172],[-68.8798,47.627,276.0071],[-68.8748,47.6261,262.9576],[-68.872,47.6302,263.8841],[-68.8755,47.6336,291.5193],[-68.862,47.6367,223.5578],[-68.8672,47.6476,226.6473],[-68.8693,47.6488,207.6923],[-68.8157,47.6613,147.5],[-68.8151,47.663,147.5],[-68.8331,47.6711,147.5],[-68.8387,47.6756,147.5],[-68.8455,47.6769,147.5],[-68.8514,47.6839,147.5],[-68.8609,47.685,147.5],[-68.8648,47.6821,147.5],[-68.8732,47.6884,147.5],[-68.8844,47.691,147.5],[-68.8899,47.6958,147.5],[-68.8926,47.7004,147.5],[-68.8982,47.6991,147.5],[-68.8947,47.7019,147.5],[-68.9048,47.7123,147.5],[-68.9052,47.7151,147.5],[-68.9013,47.7245,147.5],[-68.8984,47.7266,147.5],[-68.894,47.7388,147.5],[-68.8889,47.7424,147.5],[-68.8851,47.7528,147.5],[-68.8765,47.7592,147.5],[-68.8753,47.7629,147.5],[-68.8653,47.7739,147.5],[-68.8658,47.7776,147.5],[-68.8616,47.7953,147.5],[-68.8989,47.8202,243.7399]]]]}
,"properties": {"GID_3": "CAN.11.96.3_1","GID_0": "CAN","country": "Canada","GID_1": "CAN.11_1","province": "Québec","NL_NAME_1": "NA","GID_2": "CAN.11.96_1","county": "Témiscouata","NL_NAME_2": "NA","city": "Cabano","VARNAME_3": "NA","NL_NAME_3": "NA","TYPE_3": "Ville","ENGTYPE_3": "Ville","CC_3": "NA","HASC_3": "NA","name": "Cabano.city","area_km2": 127.40083,"hist_schema_id": "Elevation0-9000","hist_area_km2": {"150": 19.57232,"175": 23.87485,"200": 19.90001,"225": 16.2566,"250": 15.19647,"275": 14.3078,"300": 9.97344,"325": 5.06644,"350": 2.05537,"375": 0.68436,"400": 0.48467,"425": 0.02851}}}