{"type":"Feature","properties":{"GID_3":"CAN.9.6.5_1","GID_0":"CAN","country":"Canada","GID_1":"CAN.9_1","province":"Ontario","NL_NAME_1":"NA","GID_2":"CAN.9.6_1","county":"Dufferin","NL_NAME_2":"NA","city":"Mono","VARNAME_3":"NA","NL_NAME_3":"NA","TYPE_3":"Town","ENGTYPE_3":"Town","CC_3":"NA","HASC_3":"NA","name":"Mono.city"},
"geometry":{"type": "MultiPolygon","coordinates": [[[[-80.1347,43.9288,484.8729],[-80.1096,43.9334,440.3447],[-80.1025,43.9326,418.7592],[-80.1025,43.9349,418.7659],[-80.1011,43.935,418.7659],[-80.0947,43.9313,417.0919],[-80.0837,43.933,418.5451],[-80.0812,43.9227,421.5997],[-79.9825,43.9449,424.6486],[-79.9664,43.9468,430.5768],[-79.9512,43.9515,384.8658],[-79.9939,44.1233,333.3369],[-80.1219,44.0938,502.0526],[-80.1717,44.0849,474.0827],[-80.1347,43.9288,484.8729]]]]}}