{"type":"Feature","properties":{"GID_3":"CAN.11.47.6_1","GID_0":"CAN","country":"Canada","GID_1":"CAN.11_1","province":"Québec","NL_NAME_1":"NA","GID_2":"CAN.11.47_1","county":"Lac-Saint-Jean-Est","NL_NAME_2":"NA","city":"Hébertville-Station","VARNAME_3":"NA","NL_NAME_3":"NA","TYPE_3":"Village","ENGTYPE_3":"Village","CC_3":"NA","HASC_3":"NA","name":"Hébertville-Station.city"},
"geometry":{"type": "MultiPolygon","coordinates": [[[[-71.5701,48.4072,191.505],[-71.5593,48.4333,231.9656],[-71.5934,48.4398,177.6985],[-71.5986,48.4264,189.4192],[-71.6155,48.4293,162.7626],[-71.6126,48.4353,165.1663],[-71.6211,48.4368,161.3105],[-71.6176,48.445,163.7887],[-71.641,48.4492,156.8098],[-71.6399,48.4519,156.4345],[-71.6811,48.4593,148.1687],[-71.6841,48.4522,149.0914],[-71.718,48.4585,150.5807],[-71.7236,48.4447,152.5113],[-71.6729,48.4352,159.5488],[-71.678,48.4209,157.615],[-71.6547,48.4166,162.8312],[-71.6525,48.4215,163.8486],[-71.5701,48.4072,191.505]]]]}}