{"type": "Feature","bbox": [-110.0052,51.62,-109.6903,51.8816],"geometry": {"type": "MultiPolygon","coordinates": [[[[-110.0043,51.62,717.8907],[-109.6903,51.6204,715.0328],[-109.6918,51.8813,722.4397],[-110.0041,51.8816,726.0361],[-110.0052,51.7944,711.1837],[-110.0043,51.62,717.8907]],
[[-109.985,51.6563,695.7233],[-109.9968,51.6559,703.6361],[-109.9968,51.6629,692.7473],[-109.9852,51.6629,681.6127],[-109.985,51.6563,695.7233]]]]}
,"properties": {"GID_3": "CAN.12.4.2_1","GID_0": "CAN","country": "Canada","GID_1": "CAN.12_1","province": "Saskatchewan","NL_NAME_1": "NA","GID_2": "CAN.12.4_1","county": "DivisionNo.13","NL_NAME_2": "NA","city": "AntelopeParkNo.322","VARNAME_3": "NA","NL_NAME_3": "NA","TYPE_3": "RuralMunicipality","ENGTYPE_3": "RuralMunicipality","CC_3": "NA","HASC_3": "NA","name": "Antelope_Park_No.322.city","area_km2": 625.1848,"hist_schema_id": "Elevation0-9000","hist_area_km2": {"650": 10.8729,"675": 54.3256,"700": 221.7915,"725": 316.4474,"750": 21.6165,"775": 0.1309}}}