{"type": "Feature","bbox": [-67.7724,47.0855,-67.753,47.1109],"geometry": {"type": "MultiPolygon","coordinates": [[[[-67.7574,47.0855,243.4984],[-67.7561,47.086,232.4573],[-67.756,47.0921,235.4201],[-67.753,47.0923,229.5953],[-67.754,47.1109,238.9857],[-67.7724,47.1104,249.5488],[-67.7712,47.0858,220.922],[-67.7574,47.0855,243.4984]]]]}
,"properties": {"GID_3": "CAN.4.7.22_1","GID_0": "CAN","country": "Canada","GID_1": "CAN.4_1","province": "NewBrunswick","NL_NAME_1": "NA","GID_2": "CAN.4.7_1","county": "Madawaska","NL_NAME_2": "NA","city": "St.André","VARNAME_3": "NA","NL_NAME_3": "NA","TYPE_3": "Village","ENGTYPE_3": "Village","CC_3": "NA","HASC_3": "NA","name": "St.André.city","area_km2": 3.680461,"hist_schema_id": "Elevation0-9000","hist_area_km2": {"200": 0.288643,"225": 2.063964,"250": 1.327854}}}