{"type":"Feature","properties":{"featurecla":"River","scalerank":11,"rivernum":23273,"dissolve":"23273River","name":"St. Croix","name_alt":null,"note":null,"name_full":"Saint Croix River","min_zoom":6.7,"strokeweig":0.2,"uident":0,"min_label":7.7},
"geometry":{"type": "LineString","coordinates": [[-67.441395637103739,45.6046003275982,148.6449],[-67.432077603249567,45.598211981244027,135.8866],[-67.422840949603739,45.569118556764863,121.5006],[-67.426869269916239,45.533718166139863,121.081],[-67.443796353249567,45.522487697389863,113.6865],[-67.468332486062067,45.508612371869027,113.9776],[-67.494007941791239,45.493353582806527,96.7974],[-67.4830623037704,45.455755926556527,92.9335],[-67.429554816791239,45.387396551556527,82.0846],[-67.435292121478739,45.350612697389863,86.2156],[-67.459828254291239,45.318670965619027,68.3473],[-67.469349738666239,45.302191473431527,71.9039],[-67.475819465228739,45.282660223431527,73.3278],[-67.472035285541239,45.266628322389863,70.9109],[-67.428293423562067,45.236843166139863,75.553],[-67.3912654287704,45.193386134889863,77.7081],[-67.357045051166239,45.166205145306527,107.824],[-67.320017056374567,45.154120184369027,38.4278],[-67.285389777728739,45.169989324994027,38.6061],[-67.280344204812067,45.179388739056527,37.1172],[-67.280018683978739,45.1876081400982,21.8529],[-67.277943488666239,45.195339259889863,17.767],[-67.268137173562067,45.2027448588482,20.0289],[-67.255726691791239,45.205349025514863,40.6505],[-67.243234829812067,45.202826239056527,26.1591],[-67.219838019916239,45.192409572389863,22.7597],[-67.2043757803329,45.1782087260357,31.4047]]}}