{"type":"Feature","properties":{"GID_3":"CAN.4.9.3_1","GID_0":"CAN","country":"Canada","GID_1":"CAN.4_1","province":"NewBrunswick","NL_NAME_1":"NA","GID_2":"CAN.4.9_1","county":"Queens","NL_NAME_2":"NA","city":"Cambridge-Narrows","VARNAME_3":"NA","NL_NAME_3":"NA","TYPE_3":"Village","ENGTYPE_3":"Village","CC_3":"NA","HASC_3":"NA","name":"Cambridge-Narrows.city"},
"geometry":{"type": "MultiPolygon","coordinates": [[[[-66.0482,45.7227,0.0],[-66.0316,45.7244,0.0],[-66.0235,45.7298,0.0],[-66.019,45.7358,0.0],[-66.0201,45.7386,0.0],[-66.0166,45.7428,0.0],[-66.0156,45.7509,12.324],[-66.0028,45.7676,0.0],[-66.0019,45.7709,0.0],[-65.9973,45.7746,0.0],[-65.9798,45.7801,0.0],[-65.9409,45.7643,17.149],[-65.9286,45.7856,39.8393],[-65.9153,45.7833,74.8757],[-65.911,45.7793,95.8212],[-65.8806,45.7921,66.1269],[-65.915,45.8062,91.7814],[-65.8962,45.8326,100.5418],[-65.8976,45.8335,100.5418],[-65.8833,45.852,37.1975],[-65.8685,45.8519,59.1448],[-65.9047,45.8664,5.5335],[-65.913,45.8766,6.4419],[-65.95,45.8913,38.2631],[-65.9575,45.884,63.295],[-65.9512,45.882,62.9439],[-65.9641,45.8767,84.7593],[-65.9692,45.8711,77.2382],[-65.9753,45.8736,70.357],[-65.9923,45.8436,96.1537],[-65.9952,45.8496,72.336],[-66.0123,45.8468,100.8043],[-66.0149,45.8517,80.7999],[-66.018,45.851,71.8133],[-66.0226,45.859,46.7224],[-66.0456,45.8508,67.0629],[-66.0501,45.8447,101.0799],[-66.0439,45.8318,93.2696],[-66.0327,45.8336,93.3812],[-66.0332,45.8357,90.3405],[-66.0111,45.8428,100.017],[-66.005,45.8289,100.1699],[-66.0018,45.829,99.1016],[-66.0222,45.8006,107.0273],[-66.0201,45.7997,98.2887],[-66.0358,45.79,128.055],[-66.0625,45.7503,54.6072],[-66.0634,45.748,53.0224],[-66.0544,45.7448,46.8753],[-66.0578,45.7389,24.8657],[-66.0448,45.7246,0.0],[-66.0482,45.7227,0.0]]]]}}