{"type":"Feature","properties":{"GID_3":"CAN.9.29.16_1","GID_0":"CAN","country":"Canada","GID_1":"CAN.9_1","province":"Ontario","NL_NAME_1":"NA","GID_2":"CAN.9.29_1","county":"Manitoulin","NL_NAME_2":"NA","city":"SuckerCreek23","VARNAME_3":"NA","NL_NAME_3":"NA","TYPE_3":"RéserveIndienne","ENGTYPE_3":"IndianReserve","CC_3":"NA","HASC_3":"NA","name":"Sucker_Creek23.city"},
"geometry":{"type": "MultiPolygon","coordinates": [[[[-82.0259,45.9625,187.1023],[-82.026,45.9608,190.1261],[-82.0154,45.9607,197.138],[-82.0153,45.9516,232.1802],[-81.9784,45.9513,258.7742],[-81.9786,45.9605,205.0974],[-81.9734,45.9605,204.226],[-81.973,45.9697,200.5329],[-82.0078,45.9699,179.4395],[-82.0143,45.9667,188.3192],[-82.0258,45.9639,173.5],[-82.0259,45.9625,187.1023]]]]}}