{"type": "Feature","bbox": [-72.829,46.5746,-72.6617,46.6662],"geometry": {"type": "MultiPolygon","coordinates": [[[[-72.6617,46.6188,131.3963],[-72.6776,46.6287,102.2287],[-72.6892,46.6398,102.1667],[-72.6882,46.6474,102.3843],[-72.6894,46.6498,102.6756],[-72.6949,46.6525,103.2975],[-72.6989,46.652,104.9466],[-72.7028,46.6536,105.4606],[-72.7064,46.6598,102.3929],[-72.7058,46.6615,102.3056],[-72.7126,46.6662,120.4545],[-72.7501,46.6413,239.7031],[-72.7871,46.6659,169.8596],[-72.7923,46.6649,196.4759],[-72.7948,46.6623,255.6216],[-72.7953,46.654,200.0772],[-72.8113,46.6546,238.6173],[-72.8192,46.6532,218.1158],[-72.8246,46.6501,216.0861],[-72.8251,46.648,234.4409],[-72.8218,46.6464,192.4981],[-72.829,46.6417,175.3415],[-72.8055,46.6236,276.7409],[-72.8117,46.6199,289.5289],[-72.8097,46.6183,300.7515],[-72.816,46.6145,266.8807],[-72.8141,46.6132,260.0525],[-72.8156,46.6122,247.8709],[-72.8132,46.6108,230.9919],[-72.8083,46.6136,258.8325],[-72.8061,46.6119,181.4922],[-72.8027,46.614,215.168],[-72.7972,46.6085,164.1615],[-72.7941,46.6105,149.924],[-72.7943,46.6078,150.7432],[-72.7923,46.6064,149.9688],[-72.7904,46.6075,155.2194],[-72.7863,46.6044,166.0228],[-72.7825,46.6068,188.4361],[-72.7781,46.6034,156.4167],[-72.7919,46.5944,139.7572],[-72.7562,46.5845,128.8789],[-72.7526,46.5799,135.0438],[-72.7524,46.5746,131.712],[-72.7124,46.601,153.7624],[-72.6999,46.5918,121.7714],[-72.6845,46.6025,112.6648],[-72.6683,46.5915,88.3601],[-72.6667,46.5956,89.737799999999993],[-72.6707,46.5999,90.7067],[-72.6743,46.6095,75.875],[-72.6617,46.6188,131.3963]]]]}
,"properties": {"GID_3": "CAN.11.51.2_1","GID_0": "CAN","country": "Canada","GID_1": "CAN.11_1","province": "Québec","NL_NAME_1": "NA","GID_2": "CAN.11.51_1","county": "LeCentre-de-la-Mauricie","NL_NAME_2": "NA","city": "Grand-Mère","VARNAME_3": "NA","NL_NAME_3": "NA","TYPE_3": "Ville","ENGTYPE_3": "Ville","CC_3": "NA","HASC_3": "NA","name": "Grand-Mère.city","area_km2": 70.8991,"hist_schema_id": "Elevation0-9000","hist_area_km2": {"75": 0.71372,"100": 3.39262,"125": 5.24196,"150": 28.98084,"175": 12.47811,"200": 7.42657,"225": 3.72677,"250": 3.68295,"275": 2.56214,"300": 1.58692,"325": 0.93176,"350": 0.17471}}}