{"type":"Feature","properties":{"featurecla":"River","scalerank":9,"rivernum":1013,"dissolve":"1013River","name":"Miramichi2","name_alt":null,"note":null,"min_zoom":7.1,"strokeweig":0.25,"name_en":"Miramichi","min_label":8.1},
"geometry":{"type": "LineString","coordinates": [[-65.90498046875,46.601581121869117,39.6789],[-65.893115234374989,46.60736725468162,24.2433],[-65.882006835937489,46.614862371869116,17.3277],[-65.856127929687489,46.64069244999412,19.7858],[-65.839526367187489,46.65143463749412,51.9202],[-65.797607421875,46.66010162968162,54.8046],[-65.77998046875,46.670917059369117,49.2843],[-65.770361328124991,46.685419012494116,24.1182],[-65.775561523437489,46.70087311405662,12.21],[-65.790478515625,46.70978424686912,53.9637],[-65.80908203125,46.71796295780662,47.365],[-65.823974609375,46.72870514530662,25.9533],[-65.827392578125,46.74518463749412,25.0057],[-65.816577148437489,46.757684637494116,48.8199],[-65.777758789062489,46.772088934369116,44.3188],[-65.765307617187489,46.78620026249412,30.8835],[-65.779296875,46.79169342655662,40.503],[-65.782885742187489,46.805926824994117,25.5727],[-65.781909179687489,46.82050202030662,25.2591],[-65.782397460937489,46.827167059369117,19.6105],[-65.768237304687489,46.829852606244117,29.9578],[-65.726855468749989,46.84430573124412,31.6118],[-65.667822265624991,46.874872137494116,21.8051],[-65.65234375,46.88580963749412,0.0],[-65.601416015624991,46.94330475468162,0.0],[-65.595263671874989,46.94818756718162,0.0],[-65.590576171875,46.95001862186912,0.7621],[-65.580810546875,46.958612371869116,1.8219],[-65.561816406249989,46.999286199994117,0.0],[-65.552416992187489,47.01276276249412,0.0],[-65.537280273437489,47.01850006718162,2.613],[-65.500537109374989,47.02179596561912,0.0],[-65.484130859375,47.026385809369117,0.0],[-65.446533203125,47.05255768436912,0.0],[-65.367529296874991,47.08783600468162,13.0281]]}}