{"type": "Feature","bbox": [-104.3375,51.4976,-104.1768,51.5906],"geometry": {"type": "MultiPolygon","coordinates": [[[[-104.3375,51.538,652.4636],[-104.2941,51.5381,651.5369],[-104.2933,51.4976,650.4761],[-104.1768,51.4978,641.3799],[-104.1772,51.5384,647.8175],[-104.2703,51.5385,652.6754],[-104.2699,51.5906,674.5007],[-104.3373,51.5906,671.8158],[-104.3375,51.538,652.4636]]]]}
,"properties": {"GID_3": "CAN.12.1.5_1","GID_0": "CAN","country": "Canada","GID_1": "CAN.12_1","province": "Saskatchewan","NL_NAME_1": "NA","GID_2": "CAN.12.1_1","county": "DivisionNo.10","NL_NAME_2": "NA","city": "DayStar87","VARNAME_3": "NA","NL_NAME_3": "NA","TYPE_3": "RéserveIndienne","ENGTYPE_3": "IndianReserve","CC_3": "NA","HASC_3": "NA","name": "Day_Star87.city","area_km2": 63.39366,"hist_schema_id": "Elevation0-9000","hist_area_km2": {"650": 53.57744,"675": 9.72401,"700": 0.09221}}}