{"type":"Feature","properties":{"GID_3":"CAN.2.8.5_1","GID_0":"CAN","country":"Canada","GID_1":"CAN.2_1","province":"BritishColumbia","NL_NAME_1":"NA","GID_2":"CAN.2.8_1","county":"Columbia-Shuswap","NL_NAME_2":"NA","city":"Columbia-ShuswapD","VARNAME_3":"NA","NL_NAME_3":"NA","TYPE_3":"RegionalDistrictElectoralArea","ENGTYPE_3":"RegionalDistrictElectoralArea","CC_3":"NA","HASC_3":"NA","name":"Columbia-Shuswap_D.city"},
"geometry":{"type": "MultiPolygon","coordinates": [[[[-119.5247,50.7446,1431.4578],[-119.5256,50.5766,1352.1135],[-119.6517,50.576,814.6253],[-119.651,50.4855,716.038],[-119.6672,50.4817,612.1986],[-119.6628,50.4762,594.5892],[-119.6511,50.4721,599.1262],[-119.6515,50.4022,1398.2717],[-119.6287,50.4023,1388.0115],[-119.6289,50.4165,1309.7131],[-119.6063,50.4163,1325.9618],[-119.6067,50.4311,1018.2073],[-119.5822,50.4309,1206.9729],[-119.5823,50.4458,1368.4141],[-119.527,50.4452,824.0007],[-119.5266,50.431,1050.851],[-119.4465,50.4309,931.1556],[-119.4458,50.416,1400.998],[-119.3524,50.4162,881.1445],[-119.3526,50.426,568.7917],[-119.364,50.4262,777.598],[-119.3645,50.4485,474.3843],[-119.3746,50.4484,560.2706],[-119.3749,50.4542,499.1813],[-119.3655,50.4555,459.3098],[-119.3498,50.4644,518.6031],[-119.3428,50.4726,452.8066],[-119.3431,50.4772,461.9153],[-119.3397,50.484,447.919],[-119.3463,50.4968,429.4396],[-119.3449,50.5008,428.3103],[-119.3522,50.5155,472.0334],[-119.308,50.5146,1136.9113],[-119.3083,50.5287,1218.7998],[-119.1834,50.5278,515.0082],[-119.1809,50.664,714.3579],[-119.2493,50.6636,809.5604],[-119.2493,50.6339,936.1497],[-119.3879,50.6343,365.6605],[-119.3875,50.726,1281.8767],[-119.3978,50.7262,1485.6896],[-119.4086,50.7239,1594.4108],[-119.4138,50.7344,1479.452],[-119.4149,50.7426,1583.2549],[-119.4229,50.7454,1512.0176],[-119.4369,50.7447,1492.9509],[-119.4402,50.735,1649.64],[-119.4423,50.7336,1666.5256],[-119.4614,50.7245,1574.0518],[-119.4755,50.7192,1445.8789],[-119.4826,50.7181,1245.2069],[-119.5063,50.7277,1289.3268],[-119.515,50.7274,1487.0062],[-119.5222,50.7306,1510.9171],[-119.5171,50.736,1481.4503],[-119.5162,50.7395,1472.2191],[-119.518,50.742,1472.2283],[-119.5247,50.7446,1431.4578]]]]}}