{"type": "Feature","bbox": [-55.3074,49.0292,-55.1605,49.1233],"geometry": {"type": "MultiPolygon","coordinates": [[[[-55.198,49.1233,0.875],[-55.2097,49.1177,0.0],[-55.2124,49.1146,1.5704],[-55.2427,49.1027,0.0],[-55.2982,49.0748,2.6063],[-55.3062,49.0733,0.0],[-55.3074,49.0722,0.0],[-55.3041,49.0684,15.3536],[-55.3012,49.0559,95.9859],[-55.304,49.048,111.4916],[-55.2754,49.0292,108.9702],[-55.1605,49.0993,100.8768],[-55.198,49.1233,0.875]]]]}
,"properties": {"GID_3": "CAN.5.8.14_1","GID_0": "CAN","country": "Canada","GID_1": "CAN.5_1","province": "NewfoundlandandLabrador","NL_NAME_1": "NA","GID_2": "CAN.5.8_1","county": "DivisionNo.6","NL_NAME_2": "NA","city": "NorrisArm","VARNAME_3": "NA","NL_NAME_3": "NA","TYPE_3": "Town","ENGTYPE_3": "Town","CC_3": "NA","HASC_3": "NA","name": "Norris_Arm.city","area_km2": 48.96988,"hist_schema_id": "Elevation0-9000","hist_area_km2": {"0": 1.76318,"25": 2.61017,"50": 3.45723,"75": 12.25987,"100": 15.11199,"125": 9.34957,"150": 3.76491,"175": 0.65295}}}