{"type":"Feature","properties":{"GID_3":"CAN.12.2.17_1","GID_0":"CAN","country":"Canada","GID_1":"CAN.12_1","province":"Saskatchewan","NL_NAME_1":"NA","GID_2":"CAN.12.2_1","county":"DivisionNo.11","NL_NAME_2":"NA","city":"Duval","VARNAME_3":"NA","NL_NAME_3":"NA","TYPE_3":"Village","ENGTYPE_3":"Village","CC_3":"NA","HASC_3":"NA","name":"Duval.city"},
"geometry":{"type": "MultiPolygon","coordinates": [[[[-104.984,51.1542,530.6763],[-104.9839,51.1612,530.5771],[-104.9963,51.1613,529.8463],[-104.9963,51.1524,532.4413],[-104.9911,51.1523,530.282],[-104.9912,51.1542,533.0753],[-104.984,51.1542,530.6763]]]]}}