{"type":"Feature","properties":{"GID_3":"CAN.2.17.5_1","GID_0":"CAN","country":"Canada","GID_1":"CAN.2_1","province":"BritishColumbia","NL_NAME_1":"NA","GID_2":"CAN.2.17_1","county":"MountWaddington","NL_NAME_2":"NA","city":"ComptonIsland6","VARNAME_3":"NA","NL_NAME_3":"NA","TYPE_3":"RéserveIndienne","ENGTYPE_3":"IndianReserve","CC_3":"NA","HASC_3":"NA","name":"Compton_Island6.city"},
"geometry":{"type": "MultiPolygon","coordinates": [[[[-126.674,50.595,19.855],[-126.6859,50.5955,52.4308],[-126.6873,50.5928,69.2858],[-126.6831,50.5915,3.5614],[-126.674,50.595,19.855]]]]}}