{"type":"Feature","properties":{"featurecla":"River","scalerank":11,"rivernum":20947,"dissolve":"20947River","name":"Paradise","name_alt":null,"note":"ID is link back to CEC data","name_full":"Paradise River","min_zoom":6.7,"strokeweig":0.15,"uident":1497101,"min_label":7.7},
"geometry":{"type": "LineString","coordinates": [[-57.874623176166239,52.844997463014863,264.8103],[-57.908802863666239,52.809637762494027,324.011],[-57.91958574127041,52.753241278119027,365.2443],[-57.935373501687067,52.735134181764863,360.5825],[-57.94570878814541,52.730658270306527,356.8072],[-57.987375454812067,52.726629949994027,354.0164],[-58.023508267312067,52.736273504681527,356.6163],[-58.05142167877041,52.729763088014863,354.647],[-58.085804816791239,52.711859442181527,358.6195],[-58.105336066791239,52.692979233848192,356.3657],[-58.099354621478739,52.644842840619027,356.5],[-58.060780402728739,52.557399806764863,375.3396],[-58.05776933502041,52.539007879681527,377.0182]]}}