{"type":"Feature","properties":{"featurecla":"River","scalerank":10,"rivernum":20920,"dissolve":"20920River","name":"Naskaupi","name_alt":null,"note":"ID is link back to CEC data","name_full":"Naskaupi River","min_zoom":6.0,"strokeweig":0.25,"uident":1499001,"min_label":7.0},
"geometry":{"type": "LineString","coordinates": [[-63.065419074603739,54.118353582806527,457.5665],[-63.015695767312067,54.132350978639863,455.388],[-62.945871548562067,54.144313869264863,450.3749],[-62.899810350645396,54.154974676556527,438.1536],[-62.810943163145396,54.184678452598192,391.4747],[-62.753000454812067,54.207220770306527,458.9623],[-62.634836392312067,54.263006903119027,285.0879],[-62.588612433978739,54.273545640098192,272.2219],[-62.534779426166239,54.272894598431527,371.203],[-62.488107876687067,54.279567775514863,325.5797],[-62.436268683978739,54.288885809369027,233.6813],[-62.38638261627041,54.324815171348192,341.4709],[-62.357289191791239,54.336737371869027,278.7272],[-62.32192949127041,54.358099676556527,296.4361],[-62.276193814187067,54.376288153119027,262.0856],[-62.21182206939541,54.379217840619027,243.089],[-62.168934699603739,54.394476629681527,265.4193],[-62.05435136627041,54.410101629681527,261.1035],[-62.049672004291239,54.410711981244027,243.4731],[-61.943714973041239,54.413885809369027,235.2679],[-61.934152798562067,54.412909246869027,228.0763],[-61.763783332416239,54.395697332806527,213.5],[-61.624867316791239,54.393988348431527,271.6291],[-61.57046464752041,54.390204168744027,238.7815],[-61.534738736062067,54.375067449994027,224.0812],[-61.489125129291239,54.352972723431527,211.5],[-61.464466926166239,54.328395900514863,221.3157],[-61.463937954812067,54.327826239056527,221.3157],[-61.46939042877041,54.302801824994027,259.4212],[-61.496815558978739,54.273260809369027,223.9775],[-61.49600175689541,54.271104233848192,219.2962],[-61.490712043353739,54.256048895306527,227.4219],[-61.457875129291239,54.228461004681527,293.9643],[-61.47744706939541,54.196478582806527,272.6372],[-61.445871548562067,54.179022528119027,198.4837],[-61.452951626687067,54.169989324994027,327.9803],[-61.448312954812067,54.155585028119027,210.2047],[-61.395090298562067,54.116725978639863,338.3047],[-61.344227668353739,54.091579494264863,82.4789],[-61.27017167877041,54.071356512494027,129.8525],[-61.163400845437067,54.019598699994027,147.1346],[-61.10855058502041,53.987494207806527,84.2561],[-60.999867316791239,53.938666082806527,68.4861]]}}