{"type":"Feature","properties":{"featurecla":"River","scalerank":11,"rivernum":20922,"dissolve":"20922River","name":"Red Wine","name_alt":null,"note":"ID is link back to CEC data","name_full":"Red Wine River","min_zoom":6.7,"strokeweig":0.2,"uident":1498701,"min_label":7.7},
"geometry":{"type": "LineString","coordinates": [[-62.482899543353739,53.960069077598192,534.8991],[-62.480824348041239,53.991319077598192,552.2651],[-62.455555793353739,54.016546942181527,530.8018],[-62.429758267312067,54.034247137494027,565.0505],[-62.339426236062067,54.078151759889863,468.3373],[-62.274403449603739,54.096787827598192,472.6499],[-62.23599199127041,54.105495509889863,452.7701],[-62.176218228249567,54.108506577598192,453.315],[-62.096506314187067,54.108262436973192,434.6548],[-62.066395637103739,54.105983791139863,443.7393],[-62.022287564187067,54.092474676556527,422.795],[-61.994007941791239,54.079372463014863,379.5466],[-61.95645097564541,54.065700588014863,381.3066],[-61.93032792877041,54.045599676556527,321.5191],[-61.848866340228739,54.014471746869027,332.3395],[-61.805246548562067,54.004746811973192,330.0441],[-61.718251105853739,53.969590561973192,291.9783],[-61.649484829812067,53.943955796348192,263.6599],[-61.551828579812067,53.916693426556527,204.5259],[-61.47695878814541,53.887152410931527,180.4856],[-61.340931769916239,53.874090887494027,76.1133],[-61.230295376687067,53.882513739056527,117.118],[-61.156727668353739,53.910101629681527,205.2475],[-61.07290605377041,53.919134832806527,49.9686],[-60.999867316791239,53.938666082806527,68.4861]]}}