{"type":"Feature","properties":{"featurecla":"River","scalerank":11,"rivernum":20881,"dissolve":"20881River","name":"Kenamu1","name_alt":null,"note":"ID is link back to CEC data","name_full":"Kenamu River","min_zoom":6.7,"strokeweig":0.2,"uident":1517201,"min_label":7.7},
"geometry":{"type": "LineString","coordinates": [[-59.92275956939541,53.439032293744027,67.3509],[-59.888986782937067,53.418809311973192,30.3476],[-59.888742642312067,53.403428452598192,37.0881],[-59.933908657937067,53.348211981244027,49.9389],[-59.946359829812067,53.329046942181527,76.6262],[-59.959706183978739,53.249619858848192,107.266],[-59.956898566791239,53.163926499473192,128.1161],[-59.982167121478739,53.059027410931527,183.3963],[-60.015695767312067,53.014471746869027,262.8783],[-60.05752519439541,52.950018621869027,257.6455],[-60.127308723041239,52.875515041139863,212.4585],[-60.18154863189541,52.841009832806527,249.1403],[-60.197092251687067,52.825995184369027,241.4145],[-60.212595181374567,52.795477606244027,251.6945],[-60.236887173562067,52.753241278119027,256.0383],[-60.22964433502041,52.718939520306527,278.9928],[-60.24185136627041,52.699774481244027,259.7878],[-60.25430253814541,52.692084051556527,266.1776],[-60.290638801166239,52.689479884889863,304.256],[-60.354725715228739,52.694932358848192,370.2274],[-60.399118618874567,52.706000067181527,422.7463],[-60.43350175689541,52.721747137494027,366.9136],[-60.53677324127041,52.746364650514863,376.9663]]}}