{"type":"Feature","properties":{"featurecla":"River","scalerank":11,"rivernum":20883,"dissolve":"20883River","name":"null399","name_alt":null,"note":"ID is link back to CEC data","name_full":null,"min_zoom":6.7,"strokeweig":0.2,"uident":1515201,"min_label":7.7},
"geometry":{"type": "LineString","coordinates": [[-63.715891079812067,53.857692775514863,469.4389],[-63.674712694395396,53.838568426556527,469.6604],[-63.661447720437067,53.814886785931527,468.5],[-63.604562954812067,53.792181707806527,492.5376],[-63.541249152728739,53.776556707806527,496.0265],[-63.495961066791239,53.781561590619027,492.3866],[-63.425282355853739,53.803778387494027,491.0003],[-63.388091600645396,53.812526759889863,504.6824],[-63.294829881895396,53.802028713014863,502.6074],[-63.220611131895396,53.779242254681527,504.1085],[-63.083119269916239,53.757635809369027,505.0695],[-62.991810676166239,53.740545965619027,504.6785]]}}