{"type":"Feature","properties":{"featurecla":"River","scalerank":11,"rivernum":20928,"dissolve":"20928River","name":"St. Lewis","name_alt":null,"note":"ID is link back to CEC data","name_full":"St. Lewis River","min_zoom":6.7,"strokeweig":0.15,"uident":1500801,"min_label":7.7},
"geometry":{"type": "LineString","coordinates": [[-57.393666144916239,52.148871160931527,359.5483],[-57.275949673562067,52.193915106244027,367.1379],[-57.147328254291239,52.236761785931527,334.2166],[-57.021962043353739,52.279974676556527,333.3395],[-56.930531379291239,52.295721746869027,343.3878]]}}