{"type": "Feature","bbox": [-80.3503,43.1016,-80.1909,43.1936],"geometry": {"type": "MultiPolygon","coordinates": [[[[-80.2309,43.1856,218.7904],[-80.234,43.1936,218.4871],[-80.2975,43.1835,233.8918],[-80.2955,43.1784,237.14],[-80.3002,43.1771,230.8233],[-80.2998,43.1759,237.5311],[-80.3044,43.1756,231.5897],[-80.3028,43.1709,239.0434],[-80.3099,43.1716,240.4839],[-80.3334,43.1685,242.1366],[-80.3356,43.1737,240.2445],[-80.344,43.1722,248.9568],[-80.3421,43.1673,238.4665],[-80.3478,43.1666,247.7622],[-80.3503,43.1593,234.4726],[-80.3461,43.1516,240.9915],[-80.342,43.153,213.8101],[-80.3351,43.1519,213.2182],[-80.3284,43.1459,210.031],[-80.3241,43.1446,244.2122],[-80.3148,43.1505,212.0359],[-80.3073,43.1373,210.3118],[-80.3084,43.1301,240.1923],[-80.3145,43.1296,247.2954],[-80.3113,43.126,225.9249],[-80.3192,43.1227,236.5674],[-80.329,43.1088,245.83],[-80.3207,43.1085,228.3823],[-80.3031,43.1016,224.1613],[-80.2991,43.1064,222.8571],[-80.2874,43.1121,228.1596],[-80.2847,43.1183,224.1978],[-80.2747,43.1218,205.5685],[-80.2728,43.1123,193.5616],[-80.2697,43.1093,219.9456],[-80.2652,43.1071,195.0482],[-80.2564,43.1101,202.6377],[-80.2548,43.1067,221.292],[-80.2516,43.1057,220.482],[-80.2454,43.1067,217.7883],[-80.2376,43.1137,212.1911],[-80.2324,43.116,214.3777],[-80.215,43.1144,197.2762],[-80.2107,43.117,190.379],[-80.2068,43.1228,196.0296],[-80.2118,43.1319,204.4779],[-80.2087,43.1359,199.6972],[-80.1949,43.1377,218.928],[-80.1909,43.1478,220.0523],[-80.199,43.1507,214.3049],[-80.2081,43.1582,220.3692],[-80.2172,43.1775,215.7345],[-80.2218,43.1767,216.0881],[-80.2259,43.1855,213.6111],[-80.2301,43.1845,217.0072],[-80.2309,43.1856,218.7904]]]]}
,"properties": {"GID_3": "CAN.9.2.2_1","GID_0": "CAN","country": "Canada","GID_1": "CAN.9_1","province": "Ontario","NL_NAME_1": "NA","GID_2": "CAN.9.2_1","county": "Brant","NL_NAME_2": "NA","city": "Brantford","VARNAME_3": "NA","NL_NAME_3": "NA","TYPE_3": "Cité","ENGTYPE_3": "City","CC_3": "NA","HASC_3": "NA","name": "Brantford.city","area_km2": 77.96321,"hist_schema_id": "Elevation0-9000","hist_area_km2": {"200": 26.45825,"225": 40.15389,"250": 11.3356,"275": 0.01546}}}