{"type": "Feature","bbox": [-105.4516,51.3436,-105.4281,51.3522],"geometry": {"type": "MultiPolygon","coordinates": [[[[-105.4281,51.3443,512.1249],[-105.4281,51.3501,510.8091],[-105.4369,51.3502,512.2758],[-105.4371,51.3521,512.6185],[-105.4403,51.3522,515.0918],[-105.4403,51.3502,514.4135],[-105.4516,51.3501,519.4124],[-105.4516,51.3436,514.4342],[-105.4281,51.3443,512.1249]]]]}
,"properties": {"GID_3": "CAN.12.2.27_1","GID_0": "CAN","country": "Canada","GID_1": "CAN.12_1","province": "Saskatchewan","NL_NAME_1": "NA","GID_2": "CAN.12.2_1","county": "DivisionNo.11","NL_NAME_2": "NA","city": "Imperial","VARNAME_3": "NA","NL_NAME_3": "NA","TYPE_3": "Town","ENGTYPE_3": "Town","CC_3": "NA","HASC_3": "NA","name": "Imperial.city","area_km2": 1.2713164,"hist_schema_id": "Elevation0-9000","hist_area_km2": {"500": 0.2118786,"525": 1.0594379}}}