{"type":"Feature","properties":{"GID_2":"CAN.11.78_1","GID_0":"CAN","country":"Canada","GID_1":"CAN.11_1","province":"Québec","NL_NAME_1":"NA","county":"Memphrémagog","VARNAME_2":"NA","NL_NAME_2":"NA","TYPE_2":"RegionalCountyMunicipality","ENGTYPE_2":"RegionalCountyMunicipality","CC_2":"45","HASC_2":"CA.QC.MG","name":"Memphrémagog.county"},
"geometry":{"type": "MultiPolygon","coordinates": [[[[-72.0969,45.0695,282.1159],[-72.098,45.161,241.7329],[-71.9169,45.1601,402.7466],[-71.9204,45.3072,161.4092],[-71.9146,45.3071,165.7112],[-71.9024,45.3146,157.5287],[-71.8978,45.3204,160.9429],[-71.8868,45.3283,157.2843],[-71.8838,45.3334,152.7923],[-71.8747,45.3384,155.3456],[-71.8684,45.3486,155.243],[-71.8634,45.3511,157.3996],[-71.8758,45.3511,282.5443],[-71.8763,45.3605,235.5686],[-71.9063,45.3601,287.4186],[-71.9064,45.362,281.1438],[-71.914,45.3604,300.1588],[-71.9296,45.3605,287.8663],[-71.9415,45.3419,309.4856],[-71.9432,45.3361,325.7938],[-71.9411,45.3337,341.373],[-71.9491,45.3334,298.5372],[-71.9486,45.3075,366.1851],[-72.0436,45.3089,192.5],[-72.0493,45.3009,193.3578],[-72.1068,45.3021,255.5848],[-72.1067,45.3218,255.7744],[-72.1458,45.3246,299.5979],[-72.1439,45.3983,236.7811],[-72.141,45.4098,236.5],[-72.15,45.4428,236.5],[-72.1852,45.4474,312.3918],[-72.2159,45.4491,341.2891],[-72.2376,45.4497,392.8493],[-72.24,45.4159,410.8976],[-72.249,45.376,283.5],[-72.3623,45.3771,283.0175],[-72.463,45.3752,278.6895],[-72.4644,45.3489,281.4229],[-72.4627,45.3076,288.6533],[-72.3992,45.308,270.0097],[-72.4039,45.1563,308.415],[-72.4798,45.1579,369.1808],[-72.4858,45.0096,604.0232],[-72.3084,45.0037,459.262],[-72.0403,45.0066,375.9178],[-72.0409,45.0228,321.1138],[-72.0769,45.0229,326.7006],[-72.0768,45.0332,321.0465],[-72.0964,45.0338,313.8421],[-72.0969,45.0695,282.1159]]]]}}