{"type": "Feature","bbox": [-57.8352,49.8461,-57.7708,49.8819],"geometry": {"type": "MultiPolygon","coordinates": [[[[-57.8003,49.8461,11.0997],[-57.7978,49.8475,3.9708],[-57.7989,49.8511,0.0],[-57.7978,49.8556,0.0],[-57.8006,49.8569,2.6577],[-57.8044,49.8553,6.616],[-57.8111,49.8578,0.0],[-57.8128,49.8589,0.045],[-57.8119,49.8622,0.0],[-57.8156,49.8636,0.6156],[-57.815,49.8667,0.204],[-57.8186,49.8653,-0.0115],[-57.8219,49.8669,0.3769],[-57.825,49.8661,0.5651],[-57.825,49.8572,1.0955],[-57.8286,49.855,0.0],[-57.8297,49.85,6.8628],[-57.8324,49.8472,0.0],[-57.8058,49.8465,47.9595],[-57.8003,49.8461,11.0997]]],
[[[-57.8189,49.8813,0.56],[-57.8117,49.8767,0.0],[-57.8056,49.8772,0.0807],[-57.8028,49.8744,0.0098],[-57.7964,49.8778,0.1335],[-57.7947,49.8758,0.6483],[-57.79,49.8758,2.5847],[-57.7875,49.8742,0.6582],[-57.7917,49.8711,0.0517],[-57.7867,49.8681,0.0],[-57.7867,49.8664,0.2578],[-57.798,49.8584,2.0673],[-57.7958,49.8564,2.5088],[-57.7917,49.8575,1.711],[-57.7844,49.8628,0.6528],[-57.7803,49.8636,0.0],[-57.78,49.8658,1.2335],[-57.7764,49.8681,2.8546],[-57.7742,49.8642,1.7778],[-57.7708,49.8664,1.1642],[-57.7733,49.8681,0.3343],[-57.7715,49.8707,1.7589],[-57.7778,49.8729,7.1643],[-57.7991,49.879,0.174],[-57.8189,49.8813,0.56]]],
[[[-57.8304,49.8817,0.0334],[-57.8352,49.8813,6.5978],[-57.8317,49.8739,0.9881],[-57.8267,49.8753,0.0],[-57.8283,49.8769,0.7429],[-57.8286,49.8808,0.0753],[-57.8197,49.8814,0.1275],[-57.8267,49.8819,0.0503],[-57.8304,49.8817,0.0334]]]]}
,"properties": {"GID_3": "CAN.5.11.33_1","GID_0": "CAN","country": "Canada","GID_1": "CAN.5_1","province": "NewfoundlandandLabrador","NL_NAME_1": "NA","GID_2": "CAN.5.11_1","county": "DivisionNo.9","NL_NAME_2": "NA","city": "St.Pauls","VARNAME_3": "NA","NL_NAME_3": "NA","TYPE_3": "Town","ENGTYPE_3": "Town","CC_3": "NA","HASC_3": "NA","name": "St.Pauls.city","area_km2": 5.836133,"hist_schema_id": "Elevation0-9000","hist_area_km2": {"0": 5.097905,"25": 0.683541,"50": 0.054687}}}