{"type":"Feature","properties":{"GID_3":"CAN.12.18.51_1","GID_0":"CAN","country":"Canada","GID_1":"CAN.12_1","province":"Saskatchewan","NL_NAME_1":"NA","GID_2":"CAN.12.18_1","county":"DivisionNo.9","NL_NAME_2":"NA","city":"Yorkton","VARNAME_3":"NA","NL_NAME_3":"NA","TYPE_3":"Cité","ENGTYPE_3":"City","CC_3":"NA","HASC_3":"NA","name":"Yorkton.city"},
"geometry":{"type": "MultiPolygon","coordinates": [[[[-102.4434,51.1954,503.7686],[-102.4276,51.1954,503.6195],[-102.4276,51.2249,502.3575],[-102.4389,51.2249,503.6257],[-102.4388,51.2325,501.3825],[-102.4508,51.2325,502.4482],[-102.451,51.2396,501.6077],[-102.4863,51.2397,506.864],[-102.4861,51.2321,507.8138],[-102.5211,51.2321,517.3322],[-102.5205,51.2249,518.0028],[-102.5054,51.2247,514.5988],[-102.4981,51.2229,513.4786],[-102.4978,51.2215,513.9948],[-102.4978,51.2101,511.6521],[-102.5092,51.2099,519.7791],[-102.5093,51.2024,520.104],[-102.4998,51.202,516.4991],[-102.5161,51.1879,513.4049],[-102.4978,51.1882,519.4695],[-102.4978,51.1954,519.0826],[-102.451,51.1954,504.7943],[-102.451,51.194,504.7943],[-102.449,51.194,505.8387],[-102.449,51.1954,505.8387],[-102.4434,51.1954,503.7686]]]]}}