{"type": "Feature","bbox": [-134.9047,67.3823,-134.737,67.4855],"geometry": {"type": "MultiPolygon","coordinates": [[[[-134.9047,67.402,3.0],[-134.9031,67.3946,16.1222],[-134.8984,67.3896,10.5909],[-134.7769,67.3823,20.3371],[-134.737,67.4771,43.2891],[-134.8579,67.4855,12.7698],[-134.8575,67.4806,16.2273],[-134.8607,67.4759,11.7553],[-134.8814,67.451,11.9954],[-134.8939,67.4394,10.0792],[-134.8988,67.4292,3.2267],[-134.8985,67.418,14.6354],[-134.9024,67.4117,14.5946],[-134.9047,67.402,3.0]]]]}
,"properties": {"GID_3": "CAN.6.2.5_1","GID_0": "CAN","country": "Canada","GID_1": "CAN.6_1","province": "NorthwestTerritories","NL_NAME_1": "NA","GID_2": "CAN.6.2_1","county": "Inuvik","NL_NAME_2": "NA","city": "FortMcPherson","VARNAME_3": "NA","NL_NAME_3": "NA","TYPE_3": "Hamlet","ENGTYPE_3": "Hamlet","CC_3": "NA","HASC_3": "NA","name": "Fort_Mc_Pherson.city","area_km2": 60.32464,"hist_schema_id": "Elevation0-9000","hist_area_km2": {"0": 8.8248,"25": 48.39028,"50": 3.10956}}}