{"type":"Feature","properties":{"GID_3":"CAN.11.4.25_1","GID_0":"CAN","country":"Canada","GID_1":"CAN.11_1","province":"Québec","NL_NAME_1":"NA","GID_2":"CAN.11.4_1","county":"Antoine-Labelle","NL_NAME_2":"NA","city":"Mont-Laurier","VARNAME_3":"NA","NL_NAME_3":"NA","TYPE_3":"Ville","ENGTYPE_3":"Ville","CC_3":"NA","HASC_3":"NA","name":"Mont-Laurier.city"},
"geometry":{"type": "MultiPolygon","coordinates": [[[[-75.4074,46.6148,252.1325],[-75.4074,46.6255,286.7252],[-75.4485,46.6251,258.1555],[-75.4491,46.6446,221.3224],[-75.4688,46.6448,223.7948],[-75.474,46.6404,233.6335],[-75.4753,46.6344,219.293],[-75.4617,46.6062,223.2856],[-75.4598,46.5995,231.9761],[-75.461,46.5942,235.7379],[-75.4764,46.5773,214.1442],[-75.4807,46.5746,222.3405],[-75.4859,46.5637,208.3419],[-75.4925,46.5585,218.2419],[-75.4924,46.5622,221.3908],[-75.5204,46.563,223.015],[-75.5203,46.5557,216.2649],[-75.512,46.5559,209.9084],[-75.5145,46.5533,206.7552],[-75.5134,46.5473,205.8657],[-75.5042,46.5447,204.7401],[-75.4984,46.5383,203.5],[-75.4974,46.5322,205.4152],[-75.4994,46.5248,206.9025],[-75.4999,46.5129,203.0],[-75.4962,46.5026,213.528],[-75.498,46.4999,204.7884],[-75.3856,46.5013,219.7311],[-75.3966,46.5108,228.0],[-75.4017,46.5181,228.0],[-75.4101,46.5228,228.0],[-75.4133,46.5287,228.0],[-75.411,46.5395,228.0],[-75.4065,46.5443,232.948],[-75.4065,46.5494,228.0],[-75.4028,46.552,231.0128],[-75.398,46.55,236.8593],[-75.4014,46.5562,228.0],[-75.4059,46.5546,228.0],[-75.408,46.5582,229.5976],[-75.4269,46.5581,321.821],[-75.4273,46.5706,317.1466],[-75.4075,46.5711,259.4196],[-75.4074,46.6148,252.1325]]]]}}