{"type": "Feature","bbox": [-107.784,53.1414,-107.7601,53.1484],"geometry": {"type": "MultiPolygon","coordinates": [[[[-107.7601,53.1484,744.4553],[-107.784,53.1481,742.1982],[-107.784,53.1448,745.2343],[-107.7762,53.1449,747.673],[-107.7691,53.1414,746.3748],[-107.7604,53.1414,743.8024],[-107.7601,53.1484,744.4553]]]]}
,"properties": {"GID_3": "CAN.12.7.45_1","GID_0": "CAN","country": "Canada","GID_1": "CAN.12_1","province": "Saskatchewan","NL_NAME_1": "NA","GID_2": "CAN.12.7_1","county": "DivisionNo.16","NL_NAME_2": "NA","city": "RabbitLake","VARNAME_3": "NA","NL_NAME_3": "NA","TYPE_3": "Village","ENGTYPE_3": "Village","CC_3": "NA","HASC_3": "NA","name": "Rabbit_Lake.city","area_km2": 0.8647442,"hist_schema_id": "Elevation0-9000","hist_area_km2": {"750": 0.8647442}}}