{"type":"Feature","properties":{"GID_3":"CAN.10.1.26_1","GID_0":"CAN","country":"Canada","GID_1":"CAN.10_1","province":"PrinceEdwardIsland","NL_NAME_1":"NA","GID_2":"CAN.10.1_1","county":"Kings","NL_NAME_2":"NA","city":"Morell","VARNAME_3":"NA","NL_NAME_3":"NA","TYPE_3":"Community","ENGTYPE_3":"Community","CC_3":"NA","HASC_3":"NA","name":"Morell.city"},
"geometry":{"type": "MultiPolygon","coordinates": [[[[-62.708,46.4082,25.006],[-62.6984,46.4097,1.7596],[-62.7,46.4136,1.2959],[-62.6992,46.4172,5.1631],[-62.6975,46.418,2.0563],[-62.7011,46.4224,8.3781],[-62.7139,46.4195,27.1715],[-62.7106,46.4077,26.9896],[-62.708,46.4082,25.006]]]]}}