{"type":"Feature","properties":{"GID_2":"CAN.11.61_1","GID_0":"CAN","country":"Canada","GID_1":"CAN.11_1","province":"Québec","NL_NAME_1":"NA","county":"LesBasques","VARNAME_2":"NA","NL_NAME_2":"NA","TYPE_2":"RegionalCountyMunicipality","ENGTYPE_2":"RegionalCountyMunicipality","CC_2":"11","HASC_2":"CA.QC.BA","name":"Les_Basques.county"},
"geometry":{"type": "MultiPolygon","coordinates": [[[[-68.775,47.9468,287.2081],[-68.7136,47.988,315.5429],[-68.7452,48.0094,303.8318],[-68.6593,48.0659,283.9985],[-68.7694,48.1392,337.0153],[-68.7678,48.1401,321.233],[-68.8922,48.2202,292.4164],[-68.9122,48.2321,176.2179],[-68.9198,48.2267,177.4809],[-68.9249,48.2301,177.4628],[-68.9292,48.2273,184.4912],[-68.9381,48.2333,116.7728],[-68.9324,48.241,126.9898],[-68.9274,48.243899999999996,121.7494],[-68.9739,48.2722,3.8904],[-68.985,48.2644,0.0],[-69.0536,48.2267,13.8398],[-69.0701,48.2127,1.5707],[-69.1051,48.1927,4.1653],[-69.1144,48.1819,23.2768],[-69.1328,48.1707,5.7872],[-69.1376,48.1629,2.5973],[-69.1362,48.1619,0.0],[-69.1339,48.1644,6.2426],[-69.1308,48.1625,1.8679],[-69.1303,48.1567,3.9414],[-69.1342,48.1528,7.5472],[-69.1463,48.1515,3.6823],[-69.1644,48.1423,0.0],[-69.1652,48.1365,17.0104],[-69.1734,48.131,1.7558],[-69.1846,48.1293,15.8881],[-69.1836,48.1314,0.0],[-69.1858,48.1328,0.7517],[-69.2028,48.1237,6.7319],[-69.2067,48.1141,1.1931],[-69.2108,48.1106,9.6734],[-69.2192,48.1069,10.2324],[-69.2208,48.1042,0.3176],[-69.22,48.1006,0.5961],[-69.2158,48.0964,5.0913],[-69.2203,48.0947,31.6529],[-69.2231,48.0964,0.0],[-69.225,48.095,24.9489],[-69.2311,48.0953,8.6859],[-69.2408,48.0919,15.2233],[-69.2485,48.0925,0.0],[-69.2513,48.0906,0.0],[-69.2595,48.0919,5.4909],[-69.2685,48.0847,3.8948],[-69.2446,48.068,58.4067],[-69.2501,48.0635,53.973],[-69.2539,48.063,52.2037],[-69.2517,48.0615,63.1957],[-69.2576,48.06,55.9821],[-69.2592,48.0548,51.4661],[-69.2557,48.0507,67.4024],[-69.2752,48.0371,63.2535],[-69.2502,48.0217,109.0429],[-69.2539,48.0188,110.459],[-69.2066,47.9892,162.8991],[-69.1661,48.0167,166.989],[-69.1148,47.9827,146.9844],[-69.1278,47.9565,207.8737],[-69.1526,47.9312,243.859],[-69.1548,47.9263,245.5288],[-69.1644,47.9194,244.7007],[-69.165,47.9155,254.4254],[-69.1694,47.9087,257.8872],[-69.1759,47.9062,271.3971],[-69.1787,47.9031,275.5909],[-69.1836,47.8964,279.8921],[-69.1835,47.8923,278.9927],[-69.1866,47.8886,306.105],[-69.1868,47.8851,303.3531],[-69.1453,47.8577,297.6537],[-69.1306,47.8677,265.1197],[-69.1162,47.8576,313.7388],[-69.0299,47.9204,173.484],[-69.0381,47.9202,190.7736],[-69.0381,47.9222,179.5468],[-68.9923,47.9558,278.0224],[-68.9763,47.9459,245.3018],[-68.979,47.9442,248.5424],[-68.9634,47.9338,265.4122],[-68.9732,47.9272,273.0772],[-68.9579,47.9169,280.9434],[-68.9706,47.9085,264.4998],[-68.9554,47.8982,229.6876],[-68.9589,47.8958,191.7594],[-68.95,47.8928,195.1795],[-68.9145,47.8908,196.8723],[-68.8991,47.896,229.0156],[-68.8685,47.8989,269.2422],[-68.8503,47.8953,289.0882],[-68.775,47.9468,287.2081]]],
[[[-69.1782,48.1414,4.5428],[-69.1764,48.1408,4.5428],[-69.1745,48.1429,2.0475],[-69.177,48.1426,0.0],[-69.1782,48.1414,4.5428]]],
[[[-69.2558,48.1361,0.0],[-69.2403,48.1455,8.1212],[-69.2386,48.1503,0.2732],[-69.2475,48.147,2.5164],[-69.2617,48.1358,0.193],[-69.2558,48.1361,0.0]]],
[[[-69.1725,48.1432,0.5657],[-69.1703,48.1432,8.7829],[-69.1701,48.1449,1.4044],[-69.1728,48.1438,0.0],[-69.1725,48.1432,0.5657]]]]}}