{"type": "Feature","bbox": [-119.6764,49.0811,-119.1757,49.3419],"geometry": {"type": "MultiPolygon","coordinates": [[[[-119.2083,49.3419,2048.4092],[-119.2206,49.3213,1812.0383],[-119.2202,49.3124,1755.6493],[-119.227,49.2629,1510.3882],[-119.2313,49.2567,1490.9977],[-119.2368,49.253,1501.8699],[-119.2499,49.2513,1516.7043],[-119.2665,49.2537,1481.3379],[-119.283,49.2519,1430.4062],[-119.3023,49.2455,1407.308],[-119.3171,49.243899999999996,1269.3251],[-119.3407,49.2513,1217.0138],[-119.3676,49.2464,1148.5038],[-119.3823,49.2462,1032.08],[-119.4206,49.2527,799.3684],[-119.4579,49.2536,985.5258],[-119.4777,49.258,758.3632],[-119.4774,49.2593,671.1965],[-119.4797,49.2592,688.9605],[-119.4802,49.2627,582.1274],[-119.5039,49.2628,658.6317],[-119.504,49.2698,687.5417],[-119.515,49.2698,384.915],[-119.5149,49.2774,451.6127],[-119.519,49.2772,333.639],[-119.5187,49.2735,450.0689],[-119.5257,49.2673,332.5214],[-119.5307,49.2661,330.431],[-119.5328,49.2712,327.0],[-119.5311,49.2736,330.2755],[-119.5541,49.2738,878.5549],[-119.5538,49.2823,803.683],[-119.614,49.2849,712.8587],[-119.6139,49.299,697.0031],[-119.6704,49.2995,867.0275],[-119.67,49.2776,1109.0189],[-119.6755,49.2778,1192.6263],[-119.6764,49.1825,1606.1805],[-119.6709,49.1825,1609.1874],[-119.6706,49.1209,1761.8595],[-119.637,49.1213,1245.9193],[-119.6371,49.1175,1033.48],[-119.6313,49.1177,1019.9581],[-119.6309,49.1141,896.5618],[-119.6041,49.1145,589.1144],[-119.604,49.0946,842.7373],[-119.593,49.0946,720.9019],[-119.5932,49.0923,709.2015],[-119.5705,49.0923,617.3684],[-119.5703,49.0959,486.7321],[-119.5647,49.0958,315.7208],[-119.5599,49.0904,374.2557],[-119.5593,49.0813,619.0983],[-119.5462,49.0811,313.8585],[-119.5465,49.0844,281.7185],[-119.5527,49.0903,287.5326],[-119.5563,49.1011,283.6515],[-119.5621,49.1054,285.0735],[-119.5575,49.1075,282.0161],[-119.5429,49.0955,280.3703],[-119.5265,49.0958,356.4354],[-119.5267,49.1103,507.3515],[-119.5376,49.1104,353.82],[-119.5375,49.1248,479.8387],[-119.5486,49.125,377.3004],[-119.5488,49.1321,556.9506],[-119.5597,49.1322,361.137],[-119.5594,49.1538,289.9483],[-119.5371,49.154,382.6633],[-119.5371,49.1759,361.0045],[-119.5401,49.1759,294.7632],[-119.5403,49.1745,295.3361],[-119.547,49.176,306.0558],[-119.5528,49.1679,311.3737],[-119.5608,49.1725,313.1257],[-119.565,49.171,323.6992],[-119.5722,49.1744,336.1589],[-119.5703,49.1762,335.8752],[-119.5702,49.1792,408.1567],[-119.5669,49.1788,394.144],[-119.5534,49.1898,306.4892],[-119.5515,49.1889,296.6601],[-119.5522,49.1929,298.1215],[-119.5475,49.2041,298.1725],[-119.5448,49.2028,297.1184],[-119.5371,49.2047,312.6168],[-119.5372,49.2408,394.266],[-119.449,49.2408,1343.3326],[-119.4489,49.1233,684.532],[-119.4291,49.1195,739.6085],[-119.4133,49.127,882.0252],[-119.3959,49.1291,884.2955],[-119.39,49.1251,920.2811],[-119.3769,49.1238,978.2322],[-119.3697,49.1202,1057.3556],[-119.3587,49.1179,1062.5383],[-119.3562,49.1138,1139.9829],[-119.3261,49.1147,1274.8848],[-119.2922,49.1339,1529.5884],[-119.2854,49.1446,1639.385],[-119.2779,49.1458,1726.7461],[-119.2722,49.1525,1771.2701],[-119.2674,49.1537,1869.8352],[-119.256,49.1619,2185.9165],[-119.2544,49.1657,2289.2637],[-119.2424,49.1695,2100.3218],[-119.2357,49.1796,1954.7554],[-119.2239,49.1858,1904.5934],[-119.22,49.1952,1982.2345],[-119.214,49.1979,1853.6904],[-119.1995,49.1993,1972.1472],[-119.1912,49.1982,2097.2673],[-119.1828,49.2043,2018.8596],[-119.1826,49.2104,1973.0496],[-119.1778,49.2151,2073.624],[-119.1819,49.2181,2128.2188],[-119.1992,49.2163,1928.1149],[-119.2137,49.2223,1877.6747],[-119.2205,49.2288,1858.0127],[-119.2375,49.2388,1697.0986],[-119.2307,49.2467,1560.8527],[-119.2314,49.25,1520.5946],[-119.2248,49.2572,1498.2888],[-119.2179,49.2743,1551.6528],[-119.2171,49.28,1586.9878],[-119.2134,49.285,1616.0927],[-119.1872,49.2971,1746.8988],[-119.1757,49.3087,1943.728],[-119.1877,49.3152,1804.4602],[-119.2089,49.3236,1922.1853],[-119.2033,49.3373,1982.0675],[-119.2039,49.3399,1988.7192],[-119.2083,49.3419,2048.4092]]]]}
,"properties": {"GID_3": "CAN.2.21.10_1","GID_0": "CAN","country": "Canada","GID_1": "CAN.2_1","province": "BritishColumbia","NL_NAME_1": "NA","GID_2": "CAN.2.21_1","county": "Okanagan-Similkameen","NL_NAME_2": "NA","city": "Okanagan-SimilkameenC","VARNAME_3": "NA","NL_NAME_3": "NA","TYPE_3": "RegionalDistrictElectoralArea","ENGTYPE_3": "RegionalDistrictElectoralArea","CC_3": "NA","HASC_3": "NA","name": "Okanagan-Similkameen_C.city","area_km2": 438.6055,"hist_schema_id": "Elevation0-9000","hist_area_km2": {"275": 3.1505,"300": 14.8063,"325": 11.4348,"350": 6.057,"375": 5.1997,"400": 3.1738,"425": 7.5746,"450": 6.9643,"475": 5.3175,"500": 6.5775,"525": 7.1028,"550": 6.6599,"575": 6.4379,"600": 5.7601,"625": 6.0935,"650": 5.9978,"675": 4.6274,"700": 4.5438,"725": 4.211,"750": 4.0441,"775": 4.5572,"800": 3.7815,"825": 3.8929,"850": 4.78,"875": 5.2783,"900": 4.5721,"925": 4.1705,"950": 4.1709,"975": 4.9327,"1000": 4.656,"1025": 5.4455,"1050": 6.6523,"1075": 6.5683,"1100": 5.8469,"1125": 6.235,"1150": 7.3173,"1175": 5.8754,"1200": 6.5416,"1225": 5.4469,"1250": 5.6688,"1275": 7.0822,"1300": 6.2223,"1325": 7.0812,"1350": 7.7604,"1375": 8.8265,"1400": 7.9255,"1425": 7.1629,"1450": 7.1213,"1475": 8.3956,"1500": 10.2647,"1525": 11.1656,"1550": 11.5392,"1575": 10.1122,"1600": 9.5154,"1625": 10.7204,"1650": 10.1103,"1675": 9.4597,"1700": 8.324,"1725": 6.8558,"1750": 6.108,"1775": 5.4022,"1800": 5.2222,"1825": 4.2248,"1850": 3.5319,"1875": 2.7009,"1900": 2.3959,"1925": 2.3684,"1950": 2.0635,"1975": 1.6766,"2000": 1.3025,"2025": 0.8592,"2050": 0.8593,"2075": 0.4435,"2100": 0.4297,"2125": 0.3049,"2150": 0.2357,"2175": 0.1802,"2200": 0.1525,"2225": 0.1664,"2250": 0.1525,"2275": 0.0277,"2300": 0.0277}}}