{"type":"Feature","properties":{"featurecla":"River","scalerank":12,"rivernum":20173,"dissolve":"20173River","name":"Kennebecasis","name_alt":null,"note":"ID is link back to CEC data","name_full":"Kennebecasis River","min_zoom":7.0,"strokeweig":0.15,"uident":1765001,"min_label":8.0},
"geometry":{"type": "LineString","coordinates": [[-65.353627082416239,45.965033270306527,109.7459],[-65.367298957416239,45.925808009889863,118.8902],[-65.373036262103739,45.910345770306527,80.2488],[-65.3971248037704,45.890448309369027,102.8969],[-65.421498176166239,45.8724225932232,166.4153],[-65.465402798562067,45.841009832806527,202.7341],[-65.502674933978739,45.777899481244027,142.5853],[-65.5206599600204,45.7542585307232,30.8663],[-65.548939582416239,45.735174871869027,66.396],[-65.593332486062067,45.723944403119027,26.3339]]}}