{"type":"Feature","properties":{"GID_3":"CAN.6.2.3_1","GID_0":"CAN","country":"Canada","GID_1":"CAN.6_1","province":"NorthwestTerritories","NL_NAME_1":"NA","GID_2":"CAN.6.2_1","county":"Inuvik","NL_NAME_2":"NA","city":"Déline","VARNAME_3":"NA","NL_NAME_3":"NA","TYPE_3":"CharteredCommunity","ENGTYPE_3":"CharteredCommunity","CC_3":"NA","HASC_3":"NA","name":"Déline.city"},
"geometry":{"type": "MultiPolygon","coordinates": [[[[-123.5664,65.2024,191.5269],[-123.5356,65.1641,167.2033],[-123.2789,65.1975,155.5],[-123.33,65.2592,309.3544],[-123.5843,65.2247,220.6563],[-123.5664,65.2024,191.5269]]]]}}