{"type": "Feature","bbox": [-105.7386,49.1919,-105.7268,49.1974],"geometry": {"type": "MultiPolygon","coordinates": [[[[-105.7269,49.1959,804.9683],[-105.727,49.1972,807.3096],[-105.7386,49.1974,807.8785],[-105.7386,49.1949,807.7119],[-105.7268,49.1919,801.9681],[-105.7269,49.1959,804.9683]]]]}
,"properties": {"GID_3": "CAN.12.12.6_1","GID_0": "CAN","country": "Canada","GID_1": "CAN.12_1","province": "Saskatchewan","NL_NAME_1": "NA","GID_2": "CAN.12.12_1","county": "DivisionNo.3","NL_NAME_2": "NA","city": "FifeLake","VARNAME_3": "NA","NL_NAME_3": "NA","TYPE_3": "Village","ENGTYPE_3": "Village","CC_3": "NA","HASC_3": "NA","name": "Fife_Lake.city","area_km2": 0.3325289,"hist_schema_id": "Elevation0-9000","hist_area_km2": {"800": 0.3325289}}}