{"type":"Feature","properties":{"GID_3":"CAN.11.46.5_1","GID_0":"CAN","country":"Canada","GID_1":"CAN.11_1","province":"Québec","NL_NAME_1":"NA","GID_2":"CAN.11.46_1","county":"LaVallée-du-Richelieu","NL_NAME_2":"NA","city":"Mont-Saint-Hilaire","VARNAME_3":"NA","NL_NAME_3":"NA","TYPE_3":"Ville","ENGTYPE_3":"Ville","CC_3":"NA","HASC_3":"NA","name":"Mont-Saint-Hilaire.city"},
"geometry":{"type": "MultiPolygon","coordinates": [[[[-73.2098,45.5479,7.0],[-73.204,45.5491,19.7032],[-73.2001,45.5544,29.7926],[-73.1977,45.5513,38.3933],[-73.1854,45.5456,72.3825],[-73.1904,45.5385,58.4461],[-73.2093,45.5288,26.7333],[-73.2132,45.5226,20.8099],[-73.1964,45.5107,46.4685],[-73.1924,45.5164,39.9726],[-73.173,45.5279,66.1796],[-73.1609,45.52,40.2648],[-73.1538,45.5255,52.7377],[-73.1501,45.5263,47.9779],[-73.1502,45.5278,53.1364],[-73.1424,45.5323,62.8792],[-73.1471,45.5349,99.0404],[-73.1404,45.5399,129.6852],[-73.1324,45.5433,92.1723],[-73.1286,45.5518,87.987],[-73.1297,45.5578,101.9353],[-73.141,45.5651,104.6098],[-73.1353,45.5898,50.8899],[-73.1315,45.5876,47.3395],[-73.1302,45.5892,47.8662],[-73.1858,45.6296,6.5],[-73.1888,45.6342,6.5],[-73.1979,45.6404,10.8205],[-73.1885,45.6175,11.6506],[-73.1895,45.6044,10.0596],[-73.1962,45.5762,13.5099],[-73.2098,45.5479,7.0]]]]}}