{"type":"Feature","properties":{"GID_3":"CAN.7.11.8_1","GID_0":"CAN","country":"Canada","GID_1":"CAN.7_1","province":"NovaScotia","NL_NAME_1":"NA","GID_2":"CAN.7.11_1","county":"Kings","NL_NAME_2":"NA","city":"Kings,Subd.D","VARNAME_3":"NA","NL_NAME_3":"NA","TYPE_3":"SubdivisionofCountyMunicipali","ENGTYPE_3":"SubdivisionofCountyMunicipali","CC_3":"NA","HASC_3":"NA","name":"Kings,Subd.D.city"},
"geometry":{"type": "MultiPolygon","coordinates": [[[[-64.1786,45.0724,17.3173],[-64.177,45.0735,6.7681],[-64.1783,45.0752,15.4895],[-64.1989,45.085,28.9034],[-64.2072,45.0939,0.0],[-64.2111,45.0956,2.0215],[-64.2194,45.1067,11.5388],[-64.2253,45.1097,2.9042],[-64.2383,45.1108,0.8314],[-64.2422,45.1131,0.0],[-64.2469,45.1192,0.0],[-64.2522,45.1214,5.6126],[-64.2556,45.1206,3.9204],[-64.2611,45.125,0.0],[-64.27,45.1264,0.0],[-64.2714,45.1225,0.4739],[-64.2775,45.1192,0.0],[-64.2759,45.1161,0.0],[-64.2731,45.1158,2.3237],[-64.2708,45.1131,0.0],[-64.2717,45.1103,2.8763],[-64.2758,45.1086,1.2105],[-64.2736,45.1119,0.0],[-64.2797,45.1144,1.9052],[-64.2831,45.1183,4.06],[-64.2825,45.1203,0.0],[-64.2769,45.1242,0.0],[-64.2781,45.1267,0.8203],[-64.2769,45.1278,1.5099],[-64.28,45.1322,0.0],[-64.2881,45.1361,5.1457],[-64.2881,45.1386,2.0244],[-64.305,45.1403,0.0],[-64.3078,45.1383,10.1521],[-64.3131,45.1406,0.0],[-64.3181,45.1375,9.1808],[-64.3239,45.1381,4.2847],[-64.3311,45.1356,0.0],[-64.34,45.1272,0.0],[-64.3412,45.1194,0.0],[-64.3392,45.1086,1.8628],[-64.3511,45.0997,0.0],[-64.3498,45.0984,4.8371],[-64.3423,45.1013,4.9877],[-64.3409,45.0913,39.1655],[-64.3389,45.0899,48.6805],[-64.342,45.0894,42.1835],[-64.341,45.0872,54.245],[-64.3823,45.0794,51.6848],[-64.3894,45.1005,10.9147],[-64.3982,45.0952,4.8923],[-64.4075,45.0956,9.6847],[-64.4009,45.0898,4.7169],[-64.3991,45.086,8.5169],[-64.4113,45.0848,33.7474],[-64.4192,45.0815,26.4554],[-64.4144,45.0767,36.7264],[-64.418,45.076,31.0385],[-64.4178,45.0651,70.171],[-64.4192,45.0627,72.4282],[-64.4141,45.0597,96.1568],[-64.414,45.056,74.6624],[-64.4107,45.0558,74.405],[-64.4133,45.0533,76.5141],[-64.4109,45.052,66.7649],[-64.4247,45.0451,92.7126],[-64.4378,45.0351,132.3067],[-64.4552,45.0271,118.2722],[-64.4644,45.0173,197.8757],[-64.476,45.0088,160.4612],[-64.4807,44.9946,191.041],[-64.4749,44.9905,170.7538],[-64.4725,44.9859,187.134],[-64.4693,44.9859,185.9566],[-64.4679,44.9813,191.9908],[-64.4656,44.9805,196.1265],[-64.4661,44.9774,192.2903],[-64.4679,44.9768,191.4885],[-64.4667,44.9727,186.5149],[-64.4693,44.9685,185.0],[-64.4652,44.9673,187.6063],[-64.4646,44.9591,187.0502],[-64.4608,44.9525,186.636],[-64.4555,44.9495,189.4858],[-64.4449,44.9475,194.3738],[-64.4393,44.9428,206.2562],[-64.4264,44.9377,174.7019],[-64.4346,44.9378,244.2411],[-64.4364,44.936,253.6102],[-64.413,44.9146,196.992],[-64.413,44.912,202.5665],[-64.2325,45.0354,104.1494],[-64.2371,45.0385,109.0892],[-64.2398,45.0368,85.6447],[-64.2429,45.0388,102.2804],[-64.2473,45.036,86.1243],[-64.2513,45.0397,98.136],[-64.2362,45.0501,114.5679],[-64.2237,45.0411,61.9256],[-64.1786,45.0724,17.3173]]],
[[[-64.2261,45.0395,66.8661],[-64.2293,45.0428,74.2883],[-64.2322,45.0407,119.5445],[-64.2286,45.0378,81.3949],[-64.2261,45.0395,66.8661]]],
[[[-64.2639,45.1472,0.0],[-64.2722,45.1453,2.8282],[-64.28,45.1367,0.0],[-64.2769,45.1339,0.4276],[-64.2608,45.1383,0.0],[-64.2589,45.145,2.7483],[-64.2639,45.1472,0.0]]]]}}