{"type": "Feature","bbox": [-72.8552,46.0336,-72.7177,46.1485],"geometry": {"type": "MultiPolygon","coordinates": [[[[-72.8229,46.1485,2.5],[-72.8552,46.1458,2.5],[-72.8097,46.1111,13.0599],[-72.8175,46.1059,18.0714],[-72.8277,46.1048,11.9977],[-72.8414,46.094,13.3823],[-72.8375,46.0909,12.8975],[-72.8361,46.085,13.9393],[-72.8401,46.0805,13.6363],[-72.8337,46.0814,17.5842],[-72.8322,46.0796,25.9886],[-72.8287,46.0804,27.902],[-72.8293,46.0819,35.3775],[-72.8088,46.0854,25.67],[-72.8046,46.0821,25.1166],[-72.7988,46.0832,26.9653],[-72.7933,46.0794,30.9],[-72.8015,46.0734,23.2941],[-72.793,46.0701,32.6655],[-72.803,46.0622,10.9845],[-72.7851,46.0528,16.7842],[-72.7818,46.0488,9.5107],[-72.7694,46.0402,9.4894],[-72.7465,46.0391,39.8186],[-72.7323,46.0336,14.8526],[-72.7321,46.0447,55.1337],[-72.7296,46.05,53.633],[-72.7268,46.0504,40.9819],[-72.7223,46.0606,45.0251],[-72.7324,46.0684,37.1635],[-72.7177,46.0711,41.2908],[-72.8229,46.1485,2.5]],
[[-72.7644,46.0636,43.5822],[-72.7471,46.049,40.3248],[-72.7457,46.0479,40.9629],[-72.769,46.0629,34.8391],[-72.7644,46.0636,43.5822]]]]}
,"properties": {"GID_3": "CAN.11.83.14_1","GID_0": "CAN","country": "Canada","GID_1": "CAN.11_1","province": "Québec","NL_NAME_1": "NA","GID_2": "CAN.11.83_1","county": "Nicolet-Yamaska","NL_NAME_2": "NA","city": "Saint-Thomas-de-Pierreville","VARNAME_3": "NA","NL_NAME_3": "NA","TYPE_3": "MunicipalitéDeParoisse","ENGTYPE_3": "ParishMunicipality","CC_3": "NA","HASC_3": "NA","name": "Saint-Thomas-de-Pierreville.city","area_km2": 54.04026,"hist_schema_id": "Elevation0-9000","hist_area_km2": {"0": 12.50587,"25": 31.83871,"50": 9.69568}}}