{"type": "Feature","bbox": [-58.8303,48.5248,-58.7294,48.5631],"geometry": {"type": "MultiPolygon","coordinates": [[[[-58.8303,48.5248,2.4502],[-58.7992,48.5314,9.5586],[-58.7817,48.5294,0.0],[-58.7575,48.5383,0.0],[-58.7439,48.5397,0.0],[-58.7331,48.5461,0.0],[-58.7294,48.5542,2.63],[-58.7303,48.5589,0.0],[-58.7381,48.5619,13.7138],[-58.7406,48.5619,10.0907],[-58.7414,48.5601,23.5293],[-58.75,48.562,6.2356],[-58.7529,48.5603,11.4246],[-58.7586,48.5631,2.5095],[-58.7849,48.5627,5.4565],[-58.8236,48.5319,47.693],[-58.8303,48.5248,2.4502]]]]}
,"properties": {"GID_3": "CAN.5.6.11_1","GID_0": "CAN","country": "Canada","GID_1": "CAN.5_1","province": "NewfoundlandandLabrador","NL_NAME_1": "NA","GID_2": "CAN.5.6_1","county": "DivisionNo.4","NL_NAME_2": "NA","city": "PortauPortWest-Aguathuna-Feli","VARNAME_3": "NA","NL_NAME_3": "NA","TYPE_3": "Town","ENGTYPE_3": "Town","CC_3": "NA","HASC_3": "NA","name": "Portau_Port_West-Aguathuna-Feli.city","area_km2": 16.7733,"hist_schema_id": "Elevation0-9000","hist_area_km2": {"0": 0.81411,"25": 2.97567,"50": 4.37918,"75": 4.7583,"100": 2.83536,"125": 0.72994,"150": 0.28074}}}