{"type": "Feature","bbox": [-105.7173,51.7199,-105.4042,52.1439],"geometry": {"type": "MultiPolygon","coordinates": [[[[-105.6878,51.8817,537.5518],[-105.6878,51.7575,504.9801],[-105.6865,51.758,504.9801],[-105.685,51.7554,501.5],[-105.6783,51.7532,501.6183],[-105.6723,51.7539,502.7762],[-105.6632,51.7507,494.5],[-105.5901,51.7545,494.5],[-105.5726,51.7539,494.5],[-105.5611,51.7521,494.5],[-105.5085,51.7299,494.5],[-105.4378,51.726,494.5],[-105.4042,51.7199,494.5],[-105.4049,51.9687,546.817],[-105.4322,51.9688,556.4633],[-105.4307,52.1439,551.7316],[-105.7173,52.1438,572.965],[-105.7172,51.9692,533.0358],[-105.6876,51.9692,545.0095],[-105.6878,51.8817,537.5518]],
[[-105.4402,51.9033,561.9902],[-105.4511,51.9031,555.6757],[-105.4511,51.9108,560.614],[-105.4402,51.9108,559.1531],[-105.4402,51.9033,561.9902]],
[[-105.6404,51.9495,545.2475],[-105.6404,51.9398,547.834],[-105.6565,51.9408,542.1108],[-105.6566,51.9472,539.2653],[-105.6539,51.9472,541.7847],[-105.6522,51.9509,540.4625],[-105.6404,51.9508,545.8451],[-105.6404,51.9495,545.2475]]]]}
,"properties": {"GID_3": "CAN.12.2.55_1","GID_0": "CAN","country": "Canada","GID_1": "CAN.12_1","province": "Saskatchewan","NL_NAME_1": "NA","GID_2": "CAN.12.2_1","county": "DivisionNo.11","NL_NAME_2": "NA","city": "ViscountNo.341","VARNAME_3": "NA","NL_NAME_3": "NA","TYPE_3": "RuralMunicipality","ENGTYPE_3": "RuralMunicipality","CC_3": "NA","HASC_3": "NA","name": "Viscount_No.341.city","area_km2": 871.1863,"hist_schema_id": "Elevation0-9000","hist_area_km2": {"500": 8.9929,"525": 58.1787,"550": 771.5155,"575": 32.4991}}}