{"type":"Feature","properties":{"featurecla":"Lake","scalerank":5,"name":"Grand Lake","name_abb":"Grand L.","name_alt":null,"note":null,"delta":null,"dam_name":null,"year":-99,"admin":null,"min_zoom":4.7,"min_label":6.0},
"geometry":{"type": "Polygon","coordinates": [[[-66.033228806934972,45.899723393459,0.0],[-66.029107709155127,45.906199404255915,0.0],[-66.018952146769081,45.914147235688461,0.0],[-66.0076191278745,45.921211974739634,0.0],[-66.000995935014046,45.92827671379078,0.0],[-66.004969850730333,45.936518909350468,0.0],[-65.994961470407844,45.9441723766559,0.0],[-65.968763063093135,45.953886392851246,0.0],[-65.963464508804762,45.960656767775276,19.9249],[-65.9671440603939,45.968604599207822,16.1601],[-65.976416530398552,45.971548240479137,32.7435],[-65.988043913420256,45.973314425241938,23.7156],[-65.99878820406056,45.978024251276025,16.5875],[-65.973031342936537,45.990681908742687,13.3626],[-65.940209742761354,46.002162109700834,12.9562],[-65.910773330048187,46.01688031605741,1.1704],[-65.895760759564482,46.03866326146516,16.4439],[-65.963170144677633,46.028654881142671,8.5083],[-65.977593986907081,46.03277597892253,13.6901],[-65.976416530398552,46.051320918931822,0.0],[-65.954633584990816,46.065744761161284,0.0],[-65.9094486914761,46.08046296751786,0.0],[-65.895760759564482,46.091943168475979,11.4922],[-65.917838069099346,46.10136282054421,17.6468],[-65.950954033401672,46.104012097688383,15.0485],[-65.97082361198305,46.094592445620179,21.0773],[-65.9611095957877,46.094298081493037,0.0],[-65.954192038800116,46.091943168475979,0.0],[-65.948893484511743,46.087233342441891,0.0],[-65.944183658477641,46.08046296751786,0.0],[-65.959932139279175,46.072809500212429,4.1065],[-65.968910245156692,46.069865858941114,6.5547],[-65.974208799445066,46.070160223068257,8.9358],[-65.9818622667505,46.08370097291629,10.9345],[-65.987160821038856,46.087527706569006,8.1277],[-65.994961470407844,46.083995337043433,14.0104],[-66.0033508480311,46.069571494813971,17.5667],[-66.009532494700863,46.053087103694622,21.6369],[-66.01968805708691,46.044550544007791,21.1485],[-66.03970481773186,46.053087103694622,50.5964],[-66.04647519265589,46.03866326146516,30.7116],[-66.0330816248714,46.020707049710126,15.1709],[-66.0442674617024,45.990387544615572,0.0],[-66.06693349949154,45.958890583012476,8.6661],[-66.087538988390762,45.936518909350468,25.7257],[-66.088569262835719,45.932692175697753,21.9001],[-66.087538988390762,45.92827671379078,17.9693],[-66.087244624263633,45.924744344265207,19.1926],[-66.0912185399799,45.923272523629549,16.7387],[-66.098724825221765,45.923272523629549,19.7009],[-66.101668466493081,45.922389431248149,21.5591],[-66.104906471891525,45.919740154103977,21.8368],[-66.110940936497727,45.916502148705518,25.6942],[-66.183207329708551,45.892658654407853,12.9792],[-66.19056643288684,45.885299551229565,0.0],[-66.18438478621708,45.8717588013815,0.0],[-66.16966657986049,45.862044785186157,0.0],[-66.151416003978326,45.856451866770641,0.0],[-66.135373159049664,45.854391317880726,0.0],[-66.130516150951991,45.857040595024927,0.0],[-66.1218324092016,45.869698252491588,0.0],[-66.114914852214,45.874996806779961,0.0],[-66.097253004586108,45.880295361068306,0.0],[-66.076941879814015,45.881767181703964,0.0],[-66.04647519265589,45.888537556627995,0.0],[-66.036466812333416,45.893836110916368,0.0],[-66.033817535189229,45.896485388060569,0.0],[-66.033228806934972,45.899723393459,0.0]]]}}