{"type":"Feature","properties":{"GID_3":"CAN.2.11.18_1","GID_0":"CAN","country":"Canada","GID_1":"CAN.2_1","province":"BritishColumbia","NL_NAME_1":"NA","GID_2":"CAN.2.11_1","county":"EastKootenay","NL_NAME_2":"NA","city":"Shuswap","VARNAME_3":"NA","NL_NAME_3":"NA","TYPE_3":"RéserveIndienne","ENGTYPE_3":"IndianReserve","CC_3":"NA","HASC_3":"NA","name":"Shuswap.city"},
"geometry":{"type": "MultiPolygon","coordinates": [[[[-116.0387,50.5269,801.7153],[-116.0375,50.5252,802.6503],[-116.0238,50.5205,798.5837],[-116.0195,50.5145,800.5939],[-115.9972,50.5151,872.7807],[-115.998,50.5417,941.3524],[-116.0146,50.5416,866.8539],[-116.0142,50.5512,917.621],[-116.022,50.5515,875.4935],[-116.0221,50.5608,912.3364],[-116.0459,50.5608,797.9399],[-116.0537,50.5622,797.9316],[-116.0501,50.5599,797.5763],[-116.0387,50.5269,801.7153]]]]}}