{"type":"Feature","properties":{"GID_3":"CAN.2.2.32_1","GID_0":"CAN","country":"Canada","GID_1":"CAN.2_1","province":"BritishColumbia","NL_NAME_1":"NA","GID_2":"CAN.2.2_1","county":"Bulkley-Nechako","NL_NAME_2":"NA","city":"Omineca1","VARNAME_3":"NA","NL_NAME_3":"NA","TYPE_3":"RéserveIndienne","ENGTYPE_3":"IndianReserve","CC_3":"NA","HASC_3":"NA","name":"Omineca1.city"},
"geometry":{"type": "MultiPolygon","coordinates": [[[[-125.8483,53.9949,941.9375],[-125.854,53.9949,916.2403],[-125.8569,53.9921,914.5953],[-125.8589,53.9936,913.0421],[-125.858,53.995,911.0],[-125.8603,53.9951,912.6149],[-125.8602,53.9877,930.0785],[-125.8481,53.9875,936.1576],[-125.8483,53.9949,941.9375]]]]}}