{"type":"Feature","properties":{"GID_3":"CAN.11.16.1_1","GID_0":"CAN","country":"Canada","GID_1":"CAN.11_1","province":"Québec","NL_NAME_1":"NA","GID_2":"CAN.11.16_1","county":"Charlevoix-Est","NL_NAME_2":"NA","city":"Baie-Sainte-Catherine","VARNAME_3":"NA","NL_NAME_3":"NA","TYPE_3":"Municipalité","ENGTYPE_3":"Municipality","CC_3":"NA","HASC_3":"NA","name":"Baie-Sainte-Catherine.city"},
"geometry":{"type": "MultiPolygon","coordinates": [[[[-69.5533,48.0713,0.731],[-69.5549,48.0712,0.0],[-69.5568,48.0678,1.5158],[-69.5548,48.0677,0.9314],[-69.5519,48.0709,0.0],[-69.5533,48.0713,0.731]]],
[[[-69.7769,47.9902,102.7372],[-69.7732,47.9902,31.4514],[-69.7678,47.993899999999996,10.0187],[-69.7621,48.0025,0.0],[-69.7639,48.0157,0.0],[-69.7702,48.0241,0.0],[-69.7761,48.0256,0.0],[-69.7771,48.0278,16.7137],[-69.7711,48.0268,0.0],[-69.7663,48.0314,0.0],[-69.7638,48.0402,0.0],[-69.7627,48.0549,3.194],[-69.76,48.0558,2.7665],[-69.7586,48.0634,33.5899],[-69.7563,48.0673,23.4097],[-69.7486,48.0741,14.9116],[-69.7481,48.0779,0.0],[-69.7314,48.0771,8.4158],[-69.7248,48.082,0.0],[-69.7201,48.0908,23.1452],[-69.7067,48.0977,0.0],[-69.7096,48.1007,0.0],[-69.7181,48.1022,0.0],[-69.7275,48.1078,0.0],[-69.7266,48.1131,3.0299],[-69.7183,48.1184,0.0],[-69.7161,48.122,0.0],[-69.7186,48.133,0.0],[-69.7199,48.1349,0.0],[-69.7325,48.1354,0.0],[-69.7379,48.1339,0.0],[-69.7403,48.1372,0.0],[-69.757,48.1423,0.0],[-69.79,48.1452,0.0],[-69.8002,48.1523,59.6177],[-69.8059,48.1518,175.7081],[-69.8112,48.149,7.3605],[-69.823,48.1485,0.0],[-69.8328,48.152,0.0],[-69.8495,48.1542,0.0],[-69.8601,48.1595,0.0],[-69.8693,48.171,0.0],[-69.8767,48.1704,0.0],[-69.8775,48.172,0.0],[-70.0013,47.9937,289.9276],[-69.9845,47.993,260.3465],[-69.7769,47.9902,102.7372]]],
[[[-69.685,48.1061,0.0],[-69.6832,48.1062,0.1867],[-69.6844,48.1089,0.0],[-69.6845,48.107,0.0],[-69.685,48.1061,0.0]]]]}}