{"type": "Feature","bbox": [-55.2369,47.6351,-55.202,47.6507],"geometry": {"type": "MultiPolygon","coordinates": [[[[-55.2285,47.6507,8.7128],[-55.233,47.6471,0.0],[-55.232,47.6449,2.0618],[-55.2273,47.6445,0.0],[-55.2369,47.6425,7.0533],[-55.2367,47.6414,3.5652],[-55.2288,47.6408,16.0291],[-55.2256,47.6375,10.7015],[-55.2192,47.6357,9.2035],[-55.214,47.6367,0.3114],[-55.209,47.6351,0.0],[-55.2074,47.6352,1.7305],[-55.2065,47.6382,15.4999],[-55.202,47.6402,8.8651],[-55.2144,47.648,139.1495],[-55.2285,47.6507,8.7128]]]]}
,"properties": {"GID_3": "CAN.5.5.22_1","GID_0": "CAN","country": "Canada","GID_1": "CAN.5_1","province": "NewfoundlandandLabrador","NL_NAME_1": "NA","GID_2": "CAN.5.5_1","county": "DivisionNo.3","NL_NAME_2": "NA","city": "RencontreEast","VARNAME_3": "NA","NL_NAME_3": "NA","TYPE_3": "Town","ENGTYPE_3": "Town","CC_3": "NA","HASC_3": "NA","name": "Rencontre_East.city","area_km2": 2.499885,"hist_schema_id": "Elevation0-9000","hist_area_km2": {"0": 0.585705,"25": 0.585708,"50": 0.299982,"75": 0.399974,"100": 0.257129,"125": 0.185697,"150": 0.157123,"175": 0.028567}}}