{"type":"Feature","properties":{"GID_3":"CAN.12.17.5_1","GID_0":"CAN","country":"Canada","GID_1":"CAN.12_1","province":"Saskatchewan","NL_NAME_1":"NA","GID_2":"CAN.12.17_1","county":"DivisionNo.8","NL_NAME_2":"NA","city":"ChesterfieldNo.261","VARNAME_3":"NA","NL_NAME_3":"NA","TYPE_3":"RuralMunicipality","ENGTYPE_3":"RuralMunicipality","CC_3":"NA","HASC_3":"NA","name":"Chesterfield_No.261.city"},
"geometry":{"type": "MultiPolygon","coordinates": [[[[-110.0047,50.969,582.2219],[-109.9868,50.9685,584.6867],[-109.9753,50.9619,582.4685],[-109.9635,50.9485,583.8813],[-109.938,50.9427,614.3501],[-109.9329,50.9298,587.0186],[-109.9285,50.9306,585.2169],[-109.9169,50.9375,578.0642],[-109.9103,50.9379,581.4027],[-109.9077,50.9365,581.506],[-109.9068,50.9329,581.9527],[-109.9099,50.9268,581.9404],[-109.9136,50.9243,579.7894],[-109.9092,50.9205,581.9182],[-109.9012,50.9202,581.2842],[-109.8939,50.9159,576.6307],[-109.8884,50.9199,576.0],[-109.8833,50.9196,577.4318],[-109.8702,50.928,578.2067],[-109.8683,50.9333,595.9894],[-109.8736,50.9461,577.1913],[-109.8693,50.9519,577.5167],[-109.8496,50.9559,596.3395],[-109.8117,50.9531,581.1929],[-109.7826,50.9431,579.2997],[-109.7483,50.945,578.6658],[-109.7399,50.9443,578.5619],[-109.7233,50.9386,583.2924],[-109.7131,50.9394,573.5],[-109.6988,50.9442,577.7236],[-109.693,50.948,586.7603],[-109.6932,50.9535,578.1688],[-109.6901,50.9588,577.0529],[-109.6895,50.9789,579.3577],[-109.6872,50.9822,573.8403],[-109.6797,50.9856,576.8707],[-109.6731,50.9856,572.5],[-109.6676,50.9812,580.7834],[-109.6595,50.9779,572.967],[-109.6487,50.9793,577.4419],[-109.6402,50.9827,576.5038],[-109.6344,50.9803,576.1011],[-109.6228,50.98,571.5],[-109.6163,50.9828,571.5],[-109.6044,50.9806,575.4102],[-109.5834,50.9726,575.2619],[-109.5058,50.9718,574.5355],[-109.4986,50.9706,581.948],[-109.4836,50.9639,574.7551],[-109.4788,50.9638,575.5241],[-109.4589,50.9663,569.0],[-109.452,50.9698,576.3745],[-109.4131,50.9791,569.1411],[-109.3912,50.987,568.0],[-109.3658,50.9912,568.7616],[-109.3539,50.9953,569.4094],[-109.3523,51.0318,677.0175],[-109.3533,51.0678,696.3967],[-109.3522,51.2712,735.2938],[-109.3793,51.2713,744.632],[-109.3798,51.3586,701.9206],[-110.0034,51.3581,693.7877],[-110.0051,51.2699,712.5815],[-110.0047,50.969,582.2219]],
[[-109.3823,51.2198,719.0305],[-109.3857,51.2183,718.3167],[-109.4004,51.2192,717.6946],[-109.4004,51.2281,719.8789],[-109.3765,51.2283,724.642],[-109.3768,51.2198,718.7372],[-109.3823,51.2198,719.0305]],
[[-109.6906,51.26,684.2551],[-109.6904,51.2563,681.7333],[-109.7028,51.2563,678.4023],[-109.7031,51.2653,685.7656],[-109.6954,51.2654,687.8442],[-109.6953,51.2628,686.0172],[-109.6905,51.2628,685.5092],[-109.6906,51.26,684.2551]]]]}}