{"type": "Feature","bbox": [-71.4057,47.2276,-70.2127,48.0002],"geometry": {"type": "MultiPolygon","coordinates": [[[[-70.3364,47.4269,2.6542],[-70.3675,47.4256,0.0],[-70.3878,47.4225,0.6999],[-70.3964,47.4161,37.6108],[-70.4178,47.4094,0.0],[-70.4217,47.4033,1.3939],[-70.435,47.3917,18.2054],[-70.4289,47.3792,1.843],[-70.433,47.377,0.0],[-70.4297,47.3764,1.2241],[-70.4314,47.3725,5.4288],[-70.4306,47.3703,2.0539],[-70.4286,47.3706,0.0],[-70.4258,47.375,1.0328],[-70.4217,47.3752,0.0],[-70.4156,47.3686,0.0],[-70.4058,47.3711,2.0609],[-70.4031,47.3697,2.2162],[-70.4042,47.3683,0.9447],[-70.4006,47.3672,4.773],[-70.3947,47.3683,0.683],[-70.3722,47.3853,1.1535],[-70.3625,47.39,0.6858],[-70.3469,47.4036,0.0],[-70.3397,47.4067,0.0],[-70.3283,47.4169,0.0],[-70.3267,47.4203,3.5428],[-70.3142,47.425,0.5589],[-70.3152,47.4267,0.0],[-70.3244,47.4239,0.5261],[-70.33,47.4256,0.0],[-70.3342,47.4244,2.6406],[-70.3364,47.4269,2.6542]]],
[[[-70.3497,47.4622,15.9219],[-70.3278,47.4637,0.0],[-70.3181,47.4622,3.6815],[-70.3151,47.4641,20.3702],[-70.2948,47.4669,0.0],[-70.2792,47.4755,16.1574],[-70.2692,47.483,6.603],[-70.2464,47.4884,2.6411],[-70.2322,47.4874,3.7915],[-70.2272,47.4911,0.0],[-70.2314,47.4958,0.0],[-70.2292,47.5036,0.0],[-70.2264,47.505,0.0],[-70.2181,47.5038,5.2301],[-70.2127,47.5083,0.0],[-70.2283,47.5378,250.3192],[-70.2325,47.5355,249.6118],[-70.2715,47.5675,342.2825],[-70.2729,47.5669,351.8521],[-70.2736,47.5574,393.9088],[-70.3116,47.546,466.1321],[-70.3207,47.5692,309.6935],[-70.271,47.5847,264.4069],[-70.2874,47.5898,304.8911],[-70.3837,47.6112,392.4115],[-70.3703,47.6421,417.5101],[-70.4674,47.6125,335.9535],[-70.4816,47.619,225.4442],[-70.4745,47.6413,215.3609],[-70.4688,47.642,217.9827],[-70.4668,47.6443,214.6456],[-70.4617,47.6437,221.6298],[-70.4356,47.6534,218.4727],[-70.4307,47.6601,251.3798],[-70.4292,47.666,217.1875],[-70.4238,47.6695,214.3089],[-70.4262,47.6823,217.3139],[-70.431,47.6841,216.8304],[-70.4913,47.7354,364.9366],[-70.4911,47.7386,337.0659],[-70.481,47.7462,400.9798],[-70.4857,47.7473,378.4946],[-70.5295,47.7168,442.2113],[-70.5256,48.0002,711.2247],[-71.4036,48.0,532.6248],[-71.4047,47.9922,521.1942],[-71.4029,47.9815,552.1942],[-71.4057,47.9758,495.0553],[-71.3943,47.9726,578.6014],[-71.3753,47.9723,527.4965],[-71.3721,47.9703,520.2222],[-71.3706,47.9662,543.1746],[-71.3762,47.962,541.7958],[-71.375,47.9583,531.7637],[-71.3702,47.9577,578.6711],[-71.3747,47.9502,607.9185],[-71.4037,47.9501,730.8074],[-71.2685,47.8194,787.0254],[-71.0862,47.6398,934.2601],[-70.8788,47.4317,849.0797],[-70.7129,47.2589,538.8455],[-70.6626,47.2401,508.7189],[-70.6199,47.2276,9.5628],[-70.6167,47.2291,50.9565],[-70.6025,47.2411,4.8092],[-70.5994,47.2455,53.5967],[-70.5864,47.2544,7.4752],[-70.5836,47.2602,0.7735],[-70.5722,47.2738,20.8636],[-70.5669,47.2828,0.0],[-70.5667,47.2867,0.0],[-70.5697,47.2939,4.1895],[-70.5644,47.3022,3.9628],[-70.5653,47.3061,6.6362],[-70.5569,47.3163,0.0],[-70.5506,47.3311,1.6497],[-70.5444,47.3347,0.0],[-70.5419,47.3402,0.0],[-70.5319,47.3491,0.0],[-70.5308,47.3538,20.3826],[-70.5264,47.3561,5.7898],[-70.5199,47.3634,22.6991],[-70.5014,47.3783,30.3549],[-70.5014,47.3811,51.8541],[-70.4975,47.3855,19.5489],[-70.4981,47.3899,4.2033],[-70.4953,47.395,24.2142],[-70.4944,47.4069,0.0],[-70.4964,47.4136,5.2138],[-70.5025,47.4175,2.4803],[-70.5029,47.4193,0.4986],[-70.5012,47.4216,0.0],[-70.4928,47.4247,0.0],[-70.49,47.4297,0.0],[-70.4921,47.4318,5.156],[-70.4916,47.4363,4.2422],[-70.4948,47.4417,2.1852],[-70.4901,47.4378,3.2349],[-70.4889,47.4326,0.0],[-70.4842,47.4349,0.0],[-70.4803,47.4347,8.5971],[-70.4767,47.4305,0.0],[-70.4706,47.4313,0.0],[-70.4633,47.4272,22.977],[-70.4528,47.4261,17.7729],[-70.4289,47.4341,0.0],[-70.4211,47.4399,0.0],[-70.3994,47.4449,0.0],[-70.3839,47.4525,22.3594],[-70.3742,47.4536,2.0272],[-70.373,47.4503,0.0],[-70.3656,47.4502,0.8681],[-70.3611,47.4536,0.0],[-70.3608,47.4563,0.0],[-70.3497,47.4622,15.9219]]]]}
,"properties": {"GID_2": "CAN.11.17_1","GID_0": "CAN","country": "Canada","GID_1": "CAN.11_1","province": "Québec","NL_NAME_1": "NA","county": "Charlevoix","VARNAME_2": "NA","NL_NAME_2": "NA","TYPE_2": "RegionalCountyMunicipality","ENGTYPE_2": "RegionalCountyMunicipality","CC_2": "16","HASC_2": "CA.QC.CV","name": "Charlevoix.county","area_km2": 3862.063,"hist_schema_id": "Elevation0-9000","hist_area_km2": {"0": 13.717,"25": 35.441,"50": 19.983,"75": 16.097,"100": 11.306,"125": 10.489,"150": 13.442,"175": 16.95,"200": 22.713,"225": 45.474,"250": 35.209,"275": 40.412,"300": 55.806,"325": 79.18,"350": 86.5,"375": 86.157,"400": 70.469,"425": 57.899,"450": 47.307,"475": 46.37,"500": 48.106,"525": 48.622,"550": 48.191,"575": 55.585,"600": 60.383,"625": 64.15,"650": 87.399,"675": 96.01,"700": 121.04,"725": 153.293,"750": 202.494,"775": 240.725,"800": 250.479,"825": 321.946,"850": 306.982,"875": 272.868,"900": 223.518,"925": 175.189,"950": 124.062,"975": 76.425,"1000": 43.151,"1025": 20.965,"1050": 7.305,"1075": 2.07,"1100": 0.186}}}