{"type": "Feature","bbox": [-97.0268,49.7961,-96.3567,50.0629],"geometry": {"type": "MultiPolygon","coordinates": [[[[-96.361,49.9729,267.4855],[-96.6364,49.9734,246.4304],[-96.6348,50.0623,239.8694],[-96.8536,50.0629,236.8277],[-96.854,50.0593,236.253],[-96.8592,50.0592,235.6477],[-96.8594,50.0552,235.6254],[-96.865,50.0551,238.9497],[-96.8649,50.0483,244.082],[-96.87,50.0482,247.4414],[-96.8705,50.0448,245.2508],[-96.8762,50.0447,253.1732],[-96.8766,50.0408,255.6195],[-96.882,50.0407,253.1872],[-96.8822,50.0373,261.565],[-96.8876,50.0372,259.9283],[-96.8877,50.034,260.6965],[-96.8934,50.0338,260.2384],[-96.8935,50.0301,265.1512],[-96.8993,50.03,259.2177],[-96.8994,50.0267,260.131],[-96.9051,50.0261,257.4206],[-96.9052,50.0225,259.9246],[-96.9111,50.0224,258.1247],[-96.9114,50.0192,263.3223],[-96.917,50.019,256.8958],[-96.9172,50.0155,261.4522],[-96.9229,50.0154,253.3857],[-96.9224,50.0112,259.1654],[-96.9325,50.011,251.6996],[-96.9324,50.0084,249.7397],[-96.9396,50.0082,234.4805],[-96.9396,50.0043,233.8601],[-96.9449,50.0043,232.6145],[-96.9452,50.0009,232.4288],[-96.9504,50.0007,232.0894],[-96.9507,49.9965,232.4258],[-96.9563,49.9963,231.8763],[-96.9562,49.9888,233.8231],[-96.9622,49.9887,231.741],[-96.9614,49.9742,232.8673],[-96.9897,49.9744,232.5375],[-96.9899,49.9674,237.2458],[-97.0014,49.9673,233.1186],[-97.0018,49.9451,232.1662],[-96.9911,49.9451,236.9788],[-96.9912,49.9343,234.234],[-96.9963,49.9344,234.3464],[-96.9963,49.9304,233.8899],[-97.0248,49.9307,233.0719],[-97.0251,49.9154,232.9102],[-96.9653,49.9153,237.1729],[-96.9556,49.9006,224.4883],[-96.9552,49.8858,226.8595],[-96.9811,49.8857,234.6807],[-96.9812,49.871,234.3406],[-97.0268,49.8711,232.2537],[-97.0264,49.7974,226.7374],[-96.3657,49.7961,269.7448],[-96.3657,49.885,265.6924],[-96.3567,49.885,270.7688],[-96.361,49.9729,267.4855]]]]}
,"properties": {"GID_3": "CAN.3.3.4_1","GID_0": "CAN","country": "Canada","GID_1": "CAN.3_1","province": "Manitoba","NL_NAME_1": "NA","GID_2": "CAN.3.3_1","county": "DivisionNo.12","NL_NAME_2": "NA","city": "Springfield","VARNAME_3": "NA","NL_NAME_3": "NA","TYPE_3": "RuralMunicipality","ENGTYPE_3": "RuralMunicipality","CC_3": "NA","HASC_3": "NA","name": "Springfield.city","area_km2": 1100.7005,"hist_schema_id": "Elevation0-9000","hist_area_km2": {"225": 125.4745,"250": 695.524,"275": 279.5517,"300": 0.1504}}}