{"type":"Feature","properties":{"featurecla":"River","scalerank":12,"rivernum":20839,"dissolve":"20839River","name":"Joir1","name_alt":null,"note":"ID is link back to CEC data","name_full":"Joir River","min_zoom":7.0,"strokeweig":0.2,"uident":1531601,"min_label":8.0},
"geometry":{"type": "LineString","coordinates": [[-60.015980598041239,52.319281317181527,364.5494],[-60.072092251687067,52.3074811869732,424.571],[-60.090646939187067,52.295355535931527,361.0937],[-60.098215298562067,52.285834051556527,349.5419],[-60.111154751687067,52.249945379681527,341.5],[-60.110585090228739,52.223211981244027,344.9527],[-60.09316972564541,52.163153387494027,440.7776],[-60.067616340228739,52.1099714213482,358.6481],[-60.075876431374567,52.087836004681527,334.166],[-60.097889777728739,52.079291082806527,322.9784],[-60.134632941791239,52.060003973431527,318.2908],[-60.16592363189541,52.023952541139863,370.1241],[-60.172556118874567,52.018500067181527,405.5225],[-60.20840410064541,51.989325262494027,278.5]]}}