{"type": "Feature","bbox": [-70.4179,46.4448,-70.2713,46.5468],"geometry": {"type": "MultiPolygon","coordinates": [[[[-70.2713,46.5067,436.8498],[-70.317,46.5381,523.5581],[-70.3334,46.5266,508.3611],[-70.3636,46.5468,539.8154],[-70.3924,46.5265,472.9081],[-70.3964,46.5291,464.7743],[-70.3979,46.5272,457.1655],[-70.4042,46.526,460.3423],[-70.4094,46.5223,466.3104],[-70.4179,46.5105,459.7192],[-70.4145,46.5097,437.6201],[-70.3882,46.493,558.6083],[-70.3891,46.4923,558.6083],[-70.3862,46.4904,627.7535],[-70.3972,46.4819,577.8832],[-70.3898,46.4763,531.7473],[-70.411,46.4617,514.939],[-70.4038,46.4563,524.8139],[-70.4053,46.4553,532.0399],[-70.4043,46.4546,519.6508],[-70.3899,46.4648,497.4574],[-70.3601,46.4448,435.825],[-70.2713,46.5067,436.8498]]]]}
,"properties": {"GID_3": "CAN.11.64.14_1","GID_0": "CAN","country": "Canada","GID_1": "CAN.11_1","province": "Québec","NL_NAME_1": "NA","GID_2": "CAN.11.64_1","county": "LesEtchemins","NL_NAME_2": "NA","city": "Sainte-Sabine","VARNAME_3": "NA","NL_NAME_3": "NA","TYPE_3": "MunicipalitéDeParoisse","ENGTYPE_3": "ParishMunicipality","CC_3": "NA","HASC_3": "NA","name": "Sainte-Sabine.city","area_km2": 67.67683,"hist_schema_id": "Elevation0-9000","hist_area_km2": {"400": 0.21906,"425": 5.34447,"450": 13.28493,"475": 11.39814,"500": 9.63079,"525": 11.62995,"550": 8.94574,"575": 4.71364,"600": 1.64908,"625": 0.59836,"650": 0.26268}}}