{"type":"Feature","properties":{"GID_3":"CAN.2.25.41_1","GID_0":"CAN","country":"Canada","GID_1":"CAN.2_1","province":"BritishColumbia","NL_NAME_1":"NA","GID_2":"CAN.2.25_1","county":"Squamish-Lillooet","NL_NAME_2":"NA","city":"Towinock2","VARNAME_3":"NA","NL_NAME_3":"NA","TYPE_3":"RéserveIndienne","ENGTYPE_3":"IndianReserve","CC_3":"NA","HASC_3":"NA","name":"Towinock2.city"},
"geometry":{"type": "MultiPolygon","coordinates": [[[[-121.8509,50.5916,238.7804],[-121.8566,50.5924,279.836],[-121.8572,50.58,672.2793],[-121.8456,50.5798,289.3929],[-121.8457,50.5871,181.2271],[-121.8509,50.587,323.2546],[-121.8509,50.5916,238.7804]]]]}}