{"type": "Feature","bbox": [-72.2615321908504,52.522033161540179,-72.103900200771392,52.598862198721548],"geometry": {"type": "Polygon","coordinates": [[[-72.23327323464575,52.526154259320009,451.5193],[-72.224295128768233,52.522033161540179,449.8929],[-72.1727814065202,52.525565531065752,447.3793],[-72.168218762549657,52.530275357099868,444.5],[-72.146288635078349,52.5455822917107,445.6778],[-72.138635167772918,52.549409025363417,448.4092],[-72.125094417924871,52.551469574253332,444.5],[-72.115969129983782,52.551175210126218,445.0357],[-72.103900200771392,52.549409025363417,448.1173],[-72.103900200771392,52.556768128541705,447.5999],[-72.110670575695423,52.570308878389767,451.8914],[-72.116999404428753,52.575313068551,448.9795],[-72.123622597289213,52.5770792533138,446.54],[-72.1318647928489,52.5770792533138,446.0],[-72.139518260154318,52.573546883788225,450.5341],[-72.143933722061291,52.57649052505954,447.2272],[-72.145405542696949,52.590914367289,455.0591],[-72.158210382227182,52.598862198721548,457.3157],[-72.1723398603295,52.592091823797517,459.0511],[-72.184997517796162,52.5779623456952,455.0679],[-72.193239713355851,52.562949775211479,455.4842],[-72.19441716986438,52.553235759016133,448.5155],[-72.24166261226901,52.55294139488899,448.205],[-72.2615321908504,52.549409025363417,444.5002],[-72.2615321908504,52.542344286312272,446.4421],[-72.245489345921726,52.542049922185129,447.5582],[-72.238130242743424,52.53469081900684,453.2988],[-72.23327323464575,52.526154259320009,451.5193]]]}
,"properties": {"featurecla": "Lake","scalerank": 7,"name": "null153","name_abb": null,"name_alt": null,"note": "_untitled_6","delta": null,"dam_name": null,"year": -99,"admin": null,"min_zoom": 5.7,"min_label": 6.7,"area_km2": 39.34346,"hist_schema_id": "Elevation0-9000","hist_area_km2": {"450": 38.90535,"475": 0.43811}}}