{"type": "Feature","bbox": [-77.066290655957076,50.048491401252761,-76.667868809884354,50.419095837311545],"geometry": {"type": "Polygon","coordinates": [[[-76.692448214499848,50.401728353810768,274.1247],[-76.701867866568065,50.397312891903795,277.6772],[-76.712464975144812,50.397312891903795,283.5721],[-76.73233455372619,50.403788902700683,293.3385],[-76.744109118811465,50.404671995082083,296.1646],[-76.7361612873789,50.368465207444871,277.3242],[-76.75455904532464,50.33667388171466,275.188],[-76.786350371054851,50.311358566781337,279.5367],[-76.851110479023816,50.278389784542583,305.6187],[-76.903948839843949,50.241888632778256,283.7813],[-76.935298619383474,50.225992969913165,285.6125],[-76.928086698268757,50.20891985053953,285.7329],[-76.930588793349372,50.1986171060899,270.0605],[-76.9416274481168,50.193907280055811,285.2579],[-76.959583659871839,50.192435459420153,300.5574],[-76.969886404321443,50.18625381275038,288.0461],[-77.054663272935372,50.073512352058941,275.8198],[-77.066290655957076,50.048491401252761,278.0955],[-77.048334444202041,50.050257586015562,267.5],[-77.030083868319878,50.059677238083765,267.5],[-77.013305113073372,50.073217987931827,267.5],[-76.989020072585,50.097944574610892,268.7533],[-76.976509597181916,50.107658590806238,267.5],[-76.961349844634626,50.114428965730241,267.5],[-76.942216176371076,50.117372607001556,267.5],[-76.9313247036672,50.116489514620184,267.5],[-76.9011523806362,50.110013503823268,287.6267],[-76.893057367140088,50.112662780967469,267.5],[-76.878044796656368,50.121493704781415,267.5],[-76.855820305057932,50.127675351451188,267.5],[-76.8374225471122,50.137389367646534,267.5],[-76.820643791865692,50.148869568604653,292.8591],[-76.811812868051746,50.158289220672884,282.9722],[-76.970033586385014,50.137389367646534,267.5],[-76.959583659871839,50.154168122893026,267.5],[-76.941038719862547,50.16623705210543,267.5],[-76.9011523806362,50.185076356241865,267.5],[-76.860382949028462,50.218633866734876,267.5],[-76.846547835053286,50.225992969913165,267.5],[-76.8275613488533,50.228642247057337,267.5],[-76.795328476932369,50.222754964514706,267.5],[-76.777666629304463,50.225992969913165,267.5],[-76.7654505180285,50.236001350235625,267.5],[-76.750290765481225,50.263377214058892,287.5746],[-76.736750015633163,50.274563050889896,275.1536],[-76.752940042625411,50.274563050889896,286.3083],[-76.790177104707567,50.261611029296091,288.0419],[-76.805631221381972,50.267498311838722,272.6536],[-76.8081333164626,50.280744697559641,277.0909],[-76.796358751377326,50.291930534390644,267.5],[-76.706136146411467,50.345504805528606,283.8813],[-76.681703923859544,50.368170843317756,267.5],[-76.681409559732415,50.391131245234021,267.5],[-76.67257863591847,50.412325462387514,289.5718],[-76.667868809884354,50.419095837311545,292.9508],[-76.678760282588229,50.414680375404544,285.7548],[-76.692448214499848,50.401728353810768,274.1247]]]}
,"properties": {"featurecla": "Lake","scalerank": 9,"name": "null293","name_abb": null,"name_alt": null,"note": "_untitled_40","delta": null,"dam_name": null,"year": -99,"admin": null,"min_zoom": 7.0,"min_label": 8.0,"area_km2": 189.1641,"hist_schema_id": "Elevation0-9000","hist_area_km2": {"250": 0.1216,"275": 153.5281,"300": 32.0681,"325": 3.148,"350": 0.2983}}}