{"type":"Feature","properties":{"featurecla":"Lake","scalerank":5,"name":"Lake Naococane","name_abb":"L. Naococane","name_alt":null,"note":null,"delta":null,"dam_name":null,"year":-99,"admin":null,"min_zoom":4.7,"min_label":6.0},
"geometry":{"type": "Polygon","coordinates": [[[-70.369506763711584,52.970938455415961,551.6371],[-70.350520277511592,52.981829928119851,577.5753],[-70.455902635024742,52.974470824941562,557.2866],[-70.477096852178221,52.976531373831477,574.568],[-70.486810868373567,52.97505955319582,554.4722],[-70.494464335678984,52.967700450017531,552.4213],[-70.498879797585957,52.956514613186528,553.6375],[-70.498143887268128,52.948566781753954,550.9669],[-70.491962240598369,52.943562591592723,561.0297],[-70.4801876755131,52.940324586194293,550.9626],[-70.50417835187433,52.932671118888862,576.0243],[-70.532878854269669,52.926489472219089,549.2642],[-70.560843446347178,52.925606379837689,548.3784],[-70.582626391754914,52.933554211270263,541.5],[-70.56511172619058,52.941502042702808,553.0831],[-70.5490688812619,52.953865336042327,541.5],[-70.53847177268517,52.949449874135354,549.5111],[-70.530523941252611,52.952687879533812,543.3907],[-70.524783840773551,52.959752618584957,541.5],[-70.521104289184407,52.967700450017531,541.5],[-70.555839256185934,52.981829928119851,548.9025],[-70.5133036398154,52.987128482408224,542.983],[-70.495200245996813,52.994193221459369,548.4399],[-70.500645982348743,53.008617063688831,560.2019],[-70.5689384598433,53.008617063688831,558.8596],[-70.575120106513069,53.002141052891943,555.7848],[-70.578210929847941,52.985362297645423,550.6057],[-70.586305943344058,52.981829928119851,545.153],[-70.594106592713061,52.983007384628365,541.5],[-70.610885347959567,52.987422846535338,541.5],[-70.617361358756455,52.987422846535338,545.7599],[-70.623984551616914,52.983596112882623,543.3904],[-70.648416774168851,52.963873716364816,544.7656],[-70.6563646056014,52.959458254457843,541.5],[-70.676822912437061,52.961224439220615,543.2418],[-70.685653836251,52.9600469827121,546.8181],[-70.689186205776579,52.963284988110559,547.7593],[-70.699341768162625,52.974470824941562,547.3107],[-70.674320817356431,53.0036128735276,545.4702],[-70.706995235468057,53.021569085282607,540.5],[-70.758067411525388,53.035109835130669,536.5],[-70.797806568688173,53.054243503394247,537.2213],[-70.801338938213746,53.060425150063992,539.8121],[-70.800308663768789,53.068078617369423,546.0743],[-70.795451655671116,53.076909541183369,543.5002],[-70.8217972450494,53.06778425324228,532.0],[-70.829597894418384,53.063957519589593,532.0],[-70.8441689187114,53.053654775139961,537.6017],[-70.848584380618377,53.048356220851616,554.1952],[-70.846965377919162,53.0436463948175,554.7359],[-70.843285826330018,53.035992927512069,536.5],[-70.840783731249388,53.040114025291928,536.5],[-70.833571810134671,53.043057666563243,536.5],[-70.826212706956369,53.0436463948175,536.5],[-70.8226803374308,53.039230932910527,548.2996],[-70.823857793939325,53.033932378622154,536.8379],[-70.8282732558463,53.025984547189609,604.7466],[-70.829597894418384,53.022157813536893,611.8391],[-70.834896448706758,53.017153623375634,601.5793],[-70.843874554584275,53.016270530994262,592.2057],[-70.849173108872648,53.012738161468661,581.1666],[-70.843285826330018,53.001257960510543,546.4092],[-70.814879688061808,53.011560704960146,538.0488],[-70.773079982009108,53.017153623375634,536.5],[-70.731869004210679,53.014798710358605,550.9348],[-70.706112143086656,53.001257960510543,546.5662],[-70.718328254362618,52.99684249860357,557.2958],[-70.72980845532075,52.988600303043881,544.0341],[-70.735401373736252,52.977708830339992,546.6807],[-70.726423267858735,52.9515104230253,558.4131],[-70.733193642782766,52.944151319846981,548.1172],[-70.742760476914555,52.947094961118296,545.4283],[-70.747617485012213,52.963873716364816,541.6917],[-70.762482873432376,52.969172270653189,547.3268],[-70.795598837734687,52.962990623983416,547.7946],[-70.830480986799785,52.9515104230253,552.6572],[-70.850056201254034,52.940324586194293,583.5975],[-70.840047820931559,52.926783836346232,538.4764],[-70.852116750143963,52.920602189676458,543.5201],[-70.888029173654033,52.9191303690408,550.6376],[-70.897154461595107,52.927372564600489,539.4885],[-70.900981195247823,52.943268227465609,532.0],[-70.909370572871069,52.953865336042327,554.8721],[-70.932625338914477,52.946506232864039,532.0],[-70.925413417799746,52.941796406829951,544.6658],[-70.911578303824555,52.926489472219089,544.9061],[-70.947049181143925,52.909121988718312,598.2551],[-70.96382793639043,52.898524880141593,566.2805],[-70.980312327509807,52.884984130293532,535.0],[-70.987082702433838,52.898524880141593,548.4758],[-70.99090943608654,52.89646433125165,554.6577],[-70.9928228029129,52.887044679183447,541.5],[-70.993117167040026,52.869088467428412,540.0652],[-70.9825200584633,52.814925468036193,539.3915],[-70.977663050365621,52.810510006129221,536.3082],[-70.966182849407488,52.809332549620677,535.0],[-70.9532308278137,52.813453647400536,536.0681],[-70.942633719236952,52.820224022324567,535.0],[-70.933508431295863,52.821401478833081,535.0],[-70.925119053672617,52.809332549620677,542.7208],[-70.8993621925486,52.841123875350917,543.0286],[-70.88861790190829,52.857902630597408,540.4126],[-70.884202440001317,52.874975749971043,535.0],[-70.874635605869543,52.887633407437704,535.0],[-70.852116750143963,52.884984130293532,542.8201],[-70.826948617274212,52.8782137553695,535.0],[-70.809139587582735,52.8782137553695,545.5754],[-70.824299340130025,52.896169967124536,539.3737],[-70.804282579485061,52.925017651583431,541.5101],[-70.8226803374308,52.933554211270263,535.0],[-70.800603027895917,52.95504279255087,541.9103],[-70.773963074390508,52.952393515406669,557.935],[-70.761599781050975,52.936497852541578,564.4061],[-70.7817637237595,52.9191303690408,563.532],[-70.768958884229264,52.891754505217563,541.5],[-70.769106066292835,52.854075896944693,541.5],[-70.778967264551738,52.816691652798966,550.9855],[-70.795451655671116,52.789610153102871,541.5],[-70.772638435818408,52.782251049924582,543.6725],[-70.723479626587419,52.775480675000551,541.5],[-70.699341768162625,52.768415935949378,555.5745],[-70.672407450530073,52.786666511831555,543.1135],[-70.665048347351785,52.789610153102871,541.5],[-70.655775877347139,52.78696087595867,547.5471],[-70.6469449535332,52.782251049924582,561.7498],[-70.6429710378169,52.775186310873409,542.7087],[-70.648416774168851,52.765177930550948,545.5305],[-70.677706004818447,52.73691897434631,553.2413],[-70.685506654187435,52.721612039735447,557.2681],[-70.671965904339388,52.7136642083029,546.2083],[-70.66122161369907,52.716902213701331,552.7575],[-70.654451238775053,52.725438773388163,541.5],[-70.64959423067738,52.734564061329252,541.5],[-70.645178768770393,52.74104007212614,541.5],[-70.636053480829318,52.74604426228737,541.5],[-70.614712081612268,52.753403365465658,548.1686],[-70.607058614306851,52.758407555626917,541.5],[-70.5973445981115,52.763117381661004,541.5],[-70.58733621778903,52.763411745788147,543.0845],[-70.579535568420042,52.766355387059463,551.4265],[-70.576297563021583,52.779013044526124,541.5],[-70.5792412042929,52.789904517229985,541.5],[-70.58601157921693,52.791376337865643,549.0693],[-70.594989685094447,52.789021424848613,545.2968],[-70.603673426844836,52.789610153102871,545.9214],[-70.621924002727,52.800501625806731,548.2666],[-70.586305943344058,52.799912897552474,542.6253],[-70.565847636508408,52.806094544222248,543.0134],[-70.558635715393692,52.812276190891993,546.8372],[-70.550687883961132,52.815808560417594,549.9014],[-70.54421187316423,52.812570555019136,543.6348],[-70.541562596020057,52.799324169298217,542.9919],[-70.536705587922384,52.793142522628443,542.9469],[-70.5137451860061,52.781956685797439,547.4796],[-70.507416357272774,52.775186310873409,547.9409],[-70.5094769061627,52.761645561025347,559.2],[-70.519043740294478,52.755758278482716,568.1396],[-70.529788030934782,52.7528146372114,554.2789],[-70.535380949350284,52.748399175304428,561.0424],[-70.534203492841755,52.738390794981967,552.1365],[-70.5284633923627,52.733680968947851,553.5682],[-70.520074014739436,52.730737327676536,552.0524],[-70.510507180607661,52.724261316879648,558.8133],[-70.500498800285186,52.703067099726155,557.0463],[-70.511095908861918,52.686288344479635,560.2308],[-70.5490688812619,52.65920684478354,572.1477],[-70.490048873772011,52.642133725409906,560.9165],[-70.472681390271248,52.6318309809603,559.0057],[-70.468413110427832,52.626532426671929,575.2703],[-70.468854656618532,52.623294421273471,569.3116],[-70.471209569635576,52.620056415875013,576.5395],[-70.472681390271248,52.614463497459525,593.2205],[-70.470915205508447,52.608576214916894,589.5991],[-70.466646925665046,52.606221301899836,583.1155],[-70.4620842816945,52.605632573645579,563.9215],[-70.458993458359615,52.603866388882778,565.1394],[-70.453400539944113,52.59739037808589,563.5499],[-70.448249167719311,52.593563644433175,563.765],[-70.445158344384424,52.5882650901448,572.7009],[-70.446041436765825,52.5770792533138,571.3267],[-70.4142501110356,52.624177513654871,579.496],[-70.399090358488323,52.653025198113767,577.0068],[-70.401003725314681,52.665977219707571,587.6111],[-70.427496496756532,52.665977219707571,571.8529],[-70.458993458359615,52.669509589233144,574.5129],[-70.482984134720851,52.68334470320832,569.2521],[-70.486958050437124,52.7136642083029,572.0178],[-70.478127126623178,52.726616229896678,551.4994],[-70.466499743601474,52.733680968947851,551.481],[-70.460759643122415,52.74192316450754,559.9053],[-70.469590566936361,52.758407555626917,555.6705],[-70.474741939161163,52.771948305474979,552.0062],[-70.47032647725419,52.7843115988145,550.6114],[-70.4629673740759,52.7954974356455,549.9944],[-70.458993458359615,52.806094544222248,561.0942],[-70.466205379474346,52.815219832163308,566.3113],[-70.481217949958065,52.817869109307509,547.8322],[-70.493875607424727,52.822578935341625,547.756],[-70.494464335678984,52.8372971416982,541.5],[-70.485927775992167,52.843478788367975,541.5],[-70.471062387572019,52.845244973130747,542.7315],[-70.439123879778236,52.844067516622232,555.9933],[-70.447218893274353,52.856136445834636,553.2656],[-70.4801876755131,52.884984130293532,588.7041],[-70.480482039640236,52.877919391242358,576.3255],[-70.4819538602759,52.874681385843928,558.4664],[-70.48239540646658,52.87144338044547,565.9728],[-70.4801876755131,52.864673005521439,545.0045],[-70.49034323789914,52.863789913140039,554.7843],[-70.499321343776657,52.865850462029954,550.8979],[-70.506974811082074,52.87056028806407,542.2225],[-70.513598003942548,52.8782137553695,541.5],[-70.5094769061627,52.881157396640816,558.1281],[-70.505355808382859,52.887927771564847,545.1358],[-70.500645982348743,52.892637597598963,541.5],[-70.5155113707689,52.898230516014451,541.5],[-70.521104289184407,52.899407972522965,541.5],[-70.521104289184407,52.905589619192739,541.5],[-70.5077107213999,52.906178347446996,542.4716],[-70.494758699806113,52.911771265862512,542.1986],[-70.460612461058844,52.933848575397377,550.961],[-70.447218893274353,52.940030222067151,550.8635],[-70.4314704124728,52.944445683974124,551.0254],[-70.411895198018556,52.946506232864039,553.7384],[-70.4142501110356,52.961518803347758,551.3847],[-70.395410806899179,52.966817357636131,551.8443],[-70.369506763711584,52.970938455415961,551.6371]],
[[-70.911578303824555,52.899407972522965,543.8311],[-70.932625338914477,52.854370261071836,616.5628],[-70.938365439393536,52.846128065512147,550.7832],[-70.9510230968602,52.842301331859431,536.1215],[-70.965005392898959,52.843773152495089,572.9684],[-70.973689134649348,52.850837891546263,553.9762],[-70.970303947187332,52.874092657589642,535.0],[-70.94955127622454,52.894403782361735,556.4434],[-70.92202823033773,52.908533260464054,535.7814],[-70.898479100167208,52.912948722371027,542.7611],[-70.911578303824555,52.899407972522965,543.8311]]]}}