{"type":"Feature","properties":{"featurecla":"Lake","scalerank":4,"name":"Lac-à-l'Eau-Claire","name_abb":"Lac-à-l'Eau-Claire","name_alt":null,"note":null,"delta":null,"dam_name":null,"year":-99,"admin":null,"min_zoom":4.0,"min_label":5.0},
"geometry":{"type": "Polygon","coordinates": [[[-73.955303378366025,56.108860050639578,236.3904],[-73.9751729569474,56.120634615724839,244.8535],[-74.002548820770656,56.132997909064358,236.0],[-74.034045782373738,56.14918793605662,236.0],[-74.047439350158228,56.15242594145505,236.0],[-74.067750474930321,56.153603397963593,240.3089],[-74.086001050812484,56.15242594145505,240.5497],[-74.166509639583,56.1341753655729,236.0],[-74.201538970711667,56.134469729700015,241.1642],[-74.2345077529504,56.140945740496932,236.0],[-74.262619527091488,56.153603397963593,236.0],[-74.283077833927138,56.168910332574427,241.6339],[-74.293086214249612,56.180096169405431,236.0],[-74.297354494093028,56.191576370363578,236.0],[-74.299415042982943,56.19510873988915,236.0],[-74.30206432012713,56.202467843067438,239.2188],[-74.3008868636186,56.207766397355812,236.0],[-74.290584119169,56.205411484338754,240.933],[-74.282636287736437,56.202762207194581,239.7467],[-74.273952545986049,56.201290386558924,237.4554],[-74.264974440108546,56.201290386558924,237.3885],[-74.256437880421714,56.201879114813181,248.5942],[-74.269684266142647,56.214536772279843,236.0],[-74.28028137471938,56.228960614509305,236.0],[-74.2789567361473,56.238380266577508,236.0],[-74.256437880421714,56.23602535356045,236.0],[-74.289848208851168,56.268994135799204,236.0],[-74.308981877114718,56.279885608503065,236.0],[-74.3315007328403,56.284006706282923,236.0],[-74.345335846815487,56.288422168189896,236.0],[-74.355049863010834,56.307555836453446,236.0],[-74.365352607460437,56.311971298360419,236.0],[-74.3780102649271,56.313148754868962,236.0],[-74.390373558266631,56.316092396140277,236.7016],[-74.413481142246468,56.325512048208481,236.0],[-74.425991617649558,56.324923319954223,236.0],[-74.434528177336375,56.327278232971281,236.0],[-74.437766182734833,56.331988059005369,236.0],[-74.434528177336375,56.339052798056542,236.0],[-74.455428030362725,56.347589357743345,240.3087],[-74.476475065452647,56.347589357743345,248.0722],[-74.517097314996818,56.339052798056542,236.0],[-74.605259371072748,56.339052798056542,241.0371],[-74.610263561233992,56.339935890437943,243.3201],[-74.6205663056836,56.344940080599173,237.2297],[-74.626306406162669,56.34552880885343,247.9502],[-74.630280321878942,56.342585167582115,249.7486],[-74.6313105963239,56.337875341548,252.6131],[-74.629985957751813,56.333754243768169,237.0316],[-74.626306406162669,56.332282423132511,236.0],[-74.64602880268049,56.331104966623968,236.0],[-74.723299386052545,56.339935890437943,236.0],[-74.742433054316109,56.339052798056542,252.6134],[-74.73330776637502,56.336697885039484,244.509],[-74.725801481133161,56.332576787259626,253.0556],[-74.719767016526973,56.326689504716995,281.4568],[-74.715057190492857,56.31874167328445,238.5496],[-74.8027777003781,56.313148754868962,236.0],[-74.825002191976537,56.304317831054988,270.1948],[-74.8023361541874,56.287539075808496,246.7346],[-74.801453061806,56.269582864053461,242.0],[-74.8182318170525,56.255453385951142,236.9055],[-74.848551322147074,56.249860467535626,240.7455],[-74.846637955320716,56.238968994831765,304.6724],[-74.797037599899028,56.174797615117058,236.0],[-74.81057834974709,56.16920469670157,246.4574],[-74.838837305951728,56.166555419557369,238.2878],[-74.852230873736218,56.160962501141881,304.7304],[-74.804543885140887,56.140062648115531,246.3806],[-74.756120986227728,56.126816262394613,292.8474],[-74.742433054316109,56.119457159216324,268.0018],[-74.7545019835285,56.110920599529493,283.5916],[-74.7661293665502,56.109154414766692,263.3813],[-74.7781982957626,56.109448778893835,250.8268],[-74.790855953229268,56.10650513762252,236.0],[-74.807634708475774,56.098262942062831,280.4843],[-74.809695257365689,56.093847480155858,298.3389],[-74.65309354173165,56.078540545544996,356.478],[-74.64602880268049,56.074713811892309,314.2635],[-74.641024612519246,56.070298349985308,298.7737],[-74.634401419658786,56.06647161633262,241.8727],[-74.567727944863464,56.057935056645789,280.682],[-74.557425200413846,56.059995605535704,309.3357],[-74.549624551044857,56.064411067442677,247.9036],[-74.543148540247969,56.06882652934965,241.3197],[-74.536378165323939,56.071770170620994,236.8998],[-74.511504396581316,56.07059271411245,275.7557],[-74.4663195030666,56.054991415374474,295.7686],[-74.441445734323977,56.051164681721758,283.8667],[-74.390962286520889,56.0496928610861,236.0],[-74.366088517778266,56.04557176330627,279.0986],[-74.344599936497659,56.037623931873696,272.1609],[-74.331647914903868,56.029087372186893,273.7999],[-74.3004453174279,55.999650959473712,247.17],[-74.281900377418609,55.990231307405509,236.0],[-74.257173790739543,55.987876394388451,237.857],[-74.208014981508555,55.989642579151251,239.6203],[-74.214785356432586,56.00288896487217,236.0],[-74.19756505499538,55.999062231219455,236.0],[-74.185348943719418,55.989642579151251,236.0],[-74.184171487210889,55.98022292708302,239.9908],[-74.200803060393838,55.97610182930319,240.3107],[-74.255849152167457,55.972863823904731,267.4546],[-74.270125812333347,55.969331454379159,236.0],[-74.28705174964341,55.949609057861323,245.9931],[-74.261442070582959,55.936951400394662,260.0991],[-74.1875566746729,55.928414840707859,290.0423],[-74.1875566746729,55.934596487377632,278.0798],[-74.203157973410882,55.938717585157463,245.6475],[-74.234654935013978,55.943133047064435,260.5314],[-74.248931595179869,55.948137237225666,293.5139],[-74.248931595179869,55.955496340403982,237.739],[-74.225382465009332,55.959617438183813,236.0],[-74.191383408325621,55.96108925881947,236.0],[-74.15708998751478,55.958734345802412,236.0],[-74.111757911936508,55.947548508971408,236.0],[-74.084529230176827,55.950197786115609,248.7334],[-74.036106331263667,55.96197235120087,240.7157],[-74.0118212907753,55.980517291210163,236.0],[-73.983709516634235,56.015840986465975,236.0],[-73.966636397260586,56.0514590458489,236.0],[-73.975320139010975,56.071770170620994,236.0],[-73.95235973709471,56.093847480155858,236.0],[-73.955303378366025,56.108860050639578,236.3904]]]}}