{"type":"Feature","properties":{"featurecla":"Lake","scalerank":7,"name":"null99","name_abb":null,"name_alt":null,"note":"_untitled_69","delta":null,"dam_name":null,"year":-99,"admin":null,"min_zoom":5.7,"min_label":6.7},
"geometry":{"type": "Polygon","coordinates": [[[-67.827966890056757,56.777360983355578,200.2755],[-67.850927291973022,56.776477890974206,186.7915],[-67.884926348656734,56.761170956363344,183.8337],[-67.9036184707296,56.757049858583514,174.0],[-67.927167600900134,56.7635258693804,178.8769],[-67.9393837121761,56.7635258693804,181.8492],[-67.944682266464469,56.753517489057913,179.7733],[-67.947184361545084,56.743509108735452,174.0],[-67.953660372341986,56.737033097938564,174.0],[-67.9724996764784,56.729673994760248,174.0],[-67.993105165377628,56.72408107634476,180.2886],[-68.0165071134846,56.720254342692044,187.7916],[-68.0384372409559,56.719371250310644,204.1038],[-68.054480085884578,56.722020527454845,174.0],[-68.093188968602391,56.746452750006767,183.2144],[-68.112469818929512,56.762937141126145,185.1162],[-68.123361291633387,56.777360983355578,208.7606],[-68.111439544484554,56.777360983355578,191.9269],[-68.103050166861308,56.782365173516837,190.6656],[-68.100400889717122,56.79090173320364,184.5],[-68.110703634166725,56.81268467861139,184.5],[-68.105405079878352,56.820043781789678,184.5],[-68.095985427810135,56.825931064332309,186.8726],[-68.088626324631846,56.832112711002083,186.2139],[-68.081561585580687,56.8462421891044,189.7645],[-68.076115849228756,56.862432216096636,186.6216],[-68.073613754148141,56.879210971343156,186.159],[-68.0750855747838,56.894223541826875,191.8117],[-68.074055300338827,56.898639003733848,188.4403],[-68.073613754148141,56.905409378657879,202.7221],[-68.078176398118671,56.907175563420651,206.6389],[-68.092011512093862,56.89716718309819,193.7274],[-68.1160021884551,56.866847678003609,197.0448],[-68.128954210048889,56.855661841172605,212.6441],[-68.142347777833379,56.849774558629974,184.5],[-68.152650522282983,56.853012564028433,184.5],[-68.162217356414772,56.885686982140044,194.4284],[-68.1857664865853,56.867436406257895,188.6278],[-68.194891774526383,56.899227731988105,184.0],[-68.203722698340329,56.9177726719974,184.0],[-68.214025442789946,56.934551427243917,184.0],[-68.222414820413192,56.945442899947778,187.4672],[-68.225064097557379,56.952507638998924,185.2373],[-68.223003548667464,56.9725243996439,193.9925],[-68.225800007875208,56.982827144093505,192.756],[-68.23227601867211,56.988714426636136,185.4116],[-68.242725945185285,56.993424252670223,184.0],[-68.254942056461246,56.996073529814424,191.8563],[-68.267010985673636,56.997250986322939,189.8605],[-68.280110189331,57.0013720841028,184.0],[-68.279374279013169,57.011380464425258,184.8944],[-68.2745172709155,57.022860665383405,208.0522],[-68.274222906788367,57.031102860943093,188.5459],[-68.282465102348056,57.035518322850066,190.4987],[-68.292767846797659,57.035812686977209,199.0974],[-68.315139520459667,57.031102860943093,193.7216],[-68.309399419980608,57.0431717901555,187.7786],[-68.308957873789907,57.056123811749274,191.6626],[-68.313226153633309,57.068192740961678,192.695],[-68.321468349193,57.079084213665567,202.7854],[-68.331329547451915,57.08349967557254,192.6103],[-68.3572335906395,57.089681322242285,188.3009],[-68.3623849628643,57.0961573330392,188.7282],[-68.3641511476271,57.12942047940507,182.5],[-68.366064514453441,57.137368310837616,192.3208],[-68.377986261602274,57.142666865125989,194.7177],[-68.384609454462748,57.1335415771849,198.308],[-68.3899080087511,57.120589555591124,202.7626],[-68.397119929865838,57.113819180667093,193.0358],[-68.407569856379013,57.116468457811266,184.0],[-68.411838136222428,57.1241219251167,184.0],[-68.411985318285986,57.1353077619477,184.0],[-68.410807861777457,57.147965419414362,184.0],[-68.408894494951113,57.15532452259265,186.389],[-68.4046262151077,57.161506169262424,184.0],[-68.3865228212891,57.1779905603818,188.7639],[-68.381518631127861,57.189176397212805,194.7648],[-68.38814182398832,57.198007321026751,189.1651],[-68.3981502043108,57.205660788332182,183.5],[-68.403301576535611,57.212725527383327,188.3077],[-68.399769207010024,57.22214517945153,192.1941],[-68.393146014149565,57.228915554375561,184.0],[-68.390055190814678,57.236863385808135,184.0],[-68.397119929865838,57.2504041356562,184.0],[-68.409924769396071,57.256291418198828,189.9666],[-68.417872600828616,57.253053412800369,196.3273],[-68.425526068134047,57.246577402003481,191.458],[-68.437742179410009,57.24304503247788,185.3979],[-68.44495410052474,57.245694309622081,187.344],[-68.449369562431713,57.252170320418969,184.0],[-68.453049114020857,57.259235059470143,186.0282],[-68.458642032436359,57.264533613758516,196.5806],[-68.478511611017751,57.271598352809661,196.6569],[-68.497939643408429,57.273070173445319,188.893],[-68.5588730177247,57.269243439792604,197.4886],[-68.565201846458024,57.264533613758516,212.4496],[-68.567998305665768,57.2580576029616,201.5914],[-68.581833419640958,57.24304503247788,257.558],[-68.5872791559929,57.235391565172478,210.4343],[-68.594196712980491,57.232742288028277,190.5],[-68.605971278065752,57.239807027079451,190.5],[-68.61671556870607,57.244811217240681,245.5941],[-68.620983848549471,57.238629570570907,227.3884],[-68.618628935532428,57.227149369612789,246.1348],[-68.609356465527767,57.2162578969089,204.6602],[-68.598317810760335,57.214786076273242,190.5],[-68.589045340755689,57.220084630561615,209.5246],[-68.581391873450258,57.221556451197273,191.727],[-68.5752102267805,57.209487521984869,233.8117],[-68.565790574712281,57.214197348018985,190.5],[-68.558284289470421,57.220378994688758,195.935],[-68.552249824864234,57.227738097867046,201.0157],[-68.547981545020818,57.236569021680992,200.034],[-68.537825982634772,57.224794456595731,194.8877],[-68.501324830870445,57.164155446406596,201.0426],[-68.499558646107658,57.157973799736851,227.6294],[-68.502060741188274,57.147671055287219,225.8015],[-68.508095205794476,57.144727414015904,193.9208],[-68.515012762782078,57.144138685761646,192.8955],[-68.520016952943308,57.141195044490331,198.6273],[-68.52560987135881,57.133835941312043,197.5423],[-68.529878151202226,57.131186664167871,192.4403],[-68.53267461040997,57.127359930515155,190.5],[-68.5342936131092,57.107048805743062,195.3793],[-68.536942890253385,57.0961573330392,231.4179],[-68.543124536923145,57.088209501606627,259.4081],[-68.554163191690591,57.086443316843855,191.2421],[-68.562258205186708,57.096451697166316,230.3642],[-68.55946174597895,57.115291001302751,197.5357],[-68.547981545020818,57.147965419414362,240.6383],[-68.619364845850257,57.152969609575592,227.3378],[-68.654099812851783,57.160328712753881,212.5405],[-68.681328494611463,57.1779905603818,228.1663],[-68.701492437319985,57.208015701349211,225.0],[-68.714738823040918,57.218318445798843,225.0],[-68.729162665270366,57.212725527383327,236.1285],[-68.730192939715323,57.202717147060866,232.2634],[-68.7220979262192,57.190942581975577,227.6203],[-68.7113536355789,57.179168016890316,228.2692],[-68.704877624782,57.168570908313569,239.6624],[-68.736521768448654,57.184172207051546,223.1613],[-68.753006159568031,57.188587668958547,237.8621],[-68.760218080682748,57.1779905603818,235.0162],[-68.755655436712217,57.167393451805054,229.998],[-68.745058328135471,57.156501979101193,230.6289],[-68.722392290346335,57.137368310837616,223.6778],[-68.7095874508161,57.116762821938408,251.8906],[-68.702375529701385,57.089975686369428,260.1137],[-68.6988431601758,57.031102860943093,238.7333],[-68.680003856039377,57.038756328248525,231.8724],[-68.678384853340148,57.0552407193679,221.5],[-68.683389043501393,57.074963115885708,221.5],[-68.68441931794635,57.0926249635136,221.5],[-68.679120763657977,57.101750251454689,237.4931],[-68.6699954757169,57.111169903522892,247.048],[-68.661458916030085,57.117351550192666,221.5],[-68.657779364440927,57.117057186065551,221.5],[-68.6574850003138,57.137368310837616,318.1747],[-68.653363902533954,57.145021778143047,275.5323],[-68.643208340147922,57.147965419414362,224.7174],[-68.618628935532428,57.145021778143047,209.5],[-68.599348085205293,57.1361908543291,254.1338],[-68.586543245675074,57.120000827336867,206.6774],[-68.582127783768087,57.0961573330392,193.5483],[-68.5743271343991,57.081733490809739,223.6632],[-68.5557821943898,57.06848710508882,213.3459],[-68.53311615660067,57.059656181274875,216.4709],[-68.51309939595572,57.058478724766331,209.7591],[-68.522519048023938,57.0840884038268,189.5],[-68.514129670400678,57.106165713361662,189.5],[-68.494112909755728,57.121472647972524,218.3533],[-68.4687975948224,57.127359930515155,196.0416],[-68.453049114020857,57.119706463209724,189.2516],[-68.447603377668926,57.100572794946174,203.3124],[-68.445248464651868,57.077906757157024,189.9232],[-68.438036543537137,57.058478724766331,215.5885],[-68.373717981758872,56.99960589934,201.4619],[-68.359294139529425,56.989597519017536,199.5738],[-68.3382471044395,56.97900041044079,184.0],[-68.311754332997651,56.929547237082659,227.2012],[-68.293503757115488,56.914534666598939,218.0526],[-68.27907991488604,56.931607785972574,184.0],[-68.256266695033332,56.931902150099717,195.9985],[-68.235072477879854,56.918950128505912,198.1396],[-68.225800007875208,56.89716718309819,209.8943],[-68.231981654544967,56.856544933554005,200.5926],[-68.2288908312101,56.84948019450286,202.3805],[-68.221531728031792,56.843004183705943,184.0],[-68.205341701039558,56.832112711002083,203.0865],[-68.168399003084531,56.779127168118379,196.4338],[-68.142200595769808,56.764703325888917,191.7447],[-68.088626324631846,56.722020527454845,218.5375],[-68.048592803341947,56.699354489665694,190.0528],[-68.040350607782258,56.686696832199033,185.1832],[-68.064488466207052,56.681103913783545,192.4511],[-68.07434966446597,56.677277180130829,203.7537],[-68.081708767644258,56.668446256316884,186.312],[-68.092011512093862,56.650490044561849,174.0],[-68.103050166861308,56.646957675036276,174.0],[-68.117768373217885,56.649901316307592,174.0],[-68.143230870214779,56.66138151726571,174.0],[-68.144702690850437,56.664619522664168,174.0],[-68.14867660656671,56.677865908385087,174.0],[-68.1500012451388,56.681103913783545,174.0],[-68.156182891808569,56.6825757344192,178.0506],[-68.170753916101589,56.6808095496564,174.0],[-68.177377108962048,56.681103913783545,174.0],[-68.202692423895371,56.686696832199033,212.7895],[-68.285114379492242,56.689051745216091,187.7892],[-68.306455778709292,56.682870098546317,193.3034],[-68.30086286029379,56.667563163935483,189.1378],[-68.310282512362,56.659909696630052,175.8619],[-68.341926656028647,56.643425305510675,174.0],[-68.352376582541822,56.640187300112245,186.6705],[-68.3567920444488,56.6381267512223,204.5528],[-68.355614587940281,56.633416925188214,234.5788],[-68.350316033651907,56.6287070991541,174.0],[-68.341926656028647,56.626646550264184,174.0],[-68.3335372784054,56.627529642645584,174.0],[-68.32132116712944,56.632239468679671,174.0],[-68.262301159639534,56.646663310909133,180.6913],[-68.236691480579083,56.649606952180449,214.4549],[-68.113500093374469,56.637538022968045,174.0],[-68.102461438607037,56.631062012171157,190.127],[-68.094072060983791,56.621936724230068,208.3867],[-68.082444677962087,56.612811436288979,187.7696],[-68.046973800642718,56.59779886580526,174.0],[-68.0268098579342,56.580137018177368,279.2715],[-68.015918385230322,56.573955371507594,259.7248],[-68.002524817445831,56.571011730236279,226.1577],[-67.985598880135768,56.571894822617679,201.1549],[-67.998845265856687,56.5886735778642,289.2536],[-68.045207615879931,56.610162159144807,174.0],[-68.060661732554337,56.626646550264184,181.232],[-68.061250460808608,56.654316778214564,174.0],[-68.041822428417916,56.668740620444,174.0],[-68.014888110785364,56.674039174732371,175.3934],[-67.9923692550598,56.674922267113772,176.452],[-67.969114489016391,56.68139827791066,184.7334],[-67.925401416137333,56.7096572341153,174.0],[-67.899938919140453,56.715838880785071,191.8622],[-67.884337620402476,56.7243754404719,199.8653],[-67.838711180697061,56.7644089617618,194.5325],[-67.827966890056757,56.777360983355578,200.2755]]]}}