{"type": "Feature","bbox": [-76.159943508518666,53.443687243589437,-74.429965533365845,53.922617678432658],"geometry": {"type": "Polygon","coordinates": [[[-76.1356584680303,53.728631718652878,172.0],[-76.139485201683016,53.715090968804844,172.0],[-76.1244726311993,53.710381142770729,172.0],[-76.114905797067522,53.7027276754653,251.429],[-76.126238815962083,53.690953110380036,345.1072],[-76.12771063659774,53.68624328434592,331.2131],[-76.1253557235807,53.682416550693233,326.5752],[-76.120645897546581,53.680061637676175,284.8346],[-76.110343153096977,53.67711799640486,341.7255],[-76.113139612304721,53.669758893226543,276.6074],[-76.121528989927981,53.653274502107195,205.7532],[-76.121970536118681,53.645915398928878,199.2484],[-76.109165696588448,53.645032306547506,203.0623],[-76.068249082917148,53.653274502107195,250.1648],[-76.057357610213273,53.652685773852909,275.4973],[-76.051323145607071,53.652980137980052,272.3654],[-76.0473492298908,53.654746322742852,263.8777],[-76.04617177338227,53.657395599887025,250.0],[-76.046760501636541,53.65945614877694,257.0115],[-76.0477907760815,53.661516697666883,249.4833],[-76.04749641195437,53.663871610683913,244.8535],[-76.044405588619483,53.667698344336628,278.9168],[-76.040137308776067,53.669758893226543,292.8139],[-76.0352803006784,53.670641985607944,303.2358],[-76.030423292580721,53.671230713862229,306.5524],[-75.9948052331978,53.670641985607944,268.1097],[-75.988623586528036,53.673291262752144,335.8687],[-75.986415855574549,53.682710914820348,364.7955],[-75.982000393667562,53.690364382125779,255.6403],[-75.9749356546164,53.696546028795552,251.0],[-75.9655160025482,53.700961490702525,251.0],[-75.960511812386954,53.70213894721104,251.0],[-75.95683226079781,53.7018445830839,251.0],[-75.953741437462924,53.700372762448239,251.0],[-75.9447633315854,53.694779844032752,251.0],[-75.925040935067585,53.688009469108721,251.0],[-75.9129720058552,53.682416550693233,261.0822],[-75.911500185219538,53.68212218656609,261.0822],[-75.910764274901709,53.681827822438947,262.5815],[-75.901786169024192,53.682416550693233,251.0],[-75.8926608810831,53.684771463710263,251.0],[-75.883977139332714,53.685360191964548,251.0],[-75.8758821258366,53.68123909418469,306.4434],[-75.864549106942036,53.667992708463771,315.7529],[-75.86072237328932,53.660044877031225,319.2986],[-75.861016737416449,53.652685773852909,314.3687],[-75.867198384086223,53.646209763056021,303.1331],[-75.8763236720273,53.642677393530448,325.4265],[-75.895457340290861,53.640616844640533,319.3376],[-75.95050343206448,53.624721181775413,291.1238],[-75.987298947955935,53.622366268758356,259.7998],[-75.995541143515624,53.61942262748704,263.3955],[-76.002017154312526,53.61441843732581,265.7319],[-76.00481361352027,53.608236790656036,249.2753],[-76.005843887965227,53.602349508113406,254.9238],[-76.007610072728028,53.59675658969789,243.3067],[-76.012761444952829,53.591752399536659,244.8464],[-76.052794966242729,53.561727258569221,266.1152],[-76.060154069421031,53.560844166187849,282.8214],[-76.065746987836533,53.568203269366137,266.7697],[-76.072811726887693,53.565259628094822,264.1191],[-76.085469384354354,53.558194889043648,276.1055],[-76.092386941341942,53.55583997602659,266.3016],[-76.12138180786441,53.555545611899475,235.1754],[-76.1309486419962,53.55260197062816,286.7042],[-76.1399267478737,53.5475977804669,260.3441],[-76.149199217878362,53.541416133797156,213.5],[-76.15655832105665,53.533468302364582,220.6464],[-76.159943508518666,53.524048650296379,242.0318],[-76.157588595501608,53.515217726482433,243.1999],[-76.1515541308954,53.5084473515584,241.4385],[-76.144047845653546,53.502265704888629,240.3934],[-76.137866198983787,53.495789694091741,229.6501],[-76.134481011521771,53.48813622678631,218.0657],[-76.131831734377585,53.461937819471586,232.6822],[-76.077668734985366,53.454284352166184,244.1737],[-76.03866548814041,53.459582906454557,245.4743],[-76.0059910700288,53.459288542327414,263.5412],[-76.002900246693912,53.4581110858189,251.7561],[-76.000692515740425,53.455756172801841,251.0],[-75.999220695104768,53.450163254386325,249.6222],[-75.998043238596239,53.44810270549641,246.1633],[-75.992891866371437,53.444864700097952,266.6747],[-75.986415855574549,53.443687243589437,253.2221],[-75.979792662714075,53.44398160771658,266.3939],[-75.973316651917187,53.445159064225095,258.9715],[-75.965368820484628,53.447513977242153,265.1223],[-75.943144328886191,53.457522357564613,251.0],[-75.921508565542013,53.461349091217329,251.0],[-75.855571001064519,53.459582906454557,251.0],[-75.837614789309484,53.461643455344472,251.0],[-75.818333938982363,53.466942009632845,264.2894],[-75.799788998973057,53.474595476938248,251.0],[-75.767703309115717,53.492846052820425,251.0],[-75.75033582561494,53.497850242981656,251.0],[-75.669974418908,53.5102135363212,288.3252],[-75.642009826830488,53.509624808066917,320.4195],[-75.633178903016542,53.511390992829718,288.026],[-75.621845884121967,53.516100818863833,284.9659],[-75.6165473298336,53.519338824262263,286.3413],[-75.611690321735921,53.523165557914979,305.2356],[-75.620962791740581,53.527581019821952,323.8601],[-75.642745737148317,53.529347204584752,325.8962],[-75.652754117470792,53.53170211760181,268.2059],[-75.652459753343663,53.5381781283987,297.21],[-75.640979552385531,53.553779427136675,265.019],[-75.638035911114216,53.562315986823506,284.6347],[-75.637888729050644,53.572030003018853,251.0],[-75.636564090478558,53.580566562705656,260.31],[-75.632148628571571,53.587336937629686,281.1879],[-75.622434612376239,53.590869307155259,261.588],[-75.5821067269592,53.596167861443632,290.9886],[-75.549726672974714,53.593224220172317,274.2444],[-75.539129564397967,53.593812948426574,264.0351],[-75.540895749160754,53.597934046206433,286.4714],[-75.546194303449127,53.600583323350605,324.3912],[-75.558410414725088,53.603526964621921,306.2231],[-75.559293507106489,53.607648062401779,289.0565],[-75.564739243458419,53.609708611291694,273.8046],[-75.568860341238263,53.612652252563009,292.0575],[-75.573570167272379,53.615007165580067,312.0106],[-75.580487724259967,53.615595893834325,256.527],[-75.586963735056869,53.614124073198667,251.0],[-75.604772764748333,53.606764970020379,251.0],[-75.6169888760243,53.604704421130464,256.2579],[-75.655403394614979,53.603232600494806,256.1014],[-75.661732223348309,53.601760779859148,261.7368],[-75.676891975895586,53.59351858429946,261.3573],[-75.682190530183959,53.591752399536659,252.3845],[-75.687341902408761,53.591458035409545,277.6471],[-75.698086193049065,53.59263549191806,251.0],[-75.706328388608753,53.592341127790917,251.0],[-75.712951581469227,53.590280578901,251.0],[-75.7267866954444,53.583510203976971,251.0],[-75.733409888304877,53.581449655087056,251.0],[-75.740327445292465,53.580566562705656,251.0],[-75.754456923394784,53.581155290959913,251.0],[-75.756075926094013,53.585570752866886,251.0],[-75.755340015776184,53.5893974865196,251.0],[-75.747392184343624,53.602055143986263,251.0],[-75.7423879941824,53.61765644272424,251.0],[-75.737678168148278,53.624132453521156,251.0],[-75.730907793224247,53.627076094792471,251.0],[-75.72281277972813,53.627959187173872,251.0],[-75.651282296835134,53.627664823046729,308.2889],[-75.5816651807685,53.63943938813199,285.2317],[-75.533683828046037,53.640911208767648,274.6487],[-75.51852407549876,53.63943938813199,319.7989],[-75.488940480722022,53.627959187173872,253.5692],[-75.457296337055368,53.6191282633599,286.4833],[-75.440959127999562,53.617362078597125,282.897],[-75.219597304396544,53.640616844640533,251.8357],[-75.206350918675611,53.640028116386247,261.2893],[-75.19590099216245,53.637378839242075,261.3162],[-75.188100342793447,53.6311971925723,269.9441],[-75.178975054852373,53.613829709071553,309.9776],[-75.166317397385711,53.596167861443632,319.3264],[-75.160871661033781,53.5920467636638,317.0692],[-75.152187919283392,53.593812948426574,327.617],[-75.147919639439976,53.602643872240549,321.3739],[-75.146300636740762,53.6226606328855,299.8529],[-75.142179538960917,53.625015545902556,296.0508],[-75.118483226726809,53.630608464318044,314.2583],[-75.087574993377984,53.6311971925723,315.1357],[-75.074328607657066,53.635612654479274,304.7364],[-75.047688654151642,53.647681583691678,282.5607],[-75.0337063581129,53.650625224962994,287.2397],[-75.025758526680335,53.649153404327336,275.4211],[-75.021048700646233,53.645621034801763,302.847],[-75.017516331120646,53.642088665276191,308.1349],[-75.013248051277245,53.640028116386247,302.4986],[-75.004711491590427,53.640028116386247,312.3582],[-74.965413880618343,53.646209763056021,254.9733],[-74.950842856325323,53.64444357829322,285.0733],[-74.937302106477276,53.63943938813199,251.0],[-74.926116269646272,53.630902828445187,251.0],[-74.9375964706044,53.626781730665328,251.9901],[-74.973508894114474,53.620305719868441,260.3832],[-74.982045453801291,53.616773350342868,262.1132],[-74.985136277136164,53.612063524308752,269.3655],[-74.986608097771821,53.607353698274636,268.8518],[-74.990140467297408,53.602643872240549,267.5712],[-75.0026509427005,53.595284769062232,284.5197],[-75.0448921949439,53.57762292143434,264.6089],[-75.053870300821416,53.572324367145967,301.137],[-75.056666760029159,53.56761454111188,293.1579],[-75.05843294479196,53.562610350950621,340.1458],[-75.064173045271019,53.55672306840799,277.9561],[-75.0815405287718,53.544948503322729,276.2487],[-75.086103172742327,53.537883764271555,267.3006],[-75.081982074962482,53.530524661093267,256.7711],[-75.073151151148537,53.529052840457609,259.2193],[-75.063878681143891,53.533468302364582,256.899],[-75.047247107960956,53.545242867449872,267.7978],[-75.026935983188864,53.553779427136675,261.0488],[-74.952903405215253,53.569380725874652,264.804],[-74.94642739441835,53.572324367145967,284.026],[-74.94098165806642,53.577328557307226,273.9689],[-74.92802963647263,53.592341127790917,274.4923],[-74.91964025884937,53.599111502714948,257.6862],[-74.909779060590466,53.603526964621921,251.0],[-74.898446041695891,53.605293149384721,251.0],[-74.88667147661063,53.604998785257578,251.0],[-74.840161944523814,53.595284769062232,282.5209],[-74.704607263979682,53.606470605893236,255.525],[-74.429965533365845,53.683299643074605,330.337],[-74.4417400984511,53.687715104981578,331.4027],[-74.453514663536367,53.688892561490121,316.7447],[-74.575528594232452,53.68123909418469,288.0181],[-74.694746065720778,53.646798491310278,278.9452],[-74.757592806863386,53.635907018606417,310.6541],[-74.781877847351751,53.626781730665328,307.4463],[-74.7924749559285,53.624132453521156,284.7942],[-74.80307206450523,53.625015545902556,281.9946],[-74.82308882515018,53.635907018606417,287.6405],[-74.840897854841657,53.642677393530448,252.0989],[-74.849140050401331,53.647092855437421,251.0],[-74.867979354537766,53.663282882429655,251.0],[-74.8859355662928,53.673585626879259,251.0],[-74.910662152971852,53.684182735456005,251.0],[-74.922731082184256,53.68624328434592,251.0],[-74.999118573174925,53.679767273549032,286.9072],[-75.007360768734614,53.68035600180329,322.2834],[-75.011481866514458,53.68123909418469,357.4322],[-75.015014236040031,53.682710914820348,369.8713],[-75.018546605565618,53.68624328434592,372.8975],[-75.020459972391976,53.688598197362978,362.2968],[-75.020459972391976,53.689775653871521,354.2086],[-75.029732442396622,53.690364382125779,343.8701],[-75.049307656850871,53.694191115778494,300.3616],[-75.059316037173346,53.695074208159895,296.3378],[-75.133937343401229,53.690953110380036,298.7317],[-75.166906125639969,53.685065827837406,365.1068],[-75.224748676621346,53.663871610683913,251.0],[-75.244912619329867,53.66033924115834,287.6234],[-75.253596361080255,53.6609279694126,330.474],[-75.270080752199618,53.6644603389382,251.0],[-75.2783229477593,53.66534343131957,251.0],[-75.285682050937609,53.664165974811056,251.0],[-75.307023450154645,53.655629415124224,251.0],[-75.317179012540691,53.655629415124224,251.0],[-75.3697230092337,53.6747630833878,256.2459],[-75.377229294475555,53.6756461757692,251.0],[-75.3748743814585,53.681533458311833,253.2583],[-75.368251188598038,53.686537648473063,298.4786],[-75.335282406359283,53.7053769526095,257.8466],[-75.3292479417531,53.710086778643586,296.7399],[-75.314382553332948,53.718328974203274,382.6103],[-75.298781254594957,53.719800794838932,323.8828],[-75.265812472356217,53.7147966046777,335.8118],[-75.248592170919011,53.715090968804844,345.4147],[-75.183390516759346,53.728926082780021,345.3702],[-75.176325777708186,53.728631718652878,434.8505],[-75.1573392915082,53.725393713254448,264.1962],[-75.0905186346493,53.721272615474589,263.1476],[-75.0737398794028,53.724216256745905,323.1304],[-75.0668223224152,53.736873914212566,251.0],[-75.050632295422972,53.741583740246682,251.0],[-75.042831646053969,53.7454104738994,251.0],[-75.039888004782654,53.750709028187771,252.2603],[-75.042390099863283,53.7539470335862,251.0],[-75.051809751931486,53.758656859620316,251.0],[-75.054164664948544,53.762189229145889,251.0],[-75.053281572567144,53.765427234544347,251.0],[-75.0504851133594,53.768076511688548,251.0],[-75.043714738435369,53.771903245341235,251.0],[-75.0345894504943,53.775435614866836,251.0],[-75.0151614181036,53.778967984392409,251.0],[-74.793505230373455,53.787798908206355,251.0],[-74.772016649092834,53.792508734240471,266.4286],[-74.78967849672074,53.797218560274558,251.0],[-74.954963954105168,53.801928386308674,251.0],[-74.9673272474447,53.804283299325732,251.0],[-74.9776299918943,53.808404397105562,260.1558],[-74.982045453801291,53.812231130758278,255.2582],[-74.98233981792842,53.814586043775336,257.9975],[-74.9789546304664,53.816352228538136,268.921],[-74.972772983796645,53.817235320919536,278.4162],[-74.908454422018366,53.817529685046651,251.0],[-74.8548801508804,53.8263606088606,251.0],[-74.8436943140494,53.830187342513312,251.0],[-74.824119099595151,53.839901358708659,251.0],[-74.792769320055626,53.850792831412548,251.0],[-74.771280738775,53.855208293319521,251.0],[-74.7497921574944,53.855797021573778,251.0],[-74.715057190492857,53.84755482601409,260.6219],[-74.700927712390538,53.845788641251289,252.1404],[-74.63763942505723,53.850498467285405,251.0],[-74.620713487747167,53.854619565065235,251.9095],[-74.604081914564219,53.861095575862151,267.4227],[-74.632782416959557,53.864627945387724,251.0],[-74.639258427756459,53.866688494277639,266.1103],[-74.662218829672724,53.8811123365071,251.0],[-74.667664566024669,53.883467249524159,251.0],[-74.673404666503728,53.885233434286931,251.0],[-74.704312899852553,53.888177075558247,251.0],[-74.711524820967284,53.890531988575304,291.933],[-74.692685516830849,53.905838923186167,251.0],[-74.6838545930169,53.915847303508627,251.0],[-74.681499679999845,53.922617678432658,281.0477],[-74.687092598415347,53.9202627654156,263.8441],[-74.76083081226183,53.907605107948939,367.0377],[-74.7781982957626,53.902306553660566,318.8744],[-74.79512423307267,53.89524181460942,295.9828],[-74.814110719272662,53.889943260321047,284.231],[-74.842369675477315,53.877285602854386,263.0253],[-74.851347781354818,53.874930689837328,266.2212],[-74.860178705168778,53.87434196158307,266.5179],[-74.933328190760989,53.886410890795474,331.3092],[-74.952756223151681,53.885822162541189,305.6548],[-74.953197769342381,53.884939070159817,300.6313],[-74.953344951405953,53.883761613651274,300.6313],[-74.953197769342381,53.882584157142759,297.4691],[-74.952756223151681,53.881701064761359,295.5224],[-74.943336571083478,53.878757423490043,308.9713],[-74.93303382663386,53.874047597455927,310.2285],[-74.9268521799641,53.8672772225319,289.2734],[-74.930384549489673,53.859329391099351,300.6251],[-74.9362718320323,53.856091385700893,295.4354],[-75.017221966993517,53.834602804420285,251.0],[-75.0328232657315,53.832247891403227,251.0],[-75.047688654151642,53.832247891403227,251.0],[-75.078744069564038,53.840784451090059,251.0],[-75.089929906395042,53.841373179344316,251.0],[-75.117011406091152,53.833719712038885,251.0],[-75.16749485389424,53.807226940597047,251.0],[-75.193693261208949,53.796924196147444,251.0],[-75.2042903697857,53.794863647257529,251.0],[-75.21385720391747,53.795452375511786,251.0],[-75.22224658154073,53.7992791091645,251.0],[-75.22975286678259,53.807226940597047,251.0],[-75.233579600435291,53.817824049173794,251.0],[-75.233873964562434,53.839901358708659,251.0],[-75.2369647878973,53.850498467285405,251.0],[-75.246825986156225,53.859918119353608,251.0],[-75.2736131217252,53.867865950786182,251.0],[-75.285240504746909,53.87434196158307,251.0],[-75.290833423162411,53.885822162541189,251.0],[-75.2861235971283,53.896419271117935,251.0],[-75.27611521680582,53.905544559059024,251.0],[-75.265518108229088,53.9126092981102,251.0],[-75.352944253987189,53.886999619049732,251.0],[-75.36722091415308,53.888765803812532,251.0],[-75.370458919551524,53.89023762444819,251.0],[-75.378701115111213,53.896124906990821,251.0],[-75.383116577018185,53.897891091753593,251.0],[-75.38767922098873,53.898774184134993,251.0],[-75.500126317553026,53.892886901592362,251.0],[-75.531476097092551,53.901129097152051,251.0],[-75.543397844241383,53.902306553660566,251.0],[-75.553994952818115,53.900834733024908,251.0],[-75.587258099184,53.884939070159817,251.0],[-75.615369873325079,53.880817972379958,251.0],[-75.634356359525071,53.875519418091585,251.0],[-75.642009826830488,53.874930689837328,251.0],[-75.648485837627391,53.877874331108643,251.0],[-75.659966038585523,53.892886901592362,259.1378],[-75.666147685255282,53.896419271117935,272.6391],[-75.674095516687842,53.897302363499335,252.0828],[-75.719721956393244,53.896419271117935,255.4759],[-75.73120215735139,53.894947450482277,228.0019],[-75.749452733233554,53.889060167939647,252.2234],[-75.806265009769959,53.8784630593629,228.3313],[-75.814801569456776,53.878168695235786,239.3227],[-75.833052145338939,53.8793461517443,229.0421],[-75.858809006462963,53.87345886920167,216.5],[-75.857042821700176,53.865216673641982,236.5777],[-75.8452682566149,53.854030836810978,248.5379],[-75.842471797407157,53.84755482601409,281.5983],[-75.844826710424215,53.841961907598574,293.8865],[-75.851008357093974,53.838429538073,321.7044],[-75.8995784380707,53.825183152352082,270.43],[-75.951533706509437,53.817529685046651,320.3712],[-75.960364630323383,53.815174772029593,317.0688],[-75.964927274293927,53.80987621774122,289.5658],[-75.962572361276884,53.804872027579989,248.9367],[-75.955213258098581,53.802517114562932,264.8328],[-75.874263123137382,53.78897636471487,283.2193],[-75.883682775205585,53.781322897409467,258.0478],[-75.89457424790946,53.776318707248208,242.4552],[-76.000103787486168,53.752475212950543,191.1254],[-76.010112167808643,53.747765386916456,172.0],[-76.045141498937312,53.726276805635848,175.9888],[-76.0576519743404,53.721566979601732,175.0412],[-76.0701624497435,53.720095158966075,178.2711],[-76.10636923738069,53.726865533890106,172.0],[-76.128299364852012,53.727454262144363,172.0],[-76.1356584680303,53.728631718652878,172.0]],
[[-75.746803456089367,53.542593590305671,279.9758],[-75.736059165449063,53.545831595704129,286.6578],[-75.725314874808745,53.5475977804669,284.0685],[-75.71486494829557,53.545537231576986,338.0757],[-75.707653027180854,53.5364119436359,277.5157],[-75.719280410202558,53.528464112203352,253.4447],[-75.790810893095554,53.505209346159944,251.0],[-75.79758126801957,53.505503710287087,251.0],[-75.811710746121889,53.50903607981266,251.0],[-75.8289310475591,53.5093304439398,251.0],[-75.849536536458317,53.5066811667956,251.0],[-75.86867020472188,53.507564259177,251.0],[-75.88118068012497,53.518161367753748,251.0],[-75.872496938374582,53.522576829660721,251.0],[-75.8633716504335,53.528169748076238,279.1181],[-75.860428009162192,53.533468302364582,261.1691],[-75.8698476612304,53.536706307763041,251.0],[-75.93593240777146,53.536706307763041,251.0],[-75.932400038245888,53.539355584907241,251.0],[-75.927690212211772,53.541416133797156,251.0],[-75.845562620742044,53.561432894442106,251.0],[-75.835112694228869,53.562315986823506,251.0],[-75.824809949779251,53.562315986823506,251.0],[-75.807736830405617,53.559666709679306,280.1837],[-75.784482064362223,53.553190698882418,251.0],[-75.777711689438192,53.5502470576111,259.6571],[-75.767997673242846,53.543771046814214,273.4643],[-75.7629934830816,53.541710497924271,264.3139],[-75.757253382602542,53.5408274055429,261.8067],[-75.746803456089367,53.542593590305671,279.9758]],
[[-75.733998616559134,53.666226523700971,294.2783],[-75.775798322611834,53.65533505099711,309.4182],[-75.759461113556029,53.653568866234309,290.0711],[-75.755781561966884,53.650330860835879,251.0],[-75.760785752128115,53.645032306547506,266.0026],[-75.793312988176169,53.631785920826559,251.0],[-75.7992002707188,53.630902828445187,251.0],[-75.803762914689344,53.639145024004875,277.0267],[-75.809650197231974,53.641205572894791,273.1762],[-75.816420572156,53.642088665276191,268.5],[-75.8237796753343,53.646209763056021,271.8966],[-75.827459226923438,53.654451958615709,303.1181],[-75.824074039461422,53.662399790048255,290.5974],[-75.816567754219562,53.668287072590886,271.1286],[-75.807442466278488,53.670641985607944,267.9067],[-75.80508755326143,53.672996898625,267.0],[-75.803468550562215,53.678589817040518,265.0891],[-75.802732640244386,53.684182735456005,272.6508],[-75.803174186435072,53.688009469108721,266.9265],[-75.8047931891343,53.689186925617236,254.8694],[-75.807295284214916,53.689775653871521,251.0],[-75.809797379295546,53.690953110380036,264.5985],[-75.811416381994761,53.693602387524209,265.6297],[-75.811122017867632,53.696546028795552,265.4929],[-75.8095030151684,53.698900941812582,271.972],[-75.807148102151359,53.700961490702525,265.0],[-75.804498825007173,53.7027276754653,279.7289],[-75.795815083256784,53.705082588482355,262.074],[-75.786101067061438,53.704788224355212,269.0],[-75.767408944988574,53.700667126575382,279.1849],[-75.7289944263979,53.699489670066868,274.158],[-75.718838864011857,53.694779844032752,274.0733],[-75.714717766232013,53.677412360531974,270.1218],[-75.733998616559134,53.666226523700971,294.2783]],
[[-75.613456506498721,53.700961490702525,276.366],[-75.620226881422738,53.694779844032752,269.3401],[-75.6453950142925,53.66534343131957,311.6317],[-75.659524492394823,53.652097045598651,251.0],[-75.677039157959157,53.646209763056021,251.0],[-75.687047538281632,53.650036496708736,251.0],[-75.689991179552948,53.657984328141282,253.1301],[-75.690432725743648,53.667698344336628,254.5558],[-75.693523549078535,53.67711799640486,260.2716],[-75.696320008286278,53.68035600180329,275.1837],[-75.6997051957483,53.682710914820348,290.6139],[-75.707358663053725,53.685654556091663,251.0],[-75.704709385909538,53.695074208159895,271.2018],[-75.693670731142092,53.701550218956783,276.3628],[-75.679982799230473,53.705671316736613,259.8373],[-75.631118354126613,53.714502240550559,261.9156],[-75.61875506078708,53.715090968804844,265.6609],[-75.6091882266553,53.712736055787786,280.0448],[-75.608599498401048,53.707437501499413,282.2647],[-75.613456506498721,53.700961490702525,276.366]],
[[-75.4166740875112,53.706554409118013,251.0],[-75.43360002482126,53.70302203959244,253.8512],[-75.44110631006312,53.698312213558324,270.9264],[-75.454205513720481,53.685360191964548,269.5782],[-75.461417434835212,53.68035600180329,271.984],[-75.47584127706466,53.673585626879259,289.8236],[-75.482317287861562,53.669758893226543,289.2809],[-75.488057388340621,53.663871610683913,282.2513],[-75.489823573103422,53.6609279694126,272.9766],[-75.491001029611937,53.658573056395568,262.9654],[-75.4924728502476,53.656512507505624,251.0],[-75.495563673582481,53.654157594488566,251.0],[-75.500273499616583,53.652097045598651,251.0],[-75.505277689777827,53.651213953217251,251.0],[-75.5105762440662,53.650919589090137,257.8875],[-75.515433252163874,53.651802681471537,253.2561],[-75.540895749160754,53.658278692268425,251.0],[-75.554878045199516,53.6635772465568,251.0],[-75.561942784250675,53.670053257353686,251.0],[-75.559882235360746,53.677706724659117,261.1347],[-75.544280936622769,53.691541838634294,283.9665],[-75.540012656779368,53.698312213558324,272.7126],[-75.542514751859983,53.70626004499087,277.1315],[-75.5467830317034,53.712441691660644,260.8912],[-75.546488667576256,53.716857153567616,251.0],[-75.5351556486817,53.720095158966075,251.0],[-75.5264719069313,53.720095158966075,251.0],[-75.500273499616583,53.717445881821874,280.9064],[-75.485408111196435,53.718328974203274,276.8434],[-75.44243094863522,53.728926082780021,277.6436],[-75.432422568312745,53.731280995797079,279.7231],[-75.4231500983081,53.732458452305593,268.0814],[-75.368545552725166,53.72804299039862,251.0],[-75.355593531131376,53.721861343728875,251.0],[-75.364277272881765,53.710969871024986,277.1946],[-75.381644756382528,53.705671316736613,251.0],[-75.4166740875112,53.706554409118013,251.0]]]}
,"properties": {"featurecla": "Reservoir","scalerank": 4,"name": "Réservoir de La Grande 3","name_abb": "Rs. de La Grande 3","name_alt": null,"note": null,"delta": null,"dam_name": null,"year": 1982,"admin": null,"min_zoom": 4.0,"min_label": 5.0,"area_km2": 2234.814,"hist_schema_id": "Elevation0-9000","hist_area_km2": {"175": 17.95,"200": 16.97,"225": 39.867,"250": 1493.577,"275": 338.889,"300": 188.504,"325": 86.472,"350": 32.48,"375": 13.769,"400": 4.254,"425": 1.468,"450": 0.527,"475": 0.088}}}