{"type": "Feature","bbox": [-76.820349427738563,52.687171436861036,-76.634311299391342,52.892637597598963],"geometry": {"type": "Polygon","coordinates": [[[-76.640492946061116,52.872032108699727,199.5],[-76.646968956858,52.881746124895074,207.2326],[-76.657418883371179,52.885867222674932,220.6987],[-76.66963499464714,52.888222135691962,202.9193],[-76.681409559732415,52.892637597598963,198.0981],[-76.6956862198983,52.884984130293532,196.4492],[-76.698188314978921,52.86732228266564,220.0289],[-76.728655002137046,52.859374451233066,200.4218],[-76.794739748678111,52.857608266470294,203.6099],[-76.8137262348781,52.855253353453236,204.2936],[-76.820349427738563,52.848482978529205,217.1157],[-76.8175529685308,52.838474598206716,199.5],[-76.808722044716859,52.8269943972486,199.5],[-76.7956228410595,52.821990207087339,199.5],[-76.736750015633163,52.816691652798966,210.616],[-76.718793803878143,52.80962691374782,204.1064],[-76.71275933927194,52.804033995332304,203.5245],[-76.709374151809925,52.775186310873409,220.6414],[-76.710551608318454,52.776952495636209,210.5682],[-76.709815698000625,52.761351196898232,199.5],[-76.709374151809925,52.762234289279633,199.5],[-76.706136146411467,52.7545808219742,200.1209],[-76.700543227995979,52.750754088321486,201.0344],[-76.698335497042478,52.746632990541656,205.4044],[-76.705694600220781,52.737802066727681,223.2124],[-76.727183181501388,52.718962762591275,209.0366],[-76.7499964013541,52.703655827980413,209.4424],[-76.775606080414548,52.692469991149409,200.3479],[-76.805631221381972,52.687171436861036,229.7677],[-76.735131012933948,52.687171436861036,199.5],[-76.722326173403715,52.690115078132351,209.4228],[-76.717616347369614,52.703067099726155,199.5],[-76.70643051053861,52.71601912131996,199.5],[-76.692889760690548,52.727204958150963,199.5],[-76.681409559732415,52.734269697202109,199.5],[-76.6719899076642,52.703067099726155,214.8217],[-76.660656888769637,52.689820714005236,207.7036],[-76.643878133523131,52.696885453056382,199.5],[-76.64417249765026,52.705716376870328,199.5],[-76.661834345278152,52.733386604820708,199.5],[-76.667868809884354,52.748399175304428,208.4317],[-76.667868809884354,52.813159283273393,201.756],[-76.675963823380471,52.821401478833081,218.579],[-76.690387665609933,52.831998587409828,199.5],[-76.6952446737076,52.842301331859431,199.5],[-76.675227913062642,52.850837891546263,199.5],[-76.634311299391342,52.850837891546263,212.299],[-76.6538865138456,52.862023728377267,201.5893],[-76.661539981151023,52.864673005521439,199.5],[-76.661539981151023,52.872032108699727,199.5],[-76.640492946061116,52.872032108699727,199.5]]]}
,"properties": {"featurecla": "Lake","scalerank": 9,"name": "null302","name_abb": null,"name_alt": null,"note": "_untitled_30","delta": null,"dam_name": null,"year": -99,"admin": null,"min_zoom": 7.0,"min_label": 8.0,"area_km2": 97.40988,"hist_schema_id": "Elevation0-9000","hist_area_km2": {"200": 87.03918,"225": 9.90894,"250": 0.44892,"275": 0.01284}}}