{"type": "Feature","bbox": [-74.872836362635439,50.644284394567251,-74.426285981776687,50.934527423919093],"geometry": {"type": "Polygon","coordinates": [[[-74.452190024964281,50.840919631491204,374.8094],[-74.426285981776687,50.85239983244935,377.9635],[-74.448216109248008,50.870356044204385,374.0],[-74.440709824006149,50.877126419128416,378.0487],[-74.462345587350327,50.885074250560962,379.4931],[-74.46838005195653,50.895082630883451,377.9118],[-74.467496959575129,50.90832901660437,376.5475],[-74.468674416083658,50.925696500105147,371.809],[-74.488102448474351,50.917748668672573,371.3059],[-74.509591029754958,50.911861386129942,376.0958],[-74.515919858488289,50.926579592486519,370.0],[-74.517097314996818,50.931878146774892,370.0],[-74.5369668935782,50.934527423919093,400.743],[-74.567875126927021,50.93011196201212,370.9616],[-74.598930542339417,50.921575402325288,370.0],[-74.618947302984367,50.911861386129942,371.9402],[-74.626306406162669,50.895376995010565,370.0],[-74.602168547737861,50.89243335373925,374.0765],[-74.56949412962625,50.892138989612135,383.2192],[-74.550654825489829,50.884485522306704,372.0298],[-74.567139216609192,50.879775696272588,375.2234],[-74.592896077733215,50.866234946424527,370.0],[-74.628955683306842,50.860642028009039,370.0],[-74.644851346171961,50.853871653085008,370.0],[-74.651327356968849,50.845040729271062,395.2479],[-74.639994338074288,50.836209805457116,370.0],[-74.633076781086686,50.837681626092774,376.1408],[-74.621743762192125,50.842097087999747,431.5785],[-74.609233286789021,50.845335093398177,418.6918],[-74.598488996148717,50.843568908635405,384.2578],[-74.592160167415386,50.837975990219888,370.6558],[-74.592896077733215,50.8332661641858,370.8443],[-74.596281265195231,50.827673245770285,371.6176],[-74.598488996148717,50.818842321956339,373.154],[-74.605259371072748,50.811188854650908,377.3258],[-74.65309354173165,50.780869349556355,380.894],[-74.682235590317674,50.767034235581178,387.1849],[-74.748614700985868,50.748194931444743,383.5954],[-74.77716802131765,50.733771089215281,391.0577],[-74.827209922930024,50.692265747289724,375.8965],[-74.872836362635439,50.644284394567251,393.2034],[-74.841192218968786,50.645461851075794,373.5],[-74.80351361069593,50.67430953553469,385.1812],[-74.766276548613774,50.710516323171873,392.1418],[-74.735662679392078,50.733771089215281,382.2464],[-74.709022725886669,50.739658371757912,378.5561],[-74.626306406162669,50.733771089215281,408.6099],[-74.583034879474312,50.736126002232339,379.9875],[-74.571113132325479,50.733771089215281,377.3738],[-74.563901211210748,50.726706350164136,374.8192],[-74.560516023748733,50.717581062223047,374.0],[-74.5555118335875,50.709927594917616,425.3499],[-74.543737268502227,50.706395225392043,374.0],[-74.549624551044857,50.724057073019935,391.6191],[-74.542412629930141,50.737303458740854,383.4635],[-74.527400059446421,50.7470174749362,380.5096],[-74.509591029754958,50.754082213987374,390.3925],[-74.526222602937892,50.766151143199778,388.4747],[-74.543737268502227,50.774687702886581,391.8621],[-74.532992977861923,50.779986257174954,377.1815],[-74.524750782302235,50.789111545116043,381.5573],[-74.523278961666577,50.797942468929989,384.1386],[-74.533287341989052,50.802063566709819,381.5973],[-74.545650635328585,50.800003017819904,375.8224],[-74.555806197714631,50.794410099404416,378.4558],[-74.588922162016942,50.766445507326893,377.0537],[-74.598047449958017,50.762618773674177,374.0],[-74.608644558534763,50.761146953038519,374.0],[-74.62380431108204,50.765268050818378,374.0],[-74.630574686006071,50.774687702886581,383.3279],[-74.629985957751813,50.784107354954813,381.6176],[-74.622626854573511,50.788522816861786,382.6844],[-74.595250990750273,50.81060012639665,370.0],[-74.554040012951845,50.854460381339265,375.5325],[-74.511798760708444,50.885662978815219,385.1198],[-74.48177361974102,50.870356044204385,374.0],[-74.484422896885192,50.844452001016805,377.6631],[-74.452190024964281,50.840919631491204,374.8094]]]}
,"properties": {"featurecla": "Lake","scalerank": 9,"name": "null287","name_abb": null,"name_alt": null,"note": "_untitled_46","delta": null,"dam_name": null,"year": -99,"admin": null,"min_zoom": 7.0,"min_label": 8.0,"area_km2": 184.8878,"hist_schema_id": "Elevation0-9000","hist_area_km2": {"375": 172.4615,"400": 11.3953,"425": 0.8971,"450": 0.1339}}}