{"type":"Feature","properties":{"featurecla":"Lake","scalerank":9,"name":"null303","name_abb":null,"name_alt":null,"note":"_untitled_29","delta":null,"dam_name":null,"year":-99,"admin":null,"min_zoom":7.0,"min_label":8.0},
"geometry":{"type": "Polygon","coordinates": [[[-77.764522365513386,53.522576829660721,149.9716],[-77.7976383298157,53.521105009025064,144.1052],[-77.812798082362988,53.524048650296379,141.025],[-77.819126911096319,53.532879574110325,135.0],[-77.8153001774436,53.538472492525841,136.8074],[-77.806027707438957,53.545537231576986,147.0708],[-77.784980672349036,53.55672306840799,143.8114],[-77.842823223330413,53.554662519518075,179.7287],[-77.860043524767619,53.549658329356845,154.8294],[-77.871229361598623,53.542593590305671,145.3566],[-77.895955948277688,53.522282465533578,140.7225],[-77.90861360574435,53.516395182990948,142.9092],[-77.928924730516428,53.515512090609576,142.8294],[-77.940110567347432,53.521988101406464,138.1191],[-77.948941491161378,53.530524661093267,139.4323],[-77.96248224100944,53.536117579508783,151.3386],[-77.972196257204786,53.533468302364582,140.6706],[-78.006931224206326,53.517572639499491,152.5386],[-78.017822696910187,53.508741715685545,142.5019],[-77.990446833086949,53.508741715685545,138.9194],[-78.017969878973759,53.493729145201826,136.5259],[-78.120850141406279,53.474595476938248,158.2394],[-78.10627911711326,53.453401259784783,135.0],[-78.086115174404739,53.449280162004925,135.0],[-78.038869732000109,53.461054727090215,135.0],[-77.961746330691611,53.4684138302685,135.0],[-77.889774301607915,53.486370042023538,135.0],[-77.737146501690148,53.495200965837483,140.815],[-77.729198670257588,53.501382612507228,135.0],[-77.722575477397129,53.5084473515584,135.0],[-77.717865651363027,53.516689547118091,137.5],[-77.716099466600227,53.52581483505918,143.8949],[-77.722133931206429,53.526403563313437,146.7076],[-77.764522365513386,53.522576829660721,149.9716]]]}}