{"type":"Feature","properties":{"GID_3":"CAN.4.6.10_1","GID_0":"CAN","country":"Canada","GID_1":"CAN.4_1","province":"NewBrunswick","NL_NAME_1":"NA","GID_2":"CAN.4.6_1","county":"Kings","NL_NAME_2":"NA","city":"Norton","VARNAME_3":"NA","NL_NAME_3":"NA","TYPE_3":"Parish","ENGTYPE_3":"Parish","CC_3":"NA","HASC_3":"NA","name":"Norton.city"},
"geometry":{"type": "MultiPolygon","coordinates": [[[[-65.8199,45.5457,-0.3003],[-65.7571,45.5199,76.8031],[-65.746,45.5244,125.3099],[-65.7379,45.5317,186.8829],[-65.7287,45.5363,160.63],[-65.7043,45.5544,188.5104],[-65.6711,45.5748,132.6065],[-65.6541,45.5835,117.681],[-65.6369,45.5871,90.8643],[-65.6444,45.6043,89.3936],[-65.6611,45.601,57.4942],[-65.6626,45.6033,65.2722],[-65.6611,45.6061,58.58],[-65.6645,45.6115,66.1623],[-65.6826,45.611,53.023],[-65.69,45.6052,56.5528],[-65.6951,45.6062,48.0388],[-65.7083,45.6042,48.5503],[-65.7082,45.6028,42.9647],[-65.7161,45.5995,41.3171],[-65.7203,45.6007,27.0679],[-65.7174,45.602,26.3195],[-65.7172,45.607,25.2873],[-65.7219,45.6102,7.884],[-65.7265,45.6106,3.3311],[-65.7295,45.6051,3.2127],[-65.7513,45.6586,82.8741],[-65.8142,45.6171,112.0694],[-65.881,45.5705,48.0112],[-65.8629,45.5626,62.5321],[-65.931,45.5326,93.0563],[-65.9258,45.5298,88.1934],[-65.9349,45.5241,131.3096],[-65.9059,45.513,87.6483],[-65.9024,45.5143,77.2622],[-65.898,45.5196,75.9805],[-65.8852,45.5289,78.0667],[-65.865,45.5394,35.8537],[-65.8555,45.5413,45.1581],[-65.8528,45.5448,106.69],[-65.848,45.5473,189.8164],[-65.8393,45.5487,48.5089],[-65.8376,45.552,61.4676],[-65.8304,45.5554,109.4783],[-65.8254,45.5557,65.7745],[-65.8118,45.5643,64.4677],[-65.8025,45.561,0.7173],[-65.8202,45.5525,2.7822],[-65.8246,45.5485,5.6541],[-65.8212,45.5488,0.0856],[-65.8199,45.5457,-0.3003]]]]}}