{"type":"Feature","properties":{"featurecla":"River","scalerank":11,"rivernum":20171,"dissolve":"20171River","name":"Opasatika1","name_alt":null,"note":"ID is link back to CEC data","name_full":"Opasatika River","min_zoom":6.7,"strokeweig":0.2,"uident":1764101,"min_label":7.7},
"geometry":{"type": "LineString","coordinates": [[-82.389881965228739,50.429714259889863,88.4501],[-82.3985896475204,50.413356838014863,90.6246],[-82.428212043353739,50.336249090619027,93.8347],[-82.4403376943954,50.309759832806527,96.1795],[-82.444650845437067,50.282782293744027,99.724],[-82.441395637103739,50.268988348431527,102.0579],[-82.4247126943954,50.240668035931527,99.597],[-82.425526496478739,50.2015241557232,105.4884],[-82.445139126687067,50.1619733744732,105.4892],[-82.4764705068954,50.1299909525982,105.6694],[-82.4928279287704,50.110663153119027,111.4782],[-82.511341926166239,50.059149481244027,151.7923],[-82.525461392312067,50.002264715619027,187.8381],[-82.544056769916239,49.967718817181527,204.7949],[-82.569813605853739,49.937079168744027,205.6689],[-82.5743708975204,49.923773504681527,209.4477],[-82.571278449603739,49.909979559369027,201.6713],[-82.540028449603739,49.874050197389863,205.9675],[-82.530629035541239,49.849554754681527,194.1563],[-82.527211066791239,49.820502020306527,233.9346],[-82.538929816791239,49.795721746869027,252.2061],[-82.566232876687067,49.789089259889863,226.3494],[-82.592884894916239,49.785671291139863,224.4219],[-82.607004361062067,49.779811916139863,224.2374],[-82.654530402728739,49.7249616557232,229.4504],[-82.6734919912704,49.721136785931527,230.9189],[-82.7306208975204,49.724676824994027,228.6691],[-82.754994269916239,49.719509181764863,232.9023],[-82.7838435537704,49.700873114056527,236.2762],[-82.823597785541239,49.643988348431527,250.4833],[-82.8824763662704,49.562689520306527,232.9656]]}}