{"type":"Feature","properties":{"featurecla":"River","scalerank":9,"rivernum":1123,"dissolve":"1123River","name":"Missinaibi","name_alt":null,"note":null,"min_zoom":7.1,"strokeweig":0.25,"name_en":"Missinaibi","min_label":8.1},
"geometry":{"type": "LineString","coordinates": [[-82.770312499999989,50.27789948124412,129.0528],[-82.753222656249989,50.28693268436912,127.7646],[-82.704638671874989,50.29450104374412,124.3281],[-82.684667968749991,50.301776434369117,127.0603],[-82.665625,50.31915924686912,122.0436],[-82.640966796874991,50.35712311405662,112.7168],[-82.626318359374991,50.373797918744117,91.5487],[-82.561450195312489,50.41681549686912,95.8883],[-82.540625,50.425311590619117,94.6682],[-82.487402343749991,50.43073151249412,92.1615],[-82.378857421875,50.426288153119117,88.1656],[-82.328417968749989,50.43829987186912,63.3418],[-82.272631835937489,50.46918366093162,84.7581],[-82.237719726562489,50.49750397343162,86.8604],[-82.170751953124991,50.52765534061912,79.0173],[-82.152197265624991,50.54584381718162,72.6368],[-82.117236328124989,50.588251043744116,85.0578],[-82.098437499999989,50.59662506718162,81.7889],[-82.043066406249991,50.60028717655662,77.8418],[-82.017138671874989,50.60663483280662,78.5966],[-81.992602539062489,50.617059637494116,81.1435],[-81.953906249999989,50.647235418744117,73.4399],[-81.928955078125,50.65558502811912,47.3383],[-81.850439453124991,50.698114324994116,72.9122],[-81.776782226562489,50.70917389530662,49.553],[-81.734912109374989,50.731561590619116,62.3163],[-81.715917968749991,50.734393621869117,63.0772],[-81.662841796875,50.735223699994116,62.235],[-81.608984374999991,50.74738190311912,54.9442],[-81.568652343749989,50.749530340619117,45.3296],[-81.488037109375,50.73969147343162,53.0648],[-81.454638671874989,50.742450262494117,29.0]]}}