{"type":"Feature","properties":{"featurecla":"River","scalerank":11,"rivernum":20247,"dissolve":"20247River","name":"Ogoki4","name_alt":null,"note":"ID is link back to CEC data","name_full":"Ogoki River","min_zoom":6.7,"strokeweig":0.2,"uident":1732501,"min_label":7.7},
"geometry":{"type": "LineString","coordinates": [[-85.926869269916224,51.633978582806527,160.9628],[-85.960031704812067,51.6092389994732,159.3826],[-85.9505916006454,51.572577215619027,161.0736],[-85.944406704812067,51.549099025514863,162.9594],[-85.958811001687067,51.530585028119027,164.0259],[-85.9701228506454,51.484930731244027,169.4945],[-85.980213996478724,51.459662176556527,170.8589],[-85.994740363666224,51.446478582806527,170.8762],[-86.0426326162704,51.424017645306527,171.7038],[-86.071359829812067,51.402655340619027,169.6731],[-86.112172004291224,51.3646100932232,177.6057],[-86.127430793353724,51.339544989056527,178.1924],[-86.123361782937067,51.319037176556527,177.8186],[-86.101144986062067,51.287787176556527,178.3577],[-86.091664191791224,51.267157293744027,176.8818],[-86.098255988666224,51.250311590619027,179.8176],[-86.109608527728724,51.243841864056527,178.6758],[-86.1583552725204,51.243475653119027,184.339],[-86.192005988666224,51.227321681764863,192.6477],[-86.2362361318954,51.213202215619027,196.4901],[-86.306223111062067,51.220160223431527,202.3114],[-86.338978644916224,51.215887762494027,203.8291],[-86.3670955068954,51.197821356244027,198.5145],[-86.4000544912704,51.144232489056527,210.5992],[-86.4308162100204,51.083807684369027,222.8469],[-86.478871223041224,50.955837306764863,235.9451],[-86.4964900381454,50.930853582806527,240.7056],[-86.516184048562067,50.915961004681527,250.0204],[-86.549061652728724,50.9048932963482,257.132],[-86.5812068350204,50.9056257182232,255.2219],[-86.623890754291224,50.911688543744027,258.1281],[-86.634999152728724,50.906765041139863,268.6041],[-86.6490779287704,50.893500067181527,268.1075],[-86.671213345437067,50.880438543744027,280.8112],[-86.695627407937067,50.8775495463482,276.9595],[-86.719593879291224,50.881415106244027,274.9873],[-86.766428189187067,50.909694728639863,270.0],[-86.7958064443954,50.911932684369027,283.0007],[-86.8502498037704,50.897772528119027,289.8628],[-86.948719855853724,50.858954168744027,279.6959],[-86.973133918353724,50.854315496869027,302.5099],[-86.987049933978724,50.8426374369732,303.6642]]}}