{"type":"Feature","properties":{"featurecla":"River","scalerank":12,"rivernum":20223,"dissolve":"20223River","name":"Kesagami","name_alt":null,"note":"ID is link back to CEC data","name_full":"Kesagami River","min_zoom":7.0,"strokeweig":0.15,"uident":1738701,"min_label":8.0},
"geometry":{"type": "LineString","coordinates": [[-80.188547329812067,50.2298444682232,269.3716],[-80.2264705068954,50.192897853639863,271.3641],[-80.239247199603739,50.1680768900982,277.3055],[-80.237131314187067,50.1248639994732,283.2414],[-80.246896939187067,50.0887311869732,281.1053],[-80.242014126687067,50.033880926556527,284.5106],[-80.246937629291239,50.007269598431527,282.3765],[-80.2833552725204,49.988796291139863,286.0414],[-80.331369595437067,49.940985418744027,285.265],[-80.3688044912704,49.921820379681527,286.1402],[-80.390451626687067,49.8868268900982,290.1905],[-80.417795376687067,49.860866603639863,293.2114],[-80.415760871478739,49.831610418744027,291.4905],[-80.389637824603739,49.780218817181527,295.7453],[-80.357777473041239,49.715155340619027,298.3714]]}}