{"type":"Feature","properties":{"featurecla":"River","scalerank":12,"rivernum":20151,"dissolve":"20151River","name":"Frederick House","name_alt":null,"note":"ID is link back to CEC data","name_full":"Frederick House River","min_zoom":7.0,"strokeweig":0.2,"uident":1770401,"min_label":8.0},
"geometry":{"type": "LineString","coordinates": [[-80.973215298562067,48.653591213014863,288.027],[-80.9676814443954,48.644354559369027,303.8961],[-80.975168423562067,48.6314557963482,312.88],[-80.9916072256454,48.612494207806527,289.5326],[-81.034047004291239,48.576971746869027,299.0083],[-81.0289607412704,48.537176824994027,277.212]]}}