{"type":"Feature","properties":{"featurecla":"River","scalerank":12,"rivernum":20213,"dissolve":"20213River","name":"Esnagami","name_alt":null,"note":"ID is link back to CEC data","name_full":"Esnagami River","min_zoom":7.0,"strokeweig":0.2,"uident":1743601,"min_label":8.0},
"geometry":{"type": "LineString","coordinates": [[-86.781483527728724,50.378688869264863,311.0],[-86.691639777728724,50.451605535931527,314.0062],[-86.6139216787704,50.510931707806527,312.2851],[-86.550526496478724,50.550116278119027,300.0854],[-86.4903865225204,50.575954494264863,276.864],[-86.420033332416224,50.600856838014863,284.9445],[-86.382639126687067,50.605169989056527,277.5152],[-86.314035611062067,50.6207136088482,260.2008],[-86.273060676166224,50.643500067181527,261.851],[-86.225941535541224,50.6692975932232,235.7727],[-86.158802863666224,50.715033270306527,223.1241],[-86.089466926166224,50.750555731244027,219.2136],[-86.087513801166224,50.758978582806527,216.8536]]}}