{"type":"Feature","properties":{"GID_3":"CAN.9.20.23_1","GID_0":"CAN","country":"Canada","GID_1":"CAN.9_1","province":"Ontario","NL_NAME_1":"NA","GID_2":"CAN.9.20_1","county":"Kenora","NL_NAME_2":"NA","city":"LakeOfTheWoods37","VARNAME_3":"NA","NL_NAME_3":"NA","TYPE_3":"RéserveIndienne","ENGTYPE_3":"IndianReserve","CC_3":"NA","HASC_3":"NA","name":"Lake_Of_The_Woods37.city"},
"geometry":{"type": "MultiPolygon","coordinates": [[[[-94.8493,49.327,320.0],[-94.843,49.3231,320.0],[-94.8277,49.334,320.0],[-94.8304,49.3366,330.5516],[-94.8374,49.3349,330.3117],[-94.8436,49.3381,332.8318],[-94.8577,49.3303,320.0],[-94.8493,49.327,320.0]]],
[[[-94.8506,49.3665,320.0],[-94.8545,49.3652,328.259],[-94.8644,49.3657,321.0121],[-94.8662,49.3624,320.4917],[-94.8631,49.3623,323.2723],[-94.8642,49.3606,322.622],[-94.8603,49.3593,330.2366],[-94.8671,49.3597,338.1729],[-94.877,49.3547,336.4208],[-94.8865,49.3558,321.9583],[-94.8821,49.3534,321.6375],[-94.8832,49.3526,321.6375],[-94.8802,49.3492,320.0],[-94.8719,49.349,323.2093],[-94.8725,49.3451,320.859],[-94.8818,49.3424,320.0],[-94.8834,49.341,325.1911],[-94.8828,49.3391,321.7216],[-94.8788,49.3374,320.0],[-94.8729,49.3407,323.3292],[-94.8659,49.3383,320.0],[-94.8605,49.3389,320.0],[-94.861,49.3416,325.4795],[-94.8742,49.3435,334.8398],[-94.8673,49.3453,320.0],[-94.8636,49.3438,322.3896],[-94.8619,49.345,320.0],[-94.8561,49.3437,320.0],[-94.8514,49.3448,320.0],[-94.8503,49.3474,320.0],[-94.8526,49.3485,329.6587],[-94.8522,49.3509,320.0],[-94.8477,49.3525,323.9349],[-94.8447,49.3514,320.0],[-94.8411,49.3536,320.0],[-94.8419,49.3547,320.9953],[-94.8403,49.3569,320.0],[-94.8274,49.3599,320.0],[-94.8257,49.3615,320.0],[-94.8271,49.3627,320.0],[-94.8196,49.364,320.0],[-94.8212,49.3651,331.9368],[-94.8243,49.3639,325.2238],[-94.8256,49.366,320.0],[-94.8286,49.3641,320.0],[-94.8289,49.362,331.64],[-94.834,49.364,321.384],[-94.8301,49.3667,323.0523],[-94.852,49.3635,331.2589],[-94.8506,49.3665,320.0]]],
[[[-94.872,49.3699,327.1226],[-94.8694,49.3699,320.0],[-94.8637,49.3736,320.6652],[-94.8718,49.3731,339.4126],[-94.8723,49.3748,328.4745],[-94.8763,49.3747,338.3501],[-94.8767,49.3773,322.1747],[-94.8785,49.3764,324.9203],[-94.878,49.3751,336.18],[-94.8812,49.375,320.0],[-94.8804,49.3733,323.8078],[-94.8819,49.3717,328.2707],[-94.8847,49.3745,336.1111],[-94.8927,49.3721,321.0454],[-94.8946,49.3706,322.0933],[-94.8928,49.368,331.9654],[-94.8945,49.3651,326.2675],[-94.906,49.3635,321.8243],[-94.9008,49.3618,321.4741],[-94.9006,49.3596,320.0],[-94.899,49.3592,320.0],[-94.8817,49.3573,321.8251],[-94.8794,49.3577,320.0],[-94.8801,49.3592,325.0921],[-94.8831,49.3587,321.8251],[-94.8797,49.3619,326.7937],[-94.8773,49.3615,320.0],[-94.8695,49.365,320.0],[-94.8681,49.368899999999996,321.1745],[-94.8732,49.3693,327.1226],[-94.872,49.3699,327.1226]]],
[[[-94.8382,49.3866,337.6465],[-94.8561,49.3797,331.5289],[-94.8608,49.3736,321.8191],[-94.8539,49.3711,320.0],[-94.8523,49.3718,320.0],[-94.8496,49.3738,323.1774],[-94.8488,49.3771,329.7151],[-94.8423,49.378,320.0],[-94.8417,49.3813,320.8235],[-94.835,49.3842,321.4327],[-94.836,49.3863,320.0],[-94.8382,49.3866,337.6465]]]]}}