{"type":"Feature","properties":{"GID_3":"CAN.12.10.12_1","GID_0":"CAN","country":"Canada","GID_1":"CAN.12_1","province":"Saskatchewan","NL_NAME_1":"NA","GID_2":"CAN.12.10_1","county":"DivisionNo.1","NL_NAME_2":"NA","city":"Carievale","VARNAME_3":"NA","NL_NAME_3":"NA","TYPE_3":"Village","ENGTYPE_3":"Village","CC_3":"NA","HASC_3":"NA","name":"Carievale.city"},
"geometry":{"type": "MultiPolygon","coordinates": [[[[-101.6313,49.1786,510.2893],[-101.6313,49.1687,509.6294],[-101.6202,49.1687,507.8298],[-101.6204,49.1786,510.4485],[-101.6313,49.1786,510.2893]]]]}}