{"type": "Feature","bbox": [-79.2022,43.1408,-79.0439,43.2586],"geometry": {"type": "MultiPolygon","coordinates": [[[[-79.2022,43.2301,73.5],[-79.2005,43.1899,98.4222],[-79.1979,43.1844,98.0],[-79.1922,43.1453,118.5103],[-79.1784,43.1498,122.788],[-79.1774,43.1408,130.7231],[-79.157,43.1476,181.0248],[-79.1563,43.1462,165.7145],[-79.1396,43.1456,166.0907],[-79.0439,43.1482,136.9263],[-79.0492,43.1609,108.8388],[-79.0485,43.166,81.6303],[-79.0529,43.1746,79.0],[-79.0489,43.202,78.0],[-79.0553,43.2102,77.5],[-79.0561,43.2137,77.0],[-79.0566,43.2488,74.5],[-79.0581,43.2528,74.5],[-79.0635,43.2567,75.168],[-79.0859,43.2586,85.3678],[-79.1103,43.2536,85.2924],[-79.1285,43.2538,80.6728],[-79.1783,43.2317,83.4708],[-79.1978,43.2251,83.8451],[-79.2015,43.2259,82.8051],[-79.2022,43.2301,73.5]]]]}
,"properties": {"GID_3": "CAN.9.32.4_1","GID_0": "CAN","country": "Canada","GID_1": "CAN.9_1","province": "Ontario","NL_NAME_1": "NA","GID_2": "CAN.9.32_1","county": "Niagara","NL_NAME_2": "NA","city": "Niagara-on-the-Lake","VARNAME_3": "NA","NL_NAME_3": "NA","TYPE_3": "Town","ENGTYPE_3": "Town","CC_3": "NA","HASC_3": "NA","name": "Niagara-on-the-Lake.city","area_km2": 132.8793,"hist_schema_id": "Elevation0-9000","hist_area_km2": {"75": 18.3518,"100": 92.4095,"125": 13.7498,"150": 2.5368,"175": 5.2282,"200": 0.6032}}}