{"type": "Feature","bbox": [-68.7694,48.0659,-68.5074,48.2263],"geometry": {"type": "MultiPolygon","coordinates": [[[[-68.7694,48.1392,337.0153],[-68.6593,48.0659,283.9985],[-68.5074,48.1669,168.389],[-68.606,48.2263,183.533],[-68.7694,48.1392,337.0153]]]]}
,"properties": {"GID_3": "CAN.11.88.2_1","GID_0": "CAN","country": "Canada","GID_1": "CAN.11_1","province": "Québec","NL_NAME_1": "NA","GID_2": "CAN.11.88_1","county": "Rimouski-Neigette","NL_NAME_2": "NA","city": "Grand-Lac-Touradi","VARNAME_3": "NA","NL_NAME_3": "NA","TYPE_3": "NonOrganisé","ENGTYPE_3": "Unorganized","CC_3": "NA","HASC_3": "NA","name": "Grand-Lac-Touradi.city","area_km2": 167.2371,"hist_schema_id": "Elevation0-9000","hist_area_km2": {"150": 0.1555,"175": 3.6043,"200": 26.3612,"225": 50.7199,"250": 28.3919,"275": 20.2065,"300": 15.2402,"325": 13.2452,"350": 6.1563,"375": 2.1795,"400": 0.7644,"425": 0.2124}}}