{"type":"Feature","properties":{"GID_3":"CAN.11.47.16_1","GID_0":"CAN","country":"Canada","GID_1":"CAN.11_1","province":"Québec","NL_NAME_1":"NA","GID_2":"CAN.11.47_1","county":"Lac-Saint-Jean-Est","NL_NAME_2":"NA","city":"Saint-Henri-de-Taillon","VARNAME_3":"NA","NL_NAME_3":"NA","TYPE_3":"Municipalité","ENGTYPE_3":"Municipality","CC_3":"NA","HASC_3":"NA","name":"Saint-Henri-de-Taillon.city"},
"geometry":{"type": "MultiPolygon","coordinates": [[[[-71.7945,48.6137,99.0],[-71.7789,48.6486,134.493],[-71.7567,48.7096,176.5859],[-71.8349,48.7244,139.2942],[-71.8418,48.7109,138.5397],[-71.8785,48.7176,129.3453],[-71.929,48.5809,99.0],[-71.8141,48.569,99.0],[-71.7945,48.6137,99.0]]]]}}