{"type": "Feature","bbox": [-117.3649,49.9475,-117.3504,49.9589],"geometry": {"type": "MultiPolygon","coordinates": [[[[-117.3572,49.9494,539.786],[-117.353,49.9495,639.7881],[-117.3507,49.9528,620.2383],[-117.3519,49.9544,618.1377],[-117.3504,49.955,618.1377],[-117.3597,49.9589,534.5],[-117.3635,49.9563,534.5],[-117.3649,49.9514,534.5],[-117.3617,49.9475,534.5],[-117.3572,49.9494,539.786]]]]}
,"properties": {"GID_3": "CAN.2.6.20_1","GID_0": "CAN","country": "Canada","GID_1": "CAN.2_1","province": "BritishColumbia","NL_NAME_1": "NA","GID_2": "CAN.2.6_1","county": "CentralKootenay","NL_NAME_2": "NA","city": "Silverton","VARNAME_3": "NA","NL_NAME_3": "NA","TYPE_3": "Village","ENGTYPE_3": "Village","CC_3": "NA","HASC_3": "NA","name": "Silverton.city","area_km2": 0.8321466,"hist_schema_id": "Elevation0-9000","hist_area_km2": {"525": 0.3001192,"550": 0.2864754,"575": 0.0954936,"600": 0.081849,"625": 0.0545674,"650": 0.013642}}}