{"type": "Feature","bbox": [-55.5519,46.9153,-55.5304,46.956],"geometry": {"type": "MultiPolygon","coordinates": [[[[-55.5451,46.9405,0.4747],[-55.543,46.9423,0.9699],[-55.5392,46.9403,18.3372],[-55.5406,46.9356,0.0],[-55.5394,46.9306,30.8309],[-55.5449,46.9229,0.9229],[-55.5417,46.9165,0.0],[-55.5387,46.9153,0.0],[-55.5304,46.9427,108.2558],[-55.537,46.9535,72.7675],[-55.5479,46.956,36.8812],[-55.5519,46.9477,110.9176],[-55.5512,46.9435,77.4374],[-55.5451,46.9405,0.4747]]]]}
,"properties": {"GID_3": "CAN.5.4.22_1","GID_0": "CAN","country": "Canada","GID_1": "CAN.5_1","province": "NewfoundlandandLabrador","NL_NAME_1": "NA","GID_2": "CAN.5.4_1","county": "DivisionNo.2","NL_NAME_2": "NA","city": "Lawn","VARNAME_3": "NA","NL_NAME_3": "NA","TYPE_3": "Town","ENGTYPE_3": "Town","CC_3": "NA","HASC_3": "NA","name": "Lawn.city","area_km2": 3.329517,"hist_schema_id": "Elevation0-9000","hist_area_km2": {"0": 0.57903,"25": 1.027746,"50": 0.839704,"75": 0.810658,"100": 0.072379}}}