{"type": "Feature","bbox": [-70.6731,46.1954,-70.5101,46.3498],"geometry": {"type": "MultiPolygon","coordinates": [[[[-70.5905,46.2075,254.3928],[-70.5904,46.2137,272.3106],[-70.5808,46.2228,272.16],[-70.5787,46.231,294.1226],[-70.5742,46.2338,288.9805],[-70.5676,46.2351,295.5612],[-70.5655,46.2413,313.4407],[-70.5582,46.2423,294.3244],[-70.555,46.2448,294.6902],[-70.5591,46.2487,304.1576],[-70.5575,46.2512,314.7858],[-70.5444,46.2537,298.7964],[-70.5298,46.2502,300.7782],[-70.5243,46.2551,294.9091],[-70.52,46.2558,296.2261],[-70.5261,46.2624,312.4719],[-70.5187,46.2664,297.7164],[-70.5152,46.2726,293.2679],[-70.5101,46.2765,296.5291],[-70.5155,46.2807,298.2907],[-70.5143,46.2818,298.2907],[-70.5406,46.3009,319.0187],[-70.5116,46.3205,360.2884],[-70.5361,46.3377,372.2888],[-70.5386,46.3362,369.3864],[-70.5575,46.3498,398.8846],[-70.6652,46.2784,393.3734],[-70.6578,46.2727,382.9052],[-70.6731,46.2627,387.8497],[-70.6212,46.2241,325.676],[-70.6284,46.2188,317.9448],[-70.6136,46.1954,224.4695],[-70.5923,46.2104,267.7147],[-70.5905,46.2075,254.3928]]]]}
,"properties": {"GID_3": "CAN.11.64.2_1","GID_0": "CAN","country": "Canada","GID_1": "CAN.11_1","province": "Québec","NL_NAME_1": "NA","GID_2": "CAN.11.64_1","county": "LesEtchemins","NL_NAME_2": "NA","city": "Saint-Benjamin","VARNAME_3": "NA","NL_NAME_3": "NA","TYPE_3": "Municipalité","ENGTYPE_3": "Municipality","CC_3": "NA","HASC_3": "NA","name": "Saint-Benjamin.city","area_km2": 106.71403,"hist_schema_id": "Elevation0-9000","hist_area_km2": {"225": 0.0587,"250": 0.85102,"275": 3.69702,"300": 16.62625,"325": 19.97545,"350": 20.60414,"375": 13.50913,"400": 12.93609,"425": 6.5331,"450": 5.84437,"475": 4.95085,"500": 1.12792}}}