{"type": "Feature","bbox": [-73.0052,45.1128,-72.9635,45.1289],"geometry": {"type": "MultiPolygon","coordinates": [[[[-72.9657,45.1279,66.335],[-72.9914,45.1289,48.8752],[-72.9913,45.1278,50.8296],[-73.0052,45.1269,52.4474],[-72.9978,45.124,48.9637],[-72.9969,45.1129,57.7288],[-72.9729,45.1128,69.515],[-72.9635,45.1131,82.2259],[-72.9636,45.1159,69.9623],[-72.9668,45.1171,74.1568],[-72.9667,45.1186,74.1568],[-72.9673,45.1171,74.1568],[-72.9699,45.1172,68.3136],[-72.9697,45.1222,66.3636],[-72.9657,45.1253,75.0182],[-72.9657,45.1279,66.335]]]]}
,"properties": {"GID_3": "CAN.11.14.3_1","GID_0": "CAN","country": "Canada","GID_1": "CAN.11_1","province": "Québec","NL_NAME_1": "NA","GID_2": "CAN.11.14_1","county": "Brome-Missisquoi","NL_NAME_2": "NA","city": "BedfordVille","VARNAME_3": "NA","NL_NAME_3": "NA","TYPE_3": "Ville","ENGTYPE_3": "Ville","CC_3": "NA","HASC_3": "NA","name": "Bedford_Ville.city","area_km2": 4.069289,"hist_schema_id": "Elevation0-9000","hist_area_km2": {"50": 2.423622,"75": 1.645666}}}