{"type": "Feature","bbox": [-100.0534,49.7093,-99.6427,49.8868],"geometry": {"type": "MultiPolygon","coordinates": [[[[-99.9847,49.8868,404.388],[-100.0534,49.8865,403.0385],[-100.0525,49.7097,413.4279],[-99.6427,49.7093,363.0537],[-99.6444,49.8865,373.3941],[-99.9271,49.8868,395.1615],[-99.9272,49.857,354.4575],[-99.9239,49.8556,356.8969],[-99.9165,49.8435,380.8726],[-99.9029,49.8415,370.3433],[-99.8872,49.8427,361.2824],[-99.8795,49.8449,358.4649],[-99.87,49.8446,358.2646],[-99.8679,49.8475,356.5443],[-99.8545,49.8466,359.1556],[-99.8502,49.8496,358.799],[-99.8255,49.8573,373.794],[-99.825,49.8347,356.0933],[-99.8273,49.8189,363.5965],[-99.819,49.8127,363.5714],[-99.9507,49.8127,399.2732],[-99.9507,49.8109,398.1968],[-99.9731,49.8127,400.0648],[-99.9732,49.8202,403.9678],[-99.9958,49.8203,400.0274],[-99.9961,49.8385,396.4671],[-100.008,49.8385,396.7031],[-100.0081,49.8499,373.612],[-99.9962,49.8499,380.9325],[-99.9847,49.8519,374.5122],[-99.9847,49.8536,357.8326],[-99.9881,49.8529,359.6312],[-99.9904,49.8544,360.3149],[-99.9881,49.8588,358.7978],[-99.9924,49.8559,361.2766],[-99.9984,49.8579,361.5725],[-99.9982,49.8607,359.0175],[-99.9959,49.8609,359.2054],[-99.9959,49.864,360.7534],[-99.9846,49.8635,359.4321],[-99.9847,49.8868,404.388]]]]}
,"properties": {"GID_3": "CAN.3.21.3_1","GID_0": "CAN","country": "Canada","GID_1": "CAN.3_1","province": "Manitoba","NL_NAME_1": "NA","GID_2": "CAN.3.21_1","county": "DivisionNo.7","NL_NAME_2": "NA","city": "Cornwallis","VARNAME_3": "NA","NL_NAME_3": "NA","TYPE_3": "RuralMunicipality","ENGTYPE_3": "RuralMunicipality","CC_3": "NA","HASC_3": "NA","name": "Cornwallis.city","area_km2": 512.4503,"hist_schema_id": "Elevation0-9000","hist_area_km2": {"350": 66.2329,"375": 255.1414,"400": 154.3414,"425": 21.1073,"450": 8.2109,"475": 6.6898,"500": 0.7266}}}