{"type": "Feature","bbox": [-104.5889,49.1619,-104.5771,49.1687],"geometry": {"type": "MultiPolygon","coordinates": [[[[-104.5771,49.1674,705.4022],[-104.5772,49.1687,705.4022],[-104.5797,49.1687,705.5685],[-104.5797,49.1665,701.0471],[-104.5889,49.1665,705.9413],[-104.5889,49.1619,699.9031],[-104.5771,49.1658,703.3455],[-104.5771,49.1674,705.4022]]]]}
,"properties": {"GID_3": "CAN.12.11.29_1","GID_0": "CAN","country": "Canada","GID_1": "CAN.12_1","province": "Saskatchewan","NL_NAME_1": "NA","GID_2": "CAN.12.11_1","county": "DivisionNo.2","NL_NAME_2": "NA","city": "Minton","VARNAME_3": "NA","NL_NAME_3": "NA","TYPE_3": "Village","ENGTYPE_3": "Village","CC_3": "NA","HASC_3": "NA","name": "Minton.city","area_km2": 0.2356823,"hist_schema_id": "Elevation0-9000","hist_area_km2": {"700": 0.2356823}}}