{"type":"Feature","properties":{"GID_3":"CAN.4.8.7_1","GID_0":"CAN","country":"Canada","GID_1":"CAN.4_1","province":"NewBrunswick","NL_NAME_1":"NA","GID_2":"CAN.4.8_1","county":"Northumberland","NL_NAME_2":"NA","city":"Chatham","VARNAME_3":"NA","NL_NAME_3":"NA","TYPE_3":"Parish","ENGTYPE_3":"Parish","CC_3":"NA","HASC_3":"NA","name":"Chatham.city"},
"geometry":{"type": "MultiPolygon","coordinates": [[[[-65.3747,47.0355,5.0558],[-65.3692,47.0386,0.1802],[-65.3619,47.0361,0.836],[-65.3571,47.0395,3.8761],[-65.3452,47.0409,9.3759],[-65.3386,47.0499,5.1557],[-65.326,47.0558,0.0],[-65.3292,47.0594,1.8603],[-65.3255,47.0579,1.2489],[-65.3228,47.0609,1.2498],[-65.3154,47.0648,3.1589],[-65.3132,47.0638,3.4565],[-65.3092,47.0669,0.067],[-65.3078,47.0656,0.067],[-65.3115,47.063,0.0179],[-65.3061,47.0602,0.0],[-65.3042,47.0644,0.7484],[-65.3154,47.0723,0.0],[-65.3298,47.0726,2.6042],[-65.3413,47.0774,0.0],[-65.3431,47.0749,3.185],[-65.3411,47.0742,-0.259],[-65.3407,47.0651,3.9658],[-65.3538,47.0609,14.2265],[-65.348,47.056,17.6292],[-65.3676,47.0554,21.1387],[-65.436,47.0303,23.6493],[-65.4194,47.0166,22.8955],[-65.4391,47.0051,22.5826],[-65.4398,47.0034,22.3012],[-65.4343,46.999,20.9528],[-65.4491,46.9898,27.2119],[-65.4477,46.9887,24.1644],[-65.4155,47.0067,7.9099],[-65.4118,47.0075,8.6867],[-65.4112,47.0098,6.865],[-65.4085,47.0111,6.6305],[-65.409,47.0145,7.7017],[-65.4039,47.0164,4.1587],[-65.4016,47.0191,4.9182],[-65.3973,47.0189,4.7994],[-65.3959,47.022,3.6322],[-65.3875,47.0269,3.2765],[-65.3863,47.0307,6.4449],[-65.3747,47.0355,5.0558]]],
[[[-65.3702,47.0364,3.3159],[-65.3704,47.0362,3.3159],[-65.3671,47.0367,0.0788],[-65.3681,47.0373,0.1802],[-65.3702,47.0364,3.3159]]]]}}