{"type": "Feature","bbox": [-53.2493,48.3925,-52.9953,48.6733],"geometry": {"type": "MultiPolygon","coordinates": [[[[-53.0622,48.5047,5.7912],[-53.0625,48.5047,5.7912],[-53.0626,48.5046,5.7912],[-53.0621,48.5046,5.7912],[-53.0622,48.5047,5.7912]]],
[[[-53.0673,48.5048,0.0],[-53.0675,48.5046,0.0],[-53.0671,48.5046,0.0],[-53.0673,48.5048,0.0]]],
[[[-53.126,48.593,120.7583],[-53.1409,48.595,106.4069],[-53.138,48.5872,106.1895],[-53.1393,48.5766,124.8841],[-53.1382,48.5731,123.517],[-53.1344,48.5732,128.2004],[-53.1252,48.58,126.9009],[-53.1204,48.5804,134.2823],[-53.1156,48.5795,125.5176],[-53.1126,48.5766,116.7951],[-53.1137,48.5729,111.0103],[-53.1172,48.5685,121.7012],[-53.1252,48.5644,139.0611],[-53.1363,48.5636,117.6736],[-53.136,48.557,121.8043],[-53.1422,48.5495,142.8039],[-53.1606,48.5482,146.8926],[-53.1653,48.5431,150.7973],[-53.1725,48.5308,151.5892],[-53.173,48.5189,176.091],[-53.1686,48.5012,138.0197],[-53.1733,48.4912,117.6021],[-53.181,48.4866,117.1809],[-53.1936,48.4839,166.3687],[-53.2117,48.4852,130.4285],[-53.2298,48.493899999999996,140.1653],[-53.2366,48.4945,136.1479],[-53.2446,48.4921,139.1954],[-53.2493,48.4886,142.399],[-53.2358,48.4869,131.8945],[-53.2345,48.4833,123.2707],[-53.2328,48.4826,123.2707],[-53.2249,48.4827,113.9667],[-53.2252,48.476,110.5],[-53.2198,48.4739,112.3169],[-53.2124,48.4656,104.974],[-53.1906,48.4647,95.56],[-53.1995,48.4567,112.8983],[-53.2007,48.4414,98.4495],[-53.1964,48.4378,102.3579],[-53.1808,48.4338,108.6175],[-53.1753,48.4259,134.3546],[-53.1748,48.4166,116.4383],[-53.1713,48.4103,109.7366],[-53.1639,48.4064,79.7581],[-53.161,48.4014,23.4268],[-53.1606,48.3969,0.0],[-53.1481,48.3925,4.1157],[-53.145,48.3942,49.9037],[-53.14,48.3933,0.0],[-53.1292,48.4017,0.0],[-53.1269,48.4003,0.0],[-53.1206,48.4014,0.0],[-53.1153,48.4053,0.0],[-53.1114,48.4044,1.1449],[-53.1067,48.4089,17.2898],[-53.1014,48.4106,37.0899],[-53.0917,48.4233,0.0],[-53.0839,48.4289,0.0],[-53.0811,48.4339,15.7352],[-53.0739,48.4386,0.0],[-53.0667,48.4519,11.1233],[-53.0603,48.4594,10.9756],[-53.0511,48.46,0.0],[-53.0519,48.4622,0.0],[-53.0633,48.4633,15.3271],[-53.0681,48.4667,2.4671],[-53.0969,48.4686,72.1623],[-53.0901,48.4852,28.8877],[-53.0597,48.4883,4.9362],[-53.06,48.4908,0.0],[-53.0667,48.4931,10.2348],[-53.0647,48.4956,4.2695],[-53.0619,48.4958,0.1946],[-53.0586,48.5006,14.5005],[-53.0511,48.5031,1.42],[-53.0492,48.5089,0.0],[-53.0514,48.51,6.3073],[-53.0611,48.5071,0.0],[-53.0591,48.5042,6.0689],[-53.0712,48.4948,8.65],[-53.0813,48.4902,22.6185],[-53.1052,48.4893,89.3382],[-53.1048,48.5139,33.0489],[-53.1019,48.5146,33.2575],[-53.0858,48.5105,2.4382],[-53.0935,48.519,28.4801],[-53.0799,48.5374,15.2355],[-53.092,48.552,20.719],[-53.059,48.5651,38.1567],[-53.0341,48.5648,25.1589],[-53.0266,48.5381,0.7948],[-53.0219,48.5383,3.2989],[-53.0192,48.5367,0.0],[-53.0131,48.5375,4.3098],[-53.0022,48.5483,0.0],[-53.0053,48.55,0.0],[-53.0122,48.56,0.0],[-53.0144,48.5594,3.6042],[-53.0192,48.5631,7.3575],[-53.0211,48.5669,14.4718],[-53.0197,48.5689,0.0],[-53.0228,48.5708,0.0],[-53.0211,48.5739,17.4703],[-53.0067,48.5781,0.0],[-53.0039,48.5808,0.0],[-53.0047,48.585,3.1782],[-52.9964,48.5939,29.7855],[-52.9953,48.5992,0.0],[-52.9986,48.6011,19.5804],[-52.9981,48.6028,0.0],[-53.0013,48.6096,0.2814],[-53.0094,48.6106,5.6877],[-53.0089,48.6167,16.0661],[-53.068,48.6174,135.4788],[-53.0674,48.6161,134.2532],[-53.0783,48.6068,74.8769],[-53.0806,48.6023,62.1566],[-53.0881,48.5977,54.7618],[-53.0864,48.5923,57.5325],[-53.0883,48.5888,57.8283],[-53.0906,48.5879,57.6899],[-53.126,48.593,120.7583]]],
[[[-53.0464,48.5064,0.0],[-53.0481,48.5058,0.0],[-53.0478,48.5042,0.0],[-53.0422,48.5042,0.3475],[-53.0436,48.5058,0.0],[-53.0464,48.5064,0.0]]],
[[[-53.057,48.5234,26.9926],[-53.063,48.5144,0.7212],[-53.0581,48.5136,0.0],[-53.0522,48.5172,3.2833],[-53.0497,48.5269,5.8651],[-53.0469,48.5256,2.4557],[-53.0453,48.5267,0.0],[-53.0467,48.5314,0.0],[-53.0451,48.5336,0.0],[-53.0544,48.5346,15.2348],[-53.057,48.5234,26.9926]]],
[[[-53.089,48.6378,69.6896],[-53.0894,48.6361,71.7556],[-53.068,48.6174,135.4788],[-53.078,48.6409,101.1304],[-53.0284,48.6489,0.0],[-53.03,48.6514,0.5392],[-53.0289,48.6528,0.0],[-53.0297,48.6544,0.0],[-53.0319,48.6533,30.5053],[-53.0331,48.6544,8.3677],[-53.0314,48.6583,1.0192],[-53.035,48.6569,44.5805],[-53.0444,48.6611,0.0],[-53.0553,48.6603,17.4973],[-53.056399999999996,48.6622,7.5645],[-53.0525,48.6636,0.0],[-53.0536,48.665,0.0],[-53.0508,48.6681,0.0],[-53.0528,48.6697,0.244],[-53.0514,48.6722,0.0],[-53.0525,48.6733,0.0],[-53.0581,48.6714,0.0],[-53.06,48.6683,21.1392],[-53.0636,48.6694,3.1388],[-53.0642,48.6644,0.0],[-53.0706,48.66,12.2844],[-53.0714,48.6653,1.8393],[-53.0747,48.6664,0.0],[-53.075,48.6689,0.0],[-53.0819,48.6654,9.7991],[-53.089,48.6378,69.6896]]]]}
,"properties": {"GID_3": "CAN.5.9.11_1","GID_0": "CAN","country": "Canada","GID_1": "CAN.5_1","province": "NewfoundlandandLabrador","NL_NAME_1": "NA","GID_2": "CAN.5.9_1","county": "DivisionNo.7","NL_NAME_2": "NA","city": "DivisionNo.7,Subd.I","VARNAME_3": "NA","NL_NAME_3": "NA","TYPE_3": "SubdivisionofUnorganized","ENGTYPE_3": "SubdivisionofUnorganized","CC_3": "NA","HASC_3": "NA","name": "Division_No.7,Subd.I.city","area_km2": 186.1659,"hist_schema_id": "Elevation0-9000","hist_area_km2": {"0": 4.1834,"25": 24.1681,"50": 48.4679,"75": 15.2419,"100": 32.4868,"125": 42.2308,"150": 14.0558,"175": 5.3312}}}