{"type":"Feature","properties":{"GID_3":"CAN.9.9.8_1","GID_0":"CAN","country":"Canada","GID_1":"CAN.9_1","province":"Ontario","NL_NAME_1":"NA","GID_2":"CAN.9.9_1","county":"Essex","NL_NAME_2":"NA","city":"Tecumseh","VARNAME_3":"NA","NL_NAME_3":"NA","TYPE_3":"Town","ENGTYPE_3":"Town","CC_3":"NA","HASC_3":"NA","name":"Tecumseh.city"},
"geometry":{"type": "MultiPolygon","coordinates": [[[[-82.9674,42.1829,187.7669],[-82.8774,42.1798,192.8529],[-82.8692,42.3108,178.4339],[-82.8463,42.3084,177.9396],[-82.8408,42.3174,176.1501],[-82.843,42.3199,176.5115],[-82.854,42.3676,173.0],[-82.8661,42.3649,173.0],[-82.8683,42.3276,173.6491],[-82.8824,42.3321,173.0],[-82.8961,42.3337,177.8409],[-82.8909,42.313,179.6004],[-82.8976,42.3137,179.5872],[-82.8974,42.3114,179.8758],[-82.9007,42.3117,179.8458],[-82.8984,42.2986,182.1914],[-82.9088,42.2966,181.3298],[-82.9068,42.289,181.2042],[-82.9386,42.2895,185.0106],[-82.938,42.2884,183.6427],[-82.9459,42.2848,185.9122],[-82.9594,42.2817,186.922],[-82.9581,42.2796,186.6341],[-82.9727,42.2745,188.8862],[-82.9617,42.2569,189.9881],[-82.9608,42.247,193.7387],[-82.9747,42.2416,192.1819],[-82.9867,42.2338,189.71],[-82.9969,42.2356,187.5453],[-83.0005,42.184,180.9576],[-82.9674,42.1829,187.7669]]]]}}