{"type":"Feature","properties":{"GID_3":"CAN.9.45.11_1","GID_0":"CAN","country":"Canada","GID_1":"CAN.9_1","province":"Ontario","NL_NAME_1":"NA","GID_2":"CAN.9.45_1","county":"Simcoe","NL_NAME_2":"NA","city":"NewTecumseth","VARNAME_3":"NA","NL_NAME_3":"NA","TYPE_3":"Town","ENGTYPE_3":"Town","CC_3":"NA","HASC_3":"NA","name":"New_Tecumseth.city"},
"geometry":{"type": "MultiPolygon","coordinates": [[[[-79.7755,43.9898,322.9139],[-79.6704,44.0129,225.0753],[-79.6828,44.0561,244.3007],[-79.6846,44.0684,262.0595],[-79.6883,44.0812,256.2762],[-79.6899,44.081,240.9573],[-79.6962,44.1048,255.0168],[-79.6946,44.1052,257.0602],[-79.6997,44.1281,244.0909],[-79.7087,44.1555,215.5905],[-79.7097,44.1553,212.4979],[-79.712,44.166,224.8479],[-79.7179,44.1647,219.7787],[-79.723,44.1853,237.0827],[-79.8293,44.1624,212.5988],[-79.8308,44.1689,219.6235],[-79.8392,44.1673,219.5706],[-79.8421,44.1774,220.1902],[-79.8765,44.1715,232.4963],[-79.8761,44.1704,230.1535],[-79.8832,44.1691,233.0391],[-79.8826,44.1669,222.4379],[-79.8918,44.1652,225.6429],[-79.8899,44.1573,221.3818],[-79.8924,44.157,225.4915],[-79.8842,44.1531,222.7676],[-79.8874,44.1519,219.7676],[-79.8862,44.1473,222.1023],[-79.8888,44.1467,222.6106],[-79.8879,44.1428,220.5433],[-79.8897,44.1423,220.3337],[-79.8882,44.1367,234.0652],[-79.8755,44.1393,222.6582],[-79.8335,43.9771,319.987],[-79.7755,43.9898,322.9139]]]]}}