{"type":"Feature","properties":{"GID_2":"CAN.1.9_1","GID_0":"CAN","country":"Canada","GID_1":"CAN.1_1","province":"Alberta","NL_NAME_1":"NA","county":"DivisionNo.18","VARNAME_2":"NA","NL_NAME_2":"NA","TYPE_2":"CensusDivision","ENGTYPE_2":"CensusDivision","CC_2":"18","HASC_2":"CA.AB.ET","name":"Division_No.18.county"},
"geometry":{"type": "MultiPolygon","coordinates": [[[[-119.137,53.8445,1126.9608],[-118.9978,53.8448,1378.2825],[-118.9993,53.8049,1398.9551],[-118.1248,53.8066,1237.3926],[-118.1307,53.8449,1226.5618],[-118.1226,53.8556,1208.5132],[-118.124,53.8602,1229.1134],[-118.1159,53.8668,1199.9674],[-118.1171,53.8705,1197.4205],[-118.1147,53.8738,1196.2356],[-118.1068,53.8758,1225.4253],[-118.0943,53.8909,1188.1656],[-118.0737,53.8978,1190.7788],[-118.0681,53.91,1191.4523],[-118.0607,53.9106,1189.698],[-118.0545,53.9142,1173.438],[-118.0448,53.9143,1164.7725],[-118.0235,53.9103,1207.6527],[-118.0176,53.9146,1186.1763],[-118.0075,53.9147,1188.7952],[-117.9842,53.9254,1143.7922],[-117.9791,53.9257,1140.2327],[-117.9792,53.9218,1149.4087],[-117.9751,53.92,1159.1338],[-117.9708,53.9206,1156.3822],[-117.965,53.9238,1146.6573],[-117.9553,53.9236,1151.7959],[-117.9334,53.9321,1126.855],[-117.905,53.9298,1119.2495],[-117.896,53.9338,1107.9231],[-117.8872,53.933,1105.1915],[-117.8831,53.9349,1104.2014],[-117.879,53.9503,1098.3057],[-117.8716,53.9567,1101.0341],[-117.8646,53.9572,1096.1412],[-117.8592,53.96,1104.5203],[-117.8564,53.9578,1103.3566],[-117.8462,53.9551,1105.5565],[-117.8405,53.9606,1090.333],[-117.8335,53.9605,1088.3411],[-117.8233,53.9546,1100.1163],[-117.8201,53.9556,1095.3651],[-117.814,53.9545,1092.0918],[-117.8073,53.9492,1086.7239],[-117.796,53.9528,1080.6726],[-117.7888,53.9514,1118.3849],[-117.7778,53.956,1107.2197],[-117.7758,53.9627,1082.9768],[-117.77,53.9659,1084.4877],[-117.7626,53.9665,1086.5677],[-117.7598,53.9737,1084.3237],[-117.7629,53.9732,1077.7454],[-117.7665,53.9756,1068.447],[-117.7643,53.978,1067.5327],[-117.7566,53.9809,1066.6725],[-117.7453,53.9807,1068.9332],[-117.7373,53.9861,1066.679],[-117.731,53.9938,1054.207],[-117.7246,53.9954,1059.7888],[-117.717,54.0033,1059.0652],[-117.705,54.0092,1058.1211],[-117.7094,54.0115,1045.0227],[-117.7075,54.0141,1044.1138],[-117.6973,54.0125,1054.0323],[-117.6943,54.0177,1041.2843],[-117.687,54.0199,1042.8824],[-117.6605,54.0211,1040.9419],[-117.643,54.0176,1032.4463],[-117.6303,54.02,1030.6418],[-117.6242,54.025,1027.6124],[-117.6203,54.0253,1023.8978],[-117.6143,54.023,1031.3385],[-117.6104,54.0265,1021.7949],[-117.6007,54.0233,1032.1624],[-117.5892,54.0283,1023.713],[-117.575,54.0268,1052.7554],[-117.5668,54.0369,1015.4039],[-117.5547,54.0369,1060.8555],[-117.5462,54.0429,1015.2234],[-117.5382,54.0415,1039.459],[-117.5325,54.0469,1008.5494],[-117.5274,54.0467,1002.6999],[-117.5287,54.0427,1006.6548],[-117.5231,54.0406,1019.2159],[-117.5025,54.0406,1007.0501],[-117.4944,54.0373,999.0079],[-117.492,54.0342,1008.4701],[-117.4751,54.0293,1027.4412],[-117.4686,54.0288,1032.4805],[-117.4644,54.0316,987.598],[-117.456,54.0303,998.51],[-117.4514,54.0267,1029.3873],[-117.4452,54.0266,1028.1202],[-117.4336,54.0319,986.1771],[-117.429,54.0314,984.941],[-117.4276,54.0268,1021.8985],[-117.4111,54.0224,996.9285],[-117.4043,54.0264,982.0179],[-117.4011,54.0266,984.5291],[-117.3971,54.0225,982.1445],[-117.3663,54.0227,980.5566],[-117.3581,54.0168,984.8716],[-117.354,54.0221,979.5238],[-117.3434,54.0196,984.5457],[-117.3392,54.0222,990.5377],[-117.3362,54.033,985.0811],[-117.3385,54.0361,988.747],[-117.3501,54.0341,987.7841],[-117.3549,54.0359,994.3428],[-117.3554,54.0384,977.2599],[-117.348,54.0416,993.0866],[-117.3524,54.0491,990.6519],[-117.348,54.05,990.794],[-117.3342,54.0428,993.0004],[-117.3308,54.0476,985.9832],[-117.3116,54.0461,987.4359],[-117.2967,54.047,990.4811],[-117.2928,54.0498,975.4017],[-117.2841,54.0481,986.9921],[-117.2819,54.0532,972.8912],[-117.2754,54.055,965.0359],[-117.271,54.0498,974.5256],[-117.2583,54.046,976.005],[-117.2611,54.0424,964.7078],[-117.2604,54.0385,973.9893],[-117.2512,54.0406,962.2628],[-117.2485,54.0375,962.0898],[-117.2592,54.03,976.9175],[-117.2589,54.0236,958.9606],[-117.2738,54.0252,966.3411],[-117.2755,54.0305,969.7318],[-117.2782,54.0302,971.6309],[-117.2809,54.022,963.7304],[-117.2869,54.0148,972.0973],[-117.2867,54.0104,964.1029],[-117.2932,54.0075,999.9749],[-117.2811,53.9992,962.3647],[-117.2795,53.9908,953.9229],[-117.2832,53.9832,961.4354],[-117.2745,53.9817,993.5805],[-117.2701,53.9854,956.2277],[-117.265,53.9858,985.8625],[-117.2533,53.983,1038.6165],[-117.2478,53.9832,1029.5631],[-117.2455,53.9861,948.5328],[-117.2488,53.9908,1013.1624],[-117.2472,53.993899999999996,1030.7314],[-117.2386,53.9945,1014.4901],[-117.2268,54.0045,1021.603],[-117.221,54.0069,978.8707],[-117.2111,54.0083,979.6816],[-117.2022,54.0081,957.6885],[-117.2013,54.0058,935.9655],[-117.21,54.0023,961.5596],[-117.214,53.9979,951.6506],[-117.2138,53.9936,1027.3364],[-117.1997,53.9886,1017.0038],[-117.1924,53.9878,1009.7881],[-117.1759,53.9953,993.8339],[-117.1641,53.9933,938.7429],[-117.1706,53.9826,935.0776],[-117.1704,53.9781,1018.8986],[-117.1573,53.9802,1030.4905],[-117.1423,53.9788,1009.226],[-117.1308,53.9808,964.867],[-117.1168,53.9895,929.298],[-117.1087,53.9894,922.8052],[-117.1078,53.987,909.0621],[-117.114,53.9754,911.6115],[-117.1087,53.9717,947.1722],[-117.0998,53.9713,947.2452],[-117.0933,53.9735,934.1454],[-117.0907,53.9817,921.7104],[-117.0678,53.9751,921.6995],[-117.0637,53.9767,902.9623],[-117.0579,53.9856,925.3632],[-117.04,53.9887,970.2312],[-117.0283,54.0005,896.325],[-116.9842,54.0045,951.6438],[-116.968,54.0118,867.9601],[-116.9352,54.0095,878.5765],[-116.9154,54.001,913.1212],[-116.9046,54.0005,882.3453],[-116.8971,53.9983,873.9611],[-116.848,54.0008,835.9183],[-116.8388,54.0093,834.6462],[-116.834,54.0173,836.0853],[-116.8289,54.0191,835.7873],[-116.8125,54.0332,821.7467],[-116.7859,54.0372,819.7748],[-116.776,54.041,814.625],[-116.7734,54.0466,813.5],[-116.7762,54.0519,835.5613],[-116.7768,54.0596,836.1814],[-116.7717,54.0751,819.6008],[-116.7566,54.0897,806.7013],[-116.7557,54.0948,821.6451],[-116.7473,54.1078,825.3185],[-116.7422,54.1109,808.1201],[-116.7311,54.1123,808.2504],[-116.7236,54.1169,801.7467],[-116.6691,54.1214,806.9913],[-116.6493,54.1267,798.9559],[-116.6352,54.136,797.4815],[-116.5979,54.1501,789.0],[-116.582,54.1545,795.3093],[-116.567,54.1543,798.2184],[-116.5456,54.164,790.455],[-116.5292,54.1668,835.5516],[-116.5223,54.1697,813.6783],[-116.5113,54.1799,781.4327],[-116.4999,54.1855,782.1508],[-116.4778,54.2024,773.875],[-116.4597,54.2096,774.7536],[-116.4555,54.2093,778.8329],[-116.4442,54.2127,772.3204],[-116.44,54.2122,778.3801],[-116.406,54.22,777.8991],[-116.395,54.22,780.5494],[-116.3877,54.2165,777.2463],[-116.3813,54.2163,775.7896],[-116.3618,54.2248,762.5],[-116.3288,54.2307,769.85],[-116.3194,54.2311,767.5378],[-116.305,54.228,766.7431],[-116.2974,54.2303,761.627],[-116.291,54.2387,770.3898],[-116.2504,54.2561,797.4803],[-116.2513,54.3264,962.7113],[-116.1005,54.3263,969.3823],[-116.1015,54.4145,865.1676],[-115.97,54.4127,908.1283],[-115.9659,54.5,1051.7756],[-115.9625,54.5,1053.6033],[-115.9669,54.5879,1129.4827],[-115.9677,54.7626,1128.7874],[-115.9861,54.7621,1236.1157],[-115.9868,54.7827,1073.1167],[-115.9844,54.8495,910.7139],[-116.7454,54.8503,857.8155],[-116.7465,54.9573,849.5428],[-116.7424,55.0785,747.4474],[-116.7426,55.1126,741.5],[-116.9217,55.1124,717.4684],[-116.9233,55.2287,675.8163],[-116.9209,55.3739,530.3188],[-117.5387,55.3749,778.5886],[-117.5393,55.4607,627.2545],[-117.5703,55.4606,615.3552],[-117.5688,55.6603,430.9047],[-117.5699,55.6621,418.7067],[-117.5782,55.6633,464.9312],[-117.5827,55.6688,460.6133],[-117.5892,55.672,462.2083],[-117.5953,55.6716,457.6183],[-117.5998,55.6679,483.312],[-117.6065,55.6666,504.2548],[-117.6213,55.6708,408.6512],[-117.6285,55.6682,385.5],[-117.6316,55.665,418.3018],[-117.6291,55.6635,410.0806],[-117.6291,55.6545,492.1173],[-117.6213,55.6391,387.0],[-117.6239,55.6346,387.5],[-117.6252,55.6214,400.3008],[-117.6242,55.616,426.2343],[-117.6255,55.6138,442.4359],[-117.6396,55.6064,530.8367],[-117.6501,55.6016,571.0981],[-117.6549,55.6016,582.4173],[-117.6638,55.6029,573.4301],[-117.6841,55.6122,450.8325],[-117.7022,55.6124,451.1957],[-117.7088,55.6116,441.8365],[-117.7152,55.6084,432.4365],[-117.7217,55.6,426.4639],[-117.7212,55.5929,534.7835],[-117.7096,55.5827,463.9647],[-117.6997,55.5774,440.41],[-117.6942,55.5687,404.4368],[-117.6945,55.5646,424.6774],[-117.7045,55.5569,540.0852],[-117.7157,55.5543,545.9181],[-117.7347,55.5513,550.8513],[-117.7701,55.5517,535.4192],[-117.7917,55.5463,600.3854],[-117.8143,55.5474,483.279],[-117.8284,55.5427,614.8756],[-117.8418,55.5433,622.1765],[-117.857,55.5476,512.0784],[-117.8616,55.5477,516.673],[-117.8754,55.544,602.7898],[-117.8949,55.5464,511.3177],[-117.9222,55.5566,433.1287],[-117.9343,55.557,425.0565],[-117.9551,55.5498,540.0466],[-117.9623,55.5499,543.198],[-117.9727,55.5541,525.9521],[-117.9762,55.5584,515.0052],[-117.9732,55.5666,428.2365],[-117.9787,55.5726,446.8154],[-117.9907,55.5758,457.6099],[-118.025,55.5662,562.722],[-118.0409,55.5667,520.9327],[-118.0485,55.5694,448.632],[-118.0575,55.5689,431.6671],[-118.0644,55.5663,438.6783],[-118.0669,55.5642,438.3912],[-118.0663,55.5582,437.1199],[-118.0645,55.5554,423.5],[-118.0662,55.5491,457.2821],[-118.079,55.5402,535.8105],[-118.0841,55.5393,541.4709],[-118.0982,55.5384,569.2745],[-118.126,55.5415,519.9102],[-118.1463,55.5382,576.7034],[-118.1623,55.5381,608.2053],[-118.1987,55.5435,441.2206],[-118.1973,55.5407,448.3793],[-118.2011,55.5412,439.2367],[-118.2007,55.537,514.2386],[-118.191,55.5303,484.3976],[-118.1847,55.5291,470.6951],[-118.1475,55.5063,451.8701],[-118.1404,55.4974,463.8803],[-118.1428,55.4906,469.6227],[-118.1516,55.4804,463.2624],[-118.1749,55.4735,442.3669],[-118.1686,55.4653,443.653],[-118.17,55.4525,543.572],[-118.1737,55.4475,582.248],[-118.1861,55.4455,549.3773],[-118.2116,55.4513,521.2738],[-118.2229,55.4511,455.302],[-118.2248,55.4484,447.1879],[-118.2219,55.4451,468.6372],[-118.2073,55.4427,455.3647],[-118.2001,55.4388,456.5294],[-118.1967,55.4337,493.9902],[-118.198,55.4291,504.9866],[-118.2047,55.4234,583.9276],[-118.2223,55.417,500.0143],[-118.2276,55.4122,477.3334],[-118.2297,55.3899,460.9934],[-118.2281,55.3823,457.4267],[-118.2202,55.3744,462.8978],[-118.2208,55.3617,458.6455],[-118.2235,55.3554,489.8385],[-118.2337,55.3489,487.4693],[-118.2425,55.3475,499.3167],[-118.2658,55.3398,475.0757],[-118.2781,55.3329,466.4066],[-118.284,55.327,461.0018],[-118.2951,55.3035,465.6989],[-118.296,55.2941,463.04],[-118.2896,55.2762,509.3913],[-118.2803,55.2613,491.0798],[-118.2824,55.251,475.1911],[-118.2978,55.2427,473.5042],[-118.2971,55.2409,506.5186],[-118.2926,55.239,493.7074],[-118.2856,55.2397,475.3266],[-118.2699,55.2477,473.1487],[-118.2599,55.2477,475.2172],[-118.255,55.2448,472.2455],[-118.2545,55.2384,477.5363],[-118.2609,55.2318,478.1772],[-118.2757,55.2243,478.2301],[-118.2806,55.2195,471.8745],[-118.282,55.2138,477.2468],[-118.2745,55.2062,479.252],[-118.2788,55.1968,491.5181],[-118.272,55.1951,486.8236],[-118.2599,55.1983,475.4622],[-118.2435,55.1981,483.3319],[-118.2237,55.1904,478.9195],[-118.2207,55.1865,479.4044],[-118.2212,55.1791,484.5233],[-118.2374,55.1641,514.3121],[-118.2512,55.1565,512.9584],[-118.2642,55.1433,503.5706],[-118.2782,55.1365,497.582],[-118.2972,55.1356,495.1432],[-118.3078,55.1324,493.3979],[-118.3081,55.1293,537.6102],[-118.3283,55.1335,594.9173],[-118.3323,55.1407,504.8852],[-118.3369,55.1427,504.1752],[-118.3542,55.1415,511.8015],[-118.3585,55.1389,493.9716],[-118.3633,55.1277,515.4308],[-118.3723,55.1218,534.1512],[-118.38,55.12,493.9436],[-118.3856,55.1125,545.561],[-118.3955,55.1096,563.8032],[-118.4018,55.1103,559.0038],[-118.4058,55.1143,525.7864],[-118.4134,55.118,511.0278],[-118.4316,55.1145,575.5034],[-118.4417,55.1142,583.4192],[-118.4501,55.1172,496.7525],[-118.4553,55.1094,513.6039],[-118.4706,55.104,500.4459],[-118.4729,55.0977,534.2485],[-118.4854,55.0883,575.0842],[-118.5262,55.0874,510.41],[-118.545,55.0744,521.8389],[-118.5534,55.0708,540.7003],[-118.5882,55.0726,510.8731],[-118.5977,55.0693,550.4288],[-118.6028,55.0702,545.6874],[-118.608,55.0742,512.3809],[-118.6151,55.0747,508.6506],[-118.6205,55.0726,511.7231],[-118.6246,55.0675,564.8169],[-118.6321,55.0643,568.2125],[-118.6446,55.0627,514.6146],[-118.6545,55.0584,577.8],[-118.6654,55.0572,576.6497],[-118.7025,55.0607,620.0934],[-118.7202,55.0707,537.7317],[-118.7325,55.0713,564.6136],[-118.7403,55.0768,548.9766],[-118.7641,55.0778,529.9379],[-118.7777,55.0728,592.4822],[-118.7953,55.0726,525.124],[-118.8181,55.0626,585.1381],[-118.8441,55.0568,672.0662],[-118.8683,55.0581,632.6321],[-118.9029,55.05,663.7224],[-118.9096,55.0509,651.1475],[-118.9155,55.0557,571.172],[-118.923,55.0566,616.0031],[-118.9261,55.0613,587.2385],[-118.9256,55.0667,535.8662],[-118.936,55.0702,545.3254],[-118.9403,55.0754,538.9653],[-118.9486,55.0763,545.1024],[-118.9686,55.0754,592.5764],[-118.9845,55.0708,601.4714],[-118.9937,55.0702,590.9517],[-119.0,55.0665,569.2253],[-119.0043,55.0593,670.0341],[-119.0372,55.0521,542.5992],[-119.0519,55.0434,687.2378],[-119.058,55.0418,696.8503],[-119.0751,55.0414,651.2311],[-119.0841,55.0391,687.3331],[-119.0979,55.04,666.3097],[-119.1138,55.0448,636.3085],[-119.1707,55.0499,692.8375],[-119.1858,55.0497,691.5664],[-119.2074,55.0432,615.3206],[-119.2252,55.0314,637.3195],[-119.2296,55.0304,693.5114],[-119.2434,55.0315,644.0278],[-119.2651,55.0385,694.7736],[-119.2861,55.0391,694.8697],[-119.3113,55.0282,584.7509],[-119.3195,55.0165,614.3754],[-119.329,55.0118,646.425],[-119.3641,55.0052,653.616],[-119.3813,54.9991,667.8014],[-119.3885,54.999,670.6212],[-119.4028,55.004,669.5658],[-119.4201,55.0061,683.8004],[-119.4308,55.0064,690.3406],[-119.451,55.0014,681.2927],[-119.4688,54.9932,618.0004],[-119.4728,54.9874,607.9284],[-119.4704,54.9837,683.2925],[-119.4595,54.9762,607.5089],[-119.4577,54.9729,603.0718],[-119.4588,54.9697,669.132],[-119.4656,54.9687,701.8213],[-119.4842,54.9745,677.2218],[-119.4933,54.9743,704.2351],[-119.5402,54.9545,738.6413],[-119.552,54.9551,737.7349],[-119.5643,54.9609,721.7007],[-119.5765,54.9616,741.9772],[-119.5861,54.9603,739.2126],[-119.5988,54.956,738.861],[-119.6144,54.9386,757.7534],[-119.9999,54.9378,929.6058],[-120.0001,53.9374,1842.9728],[-119.9924,53.9382,1853.7773],[-119.9678,53.9468,1842.7412],[-119.9304,53.9464,2286.3975],[-119.9192,53.9433,2225.6052],[-119.9045,53.9293,2047.1991],[-119.8711,53.9233,2093.5547],[-119.865,53.9196,1921.6553],[-119.8664,53.9162,1862.9303],[-119.8641,53.9104,1930.1515],[-119.8582,53.9083,2215.6919],[-119.8458,53.9089,2029.6025],[-119.8217,53.8996,1961.2384],[-119.8134,53.8947,1905.2339],[-119.7915,53.8955,2015.0435],[-119.7762,53.8941,1889.2341],[-119.7268,53.9248,1689.6411],[-119.7043,53.9251,1909.7903],[-119.6781,53.9297,2269.6682],[-119.6629,53.9458,1779.5172],[-119.6458,53.9538,1978.1115],[-119.6324,53.9758,1908.3021],[-119.6223,53.9846,1868.321],[-119.5602,54.0182,1908.891],[-119.5559,54.0197,1859.0183],[-119.5317,54.0139,1640.5764],[-119.5235,54.0161,1641.8],[-119.5131,54.0221,1727.5835],[-119.4841,54.0249,1887.4021],[-119.4834,53.9505,2135.8171],[-119.485,53.8465,2028.4778],[-119.137,53.8445,1126.9608]]]]}}