{"type":"Feature","properties":{"GID_3":"CAN.11.20.28_1","GID_0":"CAN","country":"Canada","GID_1":"CAN.11_1","province":"Québec","NL_NAME_1":"NA","GID_2":"CAN.11.20_1","county":"Communauté-Urbaine-de-Montréal","NL_NAME_2":"NA","city":"Westmount","VARNAME_3":"NA","NL_NAME_3":"NA","TYPE_3":"Ville","ENGTYPE_3":"Ville","CC_3":"NA","HASC_3":"NA","name":"Westmount.city"},
"geometry":{"type": "MultiPolygon","coordinates": [[[[-73.6072,45.4943,150.7483],[-73.6112,45.4918,190.3897],[-73.6144,45.493,174.9666],[-73.6156,45.4919,172.4874],[-73.6182,45.489,143.2674],[-73.6152,45.4867,134.2502],[-73.6171,45.4846,126.2655],[-73.6124,45.4827,106.2581],[-73.6141,45.4805,106.4197],[-73.6002,45.4749,43.6996],[-73.5971,45.4739,42.9256],[-73.5807,45.4856,34.4068],[-73.5822,45.4883,49.9438],[-73.5965,45.4917,117.0273],[-73.6025,45.4954,156.4722],[-73.6067,45.4954,150.7483],[-73.6072,45.4943,150.7483]]]]}}