{"type":"Feature","properties":{"GID_3":"CAN.2.2.49_1","GID_0":"CAN","country":"Canada","GID_1":"CAN.2_1","province":"BritishColumbia","NL_NAME_1":"NA","GID_2":"CAN.2.2_1","county":"Bulkley-Nechako","NL_NAME_2":"NA","city":"WilliamsPrairieMeadow1A","VARNAME_3":"NA","NL_NAME_3":"NA","TYPE_3":"RéserveIndienne","ENGTYPE_3":"IndianReserve","CC_3":"NA","HASC_3":"NA","name":"Williams_Prairie_Meadow1_A.city"},
"geometry":{"type": "MultiPolygon","coordinates": [[[[-124.193,54.4753,781.1214],[-124.2018,54.4751,772.579],[-124.2018,54.4677,789.539],[-124.1891,54.4676,774.6227],[-124.1891,54.4753,786.684],[-124.193,54.4753,781.1214]]]]}}