{"type":"Feature","properties":{"GID_3":"CAN.3.9.6_1","GID_0":"CAN","country":"Canada","GID_1":"CAN.3_1","province":"Manitoba","NL_NAME_1":"NA","GID_2":"CAN.3.9_1","county":"DivisionNo.18","NL_NAME_2":"NA","city":"DivisionNo.18,Unorganized,We","VARNAME_3":"NA","NL_NAME_3":"NA","TYPE_3":"NonOrganisé","ENGTYPE_3":"Unorganized","CC_3":"NA","HASC_3":"NA","name":"Division_No.18,Unorganized,We.city"},
"geometry":{"type": "MultiPolygon","coordinates": [[[[-97.9883,50.3216,249.9491],[-97.9655,50.3364,250.74],[-97.9481,50.3513,248.1835],[-97.9459,50.3592,248.177],[-97.9514,50.3709,247.6566],[-97.9505,50.389,247.3722],[-97.9614,50.4068,247.8413],[-97.9599,50.4199,246.0],[-97.9634,50.4299,248.6237],[-97.9951,50.4669,247.862],[-98.0,50.4694,247.7672],[-98.0094,50.4599,246.0],[-98.0181,50.4642,246.0],[-98.0295,50.4778,246.0],[-98.0506,50.4921,246.0],[-98.0609,50.504,246.0],[-98.0686,50.5192,246.0],[-98.0771,50.5244,246.0],[-98.083,50.5259,246.0],[-98.0919,50.5244,247.892],[-98.1044,50.5179,246.0],[-98.1115,50.5167,246.0],[-98.1228,50.5179,246.0],[-98.1302,50.5212,246.0],[-98.1384,50.5444,246.0],[-98.1358,50.5557,246.0],[-98.1391,50.5893,246.0],[-98.145,50.5975,246.0],[-98.143,50.5987,246.0],[-98.1336,50.5924,246.0],[-98.1304,50.5942,246.0],[-98.1419,50.6058,246.0],[-98.1428,50.609,246.0],[-98.1399,50.6116,246.0],[-98.1414,50.6154,246.0],[-98.1398,50.6164,246.0],[-98.1451,50.617,246.0],[-98.1497,50.6154,246.0],[-98.155,50.6165,246.0],[-98.1606,50.6242,246.0],[-98.1565,50.6248,246.0],[-98.1558,50.6273,246.0],[-98.161,50.6327,246.6341],[-98.1809,50.6326,246.0],[-98.2083,50.6562,246.0],[-98.2139,50.6637,246.0],[-98.2185,50.6667,246.0],[-98.2254,50.6683,246.0],[-98.2305,50.673,246.0],[-98.2438,50.6984,246.0],[-98.2492,50.7034,246.0],[-98.2578,50.7035,246.0],[-98.2628,50.7061,246.0],[-98.2654,50.7035,246.0],[-98.2572,50.6984,246.0],[-98.259,50.696,246.0],[-98.2673,50.6981,246.0],[-98.2755,50.7034,246.0],[-98.2836,50.7189,246.0],[-98.2896,50.7222,246.0],[-98.3027,50.7238,246.0],[-98.3043,50.7252,246.0],[-98.2901,50.7328,246.0],[-98.2921,50.7428,246.0],[-98.3055,50.7425,246.0],[-98.3131,50.7407,246.0],[-98.3144,50.7438,246.0],[-98.3083,50.7478,246.0],[-98.3115,50.7624,246.0],[-98.315,50.7631,246.0],[-98.3192,50.757,246.0],[-98.3327,50.7587,247.4641],[-98.3383,50.7575,247.2254],[-98.3431,50.7525,246.0],[-98.3456,50.743,246.0],[-98.3491,50.743899999999996,246.0],[-98.3524,50.751,246.0],[-98.3465,50.763,246.0],[-98.3494,50.7696,246.0],[-98.3695,50.7897,246.0],[-98.3799,50.7975,246.0],[-98.3893,50.7972,246.0],[-98.3922,50.7994,246.0],[-98.3895,50.8055,246.0],[-98.3921,50.8122,246.0],[-98.3988,50.8175,246.0],[-98.4191,50.8224,246.0],[-98.4259,50.8256,246.0],[-98.4354,50.8345,246.0],[-98.4446,50.8378,246.0],[-98.463,50.8389,246.0],[-98.4747,50.8521,246.0],[-98.4988,50.8675,246.0],[-98.5107,50.8706,246.0],[-98.5266,50.8706,246.0],[-98.5383,50.8681,248.2681],[-98.5494,50.8686,246.0],[-98.5564,50.8701,246.0],[-98.5785,50.8823,246.0],[-98.5858,50.88,246.0],[-98.5927,50.8801,246.0],[-98.5994,50.8766,246.0],[-98.6024,50.8778,246.0],[-98.6121,50.8882,246.0],[-98.617,50.8846,246.0],[-98.6223,50.8856,246.0],[-98.6254,50.8913,246.0],[-98.625,50.9041,246.0],[-98.6318,50.9163,246.0],[-98.6302,50.9201,246.0],[-98.6236,50.9231,246.0],[-98.6263,50.9338,246.0],[-98.6303,50.9336,257.6898],[-98.6399,50.9135,246.7578],[-98.6337,50.904,246.0],[-98.6362,50.8947,252.2848],[-98.6423,50.8903,252.5909],[-98.6452,50.8806,246.0],[-98.6495,50.8785,246.0],[-98.654,50.8825,246.0],[-98.6603,50.8962,246.0],[-98.6641,50.8975,246.0],[-98.6676,50.8954,248.2215],[-98.6725,50.887,246.0],[-98.677,50.8859,246.0],[-98.6897,50.8887,246.0],[-98.6924,50.8854,246.0],[-98.6917,50.8799,246.0],[-98.7031,50.884,246.0],[-98.7152,50.8783,246.0],[-98.7212,50.8791,246.0],[-98.7238,50.8834,246.0],[-98.7188,50.8905,246.0],[-98.72,50.8919,246.0],[-98.731,50.8912,246.0],[-98.7496,50.8957,246.0],[-98.7558,50.9027,246.0],[-98.7656,50.9026,246.0],[-98.771,50.9059,246.0],[-98.782,50.922,246.0],[-98.7829,50.9259,246.0],[-98.7733,50.9419,246.0],[-98.7695,50.9428,246.0],[-98.7643,50.9338,253.8952],[-98.7603,50.9365,248.8533],[-98.7621,50.9414,246.0],[-98.7543,50.9474,246.0],[-98.7555,50.9518,246.0],[-98.7605,50.957,246.0],[-98.7616,50.9625,246.4172],[-98.7671,50.9613,246.0],[-98.7723,50.9703,246.5338],[-98.7754,50.9716,246.0],[-98.7792,50.9705,246.8762],[-98.7837,50.9645,246.0],[-98.783,50.962,246.0],[-98.7748,50.961,246.0],[-98.7714,50.9571,246.0],[-98.7732,50.9524,246.0],[-98.7828,50.9509,248.5197],[-98.7929,50.9589,247.1029],[-98.8007,50.9724,246.0],[-98.8012,50.9766,246.0],[-98.7962,50.9811,246.0],[-98.7883,50.9827,247.6109],[-98.7805,50.9792,254.8541],[-98.7749,50.9801,251.0428],[-98.7645,50.984,247.166],[-98.7627,50.9862,251.1587],[-98.765,50.9905,246.0],[-98.7833,51.0019,246.0],[-98.7892,51.0036,246.0],[-98.7936,51.0085,246.0],[-98.7965,51.0183,246.0],[-98.8015,51.0193,246.0],[-98.8082,51.0155,246.0],[-98.8122,51.0231,246.0],[-98.809,51.0248,246.0],[-98.8015,51.0243,246.0],[-98.7923,51.032,246.0],[-98.7852,51.0332,246.0],[-98.7826,51.0363,246.0],[-98.7852,51.0408,246.0],[-98.7644,51.0508,252.4538],[-98.7561,51.0508,256.3532],[-98.7524,51.0487,260.5158],[-98.7466,51.0335,257.1299],[-98.744,51.0313,258.3174],[-98.737799999999993,51.0314,258.6227],[-98.7332,51.0334,249.8982],[-98.7219,51.0334,248.4224],[-98.717,51.0368,248.4057],[-98.7198,51.0425,247.8143],[-98.7292,51.0506,247.5],[-98.7511,51.0546,255.3775],[-98.7652,51.0628,246.0],[-98.7763,51.0644,246.0],[-98.787,51.0632,246.0],[-98.7893,51.0695,246.0],[-98.7882,51.0722,246.0],[-98.7771,51.0736,247.0684],[-98.7717,51.0783,254.7498],[-98.7615,51.0782,249.0795],[-98.7484,51.0855,257.7864],[-98.7444,51.0825,257.1768],[-98.7415,51.0828,258.0831],[-98.74,51.0857,258.7068],[-98.742,51.0917,250.7329],[-98.7454,51.0931,246.0],[-98.7539,51.0897,246.0],[-98.759,51.09,246.0],[-98.7647,51.0958,246.0],[-98.7659,51.0998,246.5336],[-98.7623,51.1044,246.0],[-98.7542,51.1097,246.0],[-98.7548,51.1134,246.0],[-98.7645,51.1195,257.4287],[-98.7639,51.1216,249.7995],[-98.7734,51.1212,246.0],[-98.788,51.1047,252.248],[-98.7987,51.0951,256.603],[-98.7941,51.0918,256.6937],[-98.7929,51.0872,254.4017],[-98.7996,51.0763,246.0],[-98.8064,51.0721,246.0],[-98.8314,51.0632,246.0],[-98.8402,51.0557,246.0],[-98.8503,51.0515,246.0],[-98.8616,51.0508,254.7078],[-98.8645,51.0486,258.4349],[-98.8582,51.0391,256.3761],[-98.8583,51.0285,255.6524],[-98.8621,51.0129,252.9048],[-98.8565,51.0064,259.2153],[-98.8429,51.012,256.6626],[-98.8391,51.0109,248.9203],[-98.8388,51.0081,252.5598],[-98.8447,51.0046,258.2689],[-98.8458,51.0001,247.7221],[-98.8349,50.9925,246.0],[-98.8326,50.9885,246.0],[-98.8346,50.9869,246.0],[-98.8328,50.9753,246.9421],[-98.8388,50.9712,246.9042],[-98.8326,50.963,246.0],[-98.8378,50.9591,246.0],[-98.838,50.9537,246.0],[-98.843,50.9533,246.0],[-98.8494,50.956,247.9782],[-98.853,50.9547,247.9397],[-98.8509,50.9549,246.0],[-98.8477,50.952,246.0],[-98.8476,50.9476,246.0],[-98.8614,50.9479,246.9793],[-98.8686,50.9454,248.4136],[-98.8791,50.9357,247.6771],[-98.871,50.9194,258.3091],[-98.8749,50.9125,259.8857],[-98.8702,50.8973,254.6987],[-98.8779,50.8814,256.9105],[-98.8764,50.8747,253.0555],[-98.8686,50.8655,252.3723],[-98.8589,50.8629,249.8765],[-98.8491,50.8554,252.191],[-98.8425,50.8486,251.759],[-98.8335,50.833,251.4326],[-98.831,50.8353,249.0646],[-98.8356,50.8459,248.3898],[-98.8322,50.8494,248.4739],[-98.8289,50.8494,248.4701],[-98.8187,50.8323,261.111],[-98.8183,50.8231,256.3118],[-98.8049,50.8129,257.152],[-98.7745,50.7783,257.7],[-98.7667,50.7723,250.0108],[-98.7556,50.7694,252.2613],[-98.7507,50.7659,251.9044],[-98.749,50.7548,252.3856],[-98.7409,50.7465,251.3715],[-98.7326,50.7338,250.1715],[-98.726,50.7103,251.4632],[-98.7025,50.6735,259.2708],[-98.6972,50.6681,252.9064],[-98.6769,50.6566,250.5997],[-98.6485,50.6117,248.3457],[-98.6489,50.6046,247.7681],[-98.6544,50.5942,251.6956],[-98.6546,50.5855,251.0768],[-98.6514,50.5733,250.5445],[-98.6462,50.5696,251.3474],[-98.6276,50.5636,246.0],[-98.6211,50.5591,246.0],[-98.6158,50.551,247.1038],[-98.6136,50.5394,246.0],[-98.6171,50.535,246.0],[-98.6227,50.5386,247.9014],[-98.6269,50.5452,247.8521],[-98.6295,50.5461,247.7415],[-98.6319,50.5423,247.7588],[-98.6278,50.5217,247.7051],[-98.6243,50.5185,247.5409],[-98.6204,50.5203,247.6887],[-98.6218,50.5277,247.8183],[-98.6179,50.5321,246.0],[-98.6137,50.5314,246.0],[-98.612799999999993,50.5253,247.4019],[-98.6065,50.5169,247.2811],[-98.606,50.5059,247.049],[-98.6129,50.498,247.4129],[-98.6109,50.4949,247.2897],[-98.6037,50.4952,247.421],[-98.5993,50.4928,247.5417],[-98.5934,50.475,247.9137],[-98.5879,50.471,247.9803],[-98.5753,50.4661,248.1458],[-98.572,50.4567,248.0625],[-98.547,50.4251,248.3283],[-98.5341,50.3984,255.7388],[-98.5338,50.3908,249.639],[-98.5378,50.3789,248.1673],[-98.5438,50.3726,246.0],[-98.5518,50.3692,246.0],[-98.5794,50.3645,247.5502],[-98.5938,50.3569,247.8075],[-98.6003,50.3474,248.5835],[-98.6121,50.3088,247.8243],[-98.613,50.2979,248.3412],[-98.6081,50.2781,248.2527],[-98.5999,50.2585,248.1891],[-98.599,50.2481,248.1173],[-98.5845,50.2422,248.0999],[-98.5256,50.203,247.9664],[-98.515,50.1977,247.7942],[-98.4992,50.1931,248.0526],[-98.4696,50.1878,248.0413],[-98.4545,50.1818,248.0302],[-98.428,50.1797,247.9538],[-98.357,50.1786,247.5876],[-98.3187,50.1833,247.729],[-98.2588,50.1962,246.9954],[-98.2001,50.2124,247.9623],[-98.1259,50.2404,247.7032],[-98.1235,50.2371,247.6737],[-98.1325,50.2349,247.5709],[-98.1343,50.2325,247.5326],[-98.1288,50.231,247.5531],[-98.1272,50.2274,247.5457],[-98.1218,50.2325,247.8097],[-98.1226,50.2342,247.7711],[-98.1199,50.2373,247.7403],[-98.1225,50.2403,247.7032],[-98.1148,50.2476,246.0],[-98.1122,50.2468,247.6128],[-98.0908,50.2673,246.0],[-98.0812,50.2871,246.0],[-98.0755,50.2909,246.0],[-98.0642,50.292,248.0449],[-98.03,50.3,247.9067],[-98.0073,50.3102,246.5746],[-97.9883,50.3216,249.9491]],
[[-98.7667,51.0909,246.0],[-98.7742,51.0928,246.0],[-98.7787,51.0993,246.0],[-98.7776,51.1033,246.0],[-98.7753,51.1037,246.0],[-98.7629,51.0892,246.0],[-98.7648,51.0888,246.0],[-98.7667,51.0909,246.0]],
[[-98.7887,51.0485,246.0],[-98.8036,51.0493,246.0],[-98.8054,51.0521,246.0],[-98.7973,51.0565,246.0],[-98.7936,51.0554,246.0],[-98.7916,51.0508,246.0],[-98.7858,51.0489,246.0],[-98.7838,51.0459,246.0],[-98.7887,51.0485,246.0]],
[[-98.8053,50.9523,246.0],[-98.8094,50.9575,246.0],[-98.8072,50.9621,246.0],[-98.7916,50.9526,246.0],[-98.7848,50.9437,246.0],[-98.7959,50.9384,246.0],[-98.7983,50.9407,246.0],[-98.7999,50.9494,246.0],[-98.8053,50.9523,246.0]]],
[[[-98.4492,51.5761,243.0],[-98.4802,51.6265,243.0],[-98.537,51.7104,243.0],[-98.5633,51.6964,246.6082],[-98.5654,51.6926,247.4743],[-98.564,51.6849,247.8425],[-98.5677,51.6776,248.5559],[-98.5677,51.6679,243.0],[-98.5717,51.6613,243.0],[-98.5779,51.6591,243.0],[-98.5881,51.6648,247.3212],[-98.5918,51.6696,247.9622],[-98.5938,51.6663,252.0551],[-98.5843,51.6439,243.0],[-98.5806,51.6418,243.0],[-98.5702,51.6424,243.0],[-98.5677,51.639,243.0],[-98.5729,51.6365,243.0],[-98.5863,51.6385,248.0015],[-98.5874,51.636,250.4179],[-98.5822,51.6288,243.0],[-98.5893,51.6283,247.2071],[-98.5839,51.6225,243.0],[-98.587,51.6213,243.0],[-98.5911,51.6236,243.0],[-98.5935,51.6226,243.0],[-98.5869,51.6149,243.0],[-98.5932,51.6008,243.0],[-98.6029,51.5969,243.0],[-98.6187,51.6056,251.2799],[-98.6254,51.6136,247.0256],[-98.6165,51.618899999999996,243.5],[-98.6174,51.6196,243.5],[-98.6263,51.6141,245.3391],[-98.6335,51.6214,248.0375],[-98.64,51.6249,244.0],[-98.6416,51.6411,244.7563],[-98.6478,51.6532,244.0],[-98.6551,51.6609,244.0],[-98.6573,51.6661,244.0],[-98.6536,51.6712,244.0],[-98.6598,51.6787,244.0],[-98.6622,51.6875,244.0],[-98.6698,51.6882,244.0],[-98.6717,51.6901,244.0],[-98.6835,51.6904,244.0],[-98.689,51.6884,244.0],[-98.697,51.6742,244.9103],[-98.6888,51.6654,244.0],[-98.6842,51.664,244.0],[-98.6816,51.6568,244.0],[-98.6778,51.6552,244.0],[-98.6689,51.6555,245.4741],[-98.6622,51.6483,244.0],[-98.644,51.6395,245.3853],[-98.6425,51.6243,244.0],[-98.6409,51.6225,248.2903],[-98.6325,51.6181,246.2137],[-98.6201,51.6054,247.7432],[-98.6052,51.596,243.0],[-98.6011,51.5852,243.0],[-98.5918,51.581,243.0],[-98.5901,51.5779,243.0],[-98.5856,51.576,243.0],[-98.5823,51.5705,243.0],[-98.5845,51.5661,243.0],[-98.5885,51.5665,243.0],[-98.6001,51.5794,243.0],[-98.6125,51.5829,250.10059999999999],[-98.6163,51.5824,250.10059999999999],[-98.6067,51.5536,245.6234],[-98.6002,51.5479,243.0],[-98.5995,51.5355,245.3237],[-98.5817,51.5223,254.9094],[-98.5801,51.5158,249.993],[-98.5764,51.5112,251.9151],[-98.5703,51.5104,254.1752],[-98.5606,51.5155,243.3726],[-98.554,51.5156,244.2753],[-98.5515,51.5177,252.2604],[-98.5564,51.524,243.0],[-98.5554,51.5281,243.0],[-98.5504,51.5296,243.0],[-98.5455,51.5277,243.0],[-98.538,51.4999,253.9318],[-98.5209,51.4775,246.3495],[-98.5135,51.4734,246.9191],[-98.5058,51.473,244.5125],[-98.5018,51.475,244.7369],[-98.5018,51.4778,243.1845],[-98.5061,51.4826,243.0],[-98.5034,51.4861,243.0],[-98.5041,51.4981,243.0],[-98.5078,51.5027,243.0],[-98.4997,51.5144,243.0],[-98.4948,51.5152,243.171],[-98.4919,51.5196,243.1802],[-98.4845,51.5199,246.0241],[-98.4807,51.5231,245.7486],[-98.4808,51.5298,243.0],[-98.465,51.5557,243.0],[-98.453,51.5639,243.0],[-98.4492,51.5761,243.0]],
[[-98.5424,51.5963,243.0],[-98.5474,51.6017,243.4977],[-98.5473,51.609,243.1104],[-98.5447,51.6095,243.7752],[-98.5425,51.6125,243.0],[-98.5355,51.6136,243.4561],[-98.5304,51.6109,243.3762],[-98.5314,51.6102,244.0512],[-98.53,51.6061,245.1844],[-98.5321,51.6049,243.5281],[-98.5289,51.6048,243.0],[-98.5307,51.6021,243.5676],[-98.5271,51.6009,243.0],[-98.5286,51.5996,243.2664],[-98.5246,51.5979,243.9642],[-98.5236,51.6006,243.0],[-98.5213,51.6002,243.0],[-98.5168,51.5926,243.0],[-98.5249,51.5918,243.2318],[-98.5251,51.5892,243.0],[-98.5296,51.5849,243.4808],[-98.5288,51.5772,243.3689],[-98.5379,51.5822,243.867],[-98.5364,51.583,243.867],[-98.5383,51.5919,243.0],[-98.5424,51.5963,243.0]],
[[-98.5638,51.5747,243.5088],[-98.5628,51.5778,243.2712],[-98.5593,51.5808,243.0],[-98.5543,51.5761,243.2341],[-98.5556,51.5656,243.0],[-98.5541,51.5573,243.1573],[-98.5616,51.5578,243.0],[-98.559,51.5615,243.464],[-98.564,51.5687,243.2554],[-98.5638,51.5747,243.5088]]]]}}