{"type":"Feature","properties":{"GID_3":"CAN.11.90.7_1","GID_0":"CAN","country":"Canada","GID_1":"CAN.11_1","province":"Québec","NL_NAME_1":"NA","GID_2":"CAN.11.90_1","county":"Robert-Cliche","NL_NAME_2":"NA","city":"Saint-Odilon-de-Cranbourne","VARNAME_3":"NA","NL_NAME_3":"NA","TYPE_3":"MunicipalitéDeParoisse","ENGTYPE_3":"ParishMunicipality","CC_3":"NA","HASC_3":"NA","name":"Saint-Odilon-de-Cranbourne.city"},
"geometry":{"type": "MultiPolygon","coordinates": [[[[-70.6888,46.4071,418.4913],[-70.7745,46.352,325.7881],[-70.7614,46.3506,326.4569],[-70.6652,46.2784,393.3734],[-70.5575,46.3498,398.8846],[-70.6233,46.3932,314.1324],[-70.6217,46.3941,314.5958],[-70.6632,46.4238,422.1443],[-70.6888,46.4071,418.4913]]]]}}