{"type":"Feature","properties":{"GID_3":"CAN.1.2.7_1","GID_0":"CAN","country":"Canada","GID_1":"CAN.1_1","province":"Alberta","NL_NAME_1":"NA","GID_2":"CAN.1.2_1","county":"DivisionNo.11","NL_NAME_2":"NA","city":"Breton","VARNAME_3":"NA","NL_NAME_3":"NA","TYPE_3":"Village","ENGTYPE_3":"Village","CC_3":"NA","HASC_3":"NA","name":"Breton.city"},
"geometry":{"type": "MultiPolygon","coordinates": [[[[-114.4649,53.1122,852.9925],[-114.465,53.1195,861.8256],[-114.4815,53.1196,853.6279],[-114.4803,53.117,846.1516],[-114.4836,53.117,848.13],[-114.4833,53.1124,836.5034],[-114.4779,53.1124,842.106],[-114.4772,53.1096,836.7561],[-114.484,53.1092,838.8207],[-114.482,53.1074,828.2947],[-114.4772,53.1075,835.0273],[-114.4772,53.105,833.4762],[-114.4649,53.105,849.925],[-114.4649,53.1122,852.9925]]]]}}