{"type": "Feature","bbox": [-126.20225989491627,70.909552313275327,-115.126271125385,74.669684149212827],"geometry": {"type": "Polygon","coordinates": [[[-115.126271125385,73.457342840619134,0.0],[-115.126271125385,73.6264102234316,0.0],[-118.027150031635,74.526800848431634,0.0],[-119.5477799144475,74.3491885437441,0.0],[-121.47154700429127,74.669684149212827,0.0],[-124.97307288319753,74.5410830749941,0.0],[-124.89232337147871,74.0845401062441,0.0],[-124.4728897777288,73.6835391296816,0.0],[-125.14458167225997,73.054693914837856,0.0],[-125.82909094960378,72.324042059369077,0.0],[-126.20225989491627,71.925604559369077,0.0],[-125.89775550038503,71.7033145203066,0.0],[-124.4689835277288,71.5974795593691,0.0],[-123.93986975819753,71.4387271179628,0.0],[-123.30485999257249,70.909552313275327,0.0],[-122.45818030507247,70.909552313275327,0.0],[-121.87608801991625,71.1741397156191,0.0],[-120.76482093007246,71.227057196087856,0.0],[-120.01372229725997,71.739813543744077,0.0],[-119.39915930897871,72.154303289837827,0.0],[-118.78459632069753,72.5116030945253,0.0],[-117.6269425121038,72.936102606244077,0.0],[-116.85197913319755,73.079535223431577,0.0],[-115.126271125385,73.457342840619134,0.0]]]}
,"properties": {"featurecla": "Island","name": "BANKS ISLAND","namealt": null,"region": "North America","subregion": "Arctic Archipelago","min_label": 5.3,"max_label": 9.0,"scalerank": 4,"area_km2": 87534.37,"hist_schema_id": "Elevation0-9000","hist_area_km2": {"0": 19962.06,"25": 3925.55,"50": 4352.91,"75": 7029.46,"100": 9941.24,"125": 9693.58,"150": 7111.75,"175": 4857.45,"200": 3973.75,"225": 3789.31,"250": 3467.22,"275": 2845.47,"300": 1950.08,"325": 1534.41,"350": 1231.0,"375": 801.29,"400": 389.85,"425": 208.89,"450": 108.26,"475": 76.29,"500": 71.99,"525": 62.61,"550": 46.95,"575": 38.88,"600": 30.22,"625": 26.71,"650": 5.41,"675": 1.45}}}