{"type": "Feature","bbox": [-80.857594367572489,72.762030340619049,-76.117543098041239,73.721625067181549],"geometry": {"type": "Polygon","coordinates": [[[-76.117543098041239,72.942877508587827,34.3469],[-76.31407630116621,73.063666082806634,0.0],[-76.691944953509989,73.262518621869049,17.4714],[-77.148365851947489,73.478827215619049,111.8701],[-77.96507727772871,73.6298892273378,5.5525],[-78.577259894916239,73.6577822937441,29.1746],[-79.766590949603739,73.685858465619049,0.0],[-80.806019660541267,73.721625067181549,0.0],[-80.857594367572489,73.352972723431577,0.0],[-80.111622687884989,73.158514715619077,1.9295],[-80.07164466054121,72.933966375775384,0.0],[-79.621388312885017,72.762030340619049,0.0],[-79.044606086322517,72.772650457806577,3.3646],[-78.483693000384989,72.8626162781191,0.0],[-77.58208167225996,72.887152410931549,0.0],[-76.626332160541239,72.8202578796816,0.0],[-76.117543098041239,72.942877508587827,34.3469]]]}
,"properties": {"featurecla": "Island","name": "Bylot Island","namealt": null,"region": "North America","subregion": "Arctic Archipelago","min_label": 6.7,"max_label": 12.0,"scalerank": 7,"area_km2": 10913.822,"hist_schema_id": "Elevation0-9000","hist_area_km2": {"0": 504.735,"25": 253.142,"50": 214.046,"75": 235.106,"100": 278.964,"125": 270.937,"150": 276.395,"175": 247.703,"200": 229.935,"225": 206.541,"250": 204.303,"275": 202.847,"300": 203.398,"325": 203.287,"350": 201.668,"375": 206.6,"400": 201.847,"425": 208.739,"450": 205.79,"475": 199.354,"500": 190.234,"525": 190.826,"550": 187.017,"575": 186.515,"600": 184.378,"625": 183.969,"650": 187.032,"675": 184.055,"700": 178.669,"725": 178.987,"750": 174.932,"775": 176.473,"800": 173.744,"825": 176.053,"850": 181.635,"875": 184.315,"900": 179.345,"925": 174.013,"950": 173.73,"975": 171.386,"1000": 169.691,"1025": 167.544,"1050": 160.078,"1075": 161.862,"1100": 154.477,"1125": 147.441,"1150": 144.833,"1175": 137.982,"1200": 134.438,"1225": 129.255,"1250": 122.905,"1275": 113.833,"1300": 106.823,"1325": 98.493,"1350": 89.248,"1375": 81.973,"1400": 73.19,"1425": 63.985,"1450": 56.181,"1475": 49.363,"1500": 42.527,"1525": 34.057,"1550": 27.76,"1575": 22.08,"1600": 17.499,"1625": 12.76,"1650": 8.469,"1675": 4.939,"1700": 3.123,"1725": 1.921,"1750": 1.044,"1775": 0.596,"1800": 0.294,"1825": 0.166,"1850": 0.172,"1875": 0.11}}}