{"type": "Feature","bbox": [-78.19005286366621,64.2449404968691,-75.333668586322517,65.470282293744077],"geometry": {"type": "Polygon","coordinates": [[[-76.586109992572517,64.312262274212856,12.0567],[-76.092579719135017,64.371466375775356,0.0],[-75.742604133197517,64.454291082806549,0.0],[-75.40923010975996,64.5230166687441,22.0905],[-75.333668586322517,64.725531317181549,26.0],[-75.46739661366621,65.083990789837884,18.805],[-75.806080695697489,65.226874090619049,7.9171],[-76.23473059804121,65.311529852337856,0.0],[-76.848561164447517,65.427923895306577,2.2231],[-77.382984992572489,65.470282293744077,0.0],[-77.507557746478767,65.337164617962856,1.4398],[-77.816944953510045,65.092657782025356,0.0],[-78.1450089183538,64.9463565124941,3.8975],[-78.19005286366621,64.6720645203066,0.0],[-77.89555823475996,64.409857489056549,2.7656],[-77.584095832416239,64.3695742859316,99.3071],[-77.370228644916267,64.282660223431577,0.0],[-76.89867102772871,64.2449404968691,44.8304],[-76.586109992572517,64.312262274212856,12.0567]]]}
,"properties": {"featurecla": "Pen/cape","name": "Foxe Pen.","namealt": null,"region": "North America","subregion": "Arctic Archipelago","min_label": 5.4,"max_label": 10.0,"scalerank": 5,"area_km2": 13189.1,"hist_schema_id": "Elevation0-9000","hist_area_km2": {"0": 1015.78,"25": 1992.01,"50": 2073.01,"75": 1284.77,"100": 966.38,"125": 953.16,"150": 1067.01,"175": 1118.84,"200": 800.99,"225": 749.63,"250": 588.97,"275": 261.1,"300": 156.46,"325": 87.19,"350": 51.18,"375": 19.59,"400": 3.04}}}