{"type": "Feature","bbox": [-69.721730109759989,61.920660711712884,-65.95421301991621,63.761053778119134],"geometry": {"type": "Polygon","coordinates": [[[-66.01219641835371,62.175238348431577,19.9417],[-66.245961066791239,62.391485907025384,0.0],[-66.707753058978767,62.6230532898378,238.4993],[-67.293873664447489,62.901190496869106,100.2093],[-67.7986954417913,63.090033270306606,221.028],[-68.448780891010017,63.392828680462856,100.3069],[-68.958607551166239,63.761053778119134,4.9548],[-69.721730109759989,62.784918524212827,0.0],[-69.313282844134989,62.538885809369106,0.0],[-68.941639777728767,62.380926824994077,14.2789],[-68.614674445697545,62.263556219525327,0.0],[-68.102406379291267,62.221747137494049,14.6381],[-67.674183723041239,62.158758856244106,1.3782],[-67.31902014882246,62.112189032025327,0.0],[-66.662464973041267,61.938788153119049,0.0],[-65.95421301991621,61.920660711712884,177.2897],[-66.01219641835371,62.175238348431577,19.9417]]]}
,"properties": {"featurecla": "Pen/cape","name": "Meta Incognita Pen.","namealt": null,"region": "North America","subregion": "Arctic Archipelago","min_label": 5.4,"max_label": 10.0,"scalerank": 5,"area_km2": 17403.23,"hist_schema_id": "Elevation0-9000","hist_area_km2": {"0": 914.47,"25": 359.19,"50": 361.74,"75": 321.41,"100": 405.18,"125": 432.85,"150": 490.53,"175": 543.47,"200": 537.52,"225": 577.43,"250": 590.37,"275": 561.05,"300": 563.12,"325": 559.31,"350": 554.19,"375": 544.94,"400": 519.56,"425": 513.12,"450": 531.1,"475": 537.53,"500": 561.82,"525": 579.53,"550": 608.03,"575": 663.9,"600": 758.78,"625": 908.46,"650": 927.58,"675": 804.55,"700": 576.22,"725": 345.68,"750": 170.51,"775": 58.72,"800": 16.79,"825": 4.46}}}