{"type":"Feature","properties":{"featurecla":"Island group","name":"QUEEN ELIZABETH ISLANDS","namealt":null,"region":"North America","subregion":"Arctic Archipelago","min_label":3.5,"max_label":7.0,"scalerank":2},
"geometry":{"type": "MultiPolygon","coordinates": [[[[-60.769171747132482,82.4415436950737,0.0],[-60.766193612408131,82.4287711718232,0.0],[-60.761400414323816,82.399739199167414,0.0],[-60.758516260703971,82.3704558960402,0.0],[-60.757553501937139,82.341046658040625,0.0],[-60.758112226528795,82.323979387333509,0.0],[-60.682855474404654,82.335851061815731,0.0],[-60.769171747132482,82.4415436950737,0.0]]],
[[[-61.139503716468724,82.819963407454622,0.0],[-61.11186427704564,82.807024784175042,0.0],[-61.10362588119898,82.8030656378325,0.0],[-61.077675354602036,82.789194792382887,0.0],[-61.066579134140909,82.782574014207739,0.0],[-61.028530838391539,82.759123966420731,0.0],[-61.074818488666295,82.815802313275327,0.0],[-61.139503716468724,82.819963407454622,0.0]]],
[[[-74.13644224750233,83.4343756873867,0.0],[-74.1100149135878,83.430012516898785,0.0],[-74.093976616555381,83.42651682044135,0.0],[-73.9521248099141,83.3928754630191,0.0],[-73.93950678412665,83.389689442137808,0.0],[-73.9113488219163,83.3811478176844,0.0],[-73.900963281743032,83.377479948339783,0.0],[-73.785051911651919,83.334939723542789,0.0],[-73.70133763035625,83.314401441403618,0.0],[-73.694635607352666,83.320085732432631,0.0],[-73.6775190085919,83.33389777596318,0.0],[-73.653601000986839,83.351037177830392,0.0],[-73.628613233156841,83.3665755703799,0.0],[-73.6026627065599,83.380446415829567,0.0],[-73.57586054533482,83.39259031709031,0.0],[-73.548321520450941,83.402955272111342,0.0],[-73.5319227439195,83.408174139920732,0.0],[-73.464342402762753,83.428265592697258,0.0],[-74.13644224750233,83.4343756873867,0.0]]],
[[[-74.804923228411468,78.072213777923466,0.0],[-74.822884375684282,78.073270315998343,0.0],[-74.829784926874183,78.063640607965368,0.0],[-74.804923228411468,78.072213777923466,0.0]]],
[[[-76.361911429230048,77.535310617891753,0.0],[-76.641065052209228,77.493239085210178,0.0],[-76.649384614118219,77.492064619312146,0.0],[-76.678667917245377,77.489180465692527,0.0],[-76.6900911388351,77.4885775627568,0.0],[-76.956018059409246,77.477932217704563,0.0],[-76.974004075818925,77.4775723618734,0.0],[-76.992599473053644,77.477957025816579,0.0],[-77.464781169292849,77.4975004672437,0.0],[-77.613340615251388,77.497197059537655,0.0],[-77.6137173186188,77.495964905768744,0.0],[-77.6165572594993,77.48597446418097,0.0],[-77.645547738015068,77.389572079740617,0.0],[-77.650361452966138,77.374528285640963,0.0],[-77.660726407987454,77.3469892607568,0.0],[-77.672870309247685,77.320187099531779,0.0],[-77.6867411546977,77.294236572934892,0.0],[-77.702279547247315,77.2692488051049,0.0],[-77.7194189491143,77.245330797499832,0.0],[-77.738085966748542,77.222584970700154,0.0],[-77.7406223648066,77.21987688605509,0.0],[-77.7250114412127,77.208690256407408,0.0],[-77.7022656144133,77.190023238773392,0.0],[-77.6807893695414,77.16990854040688,0.0],[-77.660674671175286,77.148432295535315,0.0],[-77.642007653541043,77.1256864687357,0.0],[-77.624868251673945,77.101768461130632,0.0],[-77.60932985912433,77.076780693300634,0.0],[-77.595459013674315,77.05083016670369,0.0],[-77.583315112414084,77.024028005478669,0.0],[-77.572950157392711,76.996488980594563,0.0],[-77.564408532939012,76.9683310183841,0.0],[-77.557726815600233,76.939674695564179,0.0],[-77.5546914085109,76.922724616523908,0.0],[-77.539240155255641,76.825779629544684,0.0],[-77.537482364260825,76.813697735929168,0.0],[-77.534598210640809,76.784414432801725,0.0],[-77.533635451873693,76.755005194802209,0.0],[-77.534598210640809,76.725595956802465,0.0],[-77.537482364260825,76.69631265367542,0.0],[-77.542275562344969,76.667280681019463,0.0],[-77.548957279683748,76.638624358199536,0.0],[-77.557498904137447,76.6104663959893,0.0],[-77.56786385915882,76.582927371105143,0.0],[-77.580007760419164,76.556125209880122,0.0],[-77.593878605869179,76.5301746832834,0.0],[-77.6094169984188,76.505186915453407,0.0],[-77.626556400285779,76.481268907848346,0.0],[-77.645223417920022,76.4585230810485,0.0],[-77.66533811628625,76.437046836176762,0.0],[-77.686814361158042,76.416932137810818,0.0],[-77.698286739112859,76.407205703515331,0.0],[-77.8336789917177,76.296256403384632,0.0],[-77.844952440562281,76.287315820045876,0.0],[-77.868870448167343,76.270176418178721,0.0],[-77.893858215997341,76.254638025629163,0.0],[-77.919808742594284,76.240767180179148,0.0],[-77.937668191798764,76.232441267516549,0.0],[-78.103291157293938,76.159603336201371,0.0],[-78.1122338693146,76.155785347603569,0.0],[-78.139772894198586,76.1454203925822,0.0],[-78.1679308564091,76.136878768128213,0.0],[-78.196587179229027,76.130197050789491,0.0],[-78.202629011781767,76.129038163697089,0.0],[-78.395919874043557,76.093332064280389,0.0],[-78.840880077499151,76.011135766559619,0.0],[-79.010113673101387,75.970485865800924,0.0],[-79.150019163694537,75.926133542442585,0.9269],[-79.169523467090187,75.920432031473979,6.6124],[-79.198179789910114,75.913750314134916,52.1278],[-79.19911149491719,75.913566009161855,54.1642],[-79.424239872196608,75.869279306688043,153.3059],[-79.451389043191227,75.86479666023348,142.1967],[-79.479506486903858,75.86103387743492,316.785],[-79.461316717860939,75.8527922003048,507.7313],[-79.435366191264,75.83892135485479,178.6569],[-79.410378423434,75.823382962305459,264.9633],[-79.386460415828935,75.806243560438475,0.0],[-79.365354666926862,75.789007844446587,0.0],[-79.290914766210335,75.72436062764956,0.0],[-79.289274688312844,75.722929326007034,0.0],[-79.267798443441222,75.702814627640919,0.0],[-79.247683745075,75.681338382769013,0.0],[-79.246625653606145,75.680127499892023,0.0],[-79.168697593710021,75.59062391916251,0.0],[-79.151088667544457,75.569088975239879,0.0],[-79.133949265677359,75.545170967634817,0.0],[-79.118410873127743,75.520183199804819,0.0],[-79.1045400276779,75.494232673207875,0.0],[-79.092396126417668,75.467430511982855,0.0],[-79.082031171396125,75.439891487098748,0.0],[-79.075360687113232,75.417901847378232,0.0],[-79.073489546942426,75.411733524888291,0.0],[-79.0668078296037,75.383077202068364,0.0],[-79.062014631519389,75.354045229412748,0.0],[-79.059130477899373,75.324761926285362,0.0],[-79.058167719132541,75.295352688286016,0.0],[-79.05845255700433,75.279350193319885,0.0],[-79.059718629595523,75.243796807903152,0.0],[-79.06039655049068,75.230390064869766,0.0],[-79.062145431010208,75.212633382964611,0.0],[-79.044686893455435,75.191360093402352,0.0],[-79.02754749158845,75.16744208579729,0.0],[-79.012009099038835,75.142454317967292,0.0],[-78.99813825358882,75.116503791370349,0.0],[-78.985994352328589,75.089701630145385,0.0],[-78.975629397307273,75.062162605261221,0.0],[-78.96808757378146,75.037300545007582,0.0],[-78.590260383197517,75.566229559369049,0.0],[-77.214405891010017,76.412909246869077,0.0],[-77.1614884105413,77.259588934369077,0.0],[-76.361911429230048,77.535310617891753,0.0]]],
[[[-113.51261007131184,78.73839070666719,0.0],[-113.50651504809503,78.742180835660974,0.0],[-113.48056452149808,78.756051681110591,0.0],[-113.4565962294858,78.767010399106425,0.0],[-113.324847165358,78.822640078468453,0.0],[-113.32201329614503,78.823825261733418,0.0],[-113.29447427126104,78.834190216754791,0.0],[-113.26631630905052,78.842731841208376,0.0],[-113.23765998623043,78.8494135585471,0.0],[-113.23759207958551,78.8494270605841,0.0],[-112.94352734162868,78.907873105505928,0.0],[-112.92401216621931,78.911306666038683,0.0],[-112.70896069323652,78.944276229840966,0.0],[-112.6995118026353,78.94562236535603,0.0],[-112.69105194994597,78.946654663050992,0.0],[-112.26423045743138,78.994636230433912,0.0],[-112.24340700699321,78.996488086358852,0.0],[-112.23790382556194,78.996814917265056,0.0],[-112.10474797063672,79.003904123268072,0.0],[-111.95421301991622,79.032294012494077,0.0],[-111.67402543760208,79.034706684725208,0.0],[-111.62693173788517,79.04182355263913,0.0],[-111.5455814637549,79.069590972192145,0.0],[-111.544865303155,79.069834748005746,0.0],[-111.51670734094449,79.078376372459331,0.0],[-111.48805101812468,79.085058089798224,0.0],[-111.48665792847595,79.085332906699364,0.0],[-111.15778911337048,79.149670064902637,0.0],[-111.13272142006235,79.153842393688933,0.0],[-110.93883144610356,79.1805074327516,0.0],[-110.9362602564043,79.180853485148475,0.0],[-110.91690659482322,79.182976298846825,0.0],[-110.65741339006939,79.205765605487727,0.0],[-110.64748374852326,79.20652694540928,0.0],[-110.6180745105238,79.207489704176055,0.0],[-110.6155328446813,79.207482520857411,0.0],[-110.4052614416857,79.206293962914856,0.0],[-110.37839386952874,79.205338387466384,0.0],[-110.34911056640124,79.202454233846652,0.0],[-110.32159515748361,79.197959990172535,0.0],[-110.06830240797859,79.148481481884346,0.0],[-109.88285152272636,79.124357984644,0.0],[-109.882162324212,79.124267791789066,0.0],[-109.85313035155639,79.119474593704581,0.0],[-109.84227191398003,79.117175047543412,0.0],[-109.71739581534689,79.089114744809081,0.0],[-109.6995979301031,79.084732573631129,0.0],[-109.67389683419054,79.077017053429017,0.0],[-109.60046642626523,79.052561930860435,0.0],[-108.88506018788502,79.058722235150356,0.0],[-105.83929245172567,76.773348856541816,0.0],[-105.83929245172567,77.003093751599124,0.0],[-105.9724434701298,77.107432575704422,0.0],[-105.99157546377603,77.123297290808352,0.0],[-106.01305170864782,77.143411989174467,0.0],[-106.01582386120316,77.146208524545216,0.0],[-106.02021092795161,77.147998685823438,0.0],[-106.0470130891768,77.1601425870839,0.0],[-106.0729636157738,77.174013432533911,0.0],[-106.0979513836038,77.189551825083413,0.0],[-106.12186939120886,77.206691226950227,0.0],[-106.14461521800825,77.22535824458464,0.0],[-106.16609146288016,77.245472942950983,0.0],[-106.18620616124622,77.26694918782249,0.0],[-106.20429419648116,77.2889421177756,0.0],[-106.27986046840448,77.329766257337781,0.0],[-106.29096064539698,77.335967371336608,0.0],[-106.31594841322698,77.351505763886337,0.0],[-106.33986642083204,77.368645165753321,0.0],[-106.36261224763143,77.387312183387564,0.0],[-106.38408849250317,77.407426881753679,0.0],[-106.4042031908694,77.428903126625244,0.0],[-106.42287020850387,77.451648953425092,0.0],[-106.44000961037062,77.475566961030154,0.0],[-106.45554800292024,77.500554728860152,0.0],[-106.46941884837025,77.5265052554571,0.0],[-106.48156274963083,77.55330741668206,0.0],[-106.49192770465203,77.580846441566223,0.0],[-106.5004693291059,77.609004403776623,0.0],[-106.50715104644445,77.63766072659638,0.0],[-106.51194424452865,77.666692699252167,0.0],[-106.51482839814884,77.695976002379382,0.0],[-106.51579115691578,77.725385240379126,0.0],[-106.51482839814884,77.754794478378642,0.0],[-106.51194424452865,77.784077781505914,0.0],[-106.50715104644445,77.8131097541617,0.0],[-106.5004693291059,77.8417660769814,0.0],[-106.49192770465203,77.869924039191858,0.0],[-106.48156274963083,77.897463064075851,0.0],[-106.46941884837025,77.924265225300815,0.0],[-106.45554800292024,77.950215751897929,0.0],[-106.44000961037062,77.975203519727927,0.0],[-106.42287020850387,77.999121527332989,0.0],[-106.4042031908694,78.0218673541325,0.0],[-106.38408849250317,78.043343599004345,0.0],[-106.36261224763143,78.063458297370516,0.0],[-106.33986642083204,78.0821253150047,0.0],[-106.31594841322698,78.099264716871915,0.0],[-106.29096064539698,78.114803109421416,0.0],[-106.26501011879986,78.128673954871431,0.0],[-106.25865343383748,78.131746919935551,0.0],[-106.22811266235323,78.146216320977317,0.0],[-106.2076671860903,78.155287257173256,0.0],[-106.18012816120648,78.165652212194686,0.0],[-106.15197019899608,78.174193836648271,0.0],[-106.12331387617598,78.180875553987164,0.0],[-106.09428190352054,78.185668752071649,0.0],[-106.07328694580241,78.187932679093137,0.0],[-105.90068766194764,78.202453756567081,0.0],[-105.89239931653827,78.203073983165552,0.0],[-105.86299007853864,78.204036741932271,0.0],[-105.83358084053918,78.203073983165552,0.0],[-105.83302592664194,78.203037267548325,0.0],[-105.55795227755237,78.1846662958688,0.0],[-105.52922388832212,78.181818857865892,0.0],[-105.50019191566668,78.1770256597814,0.0],[-105.47233656774534,78.170557771836911,0.0],[-105.34050998896879,78.13549531252653,0.0],[-105.33970901406985,78.13528148313253,0.0],[-105.31155105185951,78.126739858679116,0.0],[-105.30615822787047,78.1248709896027,0.0],[-105.25078305721064,78.105286353868792,0.0],[-105.25915719231199,78.1112871742198,0.0],[-105.28190301911172,78.12995419185404,0.0],[-105.30337926398329,78.150068890220155,0.0],[-105.32349396234969,78.17154513509206,0.0],[-105.34216097998382,78.194290961891738,0.0],[-105.35930038185091,78.2182089694968,0.0],[-105.37483877440036,78.2431967373268,0.0],[-105.38870961985037,78.269147263923685,0.0],[-105.40085352111061,78.2959494251487,0.0],[-105.41121847613215,78.323488450032471,0.0],[-105.41976010058568,78.3516464122431,0.0],[-105.42629767034447,78.379581142461348,0.0],[-105.43642625107378,78.430069016810478,0.0],[-105.43657039865371,78.430790609411986,0.0],[-105.4413635967382,78.459822582067773,0.0],[-105.44424775035804,78.489105885194988,0.0],[-105.44521050912505,78.518515123194561,0.0],[-105.44424775035804,78.5479243611943,0.0],[-105.4413635967382,78.57720766432152,0.0],[-105.4403808980498,78.583159782499251,0.0],[-105.53433999201258,78.582881543724454,0.0],[-105.56508079440147,78.583842330931247,0.0],[-105.59436409752885,78.586726484550979,0.0],[-105.62339607018464,78.591519682635465,0.0],[-105.65205239300457,78.598201399974357,0.0],[-105.68021035521474,78.606743024427772,0.0],[-105.70774938009896,78.617107979449145,0.0],[-105.73455154132387,78.629251880709546,0.0],[-105.76050206792081,78.643122726159561,0.0],[-105.78548983575081,78.65866111870929,0.0],[-105.80940784335587,78.675800520576274,0.0],[-105.81870108792236,78.683127773561637,0.0],[-105.85378938544847,78.711549811322129,0.0],[-105.86724196768171,78.722889575970839,0.0],[-105.88871821255344,78.743004274337125,0.0],[-105.90883291091967,78.76448051920886,0.0],[-105.92749992855414,78.787226346008538,0.0],[-105.9446393304209,78.8111443536136,0.0],[-105.96017772297051,78.8361321214436,0.0],[-105.97404856842053,78.862082648040484,0.0],[-105.98619246968076,78.888884809265676,0.0],[-105.9965574247023,78.916423834149668,0.0],[-106.005099049156,78.9445817963599,0.0],[-106.01178076649472,78.97323811918,0.0],[-106.01352443616702,78.9825116268866,0.0],[-106.02295538506013,79.035738352147177,0.0],[-106.02600491347215,79.055496817096355,0.0],[-106.02888906709217,79.08478012022357,0.0],[-106.02985182585917,79.114189358223086,0.0],[-106.02888906709217,79.14359859622266,0.0],[-106.02600491347124,79.172881899355559,0.0],[-106.02251810886293,79.195069454471934,0.0],[-106.01337138034734,79.2450922409306,0.0],[-106.01206498687225,79.25193665846416,0.0],[-106.00538326953347,79.280592981284258,0.0],[-105.99684164507977,79.308750943494488,0.0],[-105.9864766900584,79.33628996837831,0.0],[-105.97433278879788,79.363092129603444,0.0],[-105.96046194334815,79.389042656200388,0.0],[-105.94492355079859,79.414030424030386,0.0],[-105.9356098335744,79.4274360850975,0.0],[-105.87910165486346,79.505700041803834,0.0],[-105.87127597022038,79.516212388341614,0.0],[-105.85260895258625,79.538958215141292,0.0],[-105.83249425422002,79.5604344600128,0.0],[-105.81101800934823,79.580549158378972,0.0],[-105.78827218254855,79.5992161760135,0.0],[-105.78618925139932,79.600804846981987,0.0],[-105.70735685393805,79.660568640927863,0.0],[-105.68552177748217,79.676119371826019,0.0],[-105.66053400965217,79.691657764375748,0.0],[-105.63458348305522,79.705528609825592,0.0],[-105.61828711660286,79.713163559662917,0.0],[-105.57025387278748,79.734505926199347,0.0],[-105.55974807801493,79.739014877622424,0.0],[-105.53220905313088,79.7493798326438,0.0],[-105.50405109092037,79.757921457097609,0.0],[-105.47539476810061,79.764603174436161,0.0],[-105.44636279544483,79.769396372520646,0.0],[-105.41707949231761,79.772280526140378,0.0],[-105.38767025431804,79.7732432849075,0.0],[-105.37717937153423,79.773120888705876,0.0],[-104.85158109217855,79.760855001836489,0.0],[-103.98351408834719,79.797391818798758,0.0],[-103.97144282193761,79.797737592035674,0.0],[-103.71321568977538,79.801665000889614,0.0],[-103.70637752970208,79.801716999100165,0.0],[-103.67696829170245,79.80075424033322,0.0],[-103.64843483450653,79.7979681644054,0.0],[-103.37760265276569,79.762775705069544,0.0],[-103.15283260907887,79.743297286730126,0.0],[-103.13296188473186,79.741129364056917,0.0],[-103.10392991207624,79.736336165972432,0.0],[-103.09018918250911,79.733378993096267,0.0],[-102.81286760861502,79.669145187757749,0.0],[-102.79795201536189,79.665420643295022,0.0],[-102.76979405315137,79.656879018841437,0.0],[-102.74225502826749,79.64651406382,0.0],[-102.7154528670423,79.6343701625596,0.0],[-102.70712337796766,79.6301544608425,0.0],[-102.44507218981568,79.4940904146178,0.0],[-102.42745115229332,79.484435270885285,0.0],[-102.40246338446332,79.468896878335556,0.0],[-102.39545753361205,79.463876556612092,0.0],[-102.26111441267204,79.482300174409659,0.0],[-102.05755340493494,79.520966487492956,0.0],[-102.03233345786617,79.525018524212442,0.0],[-102.0144132708939,79.527013134753872,0.0],[-101.91338584576346,79.53621153970181,0.0],[-101.90202272960823,79.537101082780111,0.0],[-101.87261349160877,79.538063841547057,0.0],[-101.8474160159642,79.537357296001971,0.0],[-101.67845992058585,79.527874670676113,0.0],[-101.6742481582308,79.527618457454821,0.0],[-101.64496485510347,79.524734303834691,0.0],[-101.61593288244802,79.5199411057502,0.0],[-101.59907254464781,79.5162496393213,0.0],[-101.23279294273135,79.428655954188571,0.0],[-101.11768972122445,79.4217628539376,0.0],[-101.11516083726514,79.42160425660802,0.0],[-101.08587753413764,79.418720102988061,0.0],[-101.05684556148196,79.413926904903576,0.0],[-101.05505754023062,79.413567474328886,0.0],[-100.9989627729779,79.402172821008435,0.0],[-100.97209447140932,79.39585053424446,0.0],[-100.94393650919881,79.387308909790647,0.0],[-100.91639748431481,79.376943954769274,0.0],[-100.90804689181937,79.3733858614986,0.0],[-100.8567321945535,79.3509066134518,0.0],[-100.83828062582404,79.342320805462236,0.0],[-100.81233009922704,79.328449960012222,0.0],[-100.78734233139704,79.312911567462663,0.0],[-100.76342432379198,79.295772165595508,0.0],[-100.74067849699247,79.277105147961436,0.0],[-100.71920225212085,79.25699044959515,0.0],[-100.71247890414338,79.249812004018167,0.0],[-100.48104291500078,79.267807751174985,0.0],[-100.30967345132814,79.52486194668387,0.0],[-100.31608079946915,79.528535244964871,0.0],[-100.31726842532095,79.529218510668272,0.0],[-100.34225619315094,79.544756903218,0.0],[-100.366174200756,79.561896305084986,0.0],[-100.38892002755551,79.580563322719229,0.0],[-100.41039627242731,79.600678021085344,0.0],[-100.43051097079353,79.622154265957079,0.0],[-100.44917798842766,79.644900092756757,0.0],[-100.46631739029493,79.668818100361818,0.0],[-100.48185578284438,79.693805868191816,0.0],[-100.49572662829439,79.71975639478876,0.0],[-100.50787052955462,79.746558556013724,0.0],[-100.50899690870273,79.749303454954031,0.0],[-100.54258658969252,79.831934070188652,0.0],[-100.5518251655659,79.856728196132508,0.0],[-100.5603667900196,79.884886158342738,0.0],[-100.56704850735832,79.913542481162665,0.0],[-100.57184170544252,79.942574453818622,0.0],[-100.57472585906265,79.971857756945667,0.0],[-100.57568861782966,80.001266994945411,0.0],[-100.57472585906265,80.030676232944927,0.0],[-100.57184170544252,80.05995953607237,0.0],[-100.56737283200511,80.087344966741114,0.0],[-100.56168842445305,80.116490474553814,0.0],[-100.5613640998061,80.118137016540686,0.0],[-100.55468238246738,80.146793339360386,0.0],[-100.54614075801379,80.174951301571014,0.0],[-100.5357758029923,80.202490326454779,0.0],[-100.52363190173207,80.2292924876798,0.0],[-100.50976105628223,80.255243014276914,0.0],[-100.49422266373244,80.280230782106912,0.0],[-100.47708326186552,80.304148789711974,0.0],[-100.46725609610394,80.316500722198555,0.0],[-100.42544986237976,80.367195302277082,0.0],[-100.41661001050704,80.377589196589952,0.0],[-100.39649531214064,80.39906544146146,0.0],[-100.37501906726908,80.4191801398278,0.0],[-100.35227324046934,80.437847157462215,0.0],[-100.32835523286428,80.454986559329029,0.0],[-100.30336746503428,80.470524951878929,0.0],[-100.27741693843751,80.484395797328546,0.0],[-100.27465123463662,80.485747941351292,0.0],[-100.24938145924585,80.49799525580454,0.0],[-100.22534500182167,80.508787013042252,0.0],[-100.19780597693779,80.519151968063625,0.0],[-100.16964801472744,80.52769359251721,0.0],[-100.14099169190735,80.534375309855932,0.0],[-100.13579865249659,80.53537655892552,0.0],[-99.885322985177879,80.582143730149539,0.0],[-99.861484051933019,80.585935679164436,0.0],[-99.83220074880569,80.588819832784509,0.0],[-99.827752170278984,80.589089274610728,0.0],[-99.756180311554829,80.593068359897075,0.0],[-99.7312196520819,80.5937616768378,0.0],[-99.705322912214,80.5930153389059,0.0],[-99.410059381730491,80.575982341111114,0.0],[-99.149540496252769,80.573851205930964,0.0],[-99.123809518897644,80.5729034916385,0.0],[-99.110387077292444,80.571821673514876,0.0],[-98.973754590312581,80.558747536145177,0.0],[-98.957893728790566,80.55694520064884,0.0],[-98.92886175613512,80.552152002564355,0.0],[-98.911325162336425,80.5482982603919,0.0],[-98.78942045855996,80.518946046850033,0.0],[-98.778300729538557,80.516118071683991,0.0],[-98.750142767328043,80.507576447230178,0.0],[-98.722603742444164,80.4972114922088,0.0],[-98.695801581219087,80.485067590948233,0.0],[-98.669851054622143,80.471196745498389,0.0],[-98.657292859670576,80.463671057156034,0.0],[-98.585798515594888,80.419229325384947,0.0],[-98.573368942716286,80.4112166211778,0.0],[-98.549450935111224,80.394077219310759,0.0],[-98.52670510831166,80.375410201676573,0.0],[-98.505228863439925,80.355295503310231,0.0],[-98.4851141650737,80.3338192584385,0.0],[-98.4664471474394,80.311073431638874,0.0],[-98.4493077455723,80.287155424033813,0.0],[-98.433769353022853,80.262167656203815,0.0],[-98.431119789935622,80.257514719162259,0.0],[-98.414013038555822,80.227052942564569,0.0],[-97.213454377169114,80.227052942564569,0.0],[-97.2075998629229,80.25216158480373,0.0],[-97.199058238469036,80.28031954701413,0.0],[-97.188693283447662,80.307858571898123,0.0],[-97.176549382187147,80.334660733122917,0.0],[-97.162678536737246,80.36061125971986,0.0],[-97.1471401441878,80.385599027549858,0.0],[-97.130000742320874,80.40951703515492,0.0],[-97.11133372468629,80.432262861954769,0.0],[-97.091219026320175,80.453739106826333,0.0],[-97.06974278144861,80.473853805192448,0.0],[-97.046996954648876,80.492520822826691,0.0],[-97.023078947043814,80.509660224693846,0.0],[-96.998091179213816,80.5251986172434,0.0],[-96.972140652616872,80.539069462693419,0.0],[-96.945338491391965,80.551213363953821,0.0],[-96.917799466507915,80.5615783189752,0.0],[-96.889641504297572,80.570119943428779,0.0],[-96.860985181477474,80.5768016607675,0.0],[-96.831953208821858,80.581594858851986,0.0],[-96.802669905694472,80.584479012472116,0.0],[-96.773260667695013,80.585441771238663,0.0],[-96.757602698551523,80.5849291824033,0.0],[-96.742065765105679,80.606610947916408,0.0],[-96.723398747471435,80.629356774715916,0.0],[-96.7032840491052,80.650833019587424,0.0],[-96.681807804233415,80.670947717953936,0.0],[-96.659061977433737,80.689614735588123,0.0],[-96.635143969828675,80.706754137455164,0.0],[-96.610156201998677,80.722292530004836,0.0],[-96.584205675401677,80.73616337545451,0.0],[-96.580333916108771,80.737917646767244,0.0],[-96.578292751966785,80.752741774918263,0.0],[-96.573855554868317,80.7791302619861,0.0],[-96.567173837529538,80.8077865848058,0.0],[-96.55863221307601,80.835944547016254,0.0],[-96.548267258054466,80.863483571900247,0.0],[-96.536123356794121,80.890285733125211,0.0],[-96.52225251134422,80.916236259722325,0.0],[-96.506714118794491,80.941224027552323,0.0],[-96.4895747169275,80.965142035157385,0.0],[-96.470907699293264,80.987887861956892,0.0],[-96.450793000927035,81.009364106828741,0.0],[-96.429316756055584,81.029478805194913,0.0],[-96.406570929255849,81.0481458228291,0.0],[-96.382652921650788,81.065285224696311,0.0],[-96.35766515382079,81.080823617245812,0.0],[-96.331714627223676,81.094694462695486,0.0],[-96.304912465998768,81.106838363955887,0.0],[-96.277373441114719,81.117203318977261,0.0],[-96.2492154789042,81.125744943431073,0.0],[-96.220559156084448,81.132426660769966,0.0],[-96.19608212145755,81.136596484876577,0.0],[-95.990203215206691,81.165845345553862,0.0],[-95.9856482771778,81.166468719531338,0.0],[-95.956364974050587,81.1693528731513,0.0],[-95.937083610689967,81.170201560593569,0.0],[-95.835383532174831,81.1724927687581,0.0],[-95.827239330677173,81.18118824419895,0.0],[-95.805763085805381,81.201302942565462,0.0],[-95.783017259005874,81.219969960199478,0.0],[-95.759099251400812,81.23710936206669,0.0],[-95.734111483570814,81.252647754616191,0.0],[-95.73322640553755,81.253157415328246,0.0],[-95.493706141864777,81.390720078089032,0.0],[-95.46864069330104,81.404081262826992,0.0],[-95.441838532076133,81.4162251640874,0.0],[-95.41429950719197,81.426590119108766,0.0],[-95.386141544981626,81.435131743562579,0.0],[-95.357485222161984,81.44181346090113,0.0],[-95.344699154383648,81.444165151175639,0.0],[-95.05546616284596,81.493051056123534,0.0],[-95.039220257968339,81.495492563933908,0.0],[-95.00993695484101,81.49837671755364,0.0],[-94.98052771684155,81.499339476320756,0.0],[-94.9625003450837,81.498977963083064,0.0],[-94.648721447796959,81.486388123326776,0.0],[-94.648409063059944,81.48721810966299,0.0],[-94.636265161799543,81.514020270888125,0.0],[-94.6223943163497,81.539970797485068,0.0],[-94.606855923800083,81.564958565315067,0.0],[-94.5897165219306,81.588876572923311,0.0],[-94.580199517940912,81.600851984814938,0.0],[-94.567357924516557,81.61645826736725,0.0],[-94.5582079108745,81.627228682271891,0.0],[-94.538093212507931,81.6487049271438,0.0],[-94.516616967636367,81.668819625509968,0.0],[-94.4938711408368,81.687486643144155,0.0],[-94.469953133231741,81.704626045011366,0.0],[-94.444965365401742,81.720164437560868,0.0],[-94.419014838804628,81.734035283010542,0.0],[-94.392212677579721,81.746179184270943,0.0],[-94.364673652695672,81.756544139292316,0.0],[-94.336515690485328,81.7650857637463,0.0],[-94.312179256018567,81.770886164186436,0.0],[-94.271406550940526,81.779412775514743,0.0],[-94.2670866625869,81.78029409241293,0.0],[-94.2380546899314,81.785087290497245,0.0],[-94.216904651599691,81.787364237694248,0.0],[-94.097247872628088,81.797389465558979,0.0],[-94.0891146078323,81.7979966719821,0.0],[-94.060982665619861,81.798957616618168,0.0],[-93.6169304046145,81.800218985385982,0.0],[-93.355514745660855,81.813472185982334,0.0],[-93.332747158566747,81.8140489489781,0.0],[-93.305511996386656,81.813223398669777,0.0],[-93.007442334927021,81.795136647367826,0.0],[-93.005268259107652,81.794999438908974,0.0],[-92.985795126482856,81.793297314981146,0.0],[-92.363688396337068,81.72526529186888,0.0],[-92.353878225834649,81.7240832621768,0.0],[-92.336049956844931,81.721371398483029,0.0],[-92.135261179174734,81.686696512415153,0.0],[-92.1307164564326,81.685852230200851,0.0],[-92.12987637337767,81.694381736599667,0.0],[-92.125083175293184,81.723413709255283,0.0],[-92.118401457954633,81.75207003207538,0.0],[-92.109859833500764,81.78022799428561,0.0],[-92.099494878479561,81.807767019169773,0.0],[-92.08735097721916,81.834569180394567,0.0],[-92.073480131769145,81.860519706991681,0.0],[-92.057941739219359,81.885507474821679,0.0],[-92.042494752124924,81.907205652033269,0.0],[-92.006011190926586,81.955368086929354,0.0],[-92.004318776154889,81.957587917322826,0.0],[-91.9856517585203,81.980333744122447,0.0],[-91.965537060154077,82.001809988994012,0.0],[-91.944060815282285,82.021924687360524,0.0],[-91.9213149884826,82.040591704994711,0.0],[-91.897396980877545,82.057731106861752,0.0],[-91.872409213047547,82.073269499411083,0.0],[-91.846458686450546,82.0871403448611,0.0],[-91.819656525225639,82.099284246121329,0.0],[-91.792117500341476,82.109649201142872,0.0],[-91.764780630707207,82.117969982245427,0.0],[-91.54102167888351,82.17837973159476,0.0],[-91.540200586307265,82.178600574945676,0.0],[-91.5173568949649,82.184086160847983,0.0],[-91.31300244346653,82.227546040405514,0.0],[-91.307189811989417,82.228742171841873,0.0],[-91.283207826359444,82.2328413843473,0.0],[-91.0057053849522,82.272580560779659,0.0],[-91.000655397926153,82.273274546358721,0.0],[-90.991195938327223,82.27441808395065,0.0],[-90.5394147290155,82.324182488247573,0.0],[-90.5195908854871,82.325923104275773,0.0],[-90.513234507164384,82.326294546509359,0.0],[-90.186071014324455,82.343089387004227,0.0],[-90.16345684812,82.343680489540588,0.0],[-89.653314121019321,82.3441781897622,0.0],[-89.438946669036909,82.36305552016438,0.0],[-89.243412723720951,82.396701572866334,0.0],[-88.97298737845307,82.45692589378416,0.0],[-88.962965975716713,82.459038192350761,0.0],[-88.937438153087157,82.463356035394952,0.0],[-88.629033205169492,82.506428341710375,0.0],[-88.625529055143261,82.506903696750328,0.0],[-88.5983632738808,82.509644041045249,0.0],[-88.094724764764067,82.545042397165332,0.0],[-88.092607242899192,82.545186206490314,0.0],[-88.063198004899732,82.546148965257089,0.0],[-88.0510982360741,82.545986141585729,0.0],[-87.626834726957611,82.534565650049274,0.0],[-87.609525257784128,82.533765714953518,0.0],[-87.580290702925709,82.530887976453755,0.0],[-87.345757214969183,82.5000371463754,0.0],[-87.345708466699875,82.500030731255436,0.0],[-87.31667649404443,82.49523753317095,0.0],[-87.288020171224332,82.4885558158324,0.0],[-87.278940026394082,82.486020485544657,0.0],[-87.109717900305725,82.436852852406446,0.0],[-87.090387284186534,82.432851864418751,0.0],[-86.997147014969187,82.456096310639055,0.0],[-86.989517260032642,82.468365954641683,0.0],[-86.972377858165544,82.492283962246745,0.0],[-86.95371084053113,82.515029789046253,0.0],[-86.933596142165015,82.536506033918158,0.0],[-86.91211989729328,82.5566207322841,0.0],[-86.889374070493716,82.575287749918516,0.0],[-86.865456062888654,82.592427151785671,0.0],[-86.840468295058656,82.607965544335229,0.0],[-86.814517768461712,82.6218363897849,0.0],[-86.787715607236635,82.633980291045475,0.0],[-86.760176582352585,82.644345246066848,0.0],[-86.732018620142242,82.6528868705206,0.0],[-86.703362297322315,82.659568587859155,0.0],[-86.674330324666528,82.66436178594347,0.0],[-86.6464545837992,82.667151465358074,0.0],[-86.232306409117825,82.695601339968334,0.0],[-85.978527951333092,82.728904248825984,0.0],[-85.950575607917642,82.731687447746879,0.0],[-85.862290769428341,82.737700262878718,0.0],[-85.585076081702084,82.8037374796071,0.0],[-85.568599520625241,82.807337345997837,0.0],[-85.564717615833672,82.808091775157152,0.0],[-85.359820561796312,82.846978290456718,0.0],[-85.334670493932208,82.851017059381888,0.0],[-85.328085987660415,82.851834551221089,0.0],[-84.948936003934762,82.896069577262836,0.0],[-84.926237207079225,82.898136239043765,0.0],[-84.896827969079766,82.899098997810711,0.0],[-84.867418731080477,82.898136239043765,0.0],[-84.8611875857635,82.89768433417396,0.0],[-84.709103845528375,82.885592049017816,0.0],[-84.68605168771802,82.883159800267492,0.0],[-84.657019715062518,82.878366602183007,0.0],[-84.654911596952218,82.877942028555765,0.0],[-84.4790306018632,82.84208187427754,0.0],[-84.329109652969748,82.822343328146985,0.0],[-83.804425794404722,82.799935836797317,0.0],[-83.794202585242658,82.7993825769338,0.0],[-83.777076351982657,82.797930872799782,0.0],[-83.544144833426856,82.7736946260548,0.0],[-83.5319877635597,82.772262176569029,0.0],[-83.502955790903911,82.767468978484715,0.0],[-83.4742994680841,82.760787261145822,0.0],[-83.447641221605693,82.752751779661025,0.0],[-83.044446535366831,82.617466544361776,0.0],[-82.967288162337525,82.596243776132212,0.0],[-82.958407723029438,82.602607408947222,0.0],[-82.93341995519944,82.618145801496723,0.0],[-82.907469428602155,82.632016646946738,0.0],[-82.880667267377248,82.6441605482072,0.0],[-82.853128242493369,82.65452550322857,0.0],[-82.835908751487239,82.659748978718369,0.0],[-82.825223640224237,82.676932035371692,0.0],[-82.808084238357139,82.700850042976754,0.0],[-82.78941722072301,82.723595869776375,0.0],[-82.769302522356782,82.74507211464794,0.0],[-82.74782627748499,82.765186813014452,0.0],[-82.725080450685482,82.783853830648468,0.0],[-82.70116244308042,82.80099323251568,0.0],[-82.676174675250422,82.816531625065181,0.0],[-82.650224148653422,82.830402470515025,0.0],[-82.623421987428344,82.842546371775427,0.0],[-82.595882962544351,82.8529113267968,0.0],[-82.567725000333837,82.861452951250612,0.0],[-82.541915778695227,82.867558778928185,0.0],[-82.490995925684786,82.87802976413883,0.0],[-82.490722093999011,82.878470121309988,0.0],[-82.473582692132084,82.902388128915049,0.0],[-82.454915674497784,82.925133955714728,0.0],[-82.434800976131385,82.946610200586235,0.0],[-82.413324731259763,82.966724898952577,0.0],[-82.390578904460256,82.985391916586991,0.0],[-82.3666608968552,83.0025313184538,0.0],[-82.3416731290252,83.0180697110033,0.0],[-82.3157226024282,83.031940556453321,0.0],[-82.288920441203,83.04408445771378,0.0],[-82.261381416319125,83.054449412735153,0.0],[-82.233223454108781,83.062991037188738,0.0],[-82.204567131288684,83.06967275452763,0.0],[-82.175535158633181,83.074465952612115,0.0],[-82.146251855505682,83.077350106232018,0.0],[-82.144686988556316,83.077449933133835,0.0],[-81.813182675404107,83.098017153185822,0.0],[-81.785338304353843,83.098880085051007,0.0],[-81.77178684376878,83.098675838083409,0.0],[-81.566114643247431,83.092474666208375,0.0],[-81.55025686583258,83.091716154409255,0.0],[-81.524259283244817,83.0892522678725,0.0],[-81.474211298100386,83.083038045320279,0.0],[-81.4517989972299,83.101431345298352,0.0],[-81.427880989624839,83.118570747165165,0.0],[-81.402893221794841,83.134109139714724,0.0],[-81.3769426951979,83.147979985164739,0.0],[-81.350140533972819,83.160123886425311,0.0],[-81.323363089765678,83.170229559619031,0.0],[-81.273495332604,83.187256944059243,0.0],[-81.272733751927149,83.187516225886725,0.0],[-81.244575789716635,83.19605785034031,0.0],[-81.215919466896537,83.2027395676792,0.0],[-81.193449689600754,83.2066196047694,0.0],[-81.075420718246221,83.223931209586965,0.0],[-81.06885852288633,83.224844370581252,0.0],[-81.039575219759,83.227728524201211,0.0],[-81.010165981759712,83.2286912829681,0.0],[-80.9975332014364,83.228513795224842,0.0],[-80.644505654234479,83.218591920224867,0.0],[-80.6277291965581,83.217806649201009,0.0],[-80.608777252986442,83.216161213751093,0.0],[-80.496003677286922,83.203961618939559,0.0],[-80.4930199225368,83.207597334622221,0.0],[-80.472905224170574,83.229073579493559,0.0],[-80.451428979298782,83.249188277860071,0.0],[-80.4286831524991,83.267855295494314,0.0],[-80.404765144894043,83.2849946973613,0.0],[-80.379777377064045,83.300533089911028,0.0],[-80.353826850467044,83.314403935360644,0.0],[-80.327024689242137,83.326547836621046,0.0],[-80.299485664358258,83.336912791642476,0.0],[-80.27132770214763,83.345454416096061,0.0],[-80.242671379327987,83.352136133435124,0.0],[-80.2136394066722,83.356929331519439,0.0],[-80.200558849520917,83.358456905218588,0.0],[-79.931944754467793,83.385845414333119,0.0],[-79.915742008491691,83.387201994253871,0.0],[-79.886332770492061,83.388164753020817,0.0],[-79.882941559522237,83.388151965081931,0.0],[-79.1771965237121,83.3828292925561,0.0],[-79.151796608580923,83.381919407386192,0.0],[-78.516714881247083,83.341172459640518,0.0],[-77.980989761479918,83.355853268774922,0.0],[-77.96867204457277,83.356022012135554,0.0],[-77.955223691088065,83.355820862087455,0.0],[-77.604624936204,83.3453305463322,0.0],[-77.588664051689079,83.34456893761319,0.0],[-77.576971226074022,83.343649252559715,0.0],[-77.438478387531688,83.330936850215949,0.0],[-77.438190714661971,83.330904723497952,0.0],[-77.421407210080758,83.346624190946386,0.0],[-77.398661383281251,83.365291208580572,0.0],[-77.374743375676189,83.382430610447614,0.0],[-77.349755607846191,83.397969002997286,0.0],[-77.323805081249191,83.411839848446959,0.0],[-77.297002920024113,83.423983749707361,0.0],[-77.269463895140234,83.434348704728734,0.0],[-77.24130593292989,83.442890329182546,0.0],[-77.212649610109793,83.449572046521439,0.0],[-77.183617637454347,83.454365244605583,0.0],[-77.154334334326848,83.457249398225485,0.0],[-77.137506871384574,83.458036099860863,0.0],[-77.039821612686666,83.460770460394727,0.0],[-81.765248176166267,83.503729559369134,0.0],[-93.970143195697489,82.188544012494049,0.0],[-111.87486731679122,79.376227117962884,0.0],[-118.75080067403189,77.787274906902752,0.0],[-118.45675251659677,77.804786320876588,0.0],[-117.98674475819753,77.894598699994134,0.0],[-113.51261007131184,78.73839070666719,0.0]]],
[[[-79.637570228028778,74.414117768801958,0.0],[-79.855151555788837,74.390936567856954,0.0],[-79.862795326885092,74.377781408158967,0.0],[-79.637570228028778,74.414117768801958,0.0]]],
[[[-122.33273628902101,76.959529171217469,0.0],[-123.3437393871038,76.725897528119049,0.0],[-123.51047836373334,76.064667919608354,0.0],[-123.31954246374522,76.303337794593517,0.0],[-123.31823531642988,76.306810801699783,0.0],[-123.30609141516965,76.333612962924747,0.0],[-123.29222056971963,76.35956348952169,0.0],[-123.2766821771699,76.384551257351688,0.0],[-123.25954277530292,76.40846926495675,0.0],[-123.25131418811776,76.4188716391547,0.0],[-123.22679372099549,76.448947322748779,0.0],[-123.21635529054623,76.461290775350335,0.0],[-123.19624059217983,76.482767020221843,0.0],[-123.17476434730838,76.502881718588185,0.0],[-123.15201852050882,76.5215487362226,0.0],[-123.12810051290376,76.538688138089412,0.0],[-123.11050020993332,76.549866900160623,0.0],[-123.00621716956817,76.612757118259822,0.0],[-122.99882970470867,76.61711674873834,0.0],[-122.97287917811167,76.630987594187957,0.0],[-122.97276541345991,76.631043676759987,0.0],[-122.71815563155798,76.7565140543648,0.0],[-122.69146723498449,76.768601873053228,0.0],[-122.68023452656195,76.77307863387108,0.0],[-122.58390965677,76.8099756065273,0.0],[-122.56760334030855,76.815863800731,0.0],[-122.53944537809821,76.82440542518458,0.0],[-122.51078905527811,76.8310871425233,0.0],[-122.50847310232115,76.83154149922683,0.0],[-122.50605857486785,76.8320086178385,0.0],[-122.45077636566737,76.842703608602164,0.0],[-122.42406034596837,76.847042449982723,0.0],[-122.39477704284133,76.849926603602853,0.0],[-122.38938628991878,76.850247434709729,0.0],[-121.69527471718834,76.887376164029092,0.0],[-121.39589774069782,77.028749828104765,0.0],[-121.37596613634639,77.037577703132342,0.0],[-121.36321139351151,77.042634316188469,0.0],[-121.26133130724816,77.081236611110455,0.0],[-121.24654702519916,77.086544953075759,0.0],[-121.22886429952462,77.092143455936309,0.0],[-121.12447790629471,77.122839256717668,0.0],[-121.11400266975909,77.1257823783107,0.0],[-121.08534634693916,77.1324640956496,0.0],[-121.08522572556654,77.1324880715855,0.0],[-120.66420664453977,77.216114276623443,0.0],[-120.65498240705671,77.224244365704124,0.0],[-120.65414300940762,77.224982345218791,0.0],[-120.63139718260794,77.243649362853034,0.0],[-120.60747917500288,77.260788764720019,0.0],[-120.58249140717288,77.276327157269748,0.0],[-120.55654088057605,77.290198002719364,0.0],[-120.52973871935097,77.302341903979766,0.0],[-120.51689679517136,77.307431539653066,0.0],[-120.47015546216346,77.325130717713137,0.0],[-120.45545836145874,77.330406037061209,0.0],[-120.4273003992484,77.338947661515022,0.0],[-120.4165147804577,77.341695054521949,0.0],[-120.33470829755566,77.361458583335263,0.0],[-119.99315269375427,77.49336674555326,0.0],[-119.97569436406104,77.499698029249487,0.0],[-119.96281412728382,77.503855175488866,0.0],[-119.91839785843622,77.517456101019022,0.0],[-122.33273628902101,76.959529171217469,0.0]]]]}}