{"type":"Feature","properties":{"GID_3":"CAN.7.1.5_1","GID_0":"CAN","country":"Canada","GID_1":"CAN.7_1","province":"NovaScotia","NL_NAME_1":"NA","GID_2":"CAN.7.1_1","county":"Annapolis","NL_NAME_2":"NA","city":"Annapolis,Subd.D","VARNAME_3":"NA","NL_NAME_3":"NA","TYPE_3":"SubdivisionofCountyMunicipali","ENGTYPE_3":"SubdivisionofCountyMunicipali","CC_3":"NA","HASC_3":"NA","name":"Annapolis,Subd.D.city"},
"geometry":{"type": "MultiPolygon","coordinates": [[[[-65.625,44.5645,48.8417],[-65.619,44.5584,125.0185],[-65.6119,44.5619,93.7149],[-65.5923,44.5455,141.6777],[-65.6021,44.5399,159.3101],[-65.4556,44.4175,165.7507],[-65.3316,44.3116,126.6921],[-65.1798,44.4215,119.5523],[-65.1519,44.4606,132.9098],[-65.0615,44.4548,108.6915],[-64.945,44.5371,174.6672],[-64.7732,44.6636,159.3783],[-64.8196,44.7498,195.1211],[-64.9613,44.9741,27.7345],[-64.9718,44.9675,15.075],[-64.9846,44.9652,22.852],[-65.0057,44.9545,25.5043],[-65.0335,44.9488,26.6296],[-65.0561,44.9489,18.0015],[-65.0689,44.9406,20.124],[-65.0597,44.9378,18.1344],[-65.0472,44.9371,16.4171],[-65.0438,44.9342,24.1193],[-65.0407,44.9186,37.5503],[-65.0263,44.8972,94.0181],[-65.0261,44.8903,131.3929],[-65.021,44.8849,127.3255],[-65.0224,44.8785,136.089],[-65.0296,44.8673,156.034],[-65.0291,44.86,156.8672],[-65.0432,44.8417,152.326],[-65.0462,44.8353,179.4887],[-65.0496,44.8391,215.5513],[-65.055,44.841,211.4462],[-65.062,44.8516,207.9562],[-65.0651,44.8533,188.4445],[-65.0668,44.8511,188.8368],[-65.0704,44.8514,190.4896],[-65.0791,44.8473,189.8636],[-65.0804,44.8451,188.2266],[-65.0793,44.8438,188.2266],[-65.0856,44.8398,206.3311],[-65.0834,44.8354,210.7676],[-65.0842,44.8323,213.4412],[-65.0815,44.8299,227.8129],[-65.2047,44.7586,208.2471],[-65.209,44.7607,229.8198],[-65.2145,44.7573,229.6507],[-65.2224,44.7574,231.7811],[-65.2326,44.7611,227.0511],[-65.2403,44.7608,215.5816],[-65.242,44.7701,217.651],[-65.244,44.7686,211.8311],[-65.2464,44.7692,210.9158],[-65.2474,44.7674,205.1683],[-65.2581,44.7627,208.1241],[-65.2668,44.761,224.2182],[-65.2779,44.7537,239.3655],[-65.2895,44.75,208.405],[-65.2934,44.7316,205.8871],[-65.2905,44.7296,208.7368],[-65.2912,44.7277,209.621],[-65.2884,44.7244,206.4293],[-65.2891,44.7216,207.3947],[-65.2944,44.7195,189.5539],[-65.2948,44.7167,182.6521],[-65.3393,44.6706,207.1394],[-65.3398,44.6668,214.4324],[-65.3306,44.6652,194.0],[-65.326,44.6621,201.5482],[-65.3206,44.6614,198.7088],[-65.3166,44.659,194.9244],[-65.3151,44.6519,195.8285],[-65.3196,44.6415,194.2844],[-65.327,44.6412,205.817],[-65.3307,44.6384,190.7848],[-65.3495,44.6454,219.4784],[-65.3593,44.6542,198.435],[-65.3757,44.6581,164.1638],[-65.382,44.6556,164.4396],[-65.3958,44.6553,178.3832],[-65.4132,44.6496,140.5],[-65.4228,44.6547,140.5],[-65.4367,44.6586,164.2573],[-65.4414,44.6659,145.8739],[-65.4518,44.6643,136.562],[-65.4571,44.6611,146.8732],[-65.4656,44.66,151.2467],[-65.4721,44.6569,124.8335],[-65.4845,44.6605,144.4633],[-65.4822,44.6499,146.0248],[-65.4865,44.6425,170.5245],[-65.4853,44.6392,166.3103],[-65.4873,44.6335,154.2036],[-65.503,44.6297,190.3472],[-65.4916,44.6201,177.8489],[-65.4965,44.6193,170.5208],[-65.4973,44.6163,165.1121],[-65.5,44.6161,165.8905],[-65.5,44.6149,164.0],[-65.5056,44.6146,170.472],[-65.537,44.6041,149.9488],[-65.5379,44.5989,124.2736],[-65.543,44.5996,118.6998],[-65.5698,44.5852,154.0418],[-65.5645,44.5803,138.7041],[-65.5611,44.5792,136.8465],[-65.5608,44.5772,132.9114],[-65.563,44.5769,129.8506],[-65.5636,44.5787,130.3194],[-65.5727,44.5769,127.0389],[-65.5793,44.5667,105.9514],[-65.5953,44.5552,79.5],[-65.6037,44.5575,84.6908],[-65.6143,44.5635,79.9618],[-65.625,44.5645,48.8417]]]]}}