{"type": "Feature","bbox": [-127.0242,54.15,-123.3935,56.0001],"geometry": {"type": "MultiPolygon","coordinates": [[[[-125.0,54.25,838.1808],[-124.4663,54.2501,1127.2795],[-124.466,54.2328,1151.2936],[-124.4448,54.2249,1085.8828],[-124.424,54.2327,1017.1921],[-124.4174,54.2445,989.3163],[-124.413,54.2587,998.3226],[-124.4004,54.2695,936.0533],[-124.3863,54.2707,927.5482],[-124.3684,54.2692,903.105],[-124.3634,54.2662,906.8759],[-124.351,54.2649,891.5968],[-124.3382,54.272,878.5214],[-124.3088,54.2692,866.6994],[-124.3106,54.2803,863.9817],[-124.302,54.2817,850.9701],[-124.2856,54.2886,858.9581],[-124.2742,54.2883,840.7712],[-124.2729,54.2927,830.5839],[-124.1816,54.2927,677.9318],[-124.1732,54.2915,679.61],[-124.1589,54.286,709.7075],[-124.14,54.2733,677.2587],[-124.1291,54.2695,674.3047],[-124.1262,54.267,687.4724],[-124.1157,54.265,693.6912],[-124.0871,54.2543,677.1516],[-124.0467,54.2458,707.5416],[-123.9957,54.2258,694.5058],[-123.9905,54.2201,699.35],[-123.9633,54.2076,677.2732],[-123.9464,54.2022,682.8333],[-123.9378,54.2023,684.2495],[-123.927,54.2074,684.3539],[-123.9165,54.2071,671.0],[-123.8988,54.1981,696.8263],[-123.8832,54.1973,712.0557],[-123.8731,54.1994,677.3926],[-123.857,54.1959,753.1725],[-123.8041,54.1979,678.616],[-123.7438,54.1796,683.0902],[-123.7244,54.1809,673.882],[-123.7114,54.1767,694.1614],[-123.7009,54.1781,684.1309],[-123.6939,54.1772,674.6506],[-123.6822,54.1727,696.6736],[-123.6542,54.1741,674.1657],[-123.6529,54.1713,693.7105],[-123.6553,54.1699,691.5398],[-123.6649,54.1685,676.5516],[-123.6649,54.1644,688.1013],[-123.659,54.1615,748.2991],[-123.6488,54.1595,797.0153],[-123.6298,54.1612,705.9477],[-123.5881,54.1578,676.2646],[-123.5422,54.1562,684.5768],[-123.5335,54.1503,729.622],[-123.5208,54.15,672.5679],[-123.5205,54.2523,888.556],[-123.5188,54.2546,886.3216],[-123.5526,54.2701,897.9085],[-123.5378,54.2789,889.9601],[-123.5323,54.2895,909.541],[-123.5542,54.3062,928.0416],[-123.5864,54.3175,934.4945],[-123.62,54.3205,938.1606],[-123.6431,54.3256,944.8607],[-123.644,54.3301,935.0804],[-123.6679,54.3264,928.7936],[-123.7408,54.3218,889.5669],[-123.7822,54.3364,952.123],[-123.8189,54.3366,921.6254],[-123.8283,54.3465,947.9262],[-123.8468,54.3714,933.6625],[-123.8524,54.3758,943.6855],[-123.8632,54.3782,966.5997],[-123.8774,54.379,972.8368],[-123.9049,54.3749,987.8953],[-123.9147,54.365,1073.3433],[-123.9276,54.3616,1039.0469],[-123.9327,54.3737,967.9978],[-123.9327,54.38,974.0567],[-123.9374,54.3866,996.4766],[-123.9449,54.3926,1113.5234],[-123.9521,54.3954,1167.8156],[-123.962,54.4077,1167.3893],[-123.9686,54.4116,1108.8051],[-123.9685,54.4243,918.036],[-123.9856,54.4296,947.6239],[-123.9838,54.4353,985.2906],[-123.9693,54.4385,886.5377],[-123.9643,54.4443,857.7016],[-123.954,54.4466,840.5168],[-123.9505,54.4494,841.381],[-123.9517,54.4587,851.8119],[-123.8802,54.4922,800.7176],[-123.8769,54.4989,800.2382],[-123.8477,54.5122,809.6423],[-123.8612,54.5161,807.175],[-123.8569,54.5174,811.7763],[-123.8563,54.5222,793.1095],[-123.8493,54.5253,803.7723],[-123.8503,54.5285,799.2447],[-123.8331,54.5354,804.1022],[-123.8215,54.5442,847.7912],[-123.8332,54.5542,861.8197],[-123.8196,54.5619,879.462],[-123.822,54.5755,884.3633],[-123.8195,54.5808,892.3026],[-123.7961,54.5771,869.7448],[-123.7799,54.5926,867.7711],[-123.8077,54.6029,874.7917],[-123.8081,54.6051,882.9902],[-123.7785,54.6132,872.5088],[-123.7776,54.6184,881.4167],[-123.7862,54.6272,857.2812],[-123.7783,54.6591,819.7971],[-123.7931,54.6747,844.7692],[-123.7895,54.6816,830.7301],[-123.7957,54.6927,865.886],[-123.8068,54.6946,885.9128],[-123.8119,54.6937,875.2012],[-123.842,54.6962,914.0867],[-123.8599,54.6858,996.9009],[-123.8631,54.6871,956.6972],[-123.8578,54.7001,951.5437],[-123.8592,54.7042,1038.5674],[-123.8802,54.7197,1006.8298],[-123.8786,54.7353,926.8645],[-123.8804,54.7382,935.4027],[-123.9036,54.743899999999996,928.1501],[-123.9263,54.759,1020.0112],[-123.9481,54.7675,1174.4995],[-123.9439,54.7791,954.3202],[-123.9257,54.8068,930.9678],[-123.9149,54.8162,913.0786],[-123.9195,54.8317,913.752],[-123.8958,54.8536,917.3832],[-123.9045,54.8647,918.2527],[-123.9268,54.862,1031.9414],[-123.9727,54.8636,977.9604],[-123.9905,54.8662,1114.2399],[-124.0054,54.8625,1069.3108],[-124.0112,54.8652,1074.8529],[-124.0195,54.8649,1057.9277],[-124.0234,54.8678,1009.5593],[-124.0152,54.8766,957.3281],[-124.0162,54.88,947.9264],[-124.0145,54.882,954.9293],[-123.999,54.8808,953.8417],[-123.9949,54.8822,951.4468],[-123.9938,54.8874,960.9639],[-123.9954,54.893,965.4902],[-124.0072,54.8974,1031.6412],[-124.0235,54.8974,1057.5525],[-124.0296,54.8992,1131.2983],[-124.0346,54.9029,1142.6132],[-124.0351,54.9168,1170.3645],[-124.0456,54.9282,1313.4344],[-124.0525,54.9304,1362.5264],[-124.0539,54.9448,1318.4248],[-124.0519,54.9507,1173.3145],[-124.0411,54.9544,1162.3585],[-124.0222,54.953,1371.1898],[-124.014,54.9599,1376.3678],[-124.014,54.9662,1359.73],[-124.0119,54.9722,1422.7961],[-124.0129,54.9816,1429.3737],[-124.0045,54.9822,1464.709],[-124.0,54.9866,1379.6111],[-124.0,55.0251,1424.6497],[-123.9869,55.0206,1525.8428],[-123.9809,55.0122,1467.5909],[-123.9467,55.0116,1141.6405],[-123.9052,55.0198,1200.6635],[-123.8891,55.0381,1191.9414],[-123.873,55.0415,1166.0964],[-123.8636,55.0473,1145.5137],[-123.8496,55.0485,1155.722],[-123.8306,55.045,1130.937],[-123.831,55.0387,1081.8215],[-123.8288,55.0349,1063.3105],[-123.8143,55.0407,1095.2032],[-123.811,55.038,1092.2932],[-123.8155,55.021,1121.459],[-123.8145,55.0094,1045.1584],[-123.8168,54.9984,1026.223],[-123.7945,54.996,1090.991],[-123.7615,54.9752,1120.866],[-123.7587,54.9648,1122.5432],[-123.7277,54.9559,1207.8865],[-123.727,54.9484,1238.4001],[-123.7211,54.9436,1232.5525],[-123.7109,54.9433,1259.3037],[-123.7087,54.9342,1278.4749],[-123.6911,54.9238,1293.6187],[-123.6588,54.921,1230.8671],[-123.6335,54.9363,1258.8887],[-123.636,54.9403,1255.1458],[-123.6329,54.95,1230.5349],[-123.6272,54.9558,1246.1008],[-123.6204,54.9557,1265.1898],[-123.5907,54.9471,1234.293],[-123.5618,54.9526,1163.2225],[-123.5511,54.9589,1191.1793],[-123.5388,54.9867,1278.3146],[-123.5258,55.0023,1398.0013],[-123.5251,55.0077,1357.173],[-123.5161,55.0179,1400.7119],[-123.4957,55.0207,1343.1001],[-123.4734,55.0176,1474.9753],[-123.4683,55.022,1539.6243],[-123.455,55.0152,1476.45],[-123.4474,55.0162,1415.125],[-123.434,55.0218,1361.0333],[-123.4221,55.029,1236.3135],[-123.4166,55.0339,1182.0687],[-123.4118,55.0421,1206.1848],[-123.4079,55.0585,1090.464],[-123.4089,55.0662,1207.6548],[-123.4165,55.0722,1285.6101],[-123.4171,55.0818,1299.2194],[-123.4147,55.0871,1287.986],[-123.4008,55.0994,1522.504],[-123.3975,55.1041,1602.0485],[-123.412,55.1153,1436.573],[-123.4183,55.123,1483.7957],[-123.4213,55.1379,1336.5834],[-123.4199,55.149,1407.9978],[-123.411,55.1573,1438.8462],[-123.3974,55.1662,1402.6943],[-123.3935,55.172,1418.6941],[-123.3986,55.1832,1402.1919],[-123.4152,55.2027,1529.7805],[-123.4193,55.2132,1473.8574],[-123.4198,55.2196,1432.5199],[-123.4146,55.2356,1572.4253],[-123.4319,55.2425,1511.4636],[-123.4398,55.2486,1629.8199],[-123.4586,55.2707,1421.441],[-123.4628,55.2871,1202.4177],[-123.4955,55.3143,1407.9153],[-123.5087,55.32,1494.8853],[-123.5358,55.3277,1576.3517],[-123.5505,55.3182,1530.2231],[-123.5698,55.3129,1297.865],[-123.6107,55.3109,924.5737],[-123.6471,55.3066,773.2062],[-123.6677,55.3002,791.7073],[-123.7133,55.2905,1086.728],[-123.7432,55.2875,1161.8616],[-123.774,55.2993,1483.5796],[-123.7981,55.3243,1411.7476],[-123.8296,55.3343,1427.3427],[-123.8526,55.3394,1346.9268],[-123.8571,55.342,1318.4169],[-123.8612,55.3465,1339.5117],[-123.8629,55.3652,1288.4828],[-123.8703,55.3796,1172.6071],[-123.8706,55.3897,1327.6069],[-123.8757,55.4,1229.0735],[-123.8887,55.4124,1369.5698],[-123.8967,55.4168,1324.811],[-123.908,55.429,1175.0864],[-123.9094,55.4344,1166.5229],[-123.9058,55.4391,1071.9021],[-123.8966,55.465,1646.2839],[-123.8998,55.4781,1538.9036],[-123.9029,55.4836,1661.9932],[-123.8871,55.4937,1571.0227],[-123.885,55.4966,1523.1227],[-123.8864,55.5041,1462.8442],[-123.9127,55.5282,1673.1416],[-123.9303,55.5549,1727.5273],[-124.0029,55.5492,1542.3038],[-124.0083,55.5468,1493.6698],[-124.0134,55.54,1357.5908],[-124.0201,55.5366,1329.3872],[-124.039,55.5382,1158.6934],[-124.0518,55.5419,988.8575],[-124.0783,55.557,1061.5458],[-124.0938,55.5695,1326.9636],[-124.1011,55.5786,1343.6552],[-124.1055,55.5864,1513.1521],[-124.1065,55.5965,1303.9332],[-124.1138,55.6122,1385.6895],[-124.1238,55.6404,1474.194],[-124.1537,55.6498,1188.5876],[-124.1679,55.6697,1678.8542],[-124.1821,55.6718,1696.9257],[-124.1926,55.6839,1661.3932],[-124.2161,55.6833,1766.713],[-124.2323,55.685,1569.4358],[-124.248,55.6901,1756.8575],[-124.2672,55.6874,1625.0703],[-124.2841,55.6951,1606.9919],[-124.2969,55.6965,1649.48],[-124.3082,55.7067,1882.8928],[-124.322,55.7346,1899.6307],[-124.3345,55.7413,1711.3678],[-124.3273,55.7546,1669.9288],[-124.3341,55.7621,1703.1509],[-124.3463,55.7696,1637.0703],[-124.3566,55.7876,1694.0847],[-124.3546,55.8036,1993.5023],[-124.3513,55.8086,1843.507],[-124.3523,55.8125,1815.5979],[-124.3489,55.8181,1894.1477],[-124.3371,55.8264,2084.6677],[-124.3326,55.8331,1889.7957],[-124.3336,55.8397,1950.8542],[-124.3585,55.8707,1630.1432],[-124.3727,55.88,1871.3716],[-124.3779,55.8871,1720.8951],[-124.38,55.8971,1746.3701],[-124.3755,55.9043,1944.8351],[-124.3805,55.9119,1849.4265],[-124.3818,55.9194,1790.8883],[-124.3995,55.9396,1682.8062],[-124.397,55.9431,1533.1135],[-124.3973,55.9516,1599.8972],[-124.4088,55.956,1873.8423],[-124.4136,55.9549,1925.3519],[-124.4296,55.9559,1627.9485],[-124.4306,55.9636,1602.6876],[-124.4292,55.9701,1669.4259],[-124.4315,55.9757,1849.7612],[-124.4384,55.9796,1767.4421],[-124.4421,55.9885,1882.9272],[-124.4378,56.0001,1590.8569],[-127.0242,56.0,1257.8834],[-127.0125,55.9925,1182.1287],[-126.9905,55.9937,1188.028],[-126.9766,55.9911,1403.3062],[-126.969,55.9935,1499.3967],[-126.9421,55.981,1391.3375],[-126.9316,55.9797,1279.394],[-126.9271,55.9748,1374.4301],[-126.901,55.964,1285.249],[-126.8889,55.9635,1404.5674],[-126.8809,55.9656,1433.6504],[-126.8673,55.9597,1372.7319],[-126.8669,55.9538,1446.0427],[-126.8748,55.9495,1350.9192],[-126.8806,55.94,1294.4532],[-126.881,55.9327,1334.0833],[-126.9012,55.9302,1663.9371],[-126.9194,55.9201,1767.8291],[-126.9165,55.9101,1800.9329],[-126.908,55.9061,1753.2915],[-126.9011,55.9007,1696.8055],[-126.9,55.8969,1733.0474],[-126.8848,55.8965,1578.1932],[-126.8764,55.8814,1421.5155],[-126.8693,55.8636,1900.7982],[-126.8622,55.8568,1592.4963],[-126.8612,55.8529,1730.0331],[-126.8567,55.8481,1678.8362],[-126.8427,55.8386,1795.7322],[-126.8415,55.8325,1679.1903],[-126.8364,55.8291,1620.078],[-126.8245,55.8279,1515.3149],[-126.8199,55.8257,1486.4229],[-126.7891,55.8054,1672.0939],[-126.7677,55.806399999999996,1562.0],[-126.7587,55.8024,1512.4677],[-126.7455,55.7896,1127.3962],[-126.7436,55.7831,1113.1539],[-126.7505,55.7812,1117.2439],[-126.7535,55.7769,1144.0991],[-126.7448,55.7645,1284.4197],[-126.7491,55.7587,1662.6445],[-126.7448,55.7498,1605.243],[-126.7452,55.7468,1688.6371],[-126.7491,55.7424,1820.2891],[-126.7469,55.74,1898.2998],[-126.7358,55.7364,1968.1146],[-126.7324,55.7333,1842.1267],[-126.7198,55.7307,2065.4231],[-126.7128,55.7249,1918.2322],[-126.7052,55.7249,2130.814],[-126.683,55.7177,1930.3054],[-126.6767,55.7113,1819.4707],[-126.6741,55.7058,1990.7842],[-126.6684,55.7019,2005.3396],[-126.6568,55.7089,2073.9312],[-126.6445,55.6995,1979.4816],[-126.6321,55.6931,1962.4832],[-126.6248,55.6823,2133.2773],[-126.6092,55.6746,2071.2166],[-126.5848,55.6679,1719.3435],[-126.5648,55.6599,2023.6743],[-126.5501,55.67,1699.322],[-126.5419,55.6722,1627.6409],[-126.5353,55.6716,1775.1951],[-126.5303,55.6688,1856.6843],[-126.5273,55.6647,1739.3406],[-126.53,55.655,1797.1747],[-126.5215,55.6485,1758.675],[-126.5042,55.6459,1720.8641],[-126.4807,55.6375,1947.5461],[-126.4759,55.6335,1770.2971],[-126.477,55.6294,1574.9187],[-126.4745,55.6252,1406.4731],[-126.481,55.6181,1477.5125],[-126.4874,55.6157,1573.0396],[-126.48,55.6111,1693.8173],[-126.4668,55.5992,1623.1647],[-126.4415,55.5934,1899.3392],[-126.4323,55.5866,1796.8486],[-126.4216,55.586,1758.7314],[-126.4167,55.5837,1853.808],[-126.3999,55.5807,1743.8325],[-126.396,55.5675,1673.8552],[-126.4006,55.5597,1637.613],[-126.3872,55.5455,1628.6222],[-126.3869,55.5383,1790.3923],[-126.3832,55.5337,1623.3607],[-126.3854,55.5317,1539.9845],[-126.3943,55.5324,1572.1722],[-126.4107,55.5274,1745.0984],[-126.4107,55.5205,1834.4261],[-126.4129,55.5166,1883.6353],[-126.4072,55.5037,1802.7358],[-126.4068,55.4981,1828.7255],[-126.3926,55.4816,1741.1121],[-126.3653,55.4766,1474.116],[-126.3607,55.4738,1428.7373],[-126.3578,55.4688,1337.0505],[-126.359,55.4534,1278.5613],[-126.3523,55.449,1291.4155],[-126.3441,55.4462,1300.5077],[-126.3345,55.4326,1291.6676],[-126.3348,55.4281,1333.5698],[-126.3434,55.4198,1608.5417],[-126.3439,55.4161,1540.2341],[-126.3419,55.4118,1438.6473],[-126.3304,55.4033,1323.8274],[-126.3259,55.3967,1194.6689],[-126.3198,55.3956,1197.8108],[-126.3173,55.3968,1213.7048],[-126.3139,55.3994,1282.3916],[-126.313,55.404,1353.2013],[-126.3087,55.4051,1342.5842],[-126.3054,55.4038,1349.7938],[-126.3019,55.394,1231.5304],[-126.2952,55.3924,1214.6115],[-126.2864,55.3982,1196.8049],[-126.2802,55.3982,1205.9645],[-126.2718,55.3944,1223.3453],[-126.2706,55.3891,1248.9249],[-126.2584,55.3787,1336.3357],[-126.2503,55.3752,1317.1833],[-126.2368,55.3736,1385.1006],[-126.236,55.3675,1413.3887],[-126.2578,55.3593,1327.4636],[-126.2695,55.3504,1388.6254],[-126.2604,55.3464,1343.9092],[-126.212,55.3117,1317.8314],[-126.1837,55.2989,1171.7104],[-126.1684,55.2896,1176.8611],[-126.1403,55.2604,974.9213],[-126.1305,55.2333,934.0253],[-126.1142,55.2195,887.2641],[-126.0933,55.2089,901.5163],[-126.0583,55.1771,897.1564],[-126.0374,55.1683,821.1817],[-126.0,55.1665,853.5457],[-125.9997,54.8126,712.4159],[-126.0028,54.8087,711.0],[-125.9863,54.8047,711.0],[-125.9764,54.7995,711.0],[-125.9671,54.7917,711.0],[-125.9624,54.7925,711.0],[-125.9544,54.7902,711.0],[-125.9451,54.7934,711.0],[-125.9293,54.7929,711.0],[-125.9227,54.7896,711.0],[-125.9163,54.7726,766.0676],[-125.9172,54.7683,772.6517],[-125.9239,54.7683,743.1747],[-125.937,54.7746,739.2731],[-125.9523,54.7788,785.5709],[-125.9601,54.7763,711.0],[-125.9586,54.7732,711.0],[-125.9537,54.7706,711.0],[-125.9377,54.7673,738.7654],[-125.9315,54.7636,759.6979],[-125.9332,54.7608,755.8467],[-125.9431,54.761,733.2078],[-125.9455,54.7557,728.738],[-125.9521,54.7549,711.0],[-125.95,54.7499,725.5558],[-125.9859,54.75,711.0],[-125.9826,54.7473,711.0],[-125.9793,54.7381,711.0],[-125.9657,54.7332,711.0],[-125.9633,54.7276,711.0],[-125.9602,54.7257,711.0],[-125.9521,54.701,711.0],[-125.9287,54.6865,711.0],[-125.9281,54.6801,711.0],[-125.9141,54.6691,711.0],[-125.9121,54.6659,711.0],[-125.8872,54.6595,711.0],[-125.8847,54.6548,711.0],[-125.8675,54.6427,711.0],[-125.8532,54.6392,711.0],[-125.8485,54.6335,711.0],[-125.8084,54.6129,711.0],[-125.8025,54.6067,711.0],[-125.7781,54.597,711.0],[-125.7769,54.5923,711.0],[-125.7567,54.5815,711.0],[-125.7458,54.5717,711.0],[-125.7425,54.5639,711.0],[-125.7318,54.5477,711.0],[-125.7128,54.5349,711.0],[-125.6967,54.529,711.0],[-125.6991,54.5233,711.0],[-125.6925,54.5252,711.0],[-125.6876,54.5216,711.0],[-125.6839,54.5161,711.0],[-125.6802,54.5142,711.0],[-125.6494,54.5053,711.0],[-125.6388,54.5001,711.0],[-125.617,54.4933,711.0],[-125.5931,54.4873,711.0],[-125.5828,54.4867,711.0],[-125.568,54.4819,711.0],[-125.5417,54.4692,711.0],[-125.5092,54.4572,711.0],[-125.5004,54.452,711.0],[-125.4896,54.4513,711.0],[-125.4753,54.4552,711.0],[-125.4657,54.455,711.0],[-125.4652,54.4599,711.0],[-125.4613,54.4567,711.0],[-125.4504,54.458,711.0],[-125.4227,54.4567,711.0],[-125.4023,54.4623,711.0],[-125.3954,54.4616,711.0],[-125.3895,54.4652,711.0],[-125.3766,54.4655,711.0],[-125.3748,54.4673,711.0],[-125.3612,54.4672,711.0],[-125.3488,54.4695,711.0],[-125.3348,54.4678,711.0],[-125.3281,54.4706,711.0],[-125.3181,54.4703,711.0],[-125.3137,54.4726,711.0],[-125.3105,54.4673,711.0],[-125.308,54.4722,711.0],[-125.3016,54.4766,711.0],[-125.2908,54.4765,711.0],[-125.2872,54.4787,711.0],[-125.2812,54.4796,711.0],[-125.23,54.4833,711.0],[-125.2237,54.4857,711.0],[-125.2142,54.4923,711.0],[-125.2096,54.4901,711.0],[-125.2008,54.4899,711.0],[-125.1975,54.4911,711.0],[-125.1958,54.4954,711.0],[-125.1918,54.493899999999996,711.0],[-125.1859,54.4871,711.0],[-125.1807,54.4847,807.8585],[-125.1678,54.4865,775.3053],[-125.1395,54.4857,715.7938],[-125.1404,54.4797,783.6904],[-125.114,54.4792,719.1653],[-125.1146,54.4637,907.8461],[-125.0654,54.4651,821.2306],[-125.0647,54.4427,830.7581],[-125.0528,54.4428,784.8771],[-125.0536,54.435,878.6401],[-125.0162,54.4355,752.6935],[-125.015,54.4279,807.2061],[-125.0037,54.4278,748.3099],[-125.0039,54.4211,856.5883],[-125.0,54.4203,856.7522],[-125.0,54.25,838.1808]],
[[-125.3776,54.9953,699.7319],[-125.3807,54.9944,699.7319],[-125.385,54.999,695.1983],[-125.3859,55.0032,694.4705],[-125.3801,55.0031,711.7128],[-125.3795,55.0001,717.5625],[-125.375,54.996,743.1865],[-125.3776,54.9953,699.7319]],
[[-124.8915,54.58,827.8152],[-124.8919,54.5768,805.8998],[-124.8968,54.5769,802.3347],[-124.8969,54.5798,796.9656],[-124.8915,54.58,827.8152]],
[[-124.5,54.576,710.4278],[-124.4724,54.576,768.6918],[-124.4732,54.5578,689.4717],[-124.472,54.5547,679.0],[-124.4913,54.5642,679.3762],[-124.5237,54.5654,679.0],[-124.5234,54.5761,701.1795],[-124.5,54.576,710.4278]],
[[-124.1929,54.4677,776.8419],[-124.2553,54.4681,797.6885],[-124.2555,54.4823,966.4711],[-124.2305,54.4826,838.2879],[-124.2308,54.4969,855.5446],[-124.1809,54.4969,825.4384],[-124.1806,54.4862,790.6453],[-124.1833,54.4861,790.6453],[-124.183,54.4824,776.7596],[-124.193,54.4824,803.579],[-124.193,54.4753,781.1214],[-124.1561,54.4755,778.0983],[-124.1561,54.4702,781.3846],[-124.152,54.4702,782.2482],[-124.1523,54.463,786.2719],[-124.1558,54.463,789.352],[-124.156,54.4609,785.368],[-124.1804,54.4608,765.961],[-124.1809,54.4639,766.6757],[-124.1923,54.4643,777.776],[-124.1929,54.4677,776.8419]],
[[-124.2306,54.439,833.647],[-124.2306,54.4245,704.5624],[-124.2667,54.4249,685.1545],[-124.2646,54.4298,681.5626],[-124.2596,54.4285,685.1053],[-124.2573,54.4399,684.8849],[-124.2597,54.4429,681.1267],[-124.2713,54.4503,679.0],[-124.302,54.4577,679.0],[-124.3025,54.4651,749.2798],[-124.2801,54.4651,787.9376],[-124.28,54.4672,891.7427],[-124.274,54.4671,860.873],[-124.2738,54.4614,744.5559],[-124.2674,54.4611,747.941],[-124.2674,54.4679,838.5671],[-124.2553,54.4681,797.6885],[-124.2554,54.4611,762.3146],[-124.2511,54.4611,763.1313],[-124.2507,54.4534,707.8357],[-124.2305,54.4536,770.1147],[-124.2306,54.439,833.647]],
[[-125.9838,55.4835,686.5],[-125.9848,55.4864,686.5],[-125.9873,55.4876,686.5],[-125.9745,55.4887,735.4681],[-125.9739,55.4842,735.7242],[-125.9547,55.4844,777.5896],[-125.9558,55.4698,686.5],[-125.9828,55.4805,686.5],[-125.9838,55.4835,686.5]],
[[-126.0165,55.3146,690.5471],[-126.0166,55.3117,686.5],[-126.0201,55.3118,686.5],[-126.0205,55.3146,690.5797],[-126.0165,55.3146,690.5471]],
[[-125.1043,54.8774,689.4697],[-125.1023,54.8736,685.0],[-125.1072,54.8708,685.0],[-125.1136,54.8632,685.0],[-125.1216,54.8625,685.0],[-125.1454,54.8738,704.0705],[-125.1553,54.8712,700.0187],[-125.1588,54.8728,712.4905],[-125.1529,54.8746,697.194],[-125.1535,54.8773,689.0666],[-125.1603,54.8798,685.0],[-125.1598,54.8857,700.7715],[-125.1069,54.8872,771.6225],[-125.1043,54.8774,689.4697]],
[[-124.8996,54.8151,713.149],[-124.8994,54.8103,712.4676],[-124.912,54.8106,699.9332],[-124.9117,54.8154,726.3317],[-124.8996,54.8151,713.149]],
[[-124.8648,54.78,721.7056],[-124.8862,54.7787,701.2679],[-124.8886,54.78,697.9039],[-124.8888,54.7931,726.2759],[-124.8624,54.7934,719.8107],[-124.8617,54.7801,720.3495],[-124.8648,54.78,721.7056]],
[[-124.6885,54.6529,741.1089],[-124.688,54.6481,735.012],[-124.7033,54.6486,679.0],[-124.7037,54.6437,679.0],[-124.7117,54.6459,679.0],[-124.7421,54.6475,679.0],[-124.7418,54.65,679.0],[-124.7451,54.652,679.0],[-124.7552,54.6493,679.0],[-124.7829,54.6622,693.4259],[-124.7817,54.6648,681.0297],[-124.7821,54.6765,706.4781],[-124.7333,54.6762,742.894],[-124.7327,54.6604,701.5386],[-124.7078,54.6593,729.6622],[-124.7077,54.6532,721.6491],[-124.6885,54.6529,741.1089]],
[[-125.0583,54.5967,748.9068],[-125.0583,54.5895,831.7324],[-125.0829,54.5894,759.8036],[-125.0833,54.6004,717.8774],[-125.066,54.6,688.8672],[-125.0709,54.5972,685.4044],[-125.0583,54.5967,748.9068]],
[[-124.385,54.4205,679.0],[-124.386,54.4159,687.704],[-124.4057,54.416,689.0109],[-124.4051,54.4247,682.712],[-124.3961,54.4242,680.8857],[-124.385,54.4205,679.0]]]]}
,"properties": {"GID_3": "CAN.2.2.8_1","GID_0": "CAN","country": "Canada","GID_1": "CAN.2_1","province": "BritishColumbia","NL_NAME_1": "NA","GID_2": "CAN.2.2_1","county": "Bulkley-Nechako","NL_NAME_2": "NA","city": "Bulkley-NechakoC","VARNAME_3": "NA","NL_NAME_3": "NA","TYPE_3": "RegionalDistrictElectoralArea","ENGTYPE_3": "RegionalDistrictElectoralArea","CC_3": "NA","HASC_3": "NA","name": "Bulkley-Nechako_C.city","area_km2": 27105.39,"hist_schema_id": "Elevation0-9000","hist_area_km2": {"675": 763.35,"700": 380.94,"725": 532.67,"750": 688.13,"775": 1120.47,"800": 1058.11,"825": 1034.03,"850": 1026.01,"875": 1197.35,"900": 1034.48,"925": 1122.4,"950": 1113.45,"975": 1127.98,"1000": 1093.66,"1025": 1049.8,"1050": 940.47,"1075": 846.73,"1100": 797.23,"1125": 760.04,"1150": 741.79,"1175": 722.41,"1200": 675.51,"1225": 625.76,"1250": 571.33,"1275": 544.24,"1300": 501.93,"1325": 468.48,"1350": 447.76,"1375": 412.31,"1400": 379.58,"1425": 343.95,"1450": 321.56,"1475": 302.58,"1500": 283.64,"1525": 268.94,"1550": 247.33,"1575": 223.81,"1600": 205.44,"1625": 184.27,"1650": 164.11,"1675": 144.32,"1700": 127.42,"1725": 109.08,"1750": 93.01,"1775": 77.64,"1800": 61.84,"1825": 47.39,"1850": 36.06,"1875": 27.2,"1900": 19.85,"1925": 13.95,"1950": 9.36,"1975": 5.57,"2000": 3.65,"2025": 1.91,"2050": 1.42,"2075": 0.64,"2100": 0.42,"2125": 0.32}}}