{"type": "Feature","bbox": [-53.8097,48.6434,-53.7151,48.6943],"geometry": {"type": "MultiPolygon","coordinates": [[[[-53.8049,48.6681,52.0347],[-53.8097,48.6445,81.726],[-53.7646,48.6467,31.2935],[-53.7651,48.6434,31.0137],[-53.7522,48.6435,30.882],[-53.7472,48.6452,38.2838],[-53.7469,48.6465,29.5366],[-53.7151,48.6566,72.8051],[-53.7161,48.6608,4.2823],[-53.7253,48.6608,0.0],[-53.7311,48.6564,0.9893],[-53.7339,48.6569,0.2897],[-53.7453,48.6511,4.393],[-53.7486,48.6508,0.6938],[-53.7521,48.6556,0.0],[-53.7563,48.657,16.4387],[-53.7594,48.6611,0.0],[-53.7602,48.6635,27.2993],[-53.7589,48.6656,3.8106],[-53.7501,48.6702,0.0],[-53.7414,48.6725,2.5655],[-53.7369,48.6764,0.0],[-53.7381,48.6783,4.2253],[-53.7297,48.6786,0.0],[-53.7281,48.6817,0.0],[-53.7219,48.6842,0.0],[-53.7261,48.6872,0.0],[-53.7286,48.6853,22.0691],[-53.7425,48.6875,0.0],[-53.7419,48.6892,15.2238],[-53.7378,48.6881,0.0],[-53.7364,48.6894,0.0],[-53.7433,48.6943,4.2417],[-53.7528,48.6928,2.6591],[-53.7491,48.691,24.218],[-53.8049,48.6681,52.0347]]]]}
,"properties": {"GID_3": "CAN.5.9.19_1","GID_0": "CAN","country": "Canada","GID_1": "CAN.5_1","province": "NewfoundlandandLabrador","NL_NAME_1": "NA","GID_2": "CAN.5.9_1","county": "DivisionNo.7","NL_NAME_2": "NA","city": "Eastport","VARNAME_3": "NA","NL_NAME_3": "NA","TYPE_3": "Town","ENGTYPE_3": "Town","CC_3": "NA","HASC_3": "NA","name": "Eastport.city","area_km2": 19.31053,"hist_schema_id": "Elevation0-9000","hist_area_km2": {"0": 1.20415,"25": 8.33229,"50": 8.90577,"75": 0.79828,"100": 0.07003}}}