{"type": "Feature","bbox": [-114.1459,52.3484,-114.0977,52.3702],"geometry": {"type": "MultiPolygon","coordinates": [[[[-114.1059,52.3485,936.5],[-114.0977,52.3484,943.0987],[-114.0977,52.3495,953.9495],[-114.1015,52.3513,954.2499],[-114.1016,52.3556,971.7783],[-114.109,52.3556,970.7271],[-114.1091,52.3629,972.5561],[-114.1319,52.366,950.9563],[-114.1404,52.3702,936.5],[-114.1459,52.3656,936.5],[-114.1072,52.3496,936.5],[-114.1059,52.3485,936.5]]]]}
,"properties": {"GID_3": "CAN.1.18.3_1","GID_0": "CAN","country": "Canada","GID_1": "CAN.1_1","province": "Alberta","NL_NAME_1": "NA","GID_2": "CAN.1.18_1","county": "DivisionNo.8","NL_NAME_2": "NA","city": "Birchcliff","VARNAME_3": "NA","NL_NAME_3": "NA","TYPE_3": "SummerVillage","ENGTYPE_3": "SummerVillage","CC_3": "NA","HASC_3": "NA","name": "Birchcliff.city","area_km2": 2.537876,"hist_schema_id": "Elevation0-9000","hist_area_km2": {"925": 1.683281,"950": 0.76396,"975": 0.090636}}}