{"type":"Feature","properties":{"GID_3":"CAN.11.22.14_1","GID_0":"CAN","country":"Canada","GID_1":"CAN.11_1","province":"Québec","NL_NAME_1":"NA","GID_2":"CAN.11.22_1","county":"D'Autray","NL_NAME_2":"NA","city":"Saint-Norbert","VARNAME_3":"NA","NL_NAME_3":"NA","TYPE_3":"MunicipalitéDeParoisse","ENGTYPE_3":"ParishMunicipality","CC_3":"NA","HASC_3":"NA","name":"Saint-Norbert.city"},
"geometry":{"type": "MultiPolygon","coordinates": [[[[-73.3941,46.2183,174.3438],[-73.3553,46.1894,155.851],[-73.3647,46.1725,137.5873],[-73.2927,46.1218,45.7566],[-73.2935,46.1192,45.159],[-73.2853,46.1165,43.3325],[-73.2793,46.1178,42.6604],[-73.279,46.1195,42.1803],[-73.2723,46.1199,39.8286],[-73.2631,46.1173,38.1466],[-73.2575,46.1195,34.2725],[-73.2558,46.1193,34.2026],[-73.256,46.1158,36.8518],[-73.2521,46.1151,33.9305],[-73.2511,46.1166,36.6941],[-73.2498,46.1144,35.4733],[-73.2423,46.1135,29.2178],[-73.2361,46.1367,33.7757],[-73.2392,46.1385,36.7698],[-73.2458,46.1363,37.2545],[-73.2472,46.1401,38.6095],[-73.2503,46.1402,38.4682],[-73.2492,46.1429,39.4112],[-73.254,46.1497,41.9955],[-73.2654,46.1497,48.5343],[-73.2655,46.1523,50.3771],[-73.2682,46.1525,50.9981],[-73.2693,46.1553,53.5562],[-73.2769,46.1593,58.8908],[-73.2773,46.1612,61.4555],[-73.289,46.1619,63.0487],[-73.2943,46.1675,73.5016],[-73.2974,46.1687,73.9588],[-73.2947,46.1739,104.5341],[-73.2992,46.1783,103.847],[-73.2975,46.1828,126.7032],[-73.3016,46.1882,124.314],[-73.2995,46.1942,151.1892],[-73.3035,46.199,169.7087],[-73.3072,46.1991,168.6857],[-73.3108,46.2036,170.2367],[-73.3091,46.2063,176.4595],[-73.3036,46.2094,179.7286],[-73.321,46.2644,231.2421],[-73.3941,46.2183,174.3438]]]]}}