{"type":"Feature","properties":{"GID_3":"CAN.12.5.29_1","GID_0":"CAN","country":"Canada","GID_1":"CAN.12_1","province":"Saskatchewan","NL_NAME_1":"NA","GID_2":"CAN.12.5_1","county":"DivisionNo.14","NL_NAME_2":"NA","city":"PorcupineNo.395","VARNAME_3":"NA","NL_NAME_3":"NA","TYPE_3":"RuralMunicipality","ENGTYPE_3":"RuralMunicipality","CC_3":"NA","HASC_3":"NA","name":"Porcupine_No.395.city"},
"geometry":{"type": "MultiPolygon","coordinates": [[[[-103.1677,52.9295,519.8002],[-103.1672,52.7984,454.8972],[-103.3109,52.798,471.4092],[-103.3103,52.6672,473.6523],[-103.3024,52.6672,472.9741],[-103.3028,52.5365,523.0585],[-103.4467,52.5365,556.3428],[-103.4457,52.4051,617.6095],[-103.3033,52.4055,630.9069],[-103.3031,52.3188,645.0999],[-103.1649,52.3187,635.938],[-103.1584,52.3187,634.9631],[-103.1584,52.4054,602.8058],[-102.7268,52.4055,541.8572],[-102.726,52.6677,417.4681],[-102.7327,52.6677,419.4913],[-102.7325,52.9294,524.9539],[-103.1677,52.9295,519.8002]],
[[-103.2528,52.6036,496.913],[-103.246,52.6027,491.6484],[-103.246,52.5975,496.3485],[-103.2411,52.5954,503.789],[-103.2409,52.5896,504.2591],[-103.2655,52.5889,507.4247],[-103.2656,52.6028,498.0903],[-103.2528,52.6036,496.913]],
[[-102.8676,52.566,445.4847],[-102.8827,52.5703,448.8189],[-102.8827,52.5731,441.1607],[-102.8678,52.573,442.0592],[-102.8676,52.566,445.4847]]]]}}