{"type":"Feature","properties":{"featurecla":"River","scalerank":12,"rivernum":20467,"dissolve":"20467River","name":"null290","name_alt":null,"note":"ID is link back to CEC data","name_full":null,"min_zoom":7.0,"strokeweig":0.2,"uident":1657901,"min_label":8.0},
"geometry":{"type": "LineString","coordinates": [[-94.677113410541224,54.279120184369027,215.3018],[-94.6537166006454,54.275702215619027,240.4292],[-94.6273494131454,54.265326239056527,229.0081],[-94.6127009756454,54.256699936973192,211.2755],[-94.607045051166224,54.242987371869027,214.3508],[-94.6246638662704,54.201931056764863,232.3834],[-94.654164191791224,54.157497463014863,231.9583],[-94.695057746478724,54.111354884889863,242.9927],[-94.733143683978724,54.036078192181527,226.0],[-94.765980598041224,54.002875067181527,226.0]]}}