{"type":"Feature","properties":{"featurecla":"River","scalerank":10,"rivernum":20636,"dissolve":"20636River","name":"Burntwood1","name_alt":null,"note":"ID is link back to CEC data","name_full":"Burntwood River","min_zoom":6.0,"strokeweig":0.2,"uident":1613801,"min_label":7.0},
"geometry":{"type": "LineString","coordinates": [[-98.514881965228724,55.567653713014863,232.0],[-98.453928189187067,55.575506903119027,250.2252],[-98.365345832416224,55.602362371869027,257.2868],[-98.2621150381454,55.634833074994027,244.5396],[-98.171986457416224,55.647894598431527,236.6214],[-98.140248176166224,55.666083074994027,231.4152],[-98.109608527728724,55.696234442181527,208.2312],[-97.953724738666224,55.760931707806527,200.8595],[-97.789133267312067,55.799831447389863,209.4807],[-97.720570441791224,55.822211004681527,211.6715],[-97.584339973041224,55.877264715619027,225.3538],[-97.522328254291224,55.908026434369027,220.3776],[-97.465931769916224,55.931748765098192,212.7433],[-97.369007941791224,55.947780666139863,201.9005],[-97.344838019916224,55.953436590619027,217.4409],[-97.308827277728724,55.964544989056527,212.8234],[-97.245187954812067,55.976263739056527,203.5249],[-97.2149958975204,55.985541082806527,191.2116],[-97.191273566791224,55.998073634889863,217.3467],[-97.1515193350204,55.998887436973192,206.8378],[-97.114084439187067,55.989325262494027,204.7893],[-97.0834041006454,55.991644598431527,197.1512],[-97.029774543353724,56.018500067181527,200.3899],[-96.968617316791224,56.023138739056527,203.4854],[-96.936024543353724,56.042669989056527,195.693],[-96.925038215228724,56.065252996869027,199.0842],[-96.907215949603724,56.074245509889863,181.9526],[-96.8739314443954,56.086859442181527,182.3156],[-96.875070767312067,56.105780340619027,190.2404],[-96.903635220437067,56.118963934369027,194.5694]]}}