{"type":"Feature","properties":{"featurecla":"Lake Centerline","scalerank":10,"rivernum":20625,"dissolve":"20625Lake Centerline","name":"Burntwood4","name_alt":null,"note":"ID is link back to CEC data","name_full":"Burntwood River","min_zoom":6.0,"strokeweig":0.2,"uident":1619301,"min_label":7.0},
"geometry":{"type": "LineString","coordinates": [[-98.8907771475204,55.703314520306527,241.0],[-98.949208137103724,55.709051824994027,241.0],[-99.005848762103724,55.716864324994027,241.0],[-99.050770637103724,55.711004949994027,271.0223],[-99.087717251687067,55.712510483848192,278.683]]}}