{"type":"Feature","properties":{"featurecla":"River","scalerank":12,"rivernum":20510,"dissolve":"20510River","name":"null300","name_alt":null,"note":"ID is link back to CEC data","name_full":null,"min_zoom":7.0,"strokeweig":0.2,"uident":1642201,"min_label":8.0},
"geometry":{"type": "LineString","coordinates": [[-93.863758918353724,54.484157619264863,216.2047],[-93.8402400381454,54.483954168744027,220.5842],[-93.8197322256454,54.482001043744027,219.859],[-93.740223762103724,54.482977606244027,221.4927],[-93.6927791006454,54.494452215619027,210.9227],[-93.6539607412704,54.511175848431527,208.9158],[-93.602365689187067,54.556952215619027,209.1225],[-93.566029426166224,54.584011134889863,202.8076],[-93.541981574603724,54.597438869264863,189.5],[-93.494374152728724,54.607123114056527,203.6789],[-93.426584439187067,54.604559637494027,192.6902]]}}