{"type":"Feature","properties":{"featurecla":"River","scalerank":11,"rivernum":20523,"dissolve":"20523River","name":"Echoing1","name_alt":null,"note":"ID is link back to CEC data","name_full":"Echoing River","min_zoom":6.7,"strokeweig":0.2,"uident":1637201,"min_label":7.7},
"geometry":{"type": "LineString","coordinates": [[-92.1073298818954,55.879909572389863,90.6601],[-92.035471157937067,55.859930731244027,94.3605],[-91.844349738666224,55.837836004681527,87.149],[-91.734934048562067,55.829779364056527,96.5822],[-91.692860480853724,55.821722723431527,90.3598],[-91.653920051166224,55.812038478639863,90.5594],[-91.616281704812067,55.788641668744027,92.3122],[-91.6180720693954,55.768011785931527,83.0745],[-91.6564021475204,55.748480535931527,102.8965],[-91.7079158193954,55.717108465619027,138.059],[-91.731068488666224,55.695502020306527,111.7952],[-91.7457576162704,55.668321030723192,126.9103],[-91.740467902728724,55.657822983848192,96.847],[-91.716786262103724,55.650336004681527,97.9912],[-91.679758267312067,55.656195379681527,92.6784],[-91.591664191791224,55.653672593223192,106.2453],[-91.4742732412704,55.639919338014863,94.0809],[-91.453928189187067,55.630723374473192,91.3765],[-91.457102017312067,55.596462306764863,99.3687],[-91.429432746478724,55.566351629681527,99.9964],[-91.417591926166224,55.529852606244027,102.7702],[-91.4178767568954,55.495428778119027,92.4809],[-91.4435115225204,55.448065496869027,94.3913],[-91.5006404287704,55.386094468223192,109.1863],[-91.5223689443954,55.345485744264863,115.4792],[-91.528675910541224,55.309637762494027,113.3629],[-91.546376105853724,55.280869858848192,115.4443],[-91.568592902728724,55.267767645306527,115.1918],[-91.6439509756454,55.266465561973192,117.5963],[-91.688059048562067,55.243719793744027,114.964],[-91.702381965228724,55.216620184369027,111.0189],[-91.751210090228724,55.173203843223192,115.1669],[-91.8246150381454,55.082546291139863,115.7323],[-91.853627082416224,55.057562567181527,119.0007],[-91.8707576162704,55.023301499473192,120.7561],[-91.8714900381454,55.021918035931527,121.9501],[-91.879872199603724,54.955104884889863,133.2627],[-91.878244595437067,54.900091864056527,147.6806],[-91.865345832416224,54.874050197389863,154.1718],[-91.868234829812067,54.837998765098192,166.2514],[-91.882557746478724,54.809271551556527,153.0],[-92.032704230853724,54.670681056764863,184.0103],[-92.0460505850204,54.650417384889863,192.3558],[-92.056630012103724,54.626654364056527,189.495],[-92.064686652728724,54.599432684369027,183.811],[-92.087961392312067,54.563991603639863,198.5478]]}}