{"type":"Feature","properties":{"featurecla":"River","scalerank":12,"rivernum":20541,"dissolve":"20541River","name":"Stull1","name_alt":null,"note":"ID is link back to CEC data","name_full":"Stull River","min_zoom":7.0,"strokeweig":0.2,"uident":1632601,"min_label":8.0},
"geometry":{"type": "LineString","coordinates": [[-92.693226691791224,55.194769598431527,145.4268],[-92.669504361062067,55.181097723431527,140.7425],[-92.628244595437067,55.166571356244027,141.1091],[-92.581410285541224,55.146673895306527,144.6204],[-92.5472712881454,55.116807358848192,145.8419],[-92.5423884756454,55.099554754681527,147.2512],[-92.545521613666224,55.049750067181527,156.7918],[-92.541981574603724,55.008490301556527,161.9584],[-92.528309699603724,54.987616278119027,162.8805],[-92.483387824603724,54.942084051556527,167.0743],[-92.4737849600204,54.905829168744027,177.445],[-92.4811091787704,54.885362046348192,177.5045],[-92.506662564187067,54.858465887494027,180.1191],[-92.529611782937067,54.822821356244027,184.2988],[-92.5377498037704,54.788682358848192,190.1703],[-92.533314582416224,54.762884832806527,188.384],[-92.5260310537704,54.726507879681527,188.0407]]}}