{"type":"Feature","properties":{"featurecla":"Lake Centerline","scalerank":11,"rivernum":20458,"dissolve":"20458Lake Centerline","name":"Stevenson1","name_alt":null,"note":"ID is link back to CEC data","name_full":"Stevenson River","min_zoom":6.7,"strokeweig":0.2,"uident":1664001,"min_label":7.7},
"geometry":{"type": "LineString","coordinates": [[-95.220204230853724,54.156805731244027,213.2943],[-95.177072720437067,54.166693426556527,226.8759],[-95.091135220437067,54.200547593223192,214.3708],[-95.007801887103724,54.237005926556527,205.5126],[-94.9322810537704,54.263047593223192,198.5],[-94.880197720437067,54.270860093223192,198.5],[-94.8385310537704,54.294297593223192,236.6191],[-94.8385310537704,54.317735093223192,198.5],[-94.841135220437067,54.341172593223192,200.606],[-94.8619685537704,54.356797593223192,198.5],[-94.846791144916224,54.374701239056527,209.6085]]}}