{"type":"Feature","properties":{"featurecla":"River","scalerank":11,"rivernum":20670,"dissolve":"20670River","name":"Odei1","name_alt":null,"note":"ID is link back to CEC data","name_full":"Odei River","min_zoom":6.7,"strokeweig":0.2,"uident":1600901,"min_label":7.7},
"geometry":{"type": "LineString","coordinates": [[-98.274891730853724,56.196844793744027,247.5],[-98.286936001687067,56.173041082806527,257.7907],[-98.283192512103724,56.135199285931527,277.8643],[-98.271473762103724,56.109727280723192,264.5221],[-98.2350154287704,56.085028387494027,272.2687],[-98.230783657937067,56.071356512494027,255.7229],[-98.2442927725204,56.053656317181527,263.9948],[-98.266916470437067,56.032334702598192,269.2523],[-98.268788215228724,56.020290431764863,249.6443],[-98.210072394916224,55.984076239056527,259.0356],[-98.198963996478724,55.965521551556527,236.9535],[-98.179188605853724,55.950547593223192,232.562],[-98.135121223041224,55.939886785931527,233.2022],[-98.077219204812067,55.943304754681527,236.0337],[-98.0294490225204,55.958441473431527,243.032],[-97.9840388662704,55.964870509889863,243.593],[-97.946848111062067,55.960760809369027,218.9617],[-97.9225154287704,55.963202215619027,215.7619],[-97.8724666006454,55.988592840619027,226.2552],[-97.779164191791224,56.047919012494027,224.8049],[-97.7569880850204,56.077744858848192,226.2444],[-97.749582486062067,56.098659572389863,223.0046],[-97.717355923562067,56.120143947389863,218.9563],[-97.699208137103724,56.123968817181527,234.8318],[-97.6310115225204,56.120550848431527,228.1006],[-97.547840949603724,56.120794989056527,217.4182],[-97.522775845437067,56.114569403119027,219.2773],[-97.4779353506454,56.091579494264863,207.6974],[-97.418690558978724,56.041286525514863,204.1633],[-97.373605923562067,56.011257228639863,202.4885],[-97.3485408193954,56.004950262494027,213.8044],[-97.275013801166224,56.008327541139863,213.5052],[-97.238596157937067,56.014227606244027,237.1277],[-97.1847224600204,56.037787176556527,240.8619],[-97.152170376687067,56.055690822389863,212.4477],[-97.100819465228724,56.070502020306527,215.0483],[-97.000314907937067,56.087917384889863,204.5119],[-96.9459529287704,56.104437567181527,179.3143],[-96.903635220437067,56.118963934369027,194.5694]]}}