{"type":"Feature","properties":{"featurecla":"River","scalerank":12,"rivernum":20509,"dissolve":"20509River","name":"Red Sucker","name_alt":null,"note":"ID is link back to CEC data","name_full":"Red Sucker River","min_zoom":7.0,"strokeweig":0.2,"uident":1641701,"min_label":8.0},
"geometry":{"type": "LineString","coordinates": [[-93.426584439187067,54.604559637494027,192.6902],[-93.429921027728724,54.594305731244027,187.3959],[-93.442372199603724,54.577337957806527,189.6582],[-93.4518123037704,54.463975327598192,197.5418]]}}