{"type":"Feature","properties":{"featurecla":"River","scalerank":11,"rivernum":20633,"dissolve":"20633River","name":"Grass4","name_alt":null,"note":"ID is link back to CEC data","name_full":"Grass River","min_zoom":6.7,"strokeweig":0.2,"uident":1613301,"min_label":7.7},
"geometry":{"type": "LineString","coordinates": [[-97.7550349600204,55.634873765098192,187.968],[-97.730539517312067,55.644720770306527,186.4669],[-97.7147517568954,55.636582749473192,208.8025],[-97.704701301166224,55.626491603639863,207.6805],[-97.6893611318954,55.587347723431527,219.3564],[-97.676584439187067,55.579046942181527,198.5071],[-97.658070441791224,55.574408270306527,194.8174],[-97.6339412100204,55.576727606244027,208.2604],[-97.583851691791224,55.596869207806527,198.4507],[-97.5130916006454,55.615179754681527,205.9744]]}}