{"type":"Feature","properties":{"GID_3":"CAN.11.85.18_1","GID_0":"CAN","country":"Canada","GID_1":"CAN.11_1","province":"Québec","NL_NAME_1":"NA","GID_2":"CAN.11.85_1","county":"Papineau","NL_NAME_2":"NA","city":"Plaisance","VARNAME_3":"NA","NL_NAME_3":"NA","TYPE_3":"Municipalité","ENGTYPE_3":"Municipality","CC_3":"NA","HASC_3":"NA","name":"Plaisance.city"},
"geometry":{"type": "MultiPolygon","coordinates": [[[[-75.0688,45.5909,40.0],[-75.0686,45.5984,40.4924],[-75.0705,45.5984,40.3655],[-75.0711,45.6055,40.0],[-75.0756,45.6053,40.0],[-75.0799,45.6653,145.5098],[-75.0948,45.6564,124.9167],[-75.108,45.6511,117.2293],[-75.1282,45.6503,100.5544],[-75.1364,45.6421,82.6719],[-75.1346,45.6417,82.0557],[-75.1535,45.5784,40.0],[-75.1326,45.5766,40.0],[-75.1186,45.5777,40.0],[-75.1073,45.5802,40.0],[-75.0875,45.588,40.0],[-75.0688,45.5909,40.0]]]]}}