{"type": "Feature","bbox": [-113.2522,55.2595,-113.2157,55.2756],"geometry": {"type": "MultiPolygon","coordinates": [[[[-113.2174,55.2756,640.5511],[-113.2405,55.2752,607.7694],[-113.2405,55.2725,604.3602],[-113.2522,55.2717,592.0],[-113.2375,55.2595,592.0],[-113.2157,55.26,618.8526],[-113.2174,55.2756,640.5511]]]]}
,"properties": {"GID_3": "CAN.1.8.17_1","GID_0": "CAN","country": "Canada","GID_1": "CAN.1_1","province": "Alberta","NL_NAME_1": "NA","GID_2": "CAN.1.8_1","county": "DivisionNo.17","NL_NAME_2": "NA","city": "JeanBaptisteGambler183","VARNAME_3": "NA","NL_NAME_3": "NA","TYPE_3": "RéserveIndienne","ENGTYPE_3": "IndianReserve","CC_3": "NA","HASC_3": "NA","name": "Jean_Baptiste_Gambler183.city","area_km2": 3.116595,"hist_schema_id": "Elevation0-9000","hist_area_km2": {"600": 1.715375,"625": 1.171732,"650": 0.229488}}}