{"type":"Feature","properties":{"GID_3":"CAN.12.1.23_1","GID_0":"CAN","country":"Canada","GID_1":"CAN.12_1","province":"Saskatchewan","NL_NAME_1":"NA","GID_2":"CAN.12.1_1","county":"DivisionNo.10","NL_NAME_2":"NA","city":"Leroy","VARNAME_3":"NA","NL_NAME_3":"NA","TYPE_3":"Town","ENGTYPE_3":"Town","CC_3":"NA","HASC_3":"NA","name":"Leroy.city"},
"geometry":{"type": "MultiPolygon","coordinates": [[[[-104.7435,52.006,551.4625],[-104.7455,52.0092,551.9698],[-104.7464,51.9988,551.6117],[-104.7444,51.9987,552.2356],[-104.7444,51.9959,551.2328],[-104.7425,51.997,551.2328],[-104.7349,51.9961,550.647],[-104.7326,51.9977,550.5442],[-104.7325,52.0016,551.7914],[-104.7251,52.0056,552.0973],[-104.7333,52.0068,552.2621],[-104.7335,52.0056,552.2621],[-104.7435,52.006,551.4625]]]]}}