{"type":"Feature","properties":{"GID_3":"CAN.5.3.64_1","GID_0":"CAN","country":"Canada","GID_1":"CAN.5_1","province":"NewfoundlandandLabrador","NL_NAME_1":"NA","GID_2":"CAN.5.3_1","county":"DivisionNo.1","NL_NAME_2":"NA","city":"OldPerlican","VARNAME_3":"NA","NL_NAME_3":"NA","TYPE_3":"Town","ENGTYPE_3":"Town","CC_3":"NA","HASC_3":"NA","name":"Old_Perlican.city"},
"geometry":{"type": "MultiPolygon","coordinates": [[[[-52.9894,48.1178,15.1297],[-52.9944,48.1164,15.9562],[-52.9947,48.1131,15.4867],[-52.9983,48.1089,0.0],[-52.997,48.1012,1.5157],[-53.0139,48.1,20.7985],[-53.0097,48.0972,20.8382],[-53.0108,48.0936,3.1177],[-53.0044,48.0889,13.5628],[-53.0042,48.0856,13.0691],[-53.0086,48.0817,6.3861],[-53.0127,48.0814,5.2848],[-53.0214,48.0764,9.378],[-53.0209,48.0604,84.8715],[-52.9959,48.0592,116.2802],[-52.9719,48.0905,98.0002],[-52.9715,48.117,86.6729],[-52.9894,48.1178,15.1297]]]]}}