{"type":"Feature","properties":{"GID_3":"CAN.12.16.45_1","GID_0":"CAN","country":"Canada","GID_1":"CAN.12_1","province":"Saskatchewan","NL_NAME_1":"NA","GID_2":"CAN.12.16_1","county":"DivisionNo.7","NL_NAME_2":"NA","city":"ShamrockNo.134","VARNAME_3":"NA","NL_NAME_3":"NA","TYPE_3":"RuralMunicipality","ENGTYPE_3":"RuralMunicipality","CC_3":"NA","HASC_3":"NA","name":"Shamrock_No.134.city"},
"geometry":{"type": "MultiPolygon","coordinates": [[[[-106.4131,50.0476,673.7325],[-106.4133,50.221,682.6734],[-106.4133,50.2225,681.4166],[-106.4159,50.2227,681.1381],[-106.4164,50.2516,691.3355],[-106.4862,50.2517,663.1172],[-106.4861,50.2662,676.1913],[-106.5091,50.2662,663.2856],[-106.509,50.2808,670.3432],[-106.532,50.2807,663.0],[-106.5319,50.2953,663.817],[-106.5542,50.2953,662.9941],[-106.5541,50.3098,664.4479],[-106.8293,50.3101,717.8026],[-106.83,50.2226,726.1236],[-106.824,50.2225,727.397],[-106.8234,50.0475,699.4073],[-106.4131,50.0476,673.7325]],
[[-106.6194,50.1569,724.4733],[-106.6355,50.1569,727.2769],[-106.6356,50.1604,725.3967],[-106.63,50.1604,727.1705],[-106.6298,50.1644,717.6056],[-106.6194,50.1644,716.1696],[-106.6194,50.1569,724.4733]]]]}}