{"type":"Feature","properties":{"GID_3":"CAN.2.7.9_1","GID_0":"CAN","country":"Canada","GID_1":"CAN.2_1","province":"BritishColumbia","NL_NAME_1":"NA","GID_2":"CAN.2.7_1","county":"CentralOkanagan","NL_NAME_2":"NA","city":"Tsinstikeptum10","VARNAME_3":"NA","NL_NAME_3":"NA","TYPE_3":"RéserveIndienne","ENGTYPE_3":"IndianReserve","CC_3":"NA","HASC_3":"NA","name":"Tsinstikeptum10.city"},
"geometry":{"type": "MultiPolygon","coordinates": [[[[-119.5336,49.8971,339.0],[-119.5466,49.8953,453.0823],[-119.5472,49.8739,437.7614],[-119.5264,49.8732,339.0],[-119.5267,49.8754,340.6089],[-119.5214,49.8805,339.0],[-119.5198,49.888,339.0],[-119.522,49.8922,339.0],[-119.531,49.8943,339.0],[-119.5336,49.8971,339.0]]]]}}