{"type": "Feature","bbox": [-115.611,52.7558,-112.8408,54.0221],"geometry": {"type": "MultiPolygon","coordinates": [[[[-113.1662,53.1195,768.1656],[-113.1717,53.1195,765.0867],[-113.1706,53.1676,753.2268],[-113.1841,53.1679,753.1874],[-113.1841,53.2125,760.4296],[-113.1716,53.2126,764.0029],[-113.1717,53.2359,774.043],[-113.0497,53.2356,763.9962],[-113.0499,53.2942,758.0369],[-113.0,53.2941,759.9451],[-113.0,53.3377,770.3168],[-113.0256,53.3376,757.1095],[-113.0257,53.3487,759.9379],[-113.0503,53.3484,766.4299],[-113.0501,53.3598,757.037],[-113.0452,53.3592,756.6367],[-113.0336,53.3511,763.4833],[-113.0274,53.351,757.2711],[-112.9939,53.3635,760.2025],[-112.9813,53.3622,758.4116],[-112.9593,53.3671,771.6199],[-112.8408,53.367,762.5632],[-112.8408,53.4106,737.6323],[-112.853,53.4105,739.3881],[-112.853,53.4542,765.335],[-112.8777,53.4543,746.1182],[-112.8778,53.4686,759.3425],[-112.9024,53.4687,749.3162],[-112.9023,53.4832,748.9559],[-112.9514,53.4831,758.8425],[-112.951,53.6285,723.1946],[-112.9265,53.6284,725.1818],[-112.9264,53.6432,721.0156],[-112.9022,53.6432,715.3454],[-112.9021,53.6579,724.4481],[-112.8776,53.6578,716.8215],[-112.8773,53.716,724.5178],[-112.9262,53.716,704.2761],[-112.9262,53.7746,680.9703],[-112.9512,53.7746,666.9847],[-112.951,53.8572,619.1528],[-112.954,53.863,619.7097],[-112.95,53.8761,617.4828],[-112.9554,53.8781,614.2491],[-112.9614,53.8835,611.8067],[-112.9602,53.8856,604.4404],[-112.9317,53.905,585.375],[-112.8878,53.9253,611.1422],[-112.867,53.9401,583.0],[-112.8482,53.9683,598.1],[-112.8477,53.978,596.1965],[-113.3478,53.978,664.9867],[-113.3479,54.0221,650.1039],[-113.5703,54.0216,665.308],[-113.5704,54.0071,673.0615],[-113.6696,54.0072,672.3924],[-113.6698,53.9927,689.0872],[-113.7811,53.9928,698.5925],[-113.781,53.9637,719.7852],[-113.8057,53.9637,709.3419],[-113.8059,53.9199,713.4081],[-113.8677,53.9199,727.8243],[-113.8676,53.9048,725.5636],[-113.9796,53.9049,695.0773],[-113.9795,53.9125,695.0591],[-113.9921,53.9126,695.5785],[-113.9923,53.9266,712.8964],[-114.0513,53.9266,725.7242],[-114.0516,53.8476,711.1582],[-114.0296,53.8476,711.138],[-114.0297,53.7882,695.7195],[-114.0322,53.7885,695.756],[-114.0313,53.778,695.6688],[-114.0301,53.7753,695.6618],[-114.0265,53.7753,695.71],[-114.0267,53.6575,778.1064],[-114.1245,53.6575,742.3347],[-114.1237,53.5993,753.0703],[-114.2476,53.5992,767.2423],[-114.2473,53.6139,794.7605],[-114.6897,53.6137,778.1973],[-114.6901,53.6263,728.0],[-114.688,53.6294,728.0],[-114.7389,53.6285,728.0],[-114.7455,53.6264,728.0],[-114.7533,53.628,728.0],[-114.7601,53.6246,728.0],[-114.7768,53.6202,728.9736],[-114.7796,53.6174,730.8862],[-114.7817,53.6044,728.7994],[-114.7984,53.5998,728.0],[-114.8069,53.5955,728.0],[-114.8165,53.5977,728.0],[-114.8131,53.6029,733.9825],[-114.8125,53.7164,821.3419],[-114.8941,53.715,695.4222],[-114.9116,53.7162,700.3866],[-114.9188,53.712,721.1472],[-114.8936,53.7076,698.2866],[-114.8933,53.7053,696.1388],[-114.8999,53.7009,720.9822],[-114.8978,53.6975,719.9464],[-114.8823,53.7041,697.9821],[-114.8795,53.6979,695.1392],[-114.8737,53.6939,696.6157],[-114.8776,53.6918,706.1245],[-114.8843,53.693,706.8427],[-114.8861,53.6899,718.3416],[-114.8797,53.6885,697.6163],[-114.8784,53.6855,705.0468],[-114.8902,53.6759,719.6743],[-114.9005,53.6766,700.5638],[-114.9032,53.6738,712.825],[-114.8987,53.6696,705.6273],[-114.9008,53.6665,720.6227],[-114.9162,53.6608,714.2614],[-114.9168,53.6554,773.7627],[-114.9195,53.6535,788.1576],[-114.9273,53.6549,772.0363],[-114.9338,53.6512,781.2205],[-114.9471,53.6566,709.6415],[-114.9543,53.6385,722.7232],[-114.9611,53.6332,755.1648],[-114.9578,53.6282,709.2031],[-114.9677,53.6141,719.9327],[-114.9747,53.6118,724.7996],[-114.9746,53.6058,763.7811],[-114.9853,53.6065,716.7119],[-114.9885,53.6015,780.2623],[-115.0044,53.6052,728.6293],[-115.0088,53.6025,769.7613],[-115.0102,53.5861,750.732],[-115.006,53.5838,735.36],[-115.0056,53.5817,766.3068],[-115.0132,53.5783,783.8885],[-115.0065,53.5746,743.745],[-115.0063,53.5716,769.3181],[-115.0145,53.5666,755.0046],[-115.0133,53.5649,742.9839],[-115.0076,53.5648,737.8066],[-115.0073,53.5618,791.5159],[-115.0149,53.5604,744.2009],[-115.02,53.5624,744.4538],[-115.0211,53.5604,793.9803],[-115.0138,53.5539,765.5601],[-115.0158,53.5492,769.9071],[-115.0139,53.5466,769.5209],[-115.0232,53.5424,794.9918],[-115.0238,53.5387,792.8835],[-115.0167,53.5378,797.2729],[-115.0091,53.5415,757.0842],[-115.0061,53.5408,749.6259],[-115.0058,53.5385,767.3735],[-115.0156,53.5334,791.2615],[-115.0148,53.5315,791.5583],[-115.0038,53.5303,756.6733],[-115.0027,53.528,767.434],[-115.0063,53.525,768.3743],[-115.0188,53.5219,791.778],[-115.0174,53.5193,795.1955],[-115.002,53.519,780.0001],[-114.9977,53.5148,761.9664],[-114.9939,53.5145,788.6384],[-114.9935,53.5124,802.7155],[-115.0045,53.5113,767.6149],[-115.0078,53.5081,777.4572],[-115.0133,53.5075,772.2029],[-115.0156,53.5035,800.2835],[-115.0149,53.5007,798.7175],[-115.0055,53.5015,785.5683],[-115.0046,53.4959,778.463],[-114.9978,53.4953,765.1276],[-114.9973,53.492,767.162],[-115.0026,53.488,779.0621],[-115.0034,53.4837,767.731],[-114.9979,53.476,768.6753],[-115.0015,53.4728,790.3812],[-115.0135,53.4683,781.4348],[-115.0211,53.4602,794.8167],[-115.0388,53.4561,794.7566],[-115.0428,53.4529,788.2174],[-115.0391,53.4437,819.1658],[-115.043,53.4414,816.7695],[-115.0471,53.4442,797.7613],[-115.0521,53.4397,812.3682],[-115.0646,53.4497,803.369],[-115.0702,53.4506,815.8325],[-115.0727,53.4493,813.1702],[-115.0729,53.4464,801.6011],[-115.063,53.4395,803.0108],[-115.0618,53.4332,822.2062],[-115.064,53.4315,820.4464],[-115.0711,53.4327,813.3677],[-115.0794,53.442,799.1106],[-115.0911,53.4416,819.9467],[-115.0934,53.4394,813.8456],[-115.0908,53.4364,802.3498],[-115.0798,53.4356,794.8145],[-115.0794,53.4273,797.6458],[-115.0828,53.4231,815.8589],[-115.093,53.4337,797.6409],[-115.1035,53.4345,805.2557],[-115.0995,53.4308,800.6327],[-115.1071,53.427,800.2744],[-115.1068,53.4226,832.9041],[-115.1013,53.4206,819.4663],[-115.1003,53.4155,817.0962],[-115.0953,53.4136,797.4132],[-115.1019,53.4092,815.0529],[-115.1026,53.403,822.671],[-115.1063,53.4014,804.3552],[-115.1191,53.4032,836.3419],[-115.1227,53.4002,813.8446],[-115.1201,53.3975,811.2235],[-115.112,53.3977,829.7202],[-115.1032,53.3953,808.4168],[-115.1084,53.3921,805.7801],[-115.1096,53.3874,817.9336],[-115.1134,53.3856,823.8499],[-115.1089,53.3825,811.4823],[-115.1143,53.3783,816.5691],[-115.1129,53.3752,810.9212],[-115.1162,53.3699,824.0021],[-115.1148,53.3669,821.61],[-115.6106,53.3668,957.3778],[-115.611,53.0197,1054.7444],[-115.5983,53.0191,1044.2307],[-115.5974,52.9454,959.5],[-115.594,52.9417,959.5],[-115.5934,52.9365,979.3497],[-115.6012,52.9335,959.5],[-115.6009,52.9288,959.5],[-115.5958,52.9258,959.5],[-115.5999,52.9232,959.5],[-115.5973,52.9237,965.9088],[-115.5981,52.8431,999.1379],[-115.5005,52.8439,964.0292],[-115.502,52.8583,959.5742],[-115.2811,52.8589,941.0233],[-115.2825,52.843,938.6975],[-115.1602,52.8431,852.6268],[-115.1648,52.8454,887.3983],[-115.1653,52.8525,865.9616],[-115.1587,52.8581,854.045],[-115.1696,52.8625,891.7123],[-115.1751,52.8693,894.8981],[-115.1886,52.8732,897.8663],[-115.1881,52.8788,865.0726],[-115.1847,52.8841,828.9727],[-115.1913,52.8917,862.1479],[-115.2107,52.8964,884.9465],[-115.2302,52.9066,877.4854],[-115.2314,52.9127,838.7596],[-115.2239,52.9101,820.0828],[-115.2264,52.9197,815.4771],[-115.211,52.9341,808.5],[-115.2072,52.9403,829.2811],[-115.2098,52.9476,806.0],[-115.2015,52.9603,824.1451],[-115.201,52.9654,811.3757],[-115.2125,52.984,804.2672],[-115.2066,53.0006,801.0966],[-115.2078,53.0067,805.3771],[-115.2179,53.0188,795.8107],[-115.2259,53.034,795.2037],[-115.2132,53.0415,797.9936],[-115.205,53.049,835.1031],[-115.1973,53.0517,805.5253],[-115.1025,53.0488,827.0417],[-115.0918,53.0511,811.8115],[-115.0791,53.0643,788.0296],[-115.0698,53.0651,794.7844],[-115.0479,53.0536,778.8687],[-115.0418,53.0534,804.9216],[-115.0294,53.0642,764.5],[-115.024,53.0642,780.7162],[-115.0244,53.018,880.2418],[-115.0157,53.0181,901.5872],[-115.0159,52.8436,939.2895],[-114.5334,52.8434,990.751],[-114.5335,52.8873,981.863],[-114.145,52.8871,899.0946],[-114.1451,52.8725,942.9039],[-114.0985,52.8725,871.4828],[-114.0985,52.8652,907.4166],[-114.0609,52.8651,862.2404],[-114.0605,52.8581,883.5649],[-114.0502,52.8579,864.0405],[-114.0501,52.8438,914.5813],[-113.4993,52.8432,833.615],[-113.4994,52.8287,850.2485],[-113.4871,52.8287,838.3875],[-113.4872,52.8246,831.2079],[-113.4587,52.8248,807.9233],[-113.4588,52.8212,805.6182],[-113.3664,52.8214,788.4415],[-113.3663,52.8432,786.3013],[-113.2935,52.8433,771.5786],[-113.2935,52.8323,768.1439],[-113.3041,52.8319,766.5972],[-113.3076,52.828,772.2548],[-113.3098,52.8215,772.3641],[-113.3067,52.8183,773.8995],[-113.298,52.8178,768.7607],[-113.2975,52.8152,770.0841],[-113.3016,52.8135,772.8794],[-113.2995,52.8111,772.3904],[-113.3058,52.806399999999996,772.4907],[-113.3009,52.8044,774.83],[-113.3025,52.7993,776.5364],[-113.3091,52.7947,777.9168],[-113.3076,52.793,779.7034],[-113.3028,52.7924,773.7014],[-113.3018,52.7902,777.9034],[-113.3137,52.7826,782.2366],[-113.3087,52.7793,778.7247],[-113.2971,52.7767,775.8676],[-113.2884,52.7696,772.7925],[-113.2756,52.7637,772.4493],[-113.2605,52.7599,772.1055],[-113.2566,52.7619,772.0276],[-113.2475,52.7625,772.9291],[-113.2409,52.7585,771.5201],[-113.2334,52.7581,771.7057],[-113.2303,52.7558,776.3317],[-113.0517,52.7558,782.5312],[-113.0518,52.8432,757.5812],[-113.1245,52.8435,769.0389],[-113.1245,52.9742,694.1083],[-113.1001,52.9741,693.1132],[-113.0999,53.0179,745.2314],[-113.097,53.0178,743.6844],[-113.0976,53.033,735.6581],[-113.0728,53.0333,735.4245],[-113.0743,53.0761,737.1956],[-113.0979,53.0763,737.1545],[-113.0988,53.1197,756.9606],[-113.1662,53.1195,768.1656]]]]}
,"properties": {"GID_2": "CAN.1.2_1","GID_0": "CAN","country": "Canada","GID_1": "CAN.1_1","province": "Alberta","NL_NAME_1": "NA","county": "DivisionNo.11","VARNAME_2": "NA","NL_NAME_2": "NA","TYPE_2": "CensusDivision","ENGTYPE_2": "CensusDivision","CC_2": "11","HASC_2": "CA.AB.EL","name": "Division_No.11.county","area_km2": 16391.9,"hist_schema_id": "Elevation0-9000","hist_area_km2": {"575": 1.7,"600": 63.01,"625": 470.85,"650": 647.78,"675": 1207.86,"700": 1995.46,"725": 1642.91,"750": 2190.07,"775": 1826.32,"800": 1101.49,"825": 781.28,"850": 915.78,"875": 760.01,"900": 802.86,"925": 750.88,"950": 553.99,"975": 435.29,"1000": 165.73,"1025": 66.96,"1050": 9.96,"1075": 1.39,"1100": 0.32}}}