{"type":"Feature","properties":{"GID_3":"CAN.3.8.17_1","GID_0":"CAN","country":"Canada","GID_1":"CAN.3_1","province":"Manitoba","NL_NAME_1":"NA","GID_2":"CAN.3.8_1","county":"DivisionNo.17","NL_NAME_2":"NA","city":"Ste.Rose","VARNAME_3":"NA","NL_NAME_3":"NA","TYPE_3":"RuralMunicipality","ENGTYPE_3":"RuralMunicipality","CC_3":"NA","HASC_3":"NA","name":"Ste.Rose.city"},
"geometry":{"type": "MultiPolygon","coordinates": [[[[-99.43,51.1845,272.0796],[-99.5475,51.1848,262.6927],[-99.5473,51.1254,261.9785],[-99.594,51.1256,261.2923],[-99.5935,50.9486,290.5732],[-99.5781,50.9486,293.3997],[-99.5779,50.861,300.4099],[-99.2752,50.8602,311.3115],[-99.2756,50.9489,299.7833],[-99.2897,50.949,301.4888],[-99.2897,51.0369,287.2328],[-99.3599,51.0371,277.8382],[-99.3603,51.1262,272.9196],[-99.4296,51.1261,268.5069],[-99.43,51.1845,272.0796]],
[[-99.5109,51.0667,266.8356],[-99.5122,51.0554,268.2531],[-99.5111,51.0553,268.5623],[-99.5113,51.0517,268.5405],[-99.5357,51.0513,266.4795],[-99.534,51.062,265.8925],[-99.5405,51.0664,265.039],[-99.5323,51.0664,266.345],[-99.5109,51.0667,266.8356]]]]}}