{"type":"Feature","properties":{"featurecla":"River","scalerank":12,"rivernum":21977,"dissolve":"21977River","name":"San Juan","name_alt":null,"note":"ID is link back to CEC data","name_full":"San Juan River","min_zoom":7.0,"strokeweig":0.2,"uident":1747401,"min_label":8.0},
"geometry":{"type": "LineString","coordinates": [[-123.91291256418705,48.627630926556527,629.9839],[-123.93879147043705,48.624945379681527,766.8954],[-123.94538326731205,48.624050197389863,906.4346],[-123.95995032460372,48.617499090619027,782.271],[-123.98546301991622,48.604925848431527,432.2432],[-124.01366126210372,48.595485744264863,408.2376],[-124.03514563710372,48.597683009889863,509.4694],[-124.09972083241622,48.597601629681527,393.4887],[-124.18635006418705,48.604193426556527,180.1533],[-124.27196204335372,48.604274806764863,117.5138],[-124.37743079335372,48.593573309369027,227.017],[-124.39557857981205,48.586127020306527,128.2249],[-124.42406165272872,48.567938543744027,0.0]]}}