{"type":"Feature","properties":{"featurecla":"River","scalerank":11,"rivernum":20791,"dissolve":"20791River","name":"Owl1","name_alt":null,"note":"ID is link back to CEC data","name_full":"Owl River","min_zoom":6.7,"strokeweig":0.2,"uident":1550101,"min_label":7.7},
"geometry":{"type": "LineString","coordinates": [[-94.219227668353724,57.371527410931527,110.0044],[-94.218983527728724,57.371527410931527,110.0044],[-94.167551236062067,57.390204168744027,105.3752],[-94.119252082416224,57.412380275514863,101.2598],[-94.003854946999567,57.427069403119027,88.2331],[-93.945912238666224,57.440456447389863,81.8926],[-93.900461392312067,57.464300848431527,80.1131],[-93.867665168353724,57.494981186973192,75.3805],[-93.834950324603724,57.515448309369027,74.1791],[-93.754261848041224,57.538926499473192,70.5995],[-93.676258918353724,57.569199936973192,65.5941],[-93.5748591787704,57.616522528119027,57.6734],[-93.506947394916224,57.631374416139863,56.1763],[-93.464344855853724,57.649847723431527,52.5421],[-93.4542537100204,57.661810614056527,50.65],[-93.437611457416224,57.675482489056527,51.415],[-93.391590949603724,57.695624090619027,51.0509],[-93.3385310537704,57.729518947389863,46.4003],[-93.280344204812067,57.735663153119027,45.8877],[-93.231312629291224,57.745306707806527,41.6978],[-93.1192927725204,57.793809311973192,31.832],[-93.053334113666224,57.818711655723192,27.7041],[-93.004261848041224,57.830104884889863,24.1483],[-92.910267707416224,57.832098699994027,18.2887],[-92.7857966787704,57.839422918744027,6.5656]]}}