{"type":"Feature","properties":{"featurecla":"River","scalerank":12,"rivernum":20708,"dissolve":"20708River","name":"Laurie","name_alt":null,"note":"ID is link back to CEC data","name_full":"Laurie River","min_zoom":7.0,"strokeweig":0.2,"uident":1589301,"min_label":8.0},
"geometry":{"type": "LineString","coordinates": [[-101.22179114491622,56.389349676556527,325.38],[-101.22272701731207,56.359808660931527,318.5113],[-101.23131262929122,56.338649806764863,337.4913],[-101.23192298085372,56.324733791139863,348.6005],[-101.21495520741622,56.317084051556527,309.0],[-101.1974177725204,56.323268947389863,349.6694],[-101.18138587147872,56.337958074994027,345.3362],[-101.15794837147872,56.346218166139863,341.9179],[-101.1446833975204,56.341823634889863,315.1432],[-101.14159094960372,56.324652410931527,335.1351],[-101.15021725168707,56.303412176556527,309.0],[-101.14533443918707,56.275987046348192,310.2226],[-101.12584387929122,56.254584051556527,309.0],[-101.1022029287704,56.243841864056527,309.6187],[-101.0628962881454,56.232123114056527,304.5057],[-101.02232825429122,56.248236395306527,317.6832],[-100.99689693918707,56.244452215619027,304.1674],[-100.96837317616622,56.223456121869027,286.1547],[-100.94066321522872,56.224961655723192,295.7686],[-100.88923092356207,56.232936916139863,292.9476],[-100.74266516835372,56.228583074994027,274.2825],[-100.6925349600204,56.223456121869027,274.9873]]}}