{"type":"Feature","properties":{"featurecla":"Lake Centerline","scalerank":10,"rivernum":20786,"dissolve":"20786Lake Centerline","name":"null1294","name_alt":null,"note":"ID is link back to CEC data","name_full":null,"min_zoom":6.0,"strokeweig":0.2,"uident":1561001,"min_label":7.0},
"geometry":{"type": "LineString","coordinates": [[-101.0279841787704,56.956366278119027,345.0],[-101.0416560537704,56.979193426556527,345.5009],[-101.10936438710372,57.023504949994027,345.0],[-101.13801022043707,57.039129949994027,348.0917],[-101.18488522043707,57.059922593223192,345.0],[-101.24998938710372,57.075873114056527,351.2482]]}}