{"type":"Feature","properties":{"featurecla":"Lake Centerline","scalerank":10,"rivernum":20737,"dissolve":"20737Lake Centerline","name":"Keewatin1","name_alt":null,"note":"ID is link back to CEC data","name_full":"Keewatin River","min_zoom":6.0,"strokeweig":0.2,"uident":1579801,"min_label":7.0},
"geometry":{"type": "LineString","coordinates": [[-100.6939998037704,56.352850653119027,296.9707],[-100.62694251210372,56.326239324994027,265.0951],[-100.56444251210372,56.291083074994027,276.9343],[-100.53514563710372,56.253973699994027,277.2637]]}}