{"type":"Feature","properties":{"featurecla":"River","scalerank":8,"rivernum":655,"dissolve":"655River","name":"Thlewiaza3","name_alt":null,"note":null,"min_zoom":7.0,"strokeweig":0.2,"name_en":"Thlewiaza","min_label":8.0},
"geometry":{"type": "LineString","coordinates": [[-101.8828125,59.96344635624412,345.2556],[-101.86801757812499,59.942743231244123,332.0],[-101.86101074218749,59.929950262494117,351.7062],[-101.85825195312499,59.91254303593162,344.8654],[-101.853759765625,59.90900299686912,344.4685],[-101.83220214843749,59.910419012494117,349.0807],[-101.82475585937499,59.909442449994117,351.7631],[-101.81982421875,59.90350983280662,353.8366],[-101.81840820312499,59.897235418744117,363.6623],[-101.818359375,59.890252996869123,357.4038],[-101.81730957031249,59.882098699994117,359.0677],[-101.83354492187499,59.868670965619117,363.9447],[-101.826171875,59.854608465619123,361.4647],[-101.807373046875,59.84223053593162,395.4285],[-101.78940429687499,59.83368561405662,389.1492],[-101.77792968749999,59.83124420780662,396.4711],[-101.76708984375,59.830585028119117,393.9424],[-101.759033203125,59.82721588749412,392.863],[-101.755859375,59.81659577030662,410.3542],[-101.75375976562499,59.802118231244123,394.3018],[-101.74741210937499,59.79511139530662,382.6349],[-101.73666992187499,59.792840887494123,381.8451],[-101.69711914062499,59.79193756718162,383.6559],[-101.67998046874999,59.78754303593162,398.7413],[-101.66977539062499,59.776385809369117,383.232],[-101.66650390625,59.75519440311912,371.4427],[-101.65349121093749,59.74371979374412,360.1082],[-101.59929199218749,59.736444403119123,360.3599],[-101.59140625,59.73126862186912,353.5393],[-101.53801269531249,59.72052643436912,347.2451],[-101.45646972656249,59.715594793744117,348.1709],[-101.43271484374999,59.709979559369117,340.7612],[-101.411865234375,59.70111725468162,339.4604],[-101.39213867187499,59.689715887494117,341.3461],[-101.36088867187499,59.66522858280662,343.7338],[-101.34555664062499,59.65814850468162,343.4538],[-101.32080078125,59.655536199994117,335.5895],[-101.309326171875,59.65888092655662,340.8842],[-101.289306640625,59.673456121869123,333.3953],[-101.27670898437499,59.676629949994123,333.4221],[-101.26743164062499,59.67389557499412,333.3577],[-101.25163574218749,59.660907293744117,344.6575],[-101.241943359375,59.655536199994117,330.5]]}}