{"type":"Feature","properties":{"featurecla":"Lake","scalerank":4,"name":"null12","name_abb":null,"name_alt":null,"note":"_untitled_0","delta":null,"dam_name":null,"year":-99,"admin":null,"min_zoom":4.0,"min_label":5.0},
"geometry":{"type": "Polygon","coordinates": [[[-101.99554703654746,57.021977573002005,360.2073],[-101.99687167511955,57.02080011649349,360.2073],[-101.99687167511955,57.02080011649349,360.2073],[-101.99539985448389,57.021977573002005,360.2073],[-101.99554703654746,57.021977573002005,360.2073]]]}}