{"type":"Feature","properties":{"GID_3":"CAN.2.8.9_1","GID_0":"CAN","country":"Canada","GID_1":"CAN.2_1","province":"BritishColumbia","NL_NAME_1":"NA","GID_2":"CAN.2.8_1","county":"Columbia-Shuswap","NL_NAME_2":"NA","city":"Hustalen1","VARNAME_3":"NA","NL_NAME_3":"NA","TYPE_3":"RéserveIndienne","ENGTYPE_3":"IndianReserve","CC_3":"NA","HASC_3":"NA","name":"Hustalen1.city"},
"geometry":{"type": "MultiPolygon","coordinates": [[[[-119.6686,50.9584,456.8676],[-119.6685,50.9557,454.0183],[-119.6582,50.948,423.8976],[-119.6578,50.9428,417.2596],[-119.6549,50.9395,418.0122],[-119.6515,50.9413,429.3091],[-119.6353,50.9431,506.5021],[-119.6213,50.9503,525.216],[-119.6144,50.9573,579.6161],[-119.609,50.9603,600.717],[-119.6038,50.9651,628.5215],[-119.603,50.9707,641.7462],[-119.6261,50.9704,1206.572],[-119.6686,50.9584,456.8676]]]]}}