{"type":"Feature","properties":{"GID_3":"CAN.9.34.5_1","GID_0":"CAN","country":"Canada","GID_1":"CAN.9_1","province":"Ontario","NL_NAME_1":"NA","GID_2":"CAN.9.34_1","county":"Northumberland","NL_NAME_2":"NA","city":"Cobourg","VARNAME_3":"NA","NL_NAME_3":"NA","TYPE_3":"Town","ENGTYPE_3":"Town","CC_3":"NA","HASC_3":"NA","name":"Cobourg.city"},
"geometry":{"type": "MultiPolygon","coordinates": [[[[-78.1204,43.9557,73.5],[-78.1387,43.9962,133.8527],[-78.1456,43.9933,140.659],[-78.1609,43.9922,118.3069],[-78.1702,43.9872,114.873],[-78.1863,43.9819,102.8949],[-78.2061,43.9788,107.5191],[-78.2028,43.9706,104.3315],[-78.2149,43.9677,91.6434],[-78.2058,43.9485,73.5],[-78.1956,43.9521,73.5],[-78.1791,43.9539,77.8439],[-78.1204,43.9557,73.5]]]]}}