{"type":"Feature","properties":{"GID_3":"CAN.11.45.11_1","GID_0":"CAN","country":"Canada","GID_1":"CAN.11_1","province":"Québec","NL_NAME_1":"NA","GID_2":"CAN.11.45_1","county":"LaVallée-de-la-Gatineau","NL_NAME_2":"NA","city":"Gracefield","VARNAME_3":"NA","NL_NAME_3":"NA","TYPE_3":"Village","ENGTYPE_3":"Village","CC_3":"NA","HASC_3":"NA","name":"Gracefield.city"},
"geometry":{"type": "MultiPolygon","coordinates": [[[[-76.0427,46.0998,186.2375],[-76.0425,46.1053,160.0981],[-76.0572,46.1051,222.672],[-76.0578,46.0882,160.4639],[-76.0668,46.0858,179.1622],[-76.0607,46.0818,160.7736],[-76.0477,46.0818,145.2054],[-76.045,46.0877,144.4205],[-76.0474,46.0937,142.2106],[-76.0428,46.0975,142.8928],[-76.0427,46.0998,186.2375]]]]}}