{"type":"Feature","properties":{"GID_3":"CAN.11.22.1_1","GID_0":"CAN","country":"Canada","GID_1":"CAN.11_1","province":"Québec","NL_NAME_1":"NA","GID_2":"CAN.11.22_1","county":"D'Autray","NL_NAME_2":"NA","city":"Berthierville","VARNAME_3":"NA","NL_NAME_3":"NA","TYPE_3":"Ville","ENGTYPE_3":"Ville","CC_3":"NA","HASC_3":"NA","name":"Berthierville.city"},
"geometry":{"type": "MultiPolygon","coordinates": [[[[-73.1757,46.095,13.3379],[-73.1975,46.0955,11.0431],[-73.2006,46.0912,13.5031],[-73.1993,46.0901,9.6142],[-73.2022,46.0899,10.7091],[-73.2061,46.0742,17.3149],[-73.1937,46.0668,11.8057],[-73.1842,46.0664,10.8383],[-73.1829,46.0756,14.0841],[-73.1769,46.0883,11.5206],[-73.1757,46.095,13.3379]]]]}}