{"type": "Feature","bbox": [-60.1556,53.5237,-60.1231,53.5508],"geometry": {"type": "MultiPolygon","coordinates": [[[[-60.1539,53.5508,1.1627],[-60.1556,53.5469,0.0],[-60.1528,53.5439,12.454],[-60.1533,53.5375,0.0],[-60.1516,53.5356,8.5577],[-60.1527,53.5247,4.3872],[-60.1352,53.5237,0.0],[-60.1346,53.5247,0.7018],[-60.1387,53.5309,1.9316],[-60.1377,53.5379,0.0],[-60.133,53.5411,6.5436],[-60.1231,53.5443,6.6764],[-60.1539,53.5508,1.1627]]]]}
,"properties": {"GID_3": "CAN.5.1.16_1","GID_0": "CAN","country": "Canada","GID_1": "CAN.5_1","province": "NewfoundlandandLabrador","NL_NAME_1": "NA","GID_2": "CAN.5.1_1","county": "DivisionNo.10","NL_NAME_2": "NA","city": "NorthWestRiver","VARNAME_3": "NA","NL_NAME_3": "NA","TYPE_3": "Town","ENGTYPE_3": "Town","CC_3": "NA","HASC_3": "NA","name": "North_West_River.city","area_km2": 3.25089,"hist_schema_id": "Elevation0-9000","hist_area_km2": {"0": 1.713665,"25": 1.209655,"50": 0.289775,"75": 0.037795}}}