{"type": "Feature","bbox": [-53.996,48.8631,-53.8953,48.9028],"geometry": {"type": "MultiPolygon","coordinates": [[[[-53.9811,48.8652,1.3838],[-53.9756,48.8678,2.0144],[-53.9744,48.8667,7.2077],[-53.9781,48.8639,0.0],[-53.9772,48.8631,1.376],[-53.9649,48.8644,1.36],[-53.9642,48.8685,1.817],[-53.9682,48.8698,0.2089],[-53.9685,48.8714,0.0],[-53.9602,48.877,0.0],[-53.9679,48.8793,4.2963],[-53.9586,48.8833,0.0],[-53.9495,48.882,0.0],[-53.9243,48.8889,31.7873],[-53.9201,48.8885,0.0],[-53.9149,48.8851,0.0],[-53.9084,48.8905,7.5139],[-53.8953,48.8922,0.0],[-53.8978,48.8942,0.0],[-53.9061,48.8944,4.6297],[-53.9007,48.8978,1.5724],[-53.9012,48.8989,0.0],[-53.9161,48.8981,9.1235],[-53.915,48.9,0.0],[-53.9167,48.9017,1.3535],[-53.9225,48.9028,4.4194],[-53.9407,48.9005,0.0],[-53.9461,48.8978,0.4103],[-53.9481,48.8947,1.5444],[-53.9759,48.8963,4.4253],[-53.9783,48.8948,6.5137],[-53.9757,48.8925,8.9758],[-53.9657,48.8935,0.0],[-53.9607,48.8925,2.898],[-53.9611,48.8909,2.731],[-53.9669,48.8884,2.0443],[-53.9661,48.8872,2.0443],[-53.9603,48.8878,-0.5187],[-53.9558,48.8864,-1.6142],[-53.9644,48.8839,-3.5],[-53.9731,48.8853,9.8472],[-53.9847,48.8839,-3.5],[-53.9929,48.8872,0.0],[-53.996,48.8862,7.1758],[-53.9925,48.8809,28.9558],[-53.9889,48.8704,24.2192],[-53.9848,48.8657,72.8998],[-53.9811,48.8652,1.3838]]],
[[[-53.9769,48.8889,0.0],[-53.9786,48.8906,0.0],[-53.9814,48.8903,18.1069],[-53.9858,48.8869,1.688],[-53.9825,48.8858,3.9593],[-53.9678,48.8872,0.3666],[-53.9733,48.89,1.0606],[-53.9769,48.8889,0.0]]]]}
,"properties": {"GID_3": "CAN.5.9.17_1","GID_0": "CAN","country": "Canada","GID_1": "CAN.5_1","province": "NewfoundlandandLabrador","NL_NAME_1": "NA","GID_2": "CAN.5.9_1","county": "DivisionNo.7","NL_NAME_2": "NA","city": "Dover","VARNAME_3": "NA","NL_NAME_3": "NA","TYPE_3": "Town","ENGTYPE_3": "Town","CC_3": "NA","HASC_3": "NA","name": "Dover.city","area_km2": 11.404264,"hist_schema_id": "Elevation0-9000","hist_area_km2": {"0": 4.670261,"25": 4.001108,"50": 1.366387,"75": 1.059741,"100": 0.306767}}}