{"type": "Feature","bbox": [-74.9871,46.4537,-74.6244,46.6755],"geometry": {"type": "MultiPolygon","coordinates": [[[[-74.8426,46.6755,445.5],[-74.9871,46.5774,310.4669],[-74.8081,46.4537,326.7489],[-74.7691,46.4812,285.644],[-74.784,46.4915,293.6403],[-74.7697,46.4995,268.0966],[-74.7559,46.4901,259.9124],[-74.7535,46.4914,280.5206],[-74.7221,46.4711,348.239],[-74.6292,46.5343,323.681],[-74.6271,46.5399,343.2651],[-74.6244,46.5424,356.5637],[-74.7527,46.6311,259.3913],[-74.7561,46.6294,258.7031],[-74.7643,46.6294,265.5057],[-74.7663,46.6282,257.2796],[-74.7653,46.6254,259.5279],[-74.7668,46.6247,259.5279],[-74.8426,46.6755,445.5]]]]}
,"properties": {"GID_3": "CAN.11.4.8_1","GID_0": "CAN","country": "Canada","GID_1": "CAN.11_1","province": "Québec","NL_NAME_1": "NA","GID_2": "CAN.11.4_1","county": "Antoine-Labelle","NL_NAME_2": "NA","city": "L'Ascension","VARNAME_3": "NA","NL_NAME_3": "NA","TYPE_3": "Municipalité","ENGTYPE_3": "Municipality","CC_3": "NA","HASC_3": "NA","name": "L'Ascension.city","area_km2": 350.1951,"hist_schema_id": "Elevation0-9000","hist_area_km2": {"250": 11.5935,"275": 79.9541,"300": 45.3192,"325": 45.8714,"350": 37.1376,"375": 33.051,"400": 28.3351,"425": 22.4709,"450": 15.4874,"475": 11.4356,"500": 6.0869,"525": 5.9551,"550": 4.3386,"575": 2.1981,"600": 0.7569,"625": 0.2038}}}