{"type":"Feature","properties":{"GID_3":"CAN.12.15.72_1","GID_0":"CAN","country":"Canada","GID_1":"CAN.12_1","province":"Saskatchewan","NL_NAME_1":"NA","GID_2":"CAN.12.15_1","county":"DivisionNo.6","NL_NAME_2":"NA","city":"ReginaBeach","VARNAME_3":"NA","NL_NAME_3":"NA","TYPE_3":"Town","ENGTYPE_3":"Town","CC_3":"NA","HASC_3":"NA","name":"Regina_Beach.city"},
"geometry":{"type": "MultiPolygon","coordinates": [[[[-104.9629,50.791,489.2426],[-104.9629,50.7981,488.0],[-105.0082,50.7994,488.0],[-105.0094,50.7909,495.3175],[-104.9858,50.7902,528.4875],[-104.9858,50.7827,538.2443],[-104.9628,50.7827,539.0688],[-104.9629,50.791,489.2426]]]]}}