{"type":"Feature","properties":{"GID_3":"CAN.11.5.1_1","GID_0":"CAN","country":"Canada","GID_1":"CAN.11_1","province":"Québec","NL_NAME_1":"NA","GID_2":"CAN.11.5_1","county":"Argenteuil","NL_NAME_2":"NA","city":"Brownsburg-Chatham","VARNAME_3":"NA","NL_NAME_3":"NA","TYPE_3":"Municipalité","ENGTYPE_3":"Municipality","CC_3":"NA","HASC_3":"NA","name":"Brownsburg-Chatham.city"},
"geometry":{"type": "MultiPolygon","coordinates": [[[[-74.3974,45.5705,40.0],[-74.3929,45.5781,39.7468],[-74.3853,45.5804,39.3027],[-74.3869,45.582,36.4897],[-74.3846,45.5838,34.7129],[-74.3846,45.5856,35.0685],[-74.3909,45.5882,34.267],[-74.3905,45.5942,35.4695],[-74.3856,45.595,36.0117],[-74.3882,45.601,34.5949],[-74.3813,45.6101,34.3686],[-74.3709,45.616,36.4353],[-74.3744,45.6213,38.5331],[-74.3697,45.6267,40.1471],[-74.3801,45.6286,63.2381],[-74.3669,45.6702,117.1666],[-74.3476,45.6675,137.7439],[-74.3276,45.7398,241.7267],[-74.4081,45.75,300.7833],[-74.5167,45.7601,353.3784],[-74.5557,45.6032,40.0],[-74.5351,45.5948,40.0],[-74.5224,45.5921,40.0],[-74.505,45.5927,40.0],[-74.4895,45.5953,40.0],[-74.4752,45.5944,40.0],[-74.4623,45.5896,40.0],[-74.4361,45.5728,40.0],[-74.3974,45.5705,40.0]]]]}}