{"type": "Feature","bbox": [-58.397,49.0443,-58.2565,49.0919],"geometry": {"type": "MultiPolygon","coordinates": [[[[-58.2565,49.0703,36.1132],[-58.2653,49.0725,0.0],[-58.2883,49.0708,0.0],[-58.2972,49.0642,0.0],[-58.3089,49.0636,2.6111],[-58.3233,49.0603,3.8829],[-58.3486,49.0522,2.1835],[-58.3658,49.0547,2.0207],[-58.3767,49.0625,0.0],[-58.3768,49.0661,2.3213],[-58.3726,49.0732,0.0],[-58.3741,49.0874,61.4108],[-58.3764,49.0919,19.9507],[-58.3767,49.0882,88.7462],[-58.3824,49.0801,316.6587],[-58.3871,49.0825,375.7239],[-58.397,49.0751,462.7769],[-58.3793,49.0464,59.3253],[-58.3743,49.0453,59.3669],[-58.3725,49.0468,59.2882],[-58.3654,49.0468,60.8857],[-58.3526,49.0443,68.0451],[-58.2693,49.0628,594.7014],[-58.2614,49.0621,435.2131],[-58.2577,49.0648,341.3074],[-58.2584,49.068,211.7747],[-58.2565,49.0703,36.1132]]]]}
,"properties": {"GID_3": "CAN.5.7.26_1","GID_0": "CAN","country": "Canada","GID_1": "CAN.5_1","province": "NewfoundlandandLabrador","NL_NAME_1": "NA","GID_2": "CAN.5.7_1","county": "DivisionNo.5","NL_NAME_2": "NA","city": "YorkHarbour","VARNAME_3": "NA","NL_NAME_3": "NA","TYPE_3": "Town","ENGTYPE_3": "Town","CC_3": "NA","HASC_3": "NA","name": "York_Harbour.city","area_km2": 13.23969,"hist_schema_id": "Elevation0-9000","hist_area_km2": {"0": 1.13918,"25": 1.98668,"50": 2.04243,"75": 1.34772,"100": 0.63902,"125": 0.7085,"150": 0.50013,"175": 0.68072,"200": 0.44456,"225": 0.43066,"250": 0.47233,"275": 0.41676,"300": 0.3473,"325": 0.3751,"350": 0.38898,"375": 0.36113,"400": 0.19446,"425": 0.27781,"450": 0.12501,"475": 0.06945,"500": 0.05557,"525": 0.09725,"550": 0.01389,"575": 0.06946,"600": 0.01389,"625": 0.04168}}}