{"type": "Feature","bbox": [-102.6708,50.3968,-102.2919,50.5585],"geometry": {"type": "MultiPolygon","coordinates": [[[[-102.6477,50.4033,593.2795],[-102.6363,50.4042,593.9025],[-102.6365,50.4188,592.6005],[-102.648,50.4187,590.4509],[-102.648,50.4263,589.5267],[-102.6708,50.4261,589.2088],[-102.6706,50.4115,589.9154],[-102.6479,50.4113,592.0361],[-102.6477,50.4053,592.3882],[-102.6708,50.4042,588.6913],[-102.6708,50.3968,590.8344],[-102.6475,50.397,592.778],[-102.6477,50.4033,593.2795]]],
[[[-102.6021,50.4113,599.8074],[-102.5787,50.4115,601.4224],[-102.5788,50.4406,600.8539],[-102.5907,50.4405,600.154],[-102.5907,50.4624,597.7706],[-102.602,50.4624,596.6267],[-102.6023,50.4331,597.8434],[-102.6256,50.4332,593.6526],[-102.6255,50.4265,593.847],[-102.5907,50.4268,598.4639],[-102.5901,50.4187,601.2758],[-102.6023,50.4185,597.1506],[-102.6021,50.4113,599.8074]]],
[[[-102.6364,50.451,590.5344],[-102.6364,50.4553,590.6583],[-102.648,50.4554,585.4012],[-102.6474,50.4407,589.9982],[-102.6365,50.4405,590.037],[-102.6364,50.451,590.5344]]],
[[[-102.5609,50.4696,605.0973],[-102.5678,50.4696,601.8896],[-102.5678,50.4557,602.0943],[-102.5563,50.4555,606.5103],[-102.5561,50.4695,604.007],[-102.5609,50.4696,605.0973]]],
[[[-102.5436,50.477,601.2969],[-102.5451,50.477,601.2969],[-102.5447,50.4696,606.7653],[-102.5337,50.4696,608.4399],[-102.5335,50.4768,609.6853],[-102.5436,50.477,601.2969]]],
[[[-102.6096,50.4869,585.8342],[-102.6095,50.4843,589.8421],[-102.5677,50.4841,599.601],[-102.5677,50.477,598.6553],[-102.5562,50.4768,602.6555],[-102.5563,50.4841,599.6182],[-102.5,50.484,616.3857],[-102.5,50.5269,455.5958],[-102.5185,50.5267,515.1888],[-102.5323,50.5344,452.7043],[-102.5384,50.535,455.6604],[-102.5436,50.5324,500.9266],[-102.5495,50.5348,504.0883],[-102.5522,50.5379,467.4132],[-102.5483,50.5426,449.8642],[-102.5511,50.5447,448.9174],[-102.5653,50.5464,466.9283],[-102.5721,50.5517,450.9235],[-102.5918,50.5526,473.4473],[-102.6087,50.5585,457.6381],[-102.6096,50.4869,585.8342]]],
[[[-102.3269,50.5268,442.4109],[-102.3264,50.5197,477.5147],[-102.3168,50.518,454.7558],[-102.2939,50.5067,448.601],[-102.2919,50.5343,583.1255],[-102.3034,50.5344,585.1354],[-102.3036,50.5425,582.0583],[-102.3253,50.5426,576.7705],[-102.3268,50.5497,570.254],[-102.3385,50.5498,552.5253],[-102.3387,50.5434,471.5293],[-102.3265,50.5414,512.2091],[-102.3269,50.5268,442.4109]]]]}
,"properties": {"GID_3": "CAN.12.14.24_1","GID_0": "CAN","country": "Canada","GID_1": "CAN.12_1","province": "Saskatchewan","NL_NAME_1": "NA","GID_2": "CAN.12.14_1","county": "DivisionNo.5","NL_NAME_2": "NA","city": "Kahkewistahaw72","VARNAME_3": "NA","NL_NAME_3": "NA","TYPE_3": "RéserveIndienne","ENGTYPE_3": "IndianReserve","CC_3": "NA","HASC_3": "NA","name": "Kahkewistahaw72.city","area_km2": 73.65282,"hist_schema_id": "Elevation0-9000","hist_area_km2": {"450": 4.86584,"475": 2.34485,"500": 2.04834,"525": 2.33142,"550": 1.92724,"575": 11.01116,"600": 47.42431,"625": 1.69966}}}