{"type":"Feature","properties":{"featurecla":"River","scalerank":10,"rivernum":21742,"dissolve":"21742River","name":"Horton3","name_alt":null,"note":"ID is link back to CEC data","name_full":"Horton River","min_zoom":6.0,"strokeweig":0.2,"uident":1262901,"min_label":7.0},
"geometry":{"type": "LineString","coordinates": [[-124.4469294912704,68.777370509889863,240.1937],[-124.3893123037704,68.75116608280652,216.2182],[-124.3614802725204,68.74274323124402,228.2009],[-124.32970130116622,68.74274323124402,277.4202],[-124.29137122304122,68.74579498905652,276.6036],[-124.2359919912704,68.72882721561902,245.0074],[-124.17662512929122,68.720241603639863,192.5094],[-124.1488337881454,68.711778061973192,282.6651],[-124.15135657460372,68.667018947389863,201.9825],[-124.13239498606205,68.64911530155652,264.0021],[-124.09015865793705,68.63361237186902,313.7268],[-124.04576575429122,68.628200588014863,330.0819],[-123.9823298818954,68.61652252811902,380.8099],[-123.95287024647872,68.61798737186902,375.899],[-123.90217037668705,68.61176178593152,203.5767],[-123.87498938710372,68.591579494264863,387.7617],[-123.83714759022872,68.57904694218152,223.2957],[-123.81029212147872,68.54730866093152,214.7088],[-123.76622473866622,68.54181549686902,328.662],[-123.7557673818954,68.53400299686902,390.7738],[-123.77538001210372,68.505479233848192,308.399],[-123.77330481679122,68.496201890098192,274.1812],[-123.71678626210372,68.485215561973192,259.8077],[-123.6722712881454,68.42023346561902,445.2472],[-123.64195716054122,68.385280666139863,263.1805],[-123.6488337881454,68.362901108848192,319.2798],[-123.64293372304122,68.35040924686902,399.5927],[-123.60155188710372,68.33478424686902,461.9989],[-123.57689368397872,68.320095119264863,239.2743],[-123.5057673818954,68.26178619999402,242.7689],[-123.50593014231205,68.254014390098192,292.6307],[-123.4737849600204,68.22138092655652,273.9287],[-123.4125056631454,68.18634674686902,247.0],[-123.4171443350204,68.17780182499402,290.1941],[-123.48810787668705,68.165065822389863,447.188],[-123.50959225168705,68.14581940311902,291.8448],[-123.45140540272872,68.092881577598192,427.8954],[-123.39142818918705,68.09418366093152,412.887],[-123.3749080068954,68.08954498905652,432.0733],[-123.3778376943954,68.06781647343152,317.1538],[-123.33385169179122,68.033555405723192,434.1427],[-123.29112708241622,68.01239655155652,301.9522],[-123.26081295481205,68.00067780155652,278.6868],[-123.20933997304122,68.00031159061902,438.1142],[-123.1415095693954,67.99518463749402,421.5467],[-123.11921139231205,67.98578522343152,280.1214],[-123.11628170481205,67.96332428593152,323.5231],[-123.0865779287704,67.939968166139863,285.5],[-123.01244055897872,67.90143463749402,316.555],[-122.98094641835372,67.876491603639863,321.1423],[-122.9950251943954,67.84723541874402,338.3549],[-122.9913630850204,67.836289780723192,383.782],[-123.00291907460372,67.81708405155652,344.4019],[-122.98521887929122,67.80304596561902,374.3583],[-122.93683834543705,67.78876373905652,331.5618],[-122.79637610585372,67.71637604374402,373.1985],[-122.74176998606205,67.708848374473192,351.5819],[-122.6395564443954,67.711778061973192,379.7552],[-122.5814509756454,67.697292384889863,334.8665],[-122.54222571522872,67.67743561405652,335.307],[-122.45612545481205,67.606960353639863,337.0054]]}}