{"type":"Feature","properties":{"featurecla":"Lake Centerline","scalerank":12,"rivernum":21926,"dissolve":"21926Lake Centerline","name":"null1210","name_alt":null,"note":"ID is link back to CEC data","name_full":null,"min_zoom":7.0,"strokeweig":0.2,"uident":1175201,"min_label":8.0},
"geometry":{"type": "LineString","coordinates": [[-113.50153561106205,71.96027252811902,209.9996],[-113.48827063710372,71.98248932499402,179.4381],[-113.49413001210372,72.00592682499402,181.6023],[-113.51170813710372,72.02741119999402,178.34],[-113.55565344960372,72.04474518436902,179.2692]]}}