{"type":"Feature","properties":{"featurecla":"River","scalerank":11,"rivernum":21642,"dissolve":"21642River","name":"Mountain1","name_alt":null,"note":"ID is link back to CEC data","name_full":"Mountain River","min_zoom":6.7,"strokeweig":0.2,"uident":1308501,"min_label":7.7},
"geometry":{"type": "LineString","coordinates": [[-130.5143123037704,64.289089259889863,1266.2101],[-130.48851477772871,64.295030015098192,1294.3783],[-130.37389075429121,64.30365631718152,1359.0201],[-130.32860266835371,64.30170319218152,1608.0667],[-130.25377356679121,64.295436916139863,1198.2424],[-129.9647517568954,64.267197983848192,1219.3799],[-129.87848873606205,64.265895900514863,1181.3811],[-129.81920325429121,64.273545640098192,1231.0316],[-129.76813717356205,64.288682358848192,1190.3892],[-129.72435462147871,64.299180405723192,1142.537],[-129.65977942616621,64.324326890098192,1019.6442],[-129.63267981679121,64.37872955936902,1013.987],[-129.63117428293705,64.38178131718152,993.4872],[-129.61546790272871,64.41217682499402,1210.821],[-129.52183997304121,64.435410874473192,1101.3923],[-129.45319576731205,64.44245026249402,1215.2739],[-129.41136634022871,64.43048737186902,1070.8188],[-129.40436764231205,64.428493556764863,1064.394],[-129.3241267568954,64.41303131718152,1202.8337],[-129.23932857981205,64.414333400514863,1230.3695],[-129.18488522043705,64.443141994264863,891.8815],[-129.18968665272871,64.480088608848192,829.6025],[-129.19017493397871,64.483913478639863,830.0515],[-129.24620520741621,64.528428452598192,879.0947],[-129.29157467356205,64.569118556764863,922.6052],[-129.28888912668705,64.60858795780652,983.9993],[-129.2765193350204,64.64838287968152,973.302],[-129.23106848866621,64.688503322389863,936.499],[-129.17052161366621,64.721218166139863,771.002],[-129.16388912668705,64.751247463014863,1289.4141],[-129.12189693918705,64.764675197389863,949.3919],[-129.10326087147871,64.781032619264863,639.0543],[-129.12043209543705,64.805283921348192,617.7834],[-129.15416419179121,64.829453843223192,600.2514],[-129.16014563710371,64.85871002811902,582.5519],[-129.1268611318954,64.879909572389863,577.5707]]}}