{"type":"Feature","properties":{"featurecla":"River","scalerank":12,"rivernum":21835,"dissolve":"21835River","name":"Kugaluk1","name_alt":null,"note":"ID is link back to CEC data","name_full":"Kugaluk River","min_zoom":7.0,"strokeweig":0.15,"uident":1220101,"min_label":8.0},
"geometry":{"type": "LineString","coordinates": [[-114.7306208975204,70.21320221561902,316.6549],[-114.71507727772872,70.20221588749402,327.3211],[-114.72008216054122,70.19074127811902,350.5968],[-114.80134029856205,70.152858791139863,285.2271],[-114.81110592356205,70.13544342655652,291.6245],[-114.78766842356205,70.11090729374402,278.85],[-114.6830134756454,70.078965561973192,277.1397],[-114.6341853506454,70.05536530155652,286.9857],[-114.6017146475204,70.02094147343152,272.6755],[-114.6014705068954,70.018581447389863,272.0234],[-114.59935462147872,69.99591705936902,272.9856],[-114.6178279287704,69.96491119999402,266.2244],[-114.65672766835372,69.938828843223192,261.0959],[-114.73485266835372,69.92645905155652,259.3584]]}}