{"type":"Feature","properties":{"featurecla":"River","scalerank":10,"rivernum":21735,"dissolve":"21735River","name":"Horton2","name_alt":null,"note":"ID is link back to CEC data","name_full":"Horton River","min_zoom":6.0,"strokeweig":0.2,"uident":1264601,"min_label":7.0},
"geometry":{"type": "LineString","coordinates": [[-122.45612545481205,67.606960353639863,337.0054],[-122.45343990793705,67.58832428593152,340.7379],[-122.42027747304122,67.569362697389863,338.7399],[-122.4029841787704,67.54791901249402,349.0211]]}}