{"type":"Feature","properties":{"featurecla":"River","scalerank":11,"rivernum":21667,"dissolve":"21667River","name":"Big Spruce","name_alt":null,"note":"ID is link back to CEC data","name_full":"Big Spruce River","min_zoom":6.7,"strokeweig":0.15,"uident":1285801,"min_label":7.7},
"geometry":{"type": "LineString","coordinates": [[-122.49644934804122,66.87628815311902,483.6168],[-122.45018469960372,66.861843166139863,467.1506],[-122.3785701162704,66.846299546348192,480.6898],[-122.3080134756454,66.843858140098192,499.211],[-122.25011145741622,66.85248444218152,509.2681],[-122.14191647043705,66.85822174686902,560.0991]]}}