{"type":"Feature","properties":{"featurecla":"River","scalerank":12,"rivernum":21758,"dissolve":"21758River","name":"null755","name_alt":null,"note":"ID is link back to CEC data","name_full":null,"min_zoom":7.0,"strokeweig":0.2,"uident":1267701,"min_label":8.0},
"geometry":{"type": "LineString","coordinates": [[-129.03551184804121,66.481960353639863,16.5],[-128.88902747304121,66.508408921348192,96.3136],[-128.78575598866621,66.54242584843152,107.748],[-128.75926673085371,66.568874416139863,89.9991],[-128.70905514231205,66.58258698124402,88.354],[-128.70051022043705,66.60065338749402,88.8758],[-128.71495520741621,66.62750885624402,87.7205],[-128.70856686106205,66.64704010624402,87.5663],[-128.6502986318954,66.672715561973192,91.5911],[-128.63548743397871,66.700303452598192,107.8586],[-128.64635169179121,66.71784088749402,104.3985],[-128.63898678293705,66.743679103639863,123.8721]]}}