{"type":"Feature","properties":{"featurecla":"River","scalerank":11,"rivernum":21790,"dissolve":"21790River","name":"Ontaratue","name_alt":null,"note":"ID is link back to CEC data","name_full":"Ontaratue River","min_zoom":6.7,"strokeweig":0.15,"uident":1259701,"min_label":7.7},
"geometry":{"type": "LineString","coordinates": [[-132.19347083241621,66.734971421348192,150.3047],[-132.14122473866621,66.71124909061902,148.0537],[-131.9769587881454,66.656846421348192,140.099],[-131.90440833241621,66.644802150514863,138.0183],[-131.8214412100204,66.622910874473192,134.604],[-131.77424068918705,66.608181056764863,130.7054]]}}