{"type":"Feature","properties":{"featurecla":"River","scalerank":12,"rivernum":21861,"dissolve":"21861River","name":"Travaillant1","name_alt":null,"note":"ID is link back to CEC data","name_full":"Travaillant River","min_zoom":7.0,"strokeweig":0.2,"uident":1227801,"min_label":8.0},
"geometry":{"type": "LineString","coordinates": [[-131.87010657460371,67.649929103639863,133.0],[-131.86229407460371,67.627468166139863,133.0],[-131.81989498606205,67.60285065311902,140.2232],[-131.77867591054121,67.58832428593152,146.3937],[-131.65184485585371,67.580837306764863,207.2907],[-131.4469294912704,67.57807037968152,123.2733],[-131.41600501210371,67.582546291139863,123.3731],[-131.3163142568954,67.561875718223192,121.814],[-131.2992244131454,67.545518296348192,113.0695],[-131.35252844960371,67.532334702598192,109.1764],[-131.4151912100204,67.531113999473192,122.8071],[-131.46434485585371,67.518906968223192,94.0301],[-131.47883053293705,67.505153713014863,84.671],[-131.4569392568954,67.46771881718152,36.3936]]}}