{"type":"Feature","properties":{"featurecla":"River","scalerank":12,"rivernum":21859,"dissolve":"21859River","name":"null819","name_alt":null,"note":"ID is link back to CEC data","name_full":null,"min_zoom":7.0,"strokeweig":0.2,"uident":1223001,"min_label":8.0},
"geometry":{"type": "LineString","coordinates": [[-126.44163977772872,68.55780670780652,151.8],[-126.39875240793705,68.577663478639863,166.963],[-126.3031306631454,68.596543686973192,186.9597],[-126.29328365793705,68.604356186973192,179.1663],[-126.25267493397872,68.59870026249402,177.8639],[-126.2208552725204,68.59906647343152,185.0482],[-126.20490475168705,68.617051499473192,173.5]]}}