{"type":"Feature","properties":{"featurecla":"River","scalerank":12,"rivernum":21659,"dissolve":"21659River","name":"null199","name_alt":null,"note":"ID is link back to CEC data","name_full":null,"min_zoom":7.0,"strokeweig":0.15,"uident":1300801,"min_label":8.0},
"geometry":{"type": "LineString","coordinates": [[-130.71393795481205,64.48554108280652,1531.7913],[-130.7076716787704,64.52692291874402,1412.4709],[-130.69713294179121,64.555202541139863,1353.1471],[-130.68553626210371,64.572129624473192,1531.6528],[-130.68101966054121,64.57868073124402,1669.9653],[-130.62230384022871,64.608994858848192,1292.7576],[-130.57286536366621,64.624375718223192,1431.4374],[-130.51915442616621,64.627468166139863,1411.9951],[-130.47370357981205,64.634792384889863,1161.6788],[-130.42564856679121,64.65997955936902,1146.6628],[-130.38731848866621,64.708034572389863,1081.66],[-130.37897701731205,64.71600983280652,1050.3287]]}}