{"type":"Feature","properties":{"featurecla":"River","scalerank":12,"rivernum":22112,"dissolve":"22112River","name":"Davies","name_alt":null,"note":"ID is link back to CEC data","name_full":"Davies River","min_zoom":7.0,"strokeweig":0.15,"uident":1143601,"min_label":8.0},
"geometry":{"type": "LineString","coordinates": [[-123.1109919912704,73.88361237186902,94.1684],[-123.01683509022872,73.86420319218152,96.7479],[-122.71202551991622,73.81207916874402,123.636],[-122.63206946522872,73.78864166874402,124.386],[-122.59019934804122,73.771511134889863,130.3388]]}}