{"type":"Feature","properties":{"featurecla":"River","scalerank":10,"rivernum":21681,"dissolve":"21681River","name":"Ramparts","name_alt":null,"note":"ID is link back to CEC data","name_full":"Ramparts River","min_zoom":6.0,"strokeweig":0.25,"uident":1291401,"min_label":7.0},
"geometry":{"type": "LineString","coordinates": [[-129.92023678293705,66.190700588014863,74.3315],[-129.88097083241621,66.177842515098192,71.4181],[-129.80939693918705,66.167263088014863,69.9913],[-129.78087317616621,66.16828034061902,75.6116],[-129.74718176991621,66.172471421348192,69.6366],[-129.68073482981205,66.19501373905652,73.5902],[-129.62962805897871,66.217800197389863,75.852],[-129.59019934804121,66.231553452598192,79.2279],[-129.55036373606205,66.235215561973192,80.8589],[-129.42149817616621,66.22626373905652,86.3583],[-129.3465876943954,66.22638580936902,89.7496],[-129.28319251210371,66.217556056764863,95.0602],[-129.25316321522871,66.20062897343152,88.5563],[-129.27424068918705,66.17121002811902,77.6877],[-129.2521052725204,66.15631744999402,47.9246],[-129.1686091787704,66.17059967655652,71.7844],[-129.00999915272871,66.177516994264863,23.2197]]}}