{"type":"Feature","properties":{"featurecla":"River","scalerank":12,"rivernum":21875,"dissolve":"21875River","name":"null89","name_alt":null,"note":"ID is link back to CEC data","name_full":null,"min_zoom":7.0,"strokeweig":0.15,"uident":1201801,"min_label":8.0},
"geometry":{"type": "LineString","coordinates": [[-114.80280514231205,70.83966705936902,266.8084],[-114.7872615225204,70.845811265098192,306.9186],[-114.6568904287704,70.881374416139863,342.5196],[-114.59666907460372,70.89313385624402,353.5308],[-114.57282467356205,70.91376373905652,358.6941],[-114.59235592356205,70.928005275514863,356.5937],[-114.6385798818954,70.93573639530652,399.5898],[-114.6817927725204,70.93475983280652,409.3121],[-114.7220759756454,70.925075588014863,441.628]]}}