{"type":"Feature","properties":{"featurecla":"River","scalerank":12,"rivernum":21940,"dissolve":"21940River","name":"null859","name_alt":null,"note":"ID is link back to CEC data","name_full":null,"min_zoom":7.0,"strokeweig":0.2,"uident":1187501,"min_label":8.0},
"geometry":{"type": "LineString","coordinates": [[-133.53595943918705,68.96930573124402,37.1778],[-133.44115149647871,68.96564362186902,25.0108],[-133.39598548085371,68.96649811405652,24.1726],[-133.26390540272871,69.01068756718152,16.2345],[-133.2154841787704,69.01312897343152,0.0]]}}