{"type":"Feature","properties":{"featurecla":"River","scalerank":12,"rivernum":21778,"dissolve":"21778River","name":"null772","name_alt":null,"note":"ID is link back to CEC data","name_full":null,"min_zoom":7.0,"strokeweig":0.2,"uident":1261301,"min_label":8.0},
"geometry":{"type": "LineString","coordinates": [[-129.38329016835371,66.64545319218152,128.9131],[-129.3314509756454,66.66486237186902,168.5106],[-129.3055720693954,66.714463608848192,144.1124],[-129.26911373606205,66.747422593223192,178.0285],[-129.31126868397871,66.81220123905652,170.3833]]}}