{"type": "Feature","bbox": [-69.7966,48.2063,-69.4168,48.4094],"geometry": {"type": "MultiPolygon","coordinates": [[[[-69.7966,48.2517,157.6438],[-69.6624,48.2516,166.7316],[-69.5938,48.2063,0.0],[-69.5822,48.2138,11.2846],[-69.5826,48.2207,0.0],[-69.5845,48.2217,10.3408],[-69.5782,48.2363,0.1754],[-69.5776,48.2336,0.1552],[-69.5807,48.2241,0.0],[-69.5795,48.2202,0.0],[-69.5747,48.2192,13.0938],[-69.5727,48.2154,0.0],[-69.5667,48.2182,0.0],[-69.564,48.2243,7.2514],[-69.5659,48.2272,29.359],[-69.5632,48.2276,19.8425],[-69.5614,48.2315,3.6857],[-69.5548,48.2359,3.3422],[-69.5511,48.242,0.3096],[-69.5506,48.2349,6.3006],[-69.5564,48.2311,0.0],[-69.553,48.2284,0.0],[-69.5379,48.2309,9.5002],[-69.5156,48.2405,10.0687],[-69.5114,48.244,7.9826],[-69.5075,48.2537,9.1818],[-69.5022,48.2621,19.432],[-69.4981,48.2655,10.4315],[-69.4806,48.2744,2.2156],[-69.4775,48.2741,2.1436],[-69.4715,48.2696,7.7742],[-69.4654,48.2699,0.0],[-69.4603,48.2768,6.291],[-69.4578,48.2769,0.0],[-69.4564,48.2794,0.0],[-69.4613,48.2819,12.4601],[-69.4611,48.2835,2.8207],[-69.4572,48.2832,0.0],[-69.4555,48.2881,4.4784],[-69.4483,48.2874,10.8207],[-69.45,48.2847,0.0],[-69.4461,48.2855,9.242],[-69.4437,48.2889,26.7638],[-69.4247,48.2997,0.0],[-69.4198,48.3074,0.7253],[-69.421,48.3118,0.0],[-69.4181,48.3122,1.5946],[-69.4168,48.3142,0.9762],[-69.4701,48.3478,76.6652],[-69.5612,48.4094,171.8442],[-69.7966,48.2517,157.6438]]]]}
,"properties": {"GID_3": "CAN.11.36.5_1","GID_0": "CAN","country": "Canada","GID_1": "CAN.11_1","province": "Québec","NL_NAME_1": "NA","GID_2": "CAN.11.36_1","county": "LaHaute-Côte-Nord","NL_NAME_2": "NA","city": "LesBergeronnes","VARNAME_3": "NA","NL_NAME_3": "NA","TYPE_3": "Municipalité","ENGTYPE_3": "Municipality","CC_3": "NA","HASC_3": "NA","name": "Les_Bergeronnes.city","area_km2": 290.2105,"hist_schema_id": "Elevation0-9000","hist_area_km2": {"0": 5.6473,"25": 9.7831,"50": 36.9691,"75": 28.7033,"100": 11.1589,"125": 42.0359,"150": 26.5965,"175": 20.7922,"200": 23.3993,"225": 26.3849,"250": 23.3913,"275": 20.1581,"300": 11.1892,"325": 3.3816,"350": 0.5917,"375": 0.0282}}}