{"type": "Feature","bbox": [-72.8548,46.6413,-72.7043,46.7808],"geometry": {"type": "MultiPolygon","coordinates": [[[[-72.7058,46.6615,102.3056],[-72.7043,46.6665,102.3614],[-72.7077,46.6773,102.2028],[-72.7195,46.6827,102.2005],[-72.7302,46.6852,102.0347],[-72.7367,46.6891,106.5226],[-72.7422,46.6993,102.0338],[-72.7596,46.7145,101.9006],[-72.7634,46.722,107.7596],[-72.7646,46.7329,101.9823],[-72.7694,46.7393,102.098],[-72.7882,46.7533,102.1401],[-72.798,46.7632,126.9725],[-72.7997,46.7671,113.5378],[-72.8228,46.7808,231.4582],[-72.852,46.7586,276.0402],[-72.8098,46.7299,195.3348],[-72.8186,46.7253,216.1865],[-72.8258,46.7238,192.8409],[-72.8299,46.7208,193.856],[-72.8385,46.7229,168.3038],[-72.8424,46.7218,169.131],[-72.8441,46.7148,182.5203],[-72.8501,46.7063,183.8027],[-72.8495,46.6952,171.5891],[-72.851,46.6925,179.4165],[-72.8493,46.6898,170.4649],[-72.8548,46.6753,184.7925],[-72.8206,46.6524,206.1693],[-72.8113,46.6546,238.6173],[-72.7953,46.654,200.0772],[-72.7948,46.6623,255.6216],[-72.7923,46.6649,196.4759],[-72.7859,46.6658,169.8596],[-72.7501,46.6413,239.7031],[-72.7126,46.6662,120.4545],[-72.7058,46.6615,102.3056]]]]}
,"properties": {"GID_3": "CAN.11.51.11_1","GID_0": "CAN","country": "Canada","GID_1": "CAN.11_1","province": "Québec","NL_NAME_1": "NA","GID_2": "CAN.11.51_1","county": "LeCentre-de-la-Mauricie","NL_NAME_2": "NA","city": "Saint-Jean-des-Piles","VARNAME_3": "NA","NL_NAME_3": "NA","TYPE_3": "MunicipalitéDeParoisse","ENGTYPE_3": "ParishMunicipality","CC_3": "NA","HASC_3": "NA","name": "Saint-Jean-des-Piles.city","area_km2": 88.26102,"hist_schema_id": "Elevation0-9000","hist_area_km2": {"100": 4.79768,"125": 4.8844,"150": 9.59661,"175": 11.29683,"200": 11.70381,"225": 12.28615,"250": 13.49451,"275": 12.59431,"300": 6.29773,"325": 1.30898}}}