{"type":"Feature","properties":{"featurecla":"River","scalerank":11,"rivernum":20001,"dissolve":"20001River","name":"Thames1","name_alt":null,"note":"ID is link back to CEC data","name_full":"Thames River","min_zoom":6.7,"strokeweig":0.2,"uident":1868201,"min_label":7.7},
"geometry":{"type": "LineString","coordinates": [[-82.438954230853739,42.339056707806527,173.0],[-82.3985896475204,42.348700262494027,175.3213],[-82.354237433978739,42.3650983744732,175.2084],[-82.303822394916239,42.392523504681527,176.8614],[-82.2477107412704,42.427679754681527,179.1656],[-82.126291470437067,42.515326239056527,182.9243],[-82.083607551166239,42.533474025514863,183.5168],[-82.048695441791239,42.543768621869027,186.9592],[-81.992990689187067,42.574001369264863,189.9036],[-81.893381314187067,42.613714910931527,204.0233],[-81.823801236062067,42.645941473431527,224.8434],[-81.738107876687067,42.680121160931527,220.7176],[-81.624582486062067,42.7349714213482,218.7698],[-81.582630988666239,42.759466864056527,215.1146],[-81.549549933978739,42.7847761088482,215.1288],[-81.535023566791239,42.791774806764863,218.0881],[-81.498850064187067,42.7935651713482,222.1794],[-81.476633267312067,42.791774806764863,219.7667],[-81.461293098041239,42.803656317181527,220.9122],[-81.4542537100204,42.819525457806527,223.9159],[-81.451161262103739,42.839056707806527,226.5131],[-81.445546027728739,42.860134181764863,230.2369],[-81.439686652728739,42.869452215619027,242.7777],[-81.440297004291239,42.879461981244027,242.8613],[-81.4457087881454,42.888210353639863,235.8216],[-81.457834439187067,42.902899481244027,236.4672],[-81.456369595437067,42.921698309369027,238.765],[-81.4466853506454,42.945502020306527,236.5],[-81.421498176166239,42.969794012494027,255.0869],[-81.385243293353739,42.988348699994027,266.2183],[-81.379505988666239,42.991278387494027,271.6538],[-81.3602595693954,42.9896100932232,279.5964],[-81.352609829812067,42.984076239056527,243.4158],[-81.345936652728739,42.979274806764863,234.918],[-81.310617642312067,42.979559637494027,261.9401],[-81.273548957416239,42.992377020306527,242.0345],[-81.234974738666239,42.988959051556527,255.5943],[-81.2030330068954,42.987575588014863,258.6454],[-81.185047980853739,42.986761785931527,261.2198],[-81.130441861062067,42.985378322389863,255.3647],[-81.067697720437067,43.010199285931527,265.038],[-81.029123501687067,43.011745509889863,274.3525],[-80.988840298562067,43.022894598431527,279.0682],[-80.9471736318954,43.042303778119027,297.3967]]}}