{"type":"Feature","properties":{"GID_3":"CAN.11.28.6_1","GID_0":"CAN","country":"Canada","GID_1":"CAN.11_1","province":"Québec","NL_NAME_1":"NA","GID_2":"CAN.11.28_1","county":"Kamouraska","NL_NAME_2":"NA","city":"Rivière-Ouelle","VARNAME_3":"NA","NL_NAME_3":"NA","TYPE_3":"Municipalité","ENGTYPE_3":"Municipality","CC_3":"NA","HASC_3":"NA","name":"Rivière-Ouelle.city"},
"geometry":{"type": "MultiPolygon","coordinates": [[[[-70.0309,47.4267,0.3338],[-70.0328,47.4275,1.4631],[-70.0345,47.4269,0.9516],[-70.0312,47.4261,0.3338],[-70.0309,47.4267,0.3338]]],
[[[-70.0058,47.403,4.7662],[-69.991,47.3929,21.7023],[-69.9784,47.4066,22.6731],[-69.9914,47.4147,7.2333],[-69.9893,47.4168,7.6137],[-69.9925,47.419,7.1811],[-69.9913,47.4201,7.1811],[-69.974,47.4118,16.0881],[-69.9795,47.4181,11.8042],[-69.9783,47.4212,12.3757],[-69.9721,47.4193,12.2159],[-69.9704,47.4203,12.3102],[-69.9712,47.4218,11.9496],[-69.9672,47.4203,12.4577],[-69.9663,47.4223,9.9966],[-69.968,47.4234,12.011],[-69.9655,47.425,7.5599],[-69.9612,47.4221,9.8144],[-69.9648,47.4257,7.6533],[-69.9604,47.4277,6.3236],[-69.9552,47.4226,10.3773],[-69.9493,47.422,13.273],[-69.9435,47.4254,18.2264],[-69.9451,47.4267,9.6788],[-69.9429,47.4282,15.7332],[-69.9458,47.4302,14.4787],[-69.9492,47.4299,12.4651],[-69.9554,47.4341,11.3393],[-69.9477,47.4359,12.8148],[-69.9596,47.444,10.2786],[-69.9555,47.447,14.6743],[-69.9502,47.4435,11.125],[-69.9479,47.445,16.2969],[-69.9419,47.4407,11.8178],[-69.9394,47.4422,12.6651],[-69.9374,47.4407,11.9304],[-69.9321,47.4418,12.6364],[-69.9222,47.4461,16.5032],[-69.9196,47.4602,15.9912],[-69.9462,47.4777,10.1077],[-69.947,47.4747,11.5857],[-69.9413,47.4708,11.4528],[-69.9436,47.4644,15.4213],[-69.9492,47.4686,11.3945],[-69.9582,47.4624,13.017],[-69.9683,47.4697,11.9433],[-69.9727,47.4677,11.7552],[-69.978,47.4712,29.3325],[-69.9802,47.4699,31.0865],[-69.986,47.4743,38.6383],[-69.9718,47.4836,45.0661],[-69.9791,47.4887,25.0897],[-69.9755,47.4938,0.4558],[-69.9824,47.493899999999996,0.0],[-69.9883,47.4963,0.9871],[-69.9896,47.4978,2.238],[-69.9884,47.502,3.6475],[-69.9958,47.4995,2.1302],[-70.0036,47.4938,0.0],[-70.0097,47.4927,0.0],[-70.0233,47.4861,2.4676],[-70.0239,47.4848,0.7761],[-70.0194,47.4858,4.6387],[-70.0178,47.4822,0.0],[-70.0273,47.4757,1.7594],[-70.0342,47.4664,4.9272],[-70.025,47.4655,3.2043],[-70.0231,47.4611,1.593],[-70.025,47.4566,2.1301],[-70.0311,47.4474,0.6095],[-70.0439,47.4377,3.9214],[-70.0578,47.4308,0.6219],[-70.0611,47.4266,1.2458],[-70.0597,47.4247,1.0967],[-70.0575,47.4247,2.0076],[-70.0383,47.4286,0.0],[-70.0255,47.4266,1.177],[-70.029,47.4255,0.0],[-70.0406,47.4261,0.3568],[-70.045,47.4241,0.0],[-70.0458,47.4202,0.0],[-70.0421,47.4092,1.6813],[-70.0227,47.411,3.6433],[-70.0199,47.4139,3.7783],[-70.023,47.4161,3.7243],[-70.0214,47.4186,4.0022],[-70.0111,47.4125,5.1823],[-70.0145,47.4091,6.1767],[-70.0058,47.403,4.7662]]]]}}