{"type":"Feature","properties":{"featurecla":"River","scalerank":11,"rivernum":22119,"dissolve":"22119River","name":"null921","name_alt":null,"note":"ID is link back to CEC data","name_full":null,"min_zoom":6.7,"strokeweig":0.2,"uident":1135301,"min_label":7.7},
"geometry":{"type": "LineString","coordinates": [[-115.93431555897872,75.508897202598192,-0.0809],[-115.8785701162704,75.499375718223192,55.4933],[-115.7584529287704,75.484727280723192,83.2187],[-115.65269934804122,75.49994537968152,221.4716],[-115.46397864491622,75.504909572389863,313.2189],[-115.3121638662704,75.511338608848192,169.1309],[-115.2379451162704,75.51508209843152,364.6338],[-115.0104060537704,75.53082916874402,243.3585],[-114.92162024647872,75.53656647343152,340.8167],[-114.85407467356205,75.54230377811902,385.1027],[-114.7784724600204,75.54718659061902,429.7737],[-114.68944251210372,75.56488678593152,367.5573],[-114.5404353506454,75.59662506718152,476.6857],[-114.4281306631454,75.60785553593152,509.1409],[-114.23485266835372,75.63434479374402,359.5611]]}}