{"type":"Feature","properties":{"featurecla":"River","scalerank":12,"rivernum":22101,"dissolve":"22101River","name":"Storkerson1","name_alt":null,"note":"ID is link back to CEC data","name_full":"Storkerson River","min_zoom":7.0,"strokeweig":0.2,"uident":1153301,"min_label":8.0},
"geometry":{"type": "LineString","coordinates": [[-124.4759822256454,72.93305084843152,0.0],[-124.4088435537704,72.92877838749402,0.8414],[-124.15404212147872,72.905056056764863,10.0916],[-123.91510982981205,72.89020416874402,20.2832],[-123.64289303293705,72.885768947389863,33.635],[-123.44347083241622,72.870632228639863,47.3136],[-123.3148494131454,72.85089752811902,53.7091],[-123.14598548085372,72.81793854374402,55.4028],[-123.01276607981205,72.79877350468152,65.0637],[-122.84056555897872,72.78705475468152,76.1425],[-122.74836178293705,72.77716705936902,83.9881],[-122.70221920481205,72.76886627811902,84.9949]]}}