{"type":"Feature","properties":{"featurecla":"River","scalerank":2,"rivernum":34,"dissolve":"34River","name":"Mackenzie9","name_alt":null,"note":null,"min_zoom":2.1,"strokeweig":1.0,"name_en":"Mackenzie","min_label":3.1},
"geometry":{"type": "LineString","coordinates": [[-134.8359375,68.96381256718162,0.0],[-134.8611328125,68.96027252811912,0.0],[-134.9185791015625,68.914178778119123,3.9532],[-134.94841308593749,68.90094635624412,2.6842],[-135.099658203125,68.88922760624412,1.4994],[-135.14030761718749,68.89447662968162,1.3614],[-135.1755859375,68.908710028119117,2.9816],[-135.21086425781249,68.938006903119117,2.8408],[-135.2269287109375,68.94367096561912,-1.0],[-135.5201416015625,68.92084381718162,0.4797],[-135.6060791015625,68.911395574994117,1.5711]]}}