{"type":"Feature","properties":{"featurecla":"River","scalerank":12,"rivernum":22125,"dissolve":"22125River","name":"null926","name_alt":null,"note":"ID is link back to CEC data","name_full":null,"min_zoom":7.0,"strokeweig":0.15,"uident":1131801,"min_label":8.0},
"geometry":{"type": "LineString","coordinates": [[-114.75023352772872,76.09235260624402,249.2174],[-114.69391842356205,76.08954498905652,207.1645],[-114.63426673085372,76.08917877811902,183.8475],[-114.56696529856205,76.09503815311902,163.4114],[-114.50157630116622,76.102891343223192,178.3158],[-114.4415583975204,76.110459702598192,91.0705],[-114.39403235585372,76.13629791874402,89.6752],[-114.26646887929122,76.16998932499402,24.8754],[-114.2857966787704,76.19220612186902,17.4661],[-114.29010982981205,76.230576890098192,13.8989],[-114.2269587881454,76.25568268436902,15.1512],[-114.14655514231205,76.260606186973192,45.3237],[-114.0794978506454,76.26483795780652,2.5281],[-114.03123938710372,76.279649155723192,0.0]]}}