{"type":"Feature","properties":{"featurecla":"River","scalerank":12,"rivernum":22112,"dissolve":"22112River","name":"Davies1","name_alt":null,"note":"ID is link back to CEC data","name_full":"Davies River","min_zoom":7.0,"strokeweig":0.2,"uident":1143601,"min_label":8.0},
"geometry":{"type": "LineString","coordinates": [[-124.38385982981205,74.03937409061902,0.0],[-124.34764563710372,74.05170319218152,0.3089],[-124.33405514231205,74.05536530155652,1.3614],[-124.30426998606205,74.058213608848192,3.723],[-124.22948157460372,74.06281159061902,8.8621],[-124.12987219960372,74.06122467655652,16.3195],[-123.83641516835372,74.04791901249402,44.0687],[-123.72069251210372,74.02936432499402,39.7816],[-123.6275935537704,74.007839259889863,50.611],[-123.55418860585372,73.985459702598192,56.3043],[-123.4044490225204,73.94684479374402,69.1423],[-123.2901912100204,73.92047760624402,84.7025],[-123.1109919912704,73.88361237186902,94.1684]]}}