{"type": "Feature","bbox": [-114.062,52.9668,-114.0292,52.9861],"geometry": {"type": "MultiPolygon","coordinates": [[[[-114.062,52.9822,873.266],[-114.06,52.9801,888.908],[-114.0611,52.9779,892.5885],[-114.0583,52.978,892.3583],[-114.0506,52.9713,889.9052],[-114.0453,52.9716,887.3879],[-114.0369,52.9668,883.8827],[-114.0292,52.9707,863.6903],[-114.0601,52.9861,871.3772],[-114.062,52.9822,873.266]]]]}
,"properties": {"GID_3": "CAN.1.2.9_1","GID_0": "CAN","country": "Canada","GID_1": "CAN.1_1","province": "Alberta","NL_NAME_1": "NA","GID_2": "CAN.1.2_1","county": "DivisionNo.11","NL_NAME_2": "NA","city": "CrystalSprings","VARNAME_3": "NA","NL_NAME_3": "NA","TYPE_3": "SummerVillage","ENGTYPE_3": "SummerVillage","CC_3": "NA","HASC_3": "NA","name": "Crystal_Springs.city","area_km2": 1.685245,"hist_schema_id": "Elevation0-9000","hist_area_km2": {"850": 0.025532,"875": 1.25116,"900": 0.408553}}}