{"type": "Feature","bbox": [-56.5107,49.2751,-55.5386,49.6978],"geometry": {"type": "MultiPolygon","coordinates": [[[[-55.7021,49.3132,221.2547],[-55.6406,49.2975,137.0298],[-55.6435,49.3072,139.6593],[-55.6415,49.3122,149.8337],[-55.601,49.329,70.4895],[-55.5925,49.34,99.0576],[-55.5876,49.3506,71.363],[-55.5902,49.3564,14.4719],[-55.5888,49.3585,16.4748],[-55.5929,49.3586,3.268],[-55.5917,49.365,0.0],[-55.5931,49.3703,32.8373],[-55.5944,49.371,2.4056],[-55.5974,49.3674,3.3105],[-55.5992,49.3679,12.5266],[-55.5818,49.3836,0.0],[-55.5811,49.3883,6.5418],[-55.5837,49.3901,42.2477],[-55.5808,49.3954,5.1682],[-55.5831,49.3996,81.1577],[-55.5783,49.4076,0.0],[-55.5844,49.4111,6.3311],[-55.5821,49.4135,0.0],[-55.5812,49.421,0.0],[-55.5848,49.4218,0.0],[-55.5859,49.4197,6.8113],[-55.5906,49.4183,17.5688],[-55.5908,49.415,29.1532],[-55.5973,49.4101,5.7199],[-55.6009,49.4094,2.676],[-55.6025,49.4058,0.0],[-55.6058,49.4072,14.5571],[-55.6026,49.4172,3.7775],[-55.5974,49.4209,0.9655],[-55.5969,49.4235,0.0],[-55.5907,49.4274,12.587],[-55.5751,49.4328,10.5758],[-55.5753,49.4342,12.897],[-55.5781,49.435,11.7655],[-55.5789,49.4336,21.8298],[-55.5814,49.4356,12.859],[-55.5735,49.4372,3.04],[-55.5717,49.4406,1.305],[-55.5772,49.4397,24.0487],[-55.5725,49.4422,16.9859],[-55.57,49.4411,1.5498],[-55.5622,49.4479,4.4801],[-55.5649,49.4487,4.9486],[-55.565,49.4503,3.7326],[-55.5672,49.45,20.3623],[-55.557,49.4578,0.0],[-55.5532,49.4632,0.0],[-55.5444,49.4683,0.0],[-55.5436,49.4719,0.0],[-55.5532,49.472,26.0927],[-55.5512,49.4756,6.4119],[-55.5586,49.4772,25.0595],[-55.551,49.4787,0.0],[-55.5494,49.4778,1.8737],[-55.5386,49.4808,5.7791],[-55.5408,49.4837,26.4692],[-55.551,49.4841,36.5133],[-55.5442,49.4875,4.8669],[-55.5456,49.4892,0.0],[-55.5439,49.49,0.0],[-55.5445,49.4917,12.4773],[-55.5584,49.4883,0.0],[-55.565,49.4839,2.0344],[-55.5664,49.4881,3.9862],[-55.5706,49.4864,12.9053],[-55.5711,49.4889,0.0],[-55.5778,49.4894,1.4689],[-55.5783,49.4858,15.533],[-55.5817,49.4831,32.7014],[-55.5888,49.4809,7.2202],[-55.5916,49.478,4.9018],[-55.5909,49.4749,23.4466],[-55.599,49.4646,16.6893],[-55.6005,49.4645,3.6715],[-55.6017,49.4683,2.3875],[-55.6067,49.463,19.2337],[-55.6163,49.4599,24.9327],[-55.6233,49.4533,24.9265],[-55.6379,49.429,9.1676],[-55.6427,49.4275,1.9443],[-55.6501,49.4171,9.4903],[-55.6606,49.4104,41.8389],[-55.6633,49.4022,0.0],[-55.6578,49.3951,0.0],[-55.6581,49.3922,0.0],[-55.6665,49.3872,0.0],[-55.6755,49.3856,0.0],[-55.6808,49.3817,19.4678],[-55.6942,49.3803,15.8329],[-55.6971,49.3823,0.0],[-55.6941,49.386,7.1305],[-55.6937,49.3911,0.0],[-55.6913,49.3956,14.9076],[-55.6835,49.3996,0.8506],[-55.6853,49.4047,0.0],[-55.6841,49.4066,20.1443],[-55.6918,49.4104,10.3335],[-55.7025,49.4091,2.8588],[-55.7045,49.4106,8.9148],[-55.6978,49.4177,6.6838],[-55.6914,49.4189,4.9202],[-55.69,49.4211,1.5868],[-55.694,49.4203,7.3966],[-55.6953,49.4243,0.0],[-55.6976,49.4251,7.687],[-55.7073,49.4221,0.0],[-55.7125,49.4243,0.0],[-55.7223,49.4209,10.3461],[-55.7273,49.4216,11.4189],[-55.7322,49.4178,13.3146],[-55.7364,49.4174,3.2208],[-55.7407,49.4115,19.5549],[-55.7436,49.41,28.4858],[-55.7471,49.4159,0.0],[-55.7444,49.4192,14.2148],[-55.7414,49.4181,0.0],[-55.7231,49.4253,0.0],[-55.7222,49.4283,0.0],[-55.7058,49.4394,1.2181],[-55.6972,49.4433,0.0],[-55.7177,49.4376,18.9061],[-55.7196,49.4385,9.8695],[-55.7147,49.4436,2.8284],[-55.7154,49.4456,0.3541],[-55.7211,49.4439,0.0],[-55.7236,49.445,3.1986],[-55.6798,49.4583,6.5684],[-55.6726,49.4628,4.5964],[-55.6714,49.4675,25.8869],[-55.665,49.4714,0.0],[-55.6795,49.4693,0.0],[-55.6947,49.4594,9.2772],[-55.6958,49.4603,9.2772],[-55.6919,49.4642,4.2398],[-55.6992,49.4642,22.9293],[-55.6897,49.4669,0.0],[-55.6893,49.4715,0.0],[-55.6933,49.4722,0.0],[-55.7003,49.4683,19.9058],[-55.7087,49.4679,14.4881],[-55.7111,49.4694,0.0],[-55.7265,49.4623,2.7084],[-55.7268,49.4605,0.0],[-55.7339,49.4562,18.9483],[-55.7401,49.4555,3.7415],[-55.7424,49.4535,11.8742],[-55.7476,49.4525,1.6266],[-55.7565,49.4541,14.8666],[-55.7636,49.4494,7.2651],[-55.7647,49.4503,0.0],[-55.7583,49.4556,0.0],[-55.76,49.4561,0.0],[-55.7719,49.453,12.2482],[-55.786,49.446,35.922],[-55.805,49.4419,4.7389],[-55.8078,49.44,4.5455],[-55.8092,49.4411,10.4577],[-55.8057,49.4434,1.0039],[-55.8072,49.4469,8.3774],[-55.7886,49.4549,7.7083],[-55.9003,49.4556,11.5505],[-55.9006,49.4806,127.3007],[-55.8586,49.5001,112.087],[-55.8351,49.5102,86.0178],[-55.8202,49.5063,156.7163],[-55.8049,49.4979,17.2504],[-55.7962,49.4967,0.0],[-55.7901,49.4994,0.0],[-55.7856,49.4992,0.0],[-55.7875,49.5019,7.9983],[-55.7905,49.501,5.6526],[-55.7911,49.5028,7.8698],[-55.7886,49.5046,4.0076],[-55.7802,49.506,0.0],[-55.7797,49.5078,0.0],[-55.7823,49.5079,12.6109],[-55.7797,49.5103,0.0],[-55.7822,49.5131,0.0],[-55.786,49.5137,38.8911],[-55.7879,49.5122,0.0],[-55.7867,49.5103,9.4509],[-55.7904,49.5088,3.0483],[-55.793,49.5107,0.0],[-55.7959,49.509,4.1597],[-55.8021,49.5146,0.0],[-55.8081,49.5172,0.0],[-55.8183,49.5178,0.0],[-55.8217,49.5158,22.4276],[-55.8192,49.5194,0.0],[-55.8203,49.5222,0.0],[-55.8244,49.5244,2.5134],[-55.8296,49.5248,7.7855],[-55.8361,49.529,0.0],[-55.8478,49.5313,5.1148],[-55.8512,49.5305,0.0],[-55.8502,49.5274,12.8873],[-55.8517,49.5255,0.0],[-55.8555,49.5268,15.562],[-55.8613,49.5248,2.9572],[-55.8612,49.5223,4.1336],[-55.8579,49.522,3.676],[-55.8573,49.5169,0.0],[-55.8593,49.5144,6.1138],[-55.868899999999996,49.5131,6.8641],[-55.8724,49.5149,2.8276],[-55.8862,49.5051,5.0739],[-55.8898,49.507,7.4837],[-55.8893,49.5119,0.0],[-55.8907,49.5141,0.0],[-55.8875,49.5214,0.7992],[-55.8883,49.5222,0.0],[-55.9083,49.512,9.0738],[-55.9111,49.5158,0.0],[-55.9147,49.5144,7.5551],[-55.9158,49.5208,0.0],[-55.9219,49.5194,16.3965],[-55.9242,49.5211,10.381],[-55.9264,49.5198,0.0],[-55.928,49.515,16.5953],[-55.9346,49.5075,8.7684],[-55.9372,49.5015,3.3851],[-55.9408,49.5,12.9235],[-55.9533,49.5011,13.332],[-55.95,49.5036,0.0],[-55.9533,49.5053,17.9167],[-55.9663,49.4995,4.88],[-55.9834,49.4982,11.2566],[-55.9848,49.4961,4.7408],[-55.9917,49.4944,0.0],[-55.993,49.4928,8.8662],[-55.9922,49.4956,0.0],[-55.9933,49.4964,5.181],[-56.0045,49.4971,0.0],[-56.0082,49.4917,25.8324],[-56.0136,49.4902,0.0],[-56.0189,49.4847,59.4417],[-56.0275,49.4802,2.1116],[-56.0379,49.4687,8.7339],[-56.0495,49.4593,0.0],[-56.0527,49.4544,2.6141],[-56.0597,49.4541,0.0],[-56.0706,49.4486,1.9104],[-56.0947,49.4029,13.5],[-56.0943,49.3984,13.5],[-56.1056,49.3702,13.5],[-56.1111,49.3638,13.5],[-56.1281,49.354,16.9826],[-56.137,49.3559,41.8187],[-56.1402,49.3601,91.0299],[-56.1388,49.3633,123.9761],[-56.129,49.3709,135.4319],[-56.1161,49.3933,175.5945],[-56.1132,49.4019,158.0894],[-56.1087,49.4053,90.1883],[-56.0977,49.4072,96.8737],[-56.1158,49.4255,0.0],[-56.118899999999996,49.4225,0.0],[-56.123,49.4226,0.75],[-56.1361,49.4317,0.0],[-56.1407,49.4302,16.2947],[-56.1418,49.4318,0.0],[-56.1348,49.4341,4.0417],[-56.1144,49.4451,0.0],[-56.1034,49.4549,22.8291],[-56.0948,49.459,5.7233],[-56.0926,49.4655,5.0542],[-56.076,49.4762,4.1297],[-56.0816,49.4778,3.5399],[-56.0769,49.4817,11.9703],[-56.0777,49.4833,11.2225],[-56.088,49.4815,14.9736],[-56.0964,49.4878,2.7926],[-56.0908,49.4911,4.0212],[-56.0881,49.4883,0.0],[-56.0831,49.4869,0.0],[-56.0789,49.4904,0.0],[-56.0858,49.4911,8.254],[-56.1036,49.5037,9.0112],[-56.1187,49.5036,26.3968],[-56.1237,49.5102,21.2678],[-56.1296,49.5111,27.2267],[-56.14,49.5087,21.6607],[-56.1682,49.4959,30.1449],[-56.1753,49.4945,26.9514],[-56.1928,49.4959,60.6162],[-56.2186,49.4896,70.1465],[-56.2376,49.4821,64.6234],[-56.2468,49.4806,50.632],[-56.2721,49.4808,126.1138],[-56.2822,49.4778,137.5468],[-56.3107,49.4645,74.5254],[-56.3175,49.4631,69.6132],[-56.3335,49.4644,51.0906],[-56.3423,49.4677,60.5396],[-56.3614,49.4791,72.8906],[-56.374,49.4746,54.8688],[-56.3927,49.4778,61.0644],[-56.4156,49.4724,76.8583],[-56.4458,49.4601,46.0],[-56.4541,49.4598,48.8604],[-56.4571,49.4611,49.5815],[-56.4579,49.4582,48.846],[-56.4711,49.4545,49.2308],[-56.4748,49.4461,50.9524],[-56.4685,49.4477,54.6577],[-56.4682,49.4455,58.2352],[-56.4634,49.4432,70.5842],[-56.4626,49.4413,80.085],[-56.4647,49.436,99.0552],[-56.4607,49.4328,141.7384],[-56.4591,49.4283,146.9098],[-56.4539,49.4246,156.0998],[-56.4597,49.4142,171.1281],[-56.4582,49.4074,178.4492],[-56.4635,49.4027,181.1332],[-56.4607,49.3934,202.3718],[-56.4625,49.3891,206.4947],[-56.4711,49.3804,203.4625],[-56.4703,49.3749,198.7749],[-56.475,49.372,190.0592],[-56.4745,49.3707,190.0592],[-56.477,49.3673,187.485],[-56.4886,49.3599,165.4639],[-56.5026,49.3546,142.4396],[-56.5072,49.3498,142.1748],[-56.5107,49.3492,139.537],[-56.488,49.3439,165.4359],[-56.1265,49.2832,79.157],[-56.1042,49.2751,136.894],[-56.0539,49.2886,153.406],[-56.0555,49.2871,157.6823],[-56.0523,49.2794,146.4147],[-56.0363,49.2973,117.5462],[-56.0346,49.3048,116.2135],[-56.0359,49.3172,109.5304],[-56.0106,49.3163,164.2893],[-56.0068,49.3172,178.3168],[-56.0001,49.322,211.6634],[-55.9913,49.3201,235.7676],[-55.87,49.3562,156.0275],[-55.7021,49.3132,221.2547]]],
[[[-56.0736,49.4784,10.478],[-56.0723,49.4763,0.0],[-56.0705,49.4817,4.0105],[-56.0711,49.4818,4.0105],[-56.0736,49.4784,10.478]]],
[[[-56.0627,49.4883,1.1915],[-56.0637,49.4873,1.1915],[-56.062,49.4864,0.0],[-56.0595,49.4882,4.0431],[-56.0606,49.4889,0.0],[-56.0627,49.4883,1.1915]]],
[[[-55.9183,49.55,2.2024],[-55.9233,49.5481,2.0461],[-55.9233,49.5464,0.0],[-55.9183,49.5483,2.135],[-55.9183,49.55,2.2024]]],
[[[-55.9511,49.5789,15.7763],[-55.9472,49.5814,12.6545],[-55.9475,49.5831,11.665],[-55.9544,49.5806,0.0],[-55.9511,49.5789,15.7763]]],
[[[-55.9296,49.588,0.0],[-55.9326,49.5888,0.0],[-55.9345,49.5874,12.945],[-55.9323,49.5859,0.0],[-55.9296,49.588,0.0]]],
[[[-55.9103,49.6476,106.7064],[-55.8933,49.6519,0.0],[-55.887,49.6568,0.0],[-55.8856,49.6598,26.8294],[-55.8756,49.663,14.0607],[-55.8731,49.666,88.479],[-55.8686,49.6678,11.5001],[-55.8619,49.6686,0.0],[-55.8541,49.6718,0.0],[-55.8534,49.6743,0.0],[-55.8554,49.6784,0.0],[-55.8467,49.6911,35.9258],[-55.8502,49.6909,43.4069],[-55.8489,49.6925,0.9936],[-55.85,49.6931,0.9936],[-55.8542,49.6917,49.2778],[-55.8553,49.6894,53.2037],[-55.8631,49.6883,31.6562],[-55.8673,49.683,34.653],[-55.8727,49.6796,66.543],[-55.9111,49.6617,0.0],[-55.9022,49.6606,7.4351],[-55.895,49.6633,0.0],[-55.8914,49.6625,0.0],[-55.8972,49.6583,54.4062],[-55.9047,49.6597,9.8918],[-55.9144,49.6586,34.5428],[-55.9193,49.6561,5.1425],[-55.9299,49.6465,19.4752],[-55.9438,49.6444,0.0],[-55.9511,49.6403,1.1198],[-55.9583,49.6404,2.2485],[-55.9519,49.6455,38.0205],[-55.9334,49.651,5.4936],[-55.9318,49.6543,2.0874],[-55.9216,49.6598,0.0],[-55.9187,49.6643,34.5297],[-55.9119,49.6697,0.0],[-55.9048,49.6704,0.0],[-55.8956,49.6763,15.569],[-55.8802,49.6821,2.8443],[-55.8742,49.6881,2.0376],[-55.8928,49.6856,0.0],[-55.9142,49.6753,36.5723],[-55.9211,49.6753,10.2044],[-55.9295,49.6723,13.1909],[-55.93,49.6742,5.9955],[-55.9267,49.6758,47.522],[-55.9092,49.6817,4.4397],[-55.905,49.6886,0.0],[-55.9017,49.6911,15.9367],[-55.9044,49.6928,11.8677],[-55.9044,49.6956,0.0],[-55.9072,49.6936,44.6379],[-55.9136,49.6939,0.0],[-55.9365,49.6842,1.8305],[-55.9411,49.681,2.6152],[-55.9432,49.6745,0.0],[-55.9382,49.6738,25.101],[-55.9366,49.6725,2.4935],[-55.9374,49.6717,9.6001],[-55.9434,49.6704,20.9685],[-55.9456,49.6725,1.1593],[-55.9575,49.6703,55.1046],[-55.9586,49.6717,0.0],[-55.9567,49.6725,6.6651],[-55.9598,49.6738,23.7963],[-55.978,49.6638,66.0423],[-55.9998,49.6555,105.86],[-56.0058,49.651,95.2493],[-56.0158,49.6395,174.2347],[-56.0268,49.6351,116.0467],[-56.0336,49.626,112.2262],[-56.0341,49.623,80.2913],[-56.0192,49.6083,71.5995],[-56.0193,49.6058,57.2317],[-56.0295,49.5974,102.8775],[-56.0567,49.5903,106.8495],[-56.0648,49.5853,154.524],[-56.0676,49.5814,142.222],[-56.0698,49.5735,104.9581],[-56.0684,49.5638,114.5305],[-56.0612,49.5558,30.5018],[-56.0614,49.553,24.5],[-56.0657,49.5498,24.5],[-56.0757,49.547,24.5],[-56.0839,49.5422,24.5],[-56.1053,49.52,21.7303],[-56.0031,49.5301,66.2509],[-56.0009,49.5289,62.1567],[-56.0061,49.524,47.5349],[-56.0035,49.5209,5.9121],[-55.9897,49.5222,4.9075],[-55.975,49.5265,11.3487],[-55.9686,49.5239,5.017],[-55.9578,49.5264,0.0],[-55.9426,49.5337,0.0],[-55.9405,49.5383,0.0],[-55.9251,49.5469,0.0],[-55.9192,49.5539,3.252],[-55.922,49.5552,5.7955],[-55.9199,49.5634,0.0],[-55.9172,49.5637,0.0],[-55.9144,49.5681,1.1014],[-55.9069,49.5703,4.8506],[-55.9067,49.5725,6.4206],[-55.9006,49.5736,0.0],[-55.9006,49.575,1.4374],[-55.9031,49.575,1.6345],[-55.9017,49.5783,8.2362],[-55.8972,49.5786,0.6771],[-55.8978,49.5804,1.8757],[-55.8824,49.5886,1.3185],[-55.8742,49.5897,1.3894],[-55.8733,49.5886,0.0],[-55.8852,49.5827,6.7729],[-55.8924,49.5812,2.1955],[-55.8994,49.5761,2.3769],[-55.8978,49.5747,0.0],[-55.8961,49.5761,1.0285],[-55.8908,49.5725,8.5214],[-55.9057,49.57,15.7733],[-55.9108,49.5678,0.0],[-55.9136,49.5647,2.1057],[-55.9075,49.5642,15.1951],[-55.9044,49.5597,0.0],[-55.8964,49.5583,0.0],[-55.8856,49.5656,31.1463],[-55.8669,49.5704,2.6085],[-55.8593,49.5699,3.2094],[-55.8539,49.5714,20.657],[-55.8506,49.5703,0.0],[-55.8414,49.5736,0.0],[-55.8394,49.5779,3.8196],[-55.8425,49.5817,45.4573],[-55.8394,49.5831,2.8366],[-55.8401,49.5861,54.0268],[-55.8339,49.5936,16.9994],[-55.8275,49.5978,0.0],[-55.8269,49.6017,0.0],[-55.8228,49.6061,2.4332],[-55.8233,49.61,0.0],[-55.8311,49.6172,0.0],[-55.8467,49.6183,15.465],[-55.8527,49.6165,7.6676],[-55.8542,49.6186,0.0],[-55.8583,49.6181,32.8107],[-55.8636,49.6197,2.0623],[-55.8662,49.6146,5.1889],[-55.8728,49.612,15.9432],[-55.8725,49.6069,20.9892],[-55.8747,49.6086,3.8937],[-55.8778,49.6064,1.9526],[-55.8811,49.6007,0.0],[-55.8803,49.595,20.342],[-55.8819,49.5928,0.3054],[-55.8942,49.5897,4.0844],[-55.895,49.5903,4.0844],[-55.8925,49.5925,15.9893],[-55.8867,49.5939,2.0751],[-55.8869,49.5967,0.0],[-55.8976,49.5985,18.2587],[-55.899,49.5995,0.0],[-55.8961,49.6017,0.0],[-55.9025,49.605,11.9351],[-55.9092,49.6024,0.0],[-55.9183,49.5949,16.6151],[-55.9224,49.5946,2.7859],[-55.9262,49.5865,31.6322],[-55.9302,49.584,1.3606],[-55.9333,49.5829,7.0261],[-55.9404,49.5843,0.0],[-55.9441,49.5832,5.3114],[-55.949,49.5776,12.1953],[-55.9615,49.5774,0.0],[-55.9692,49.5719,43.2689],[-55.9711,49.5725,4.6263],[-55.9681,49.5747,1.004],[-55.9683,49.5772,0.0],[-55.9735,49.5774,0.0],[-55.979,49.5754,4.9303],[-55.9823,49.5713,1.8101],[-55.9975,49.5619,2.0637],[-55.9992,49.5628,5.5312],[-55.9978,49.5642,5.4322],[-56.0,49.5672,0.0],[-56.0041,49.5667,7.5233],[-56.0041,49.5685,0.0],[-56.0,49.5708,8.6966],[-55.9962,49.5679,1.8494],[-55.9883,49.57,4.6688],[-55.9825,49.5767,4.8157],[-55.9762,49.5796,1.3767],[-55.971,49.5795,5.9744],[-55.9529,49.5855,9.4475],[-55.9472,49.5856,25.9974],[-55.9439,49.588,6.8549],[-55.9399,49.5872,2.0803],[-55.9293,49.5932,8.2598],[-55.9278,49.5958,2.968],[-55.9292,49.5969,8.3074],[-55.9217,49.6019,0.0],[-55.92,49.6081,0.0],[-55.9247,49.605,20.5603],[-55.9267,49.6069,5.1345],[-55.9328,49.6064,2.3299],[-55.9452,49.6001,19.4607],[-55.9432,49.6002,25.6294],[-55.9448,49.598,60.7564],[-55.9424,49.5951,27.4563],[-55.9501,49.5912,38.8958],[-55.958,49.595,109.3588],[-55.9579,49.5987,37.7293],[-55.9606,49.6033,89.821],[-55.951,49.607,65.2427],[-55.9455,49.6067,16.6657],[-55.9308,49.614,17.8678],[-55.9206,49.6197,0.0],[-55.9032,49.6333,0.0],[-55.8983,49.635,0.0],[-55.9164,49.637,60.3962],[-55.9178,49.6382,89.3663],[-55.9103,49.6476,106.7064]]],
[[[-55.9048,49.6071,14.3227],[-55.9022,49.6108,39.5274],[-55.8988,49.6121,0.0],[-55.8968,49.6162,0.0],[-55.9116,49.6128,1.2005],[-55.9193,49.6048,0.0],[-55.919,49.6027,0.0],[-55.9176,49.6015,0.0],[-55.9099,49.6037,0.0],[-55.9048,49.6071,14.3227]]],
[[[-55.9132,49.6664,2.7725],[-55.9158,49.6617,0.0],[-55.9128,49.6625,5.493],[-55.91,49.6658,12.8107],[-55.9111,49.6672,0.0],[-55.9132,49.6664,2.7725]]],
[[[-55.9053,49.6831,4.6189],[-55.9008,49.6836,0.0],[-55.8936,49.6894,10.7258],[-55.9012,49.6887,17.5207],[-55.9053,49.6831,4.6189]]],
[[[-55.8872,49.6949,1.424],[-55.8924,49.6956,0.0],[-55.8953,49.6908,4.189],[-55.8904,49.6917,0.0],[-55.8872,49.6949,1.424]]],
[[[-55.8758,49.6942,3.3806],[-55.8739,49.6956,0.4691],[-55.875,49.6978,0.9556],[-55.8803,49.6947,7.844],[-55.8858,49.695,1.424],[-55.8861,49.6931,0.8152],[-55.8842,49.6925,1.2015],[-55.8758,49.6942,3.3806]]],
[[[-55.5736,49.3769,1.5625],[-55.5739,49.3769,1.5625],[-55.5747,49.3757,0.0],[-55.5731,49.3764,1.5625],[-55.5736,49.3769,1.5625]]],
[[[-55.6897,49.4244,6.4259],[-55.6853,49.4236,0.0],[-55.6872,49.425,3.7249],[-55.6872,49.4272,0.0],[-55.69,49.4261,0.0],[-55.6897,49.4244,6.4259]]],
[[[-55.6758,49.4378,7.9666],[-55.6729,49.439,2.5724],[-55.6756,49.4419,16.7488],[-55.6854,49.4411,8.0356],[-55.6947,49.4358,5.0591],[-55.6992,49.4283,1.4743],[-55.698,49.4268,0.0],[-55.6904,49.4286,2.762],[-55.685,49.4279,1.4813],[-55.6798,49.4306,14.5543],[-55.6764,49.4306,9.974],[-55.67,49.4367,0.7681],[-55.6717,49.4378,0.0],[-55.68,49.4333,6.551],[-55.6811,49.4344,3.3047],[-55.6758,49.4378,7.9666]]],
[[[-55.7133,49.4461,0.4386],[-55.7131,49.4449,0.0],[-55.7096,49.4456,0.714],[-55.7119,49.4471,0.0],[-55.7133,49.4461,0.4386]]],
[[[-55.5585,49.4556,8.7528],[-55.5603,49.4544,2.1314],[-55.5553,49.4552,0.0],[-55.5561,49.4567,17.5095],[-55.5585,49.4556,8.7528]]],
[[[-55.5512,49.4573,0.0],[-55.5485,49.4563,0.3197],[-55.5456,49.4599,0.0],[-55.5486,49.4599,0.0],[-55.5512,49.4573,0.0]]],
[[[-55.6631,49.4706,0.0],[-55.6575,49.4711,2.2721],[-55.649,49.4759,12.1567],[-55.6508,49.4771,1.3422],[-55.657,49.4768,1.4758],[-55.6631,49.4706,0.0]]],
[[[-55.7808,49.4888,0.0],[-55.7697,49.4742,8.0755],[-55.7717,49.4722,3.5841],[-55.7647,49.4713,0.0],[-55.761,49.4731,2.3249],[-55.7675,49.4798,0.9202],[-55.7669,49.4816,0.0],[-55.7627,49.4806,7.0933],[-55.7629,49.4777,1.4392],[-55.7504,49.4714,2.0961],[-55.7342,49.4722,21.2603],[-55.7309,49.4744,1.4453],[-55.7314,49.4806,0.0],[-55.7393,49.4798,3.6475],[-55.744,49.4825,0.7204],[-55.7502,49.4821,0.8053],[-55.7553,49.4839,0.0],[-55.7589,49.4822,0.9091],[-55.7655,49.4874,0.0],[-55.769,49.4864,31.9393],[-55.7695,49.4893,2.4336],[-55.7745,49.4912,13.0198],[-55.7789,49.4913,0.0],[-55.7808,49.4888,0.0]]],
[[[-55.7685,49.4568,0.8618],[-55.7676,49.4602,0.0],[-55.7762,49.458,0.0],[-55.77,49.4565,0.0],[-55.7685,49.4568,0.8618]]],
[[[-55.7817,49.4675,2.9284],[-55.7767,49.4681,1.927],[-55.7758,49.4694,0.0],[-55.7819,49.4686,2.9284],[-55.7817,49.4675,2.9284]]],
[[[-55.766,49.4963,0.0],[-55.7651,49.4971,0.0],[-55.7671,49.4985,4.969],[-55.7735,49.4983,3.3921],[-55.7709,49.4964,2.8643],[-55.766,49.4963,0.0]]],
[[[-55.8138,49.536,86.4551],[-55.8083,49.5314,58.6847],[-55.8062,49.538,130.4415],[-55.8078,49.542,126.2216],[-55.8224,49.5485,104.0233],[-55.8075,49.5495,111.8887],[-55.7684,49.5447,21.3394],[-55.7739,49.5528,0.0],[-55.7725,49.5542,8.949],[-55.7683,49.5514,0.0],[-55.7675,49.5531,0.0],[-55.7743,49.5571,0.0],[-55.776,49.5602,0.0],[-55.7746,49.5628,0.0],[-55.7792,49.5673,10.91],[-55.7716,49.5761,0.0],[-55.778,49.5863,0.0],[-55.7881,49.5918,9.9835],[-55.7923,49.5904,30.1873],[-55.7969,49.5808,0.0],[-55.7932,49.5732,5.0421],[-55.7947,49.5675,0.0],[-55.8067,49.5633,0.0],[-55.8124,49.5561,0.0],[-55.813,49.5523,4.3881],[-55.826,49.5493,2.1757],[-55.8138,49.536,86.4551]]],
[[[-55.756,49.598,7.8466],[-55.7616,49.5956,1.8541],[-55.7607,49.5943,1.1912],[-55.757,49.5949,26.08],[-55.7545,49.5967,0.3671],[-55.756,49.598,7.8466]]],
[[[-55.8103,49.6258,0.0],[-55.8125,49.6255,0.0],[-55.8112,49.6221,0.0],[-55.8097,49.623,0.0],[-55.8103,49.6258,0.0]]],
[[[-55.8244,49.6253,0.0],[-55.8231,49.6244,0.0],[-55.8225,49.625,0.0],[-55.8236,49.6264,0.9698],[-55.8244,49.6253,0.0]]],
[[[-55.8294,49.6317,0.0],[-55.8289,49.6292,0.0],[-55.8272,49.6297,0.0],[-55.8286,49.6319,0.0],[-55.8294,49.6317,0.0]]]]}
,"properties": {"GID_3": "CAN.5.10.16_1","GID_0": "CAN","country": "Canada","GID_1": "CAN.5_1","province": "NewfoundlandandLabrador","NL_NAME_1": "NA","GID_2": "CAN.5.10_1","county": "DivisionNo.8","NL_NAME_2": "NA","city": "DivisionNo.8,Subd.C","VARNAME_3": "NA","NL_NAME_3": "NA","TYPE_3": "SubdivisionofUnorganized","ENGTYPE_3": "SubdivisionofUnorganized","CC_3": "NA","HASC_3": "NA","name": "Division_No.8,Subd.C.city","area_km2": 1284.8873,"hist_schema_id": "Elevation0-9000","hist_area_km2": {"0": 30.1575,"25": 107.5789,"50": 122.7621,"75": 176.558,"100": 167.6517,"125": 174.1061,"150": 162.7232,"175": 157.3513,"200": 113.1578,"225": 49.679,"250": 18.1346,"275": 4.0605,"300": 0.9666}}}