{"type":"Feature","properties":{"GID_3":"CAN.1.3.22_1","GID_0":"CAN","country":"Canada","GID_1":"CAN.1_1","province":"Alberta","NL_NAME_1":"NA","GID_2":"CAN.1.3_1","county":"DivisionNo.12","NL_NAME_2":"NA","city":"St.Paul","VARNAME_3":"NA","NL_NAME_3":"NA","TYPE_3":"Town","ENGTYPE_3":"Town","CC_3":"NA","HASC_3":"NA","name":"St.Paul.city"},
"geometry":{"type": "MultiPolygon","coordinates": [[[[-111.2788,53.9952,641.6003],[-111.2789,53.9987,639.1991],[-111.3215,53.9986,648.9394],[-111.3217,53.9914,646.5186],[-111.3276,53.9914,645.8383],[-111.3277,53.9804,642.1089],[-111.3169,53.9803,643.6209],[-111.3167,53.9841,646.053],[-111.2976,53.9841,640.2413],[-111.298,53.9765,634.6191],[-111.2675,53.9766,634.5744],[-111.2673,53.9841,638.6912],[-111.2604,53.9841,639.6708],[-111.2601,53.9914,642.4741],[-111.2539,53.9914,644.502],[-111.2541,53.9947,646.0025],[-111.2788,53.9952,641.6003]]]]}}