{"type":"Feature","properties":{"GID_3":"CAN.11.79.15_1","GID_0":"CAN","country":"Canada","GID_1":"CAN.11_1","province":"Québec","NL_NAME_1":"NA","GID_2":"CAN.11.79_1","county":"Minganie--Basse-Côte-Nord","NL_NAME_2":"NA","city":"Pakuashipi","VARNAME_3":"NA","NL_NAME_3":"NA","TYPE_3":"ÉtablissemnetIndien","ENGTYPE_3":"IndianSettlement","CC_3":"NA","HASC_3":"NA","name":"Pakuashipi.city"},
"geometry":{"type": "MultiPolygon","coordinates": [[[[-58.6624,51.2214,0.0],[-58.6656,51.2235,5.1107],[-58.6686,51.228,0.0],[-58.6685,51.2308,0.0],[-58.6725,51.2357,0.0],[-58.6716,51.2319,10.6735],[-58.677,51.2323,48.5227],[-58.6856,51.2303,16.1044],[-58.6961,51.2257,49.0771],[-58.6978,51.2224,56.4399],[-58.6897,51.2114,76.3292],[-58.6831,51.2098,71.4353],[-58.6624,51.2214,0.0]]]]}}