{"type": "Feature","bbox": [-105.4587,52.1436,-105.0029,52.4058],"geometry": {"type": "MultiPolygon","coordinates": [[[[-105.4307,52.1439,551.7316],[-105.0029,52.1436,577.7767],[-105.0034,52.3179,578.9261],[-105.0271,52.3182,568.0122],[-105.0279,52.4053,545.9476],[-105.4587,52.4058,579.1727],[-105.4587,52.3183,574.6854],[-105.4317,52.3182,575.1917],[-105.4307,52.1439,551.7316]],
[[-105.0855,52.202,564.1136],[-105.0854,52.1948,562.5367],[-105.098,52.1956,562.8897],[-105.0977,52.1877,562.084],[-105.1457,52.1877,568.5773],[-105.1456,52.1986,569.6228],[-105.1545,52.1992,568.5446],[-105.1546,52.202,568.5759],[-105.157,52.202,569.3416],[-105.157,52.2033,567.3109],[-105.1456,52.2033,570.7742],[-105.1456,52.2161,565.4044],[-105.1115,52.2162,567.6413],[-105.098,52.2162,565.5518],[-105.0981,52.209,566.873],[-105.0856,52.2089,563.5967],[-105.0855,52.202,564.1136]]]]}
,"properties": {"GID_3": "CAN.12.6.30_1","GID_0": "CAN","country": "Canada","GID_1": "CAN.12_1","province": "Saskatchewan","NL_NAME_1": "NA","GID_2": "CAN.12.6_1","county": "DivisionNo.15","NL_NAME_2": "NA","city": "HumboldtNo.370","VARNAME_3": "NA","NL_NAME_3": "NA","TYPE_3": "RuralMunicipality","ENGTYPE_3": "RuralMunicipality","CC_3": "NA","HASC_3": "NA","name": "Humboldt_No.370.city","area_km2": 837.1355,"hist_schema_id": "Elevation0-9000","hist_area_km2": {"550": 437.2746,"575": 385.8987,"600": 13.7552,"625": 0.207}}}