{"type":"Feature","properties":{"featurecla":"River","scalerank":11,"rivernum":20915,"dissolve":"20915River","name":"Pine","name_alt":null,"note":"ID is link back to CEC data","name_full":"Pine River","min_zoom":6.7,"strokeweig":0.15,"uident":1554101,"min_label":7.7},
"geometry":{"type": "LineString","coordinates": [[-122.81078040272872,55.417018947389863,1333.8953],[-122.78368079335372,55.413519598431527,1158.1351],[-122.76178951731205,55.418524481244027,1131.2479],[-122.7484431631454,55.445176499473192,800.9926],[-122.74901282460372,55.447943426556527,789.5582],[-122.75153561106205,55.460964259889863,950.1953],[-122.77074134022872,55.479681707806527,1023.6087],[-122.77814693918705,55.495794989056527,845.8475],[-122.76610266835372,55.514186916139863,755.356],[-122.74034583241622,55.526719468223192,756.413],[-122.70164954335372,55.524115301556527,871.3096],[-122.65925045481205,55.511664129681527,1026.5875],[-122.60920162668705,55.514471746869027,889.3283],[-122.56663977772872,55.515936590619027,759.5633],[-122.53648841054122,55.518500067181527,693.5938]]}}