{"type":"Feature","properties":{"GID_3":"CAN.12.5.2_1","GID_0":"CAN","country":"Canada","GID_1":"CAN.12_1","province":"Saskatchewan","NL_NAME_1":"NA","GID_2":"CAN.12.5_1","county":"DivisionNo.14","NL_NAME_2":"NA","city":"ArborfieldNo.456","VARNAME_3":"NA","NL_NAME_3":"NA","TYPE_3":"RuralMunicipality","ENGTYPE_3":"RuralMunicipality","CC_3":"NA","HASC_3":"NA","name":"Arborfield_No.456.city"},
"geometry":{"type": "MultiPolygon","coordinates": [[[[-103.1677,52.9295,519.8002],[-103.023,52.9298,505.4599],[-103.0226,53.0169,606.5071],[-103.0265,53.0169,600.4933],[-103.0267,53.1916,424.8698],[-103.7583,53.1915,360.3346],[-103.7577,53.0697,376.4331],[-103.7457,53.0677,377.671],[-103.7562,53.0624,379.9454],[-103.7578,53.0591,381.8],[-103.7573,53.0168,433.2584],[-103.7467,53.0169,441.0875],[-103.7462,52.9292,447.6371],[-103.1677,52.9295,519.8002]],
[[-103.6513,53.1043,361.0593],[-103.6525,53.1043,361.3373],[-103.6524,53.1025,360.7198],[-103.6648,53.1024,362.5042],[-103.6648,53.1037,362.5042],[-103.6694,53.1043,362.0401],[-103.6694,53.1057,360.2782],[-103.6682,53.1057,360.2782],[-103.6684,53.1101,359.7136],[-103.6529,53.1102,361.3477],[-103.6513,53.1043,361.0593]]]]}}