{"type": "Feature","bbox": [-121.9158,50.6495,-121.8841,50.6635],"geometry": {"type": "MultiPolygon","coordinates": [[[[-121.9158,50.6634,215.2445],[-121.9149,50.6622,215.2445],[-121.8848,50.6495,197.9382],[-121.8841,50.6635,355.1436],[-121.9158,50.6634,215.2445]]]]}
,"properties": {"GID_3": "CAN.2.25.14_1","GID_0": "CAN","country": "Canada","GID_1": "CAN.2_1","province": "BritishColumbia","NL_NAME_1": "NA","GID_2": "CAN.2.25_1","county": "Squamish-Lillooet","NL_NAME_2": "NA","city": "McCartney'sFlat4","VARNAME_3": "NA","NL_NAME_3": "NA","TYPE_3": "RéserveIndienne","ENGTYPE_3": "IndianReserve","CC_3": "NA","HASC_3": "NA","name": "Mc_Cartney's_Flat4.city","area_km2": 1.868264,"hist_schema_id": "Elevation0-9000","hist_area_km2": {"200": 0.053761,"225": 0.215062,"250": 0.201609,"275": 0.510766,"300": 0.658583,"325": 0.161284,"350": 0.05376,"375": 0.01344}}}