{"type": "Feature","bbox": [-110.005,49.0,-109.1223,49.5246],"geometry": {"type": "MultiPolygon","coordinates": [[[[-110.005,49.0001,853.6962],[-109.2115,49.0,870.9684],[-109.212,49.1737,1041.3099],[-109.2341,49.1742,1040.3745],[-109.2334,49.2626,964.0739],[-109.1224,49.2623,973.0519],[-109.1223,49.5094,1124.4917],[-109.1673,49.5093,1064.682],[-109.1671,49.5246,1096.7672],[-110.0045,49.5236,1214.4907],[-110.005,49.0001,853.6962]],
[[-109.5238,49.2906,926.9951],[-109.5253,49.2906,927.3182],[-109.5253,49.298,930.2012],[-109.5144,49.298,931.0251],[-109.5145,49.2907,928.9044],[-109.5238,49.2906,926.9951]],
[[-109.28,49.3786,962.6678],[-109.2681,49.3785,966.3253],[-109.2682,49.3712,963.382],[-109.2791,49.3711,962.6011],[-109.279,49.367,958.8749],[-109.2906,49.3674,960.2207],[-109.2906,49.3785,960.8462],[-109.28,49.3786,962.6678]]]]}
,"properties": {"GID_3": "CAN.12.13.22_1","GID_0": "CAN","country": "Canada","GID_1": "CAN.12_1","province": "Saskatchewan","NL_NAME_1": "NA","GID_2": "CAN.12.13_1","county": "DivisionNo.4","NL_NAME_2": "NA","city": "RenoNo.51","VARNAME_3": "NA","NL_NAME_3": "NA","TYPE_3": "RuralMunicipality","ENGTYPE_3": "RuralMunicipality","CC_3": "NA","HASC_3": "NA","name": "Reno_No.51.city","area_km2": 3512.453,"hist_schema_id": "Elevation0-9000","hist_area_km2": {"825": 0.89,"850": 134.373,"875": 326.709,"900": 477.989,"925": 430.465,"950": 526.012,"975": 624.711,"1000": 368.24,"1025": 222.945,"1050": 110.331,"1075": 99.501,"1100": 67.345,"1125": 51.526,"1150": 31.705,"1175": 18.372,"1200": 10.134,"1225": 5.892,"1250": 4.198,"1275": 1.115}}}