{"type": "Feature","bbox": [-108.8288,52.1424,-108.4314,52.4052],"geometry": {"type": "MultiPolygon","coordinates": [[[[-108.4506,52.4052,686.9083],[-108.6782,52.4048,660.3875],[-108.6781,52.3984,653.4355],[-108.7271,52.3984,647.8536],[-108.7272,52.4046,653.2385],[-108.8113,52.4042,660.4922],[-108.8106,52.3172,656.2244],[-108.8126,52.3172,656.6097],[-108.8125,52.2806,614.6182],[-108.8146,52.2494,648.9381],[-108.8211,52.2374,652.9172],[-108.8175,52.2278,655.078],[-108.8184,52.2226,654.0132],[-108.8288,52.1975,641.91],[-108.8252,52.1921,640.4639],[-108.7969,52.1766,637.1166],[-108.7901,52.167,625.501],[-108.7894,52.1606,641.5334],[-108.8014,52.1424,647.3395],[-108.4314,52.1429,641.2171],[-108.4318,52.3176,699.9025],[-108.4505,52.3176,704.8098],[-108.4506,52.4052,686.9083]],
[[-108.4436,52.2009,649.1312],[-108.4435,52.1934,650.8422],[-108.455,52.1933,651.0284],[-108.455,52.1966,651.3339],[-108.4603,52.1977,651.6521],[-108.4604,52.2009,652.2646],[-108.4436,52.2009,649.1312]]]]}
,"properties": {"GID_3": "CAN.12.4.39_1","GID_0": "CAN","country": "Canada","GID_1": "CAN.12_1","province": "Saskatchewan","NL_NAME_1": "NA","GID_2": "CAN.12.4_1","county": "DivisionNo.13","NL_NAME_2": "NA","city": "RefordNo.379","VARNAME_3": "NA","NL_NAME_3": "NA","TYPE_3": "RuralMunicipality","ENGTYPE_3": "RuralMunicipality","CC_3": "NA","HASC_3": "NA","name": "Reford_No.379.city","area_km2": 737.6131,"hist_schema_id": "Elevation0-9000","hist_area_km2": {"625": 29.9813,"650": 421.293,"675": 263.0965,"700": 23.2423}}}