{"type":"Feature","properties":{"GID_3":"CAN.4.11.5_1","GID_0":"CAN","country":"Canada","GID_1":"CAN.4_1","province":"NewBrunswick","NL_NAME_1":"NA","GID_2":"CAN.4.11_1","county":"SaintJohn","NL_NAME_2":"NA","city":"St.Martins","VARNAME_3":"NA","NL_NAME_3":"NA","TYPE_3":"Village","ENGTYPE_3":"Village","CC_3":"NA","HASC_3":"NA","name":"St.Martins.city"},
"geometry":{"type": "MultiPolygon","coordinates": [[[[-65.5397,45.3489,1.5537],[-65.5358,45.3544,0.5568],[-65.5321,45.3559,2.1523],[-65.5315,45.3621,38.5222],[-65.5359,45.3631,31.7966],[-65.5441,45.3555,45.4903],[-65.5532,45.3543,61.933],[-65.5607,45.3489,46.111],[-65.5597,45.3458,32.503],[-65.5611,45.342,27.2928],[-65.5596,45.3388,24.0946],[-65.5514,45.3402,3.3372],[-65.5502,45.347,15.092],[-65.5467,45.3495,12.9747],[-65.5397,45.3489,1.5537]]]]}}