{"type":"Feature","properties":{"featurecla":"River","scalerank":12,"rivernum":21621,"dissolve":"21621River","name":"N. Macmillan","name_alt":null,"note":"ID is link back to CEC data","name_full":"North Macmillan River","min_zoom":7.0,"strokeweig":0.15,"uident":1322001,"min_label":8.0},
"geometry":{"type": "LineString","coordinates": [[-131.63597571522871,63.094671942181527,1075.4652],[-131.60627193918705,63.107936916139863,1209.4382],[-131.56891842356205,63.122992254681527,1554.2565],[-131.5521541006454,63.129258530723192,1662.277],[-131.48835201731205,63.132188218223192,1207.5781],[-131.43122311106205,63.136582749473192,1760.3617],[-131.38048255116621,63.137030340619027,1546.864],[-131.34984290272871,63.148545640098192,1463.2217],[-131.32380123606205,63.168565171348192,1175.361],[-131.3243708975204,63.181667384889863,1231.5277],[-131.3248591787704,63.190863348431527,1440.799],[-131.33747311106205,63.205593166139863,1558.3981]]}}