{"type":"Feature","properties":{"featurecla":"River","scalerank":11,"rivernum":21751,"dissolve":"21751River","name":"Hart1","name_alt":null,"note":"ID is link back to CEC data","name_full":"Hart River","min_zoom":6.7,"strokeweig":0.15,"uident":1281301,"min_label":7.7},
"geometry":{"type": "LineString","coordinates": [[-135.60228430897871,64.67511627811902,1541.5554],[-135.59373938710371,64.67694733280652,1361.2242],[-135.48444576731205,64.687038478639863,1599.0731],[-135.45506751210371,64.68414948124402,1700.6833],[-135.36961829335371,64.67572662968152,1764.5828],[-135.26398678293705,64.653184311973192,1876.5698],[-135.20702063710371,64.637722072389863,1497.6101],[-135.1847224600204,64.639024155723192,1564.9795],[-135.15827389231205,64.64899323124402,1394.0579],[-135.12840735585371,64.675645249473192,1568.6022]]}}