{"type":"Feature","properties":{"featurecla":"River","scalerank":12,"rivernum":21961,"dissolve":"21961River","name":"Moose Ch.","name_alt":null,"note":"ID is link back to CEC data","name_full":"Moose Channel","min_zoom":7.0,"strokeweig":0.2,"uident":1175501,"min_label":8.0},
"geometry":{"type": "LineString","coordinates": [[-136.64118404856205,68.804470119264863,1.2843],[-136.65046139231205,68.81720612186902,-0.0333],[-136.69566809804121,68.852565822389863,0.4067],[-136.73680579335371,68.87860748905652,0.0]]}}