{"type":"Feature","properties":{"featurecla":"River","scalerank":11,"rivernum":21933,"dissolve":"21933River","name":"Salmon Fk.","name_alt":null,"note":"ID is link back to CEC data","name_full":"Salmon Fork","min_zoom":6.7,"strokeweig":0.2,"uident":1202701,"min_label":7.7},
"geometry":{"type": "LineString","coordinates": [[-141.0089412100204,66.56305573124402,375.9406],[-140.94945227772871,66.57916901249402,517.7933],[-140.88304602772871,66.61212799686902,376.0666],[-140.80833899647871,66.648708400514863,447.4226],[-140.7123103506454,66.693467515098192,404.6158],[-140.59691321522871,66.73590729374402,401.6362],[-140.49889075429121,66.76801178593152,476.381],[-140.48607337147871,66.773057358848192,458.3094]]}}