{"type":"Feature","properties":{"featurecla":"River","scalerank":10,"rivernum":21832,"dissolve":"21832River","name":"Peel3","name_alt":null,"note":"ID is link back to CEC data","name_full":"Peel River","min_zoom":6.0,"strokeweig":0.25,"uident":1253201,"min_label":7.0},
"geometry":{"type": "LineString","coordinates": [[-136.43805904856205,65.863063869264863,474.854],[-136.42589270741621,65.882188218223192,388.6102],[-136.36546790272871,65.901149806764863,420.6605],[-136.3314509756454,65.903102931764863,405.9817],[-136.2787166006454,65.897731838014863,477.6458],[-136.20750891835371,65.89374420780652,387.5794],[-136.13304602772871,65.899522202598192,400.6247],[-136.0187068350204,65.897975978639863,302.5223],[-135.91364498606205,65.887071030723192,299.3412],[-135.79161536366621,65.88129303593152,357.3987],[-135.7306208975204,65.882676499473192,345.1966],[-135.67638098866621,65.890651759889863,603.3872],[-135.60529537668705,65.90375397343152,466.4275],[-135.54596920481205,65.900254624473192,423.7179],[-135.46849524647871,65.863389390098192,214.4814],[-135.43219967356205,65.85504791874402,348.1048],[-135.37559973866621,65.844753322389863,359.1467],[-135.29954993397871,65.863063869264863,337.9623]]}}