{"type":"Feature","properties":{"featurecla":"River","scalerank":12,"rivernum":21652,"dissolve":"21652River","name":"Donjek","name_alt":null,"note":"ID is link back to CEC data","name_full":"Donjek River","min_zoom":7.0,"strokeweig":0.15,"uident":1318701,"min_label":8.0},
"geometry":{"type": "LineString","coordinates": [[-139.7275691397079,61.893174546348192,685.4773],[-139.72594153554121,61.870469468223192,671.4111],[-139.7025447256454,61.824245509889863,699.38],[-139.6642146475204,61.792669989056527,732.671],[-139.65855872304121,61.768662827598192,687.8831],[-139.71532141835371,61.712469793744027,702.8884],[-139.75304114491621,61.671698309369027,707.6117],[-139.7541804678329,61.624457098431527,720.8864],[-139.74303137929121,61.574245509889863,739.9489],[-139.7408748037704,61.535834051556527,758.1924],[-139.7237849600204,61.502468166139863,794.3435],[-139.7226863272079,61.457302150514863,806.3698],[-139.71629798085371,61.434881903119027,823.4753],[-139.7200007803329,61.396918035931527,853.2546],[-139.7142634756454,61.369655666139863,876.9296],[-139.6874080068954,61.346502996869027,888.1512],[-139.67454993397871,61.331325588014863,897.4354],[-139.6618953115829,61.300075588014863,929.2764],[-139.64574134022871,61.274929103639863,964.2819]]}}