{"type":"Feature","properties":{"featurecla":"River","scalerank":11,"rivernum":21909,"dissolve":"21909River","name":"Grayling Fk.","name_alt":null,"note":"ID is link back to CEC data","name_full":"Grayling Fork","min_zoom":6.7,"strokeweig":0.15,"uident":1220001,"min_label":7.7},
"geometry":{"type": "LineString","coordinates": [[-141.0089412100204,66.17304108280652,553.2919],[-140.9869685537704,66.16449616093152,865.9348],[-140.9460749990829,66.15790436405652,614.3404],[-140.9033503897079,66.15619537968152,648.744],[-140.85716712147871,66.156113999473192,565.682],[-140.82774817616621,66.14264557499402,545.3514],[-140.82030188710371,66.114040431764863,464.9226],[-140.81895911366621,66.11200592655652,457.2961],[-140.80028235585371,66.08392975468152,462.9261],[-140.7909236318954,66.07489655155652,486.3053],[-140.77489173085371,66.07099030155652,643.1342],[-140.73375403554121,66.06110260624402,627.3018],[-140.67418372304121,66.04791901249402,639.897],[-140.63219153554121,66.01874420780652,556.5543],[-140.6030574209579,65.984727280723192,570.2984],[-140.5879207022079,65.94855377811902,637.1196],[-140.55565344960371,65.922634181764863,636.942],[-140.5041804678329,65.90094635624402,716.0031],[-140.4516902334579,65.892116603639863,1039.6165]]}}