{"type":"Feature","properties":{"featurecla":"River","scalerank":12,"rivernum":21366,"dissolve":"21366River","name":"Rock","name_alt":null,"note":"ID is link back to CEC data","name_full":"Rock River","min_zoom":7.0,"strokeweig":0.15,"uident":1405301,"min_label":8.0},
"geometry":{"type": "LineString","coordinates": [[-127.2325740225204,61.037136134889863,1451.2324],[-127.18065344960372,61.029242254681527,1703.4633],[-127.1329646475204,61.023301499473192,1337.6407],[-127.09284420481205,61.020453192181527,1593.3459],[-127.05772864491622,61.001898504681527,1221.1747],[-127.04442298085372,60.978583074994027,1084.074],[-127.04450436106205,60.960720119264863,1133.3547],[-127.06554114491622,60.935410874473192,1148.3627],[-127.0604548818954,60.921576239056527,1081.9862],[-127.0462947256454,60.890936590619027,962.9021],[-127.05280514231205,60.875352280723192,935.4509],[-127.13695227772872,60.856390692181527,942.1617],[-127.15697180897872,60.831162827598192,884.3646],[-127.1683650381454,60.779405015098192,907.7545]]}}