{"type":"Feature","properties":{"featurecla":"River","scalerank":12,"rivernum":21854,"dissolve":"21854River","name":"null817","name_alt":null,"note":"ID is link back to CEC data","name_full":null,"min_zoom":7.0,"strokeweig":0.15,"uident":1252601,"min_label":8.0},
"geometry":{"type": "LineString","coordinates": [[-139.3976130850204,64.903428452598192,1728.4231],[-139.4370417959579,64.918972072389863,1176.3888],[-139.46593176991621,64.94098541874402,1111.8696],[-139.48448645741621,64.990586655723192,1049.7686],[-139.47850501210371,65.032578843223192,1005.811],[-139.4762263662704,65.048692124473192,976.4178],[-139.4553523428329,65.078965561973192,940.9687],[-139.47154700429121,65.108994858848192,1036.3838],[-139.4951472647079,65.15912506718152,861.9733],[-139.50926673085371,65.17682526249402,991.2058],[-139.56114661366621,65.210557358848192,820.6322],[-139.5592341787704,65.22040436405652,808.4598],[-139.55748450429121,65.243679103639863,791.6489],[-139.5168757803329,65.27179596561902,778.4753],[-139.48473059804121,65.285508530723192,767.5096]]}}