{"type":"Feature","properties":{"featurecla":"River","scalerank":10,"rivernum":21314,"dissolve":"21314River","name":"Beaver4","name_alt":null,"note":"ID is link back to CEC data","name_full":"Beaver River","min_zoom":6.0,"strokeweig":0.15,"uident":1433301,"min_label":7.0},
"geometry":{"type": "LineString","coordinates": [[-126.86363684804122,60.515407619264863,1254.2495],[-126.84361731679122,60.501166082806527,1414.1152],[-126.81969153554122,60.497748114056527,1152.1249],[-126.79369055897872,60.506781317181527,1357.2382],[-126.7740779287704,60.535834051556527,1168.4424],[-126.75279700429122,60.545477606244027,1063.5066],[-126.67955481679122,60.569688218223192,1164.2375],[-126.66510982981205,60.573187567181527,996.9035],[-126.60863196522872,60.586533921348192,1037.5265],[-126.57445227772872,60.594671942181527,912.8239],[-126.5082087881454,60.601182358848192,916.5626],[-126.41193600168705,60.599066473431527,882.0215],[-126.40269934804122,60.598252671348192,877.756]]}}