{"type":"Feature","properties":{"featurecla":"River","scalerank":11,"rivernum":21957,"dissolve":"21957River","name":"Blow","name_alt":null,"note":"ID is link back to CEC data","name_full":"Blow River","min_zoom":6.7,"strokeweig":0.15,"uident":1182301,"min_label":7.7},
"geometry":{"type": "LineString","coordinates": [[-138.0753474600204,68.24591705936902,493.7037],[-138.0837703115829,68.29877350468152,376.6822],[-137.95372473866621,68.368679103639863,337.0056],[-137.90196692616621,68.38629791874402,315.7651],[-137.8680720693954,68.40277741093152,258.2619],[-137.83702551991621,68.432888088014863,249.8351],[-137.8169246084579,68.44525787968152,243.9341]]}}