{"type":"Feature","properties":{"featurecla":"River","scalerank":12,"rivernum":21770,"dissolve":"21770River","name":"Ladue","name_alt":null,"note":"ID is link back to CEC data","name_full":"Ladue River","min_zoom":7.0,"strokeweig":0.2,"uident":1284001,"min_label":8.0},
"geometry":{"type": "LineString","coordinates": [[-140.83348548085371,63.275254624473192,470.1629],[-140.77293860585371,63.228461004681527,565.1548],[-140.6781306631454,63.202215887494027,621.377],[-140.5987849600204,63.185655015098192,588.7242],[-140.49925696522871,63.156073309369027,597.1691],[-140.4118953115829,63.158799546348192,418.0937],[-140.35912024647871,63.150010483848192,404.8623]]}}