{"type":"Feature","properties":{"featurecla":"River","scalerank":11,"rivernum":21864,"dissolve":"21864River","name":"Eagle3","name_alt":null,"note":"ID is link back to CEC data","name_full":"Eagle River","min_zoom":6.7,"strokeweig":0.15,"uident":1234301,"min_label":7.7},
"geometry":{"type": "LineString","coordinates": [[-137.2992244131454,66.085801499473192,571.1411],[-137.25007076731205,66.108181056764863,571.6728],[-137.18431555897871,66.12482330936902,578.4053],[-137.12071692616621,66.134059963014863,577.6574],[-136.92393958241621,66.150173244264863,543.8491],[-136.82892818918705,66.15155670780652,660.5571],[-136.81017005116621,66.15314362186902,674.9073],[-136.79059811106205,66.15704987186902,616.2453],[-136.76618404856205,66.16693756718152,554.2099],[-136.76524817616621,66.189072983848192,763.4144],[-136.72630774647871,66.197048244264863,757.1624],[-136.68834387929121,66.19135162968152,668.4078],[-136.64732825429121,66.195420640098192,547.7768],[-136.63312740793705,66.20209381718152,484.2307]]}}