{"type":"Feature","properties":{"featurecla":"River","scalerank":10,"rivernum":21816,"dissolve":"21816River","name":"Peel","name_alt":null,"note":"ID is link back to CEC data","name_full":"Peel River","min_zoom":6.0,"strokeweig":0.25,"uident":1254701,"min_label":7.0},
"geometry":{"type": "LineString","coordinates": [[-134.92975826731205,65.95905182499402,289.0498],[-134.85204016835371,65.971462306764863,343.4042],[-134.70836341054121,66.011826890098192,389.8852],[-134.68016516835371,66.011582749473192,168.328],[-134.64460201731205,66.011338608848192,366.0436],[-134.61107337147871,65.995957749473192,162.4537],[-134.60008704335371,65.975856838014863,140.9609],[-134.55040442616621,65.966905015098192,332.9676],[-134.52464759022871,65.96942780155652,117.4688],[-134.49815833241621,65.98407623905652,333.3405],[-134.49376380116621,65.983669338014863,344.6439],[-134.4193416006454,65.975368556764863,316.4709],[-134.33556067616621,65.970729884889863,314.0522],[-134.2677302725204,65.99371979374402,164.7639],[-134.25914466054121,66.00983307499402,102.7546],[-134.21662350168705,66.011501369264863,281.3959]]}}