{"type": "Feature","bbox": [-77.3613,47.8509,-76.6263,47.9947],"geometry": {"type": "MultiPolygon","coordinates": [[[[-77.3613,47.8608,344.2757],[-77.3613,47.8509,347.7127],[-77.3255,47.8509,349.8085],[-77.3255,47.8782,334.531],[-77.3611,47.8787,347.8432],[-77.3613,47.8608,344.2757]]],
[[[-76.7438,47.8509,404.5044],[-76.7304,47.8509,410.6379],[-76.7313,47.8532,413.629],[-76.7294,47.857,387.5573],[-76.7226,47.8589,418.5647],[-76.7119,47.8672,458.5548],[-76.7074,47.8736,415.2824],[-76.7071,47.8851,404.7935],[-76.7108,47.8887,385.2552],[-76.7108,47.8916,385.1656],[-76.704,47.9028,404.8427],[-76.6991,47.9073,412.4257],[-76.684,47.9152,424.6523],[-76.6379,47.926,392.4336],[-76.6303,47.9285,399.3264],[-76.6263,47.9319,399.7893],[-76.718,47.9947,394.5062],[-76.7334,47.9905,448.5569],[-76.7561,47.9923,440.7719],[-76.7653,47.9915,415.4055],[-76.7673,47.9889,411.4496],[-76.7673,47.9859,411.4572],[-76.7715,47.9836,396.8754],[-76.7747,47.9778,395.8904],[-76.7902,47.9732,385.0],[-76.7924,47.9672,396.2845],[-76.8157,47.9486,430.8466],[-76.8234,47.9364,451.0306],[-76.8316,47.9307,413.4395],[-76.8302,47.9252,481.4237],[-76.8421,47.9137,420.6621],[-76.8448,47.9093,435.1479],[-76.8464,47.9003,450.4608],[-76.8496,47.8926,466.0934],[-76.8696,47.863,395.9436],[-76.8794,47.857,396.7433],[-76.8893,47.8544,392.8327],[-76.8938,47.8511,393.4625],[-76.8458,47.8509,381.1825],[-76.7438,47.8509,404.5044]]]]}
,"properties": {"GID_3": "CAN.11.98.9_1","GID_0": "CAN","country": "Canada","GID_1": "CAN.11_1","province": "Québec","NL_NAME_1": "NA","GID_2": "CAN.11.98_1","county": "Vallée-de-l'Or","NL_NAME_2": "NA","city": "Matchi-Manitou","VARNAME_3": "NA","NL_NAME_3": "NA","TYPE_3": "NonOrganisé","ENGTYPE_3": "Unorganized","CC_3": "NA","HASC_3": "NA","name": "Matchi-Manitou.city","area_km2": 176.3539,"hist_schema_id": "Elevation0-9000","hist_area_km2": {"325": 2.0482,"350": 6.2161,"375": 25.0878,"400": 59.2539,"425": 40.1172,"450": 24.7938,"475": 12.0895,"500": 5.0285,"525": 1.5627,"550": 0.1562}}}