{"type":"Feature","properties":{"featurecla":"River","scalerank":12,"rivernum":21285,"dissolve":"21285River","name":"null540","name_alt":null,"note":"ID is link back to CEC data","name_full":null,"min_zoom":7.0,"strokeweig":0.15,"uident":1442001,"min_label":8.0},
"geometry":{"type": "LineString","coordinates": [[-122.9581599600204,60.002386785931527,448.5919],[-122.96324622304122,59.991563218223192,426.5196],[-122.96898352772872,59.969183660931527,422.0855],[-122.99754798085372,59.947048244264863,433.7793],[-123.04796301991622,59.923610744264863,411.9725],[-123.09776770741622,59.907782293744027,404.6243],[-123.1449275381454,59.885036525514863,402.1939],[-123.1593318350204,59.868028061973192,405.5652],[-123.1649470693954,59.841864324994027,436.9623],[-123.15453040272872,59.830877996869027,448.1613],[-123.1363826162704,59.819891668744027,456.6072],[-123.0814509756454,59.813991603639863,470.8873],[-123.03840084543705,59.816677150514863,488.7697],[-123.01081295481205,59.811712957806527,480.9698],[-123.00202389231205,59.802354233848192,470.1022],[-123.00804602772872,59.783229884889863,486.8175],[-122.99791419179122,59.768337306764863,489.7969],[-122.9740291006454,59.754950262494027,482.1757],[-122.92100989491622,59.702500718223192,536.0301],[-122.87559973866622,59.690456447389863,547.0642],[-122.83714759022872,59.690741278119027,547.0875]]}}