{"type":"Feature","properties":{"featurecla":"River","scalerank":11,"rivernum":21081,"dissolve":"21081River","name":"Fontas1","name_alt":null,"note":"ID is link back to CEC data","name_full":"Fontas River","min_zoom":6.7,"strokeweig":0.2,"uident":1501101,"min_label":7.7},
"geometry":{"type": "LineString","coordinates": [[-120.91234290272872,58.364691473431527,422.1969],[-120.78380286366622,58.395860093223192,411.8348],[-120.73253333241622,58.394354559369027,410.4985],[-120.6900935537704,58.377630926556527,429.1594],[-120.6644587881454,58.355251369264863,424.9843],[-120.64244544179122,58.341376043744027,431.6528],[-120.58527584543705,58.314886785931527,432.8889],[-120.55492102772872,58.308539129681527,439.5805],[-120.52147376210372,58.306748765098192,438.9301],[-120.49681555897872,58.302923895306527,444.4391],[-120.4808650381454,58.300848699994027,443.9009],[-120.43537350168705,58.275336004681527,457.8495],[-120.42463131418705,58.266546942181527,458.6596],[-120.35460364491622,58.250352280723192,484.5963],[-120.33796139231205,58.242865301556527,481.3282],[-120.34312903554122,58.222927150514863,490.456],[-120.3294978506454,58.201524155723192,490.5793],[-120.33649654856205,58.192490952598192,512.1776],[-120.35496985585372,58.184637762494027,490.291],[-120.36363684804122,58.173285223431527,500.777],[-120.35094153554122,58.157416082806527,508.862],[-120.3312068350204,58.150580145306527,532.2841],[-120.29743404856205,58.152533270306527,537.6298],[-120.27159583241622,58.147040106244027,542.41],[-120.26276607981205,58.135931707806527,557.2553],[-120.2762751943954,58.108465887494027,572.9419],[-120.25987708241622,58.087917384889863,582.5949],[-120.21662350168705,58.082586981244027,596.8788],[-120.1927791006454,58.074733791139863,611.4195],[-120.15558834543705,58.068060614056527,622.6502],[-120.11701412668705,58.050482489056527,647.9542],[-120.07298743397872,58.017279364056527,677.2419],[-120.05711829335372,57.992702541139863,659.9506],[-120.0162654287704,57.960638739056527,667.6951]]}}