{"type":"Feature","properties":{"featurecla":"River","scalerank":12,"rivernum":21066,"dissolve":"21066River","name":"Kahntah1","name_alt":null,"note":"ID is link back to CEC data","name_full":"Kahntah River","min_zoom":7.0,"strokeweig":0.2,"uident":1506901,"min_label":8.0},
"geometry":{"type": "LineString","coordinates": [[-120.91234290272872,58.364691473431527,422.1969],[-120.89183509022872,58.348659572389863,407.3733],[-120.86070716054122,58.336859442181527,382.075],[-120.80744381418705,58.311387436973192,437.0992],[-120.78160559804122,58.292914129681527,430.7209],[-120.77448482981205,58.275702215619027,443.6827],[-120.82017981679122,58.218207098431527,459.2543],[-120.80028235585372,58.198350327598192,463.7521],[-120.85692298085372,58.145819403119027,464.535],[-120.92662512929122,58.092149155723192,473.7988],[-120.95750891835372,58.060492254681527,472.4226],[-120.9674373037704,58.033718166139863,487.1645],[-120.9566951162704,57.994818426556527,493.1929],[-120.94286048085372,57.973578192181527,502.6506],[-120.9046931631454,57.949571030723192,498.546],[-120.85944576731205,57.936468817181527,530.1772],[-120.82233639231205,57.929999090619027,539.2346],[-120.77228756418705,57.907578843223192,540.6501],[-120.74913489491622,57.879177150514863,566.5737],[-120.72179114491622,57.836533921348192,586.8176],[-120.69025631418705,57.819362697389863,601.2131],[-120.60920162668705,57.806097723431527,630.4513],[-120.56623287668705,57.787705796348192,638.1548],[-120.56550045481205,57.786810614056527,639.5308]]}}