{"type":"Feature","properties":{"GID_3":"CAN.11.20.2_1","GID_0":"CAN","country":"Canada","GID_1":"CAN.11_1","province":"Québec","NL_NAME_1":"NA","GID_2":"CAN.11.20_1","county":"Communauté-Urbaine-de-Montréal","NL_NAME_2":"NA","city":"Baie-d'Urfé","VARNAME_3":"NA","NL_NAME_3":"NA","TYPE_3":"Ville","ENGTYPE_3":"Ville","CC_3":"NA","HASC_3":"NA","name":"Baie-d'Urfé.city"},
"geometry":{"type": "MultiPolygon","coordinates": [[[[-73.8938,45.4085,19.5],[-73.901,45.4354,28.1563],[-73.93,45.4204,33.9047],[-73.9346,45.4001,19.5],[-73.9221,45.4017,19.5],[-73.8938,45.4085,19.5]]]]}}