{"type":"Feature","properties":{"GID_3":"CAN.11.75.8_1","GID_0":"CAN","country":"Canada","GID_1":"CAN.11_1","province":"Québec","NL_NAME_1":"NA","GID_2":"CAN.11.75_1","county":"Matane","NL_NAME_2":"NA","city":"Saint-Jean-de-Cherbourg","VARNAME_3":"NA","NL_NAME_3":"NA","TYPE_3":"MunicipalitéDeParoisse","ENGTYPE_3":"ParishMunicipality","CC_3":"NA","HASC_3":"NA","name":"Saint-Jean-de-Cherbourg.city"},
"geometry":{"type": "MultiPolygon","coordinates": [[[[-67.1682,48.8714,324.0111],[-67.2089,48.8582,312.3278],[-67.1811,48.8407,332.2509],[-67.2124,48.8168,259.2608],[-67.1798,48.7956,233.3551],[-67.1475,48.8172,328.0231],[-67.0972,48.7867,390.4264],[-67.0006,48.8169,340.0687],[-67.0476,48.8794,483.1276],[-67.0608,48.8753,370.6781],[-67.0784,48.8996,406.4981],[-67.1682,48.8714,324.0111]]]]}}