{"type":"Feature","properties":{"GID_3":"CAN.12.16.18_1","GID_0":"CAN","country":"Canada","GID_1":"CAN.12_1","province":"Saskatchewan","NL_NAME_1":"NA","GID_2":"CAN.12.16_1","county":"DivisionNo.7","NL_NAME_2":"NA","city":"CraikNo.222","VARNAME_3":"NA","NL_NAME_3":"NA","TYPE_3":"RuralMunicipality","ENGTYPE_3":"RuralMunicipality","CC_3":"NA","HASC_3":"NA","name":"Craik_No.222.city"},
"geometry":{"type": "MultiPolygon","coordinates": [[[[-106.0044,51.0977,631.7543],[-106.0046,50.8774,522.9271],[-105.9843,50.8705,521.1711],[-105.9715,50.8546,542.1661],[-105.9635,50.85,530.5621],[-105.9506,50.851,519.6213],[-105.9448,50.8483,519.2732],[-105.9433,50.8426,519.0645],[-105.9389,50.8396,520.4014],[-105.931,50.8383,518.5728],[-105.8965,50.8185,517.6575],[-105.8875,50.8172,517.5881],[-105.8712,50.8065,517.8473],[-105.8629,50.8031,516.7838],[-105.8618,50.7978,516.2955],[-105.8559,50.7928,517.7824],[-105.8534,50.7951,516.7813],[-105.8495,50.7951,516.353],[-105.8354,50.7858,515.9149],[-105.8061,50.7765,514.5607],[-105.7949,50.7704,516.4364],[-105.7823,50.7706,513.8461],[-105.7444,50.7643,512.3476],[-105.7358,50.7662,511.9144],[-105.7189,50.763,512.7974],[-105.7131,50.7603,535.4908],[-105.698,50.7601,511.3167],[-105.6911,50.7566,519.3601],[-105.6821,50.758,509.0],[-105.6738,50.7567,509.7122],[-105.6644,50.7498,514.7178],[-105.6448,50.7407,510.1991],[-105.6297,50.7359,508.0],[-105.6096,50.724,508.0],[-105.6104,50.8738,581.0885],[-105.6091,50.9212,576.996],[-105.6359,50.9212,559.8873],[-105.6361,51.0956,574.8139],[-105.9434,51.0955,621.6117],[-105.9849,51.0959,629.0374],[-106.0044,51.0977,631.7543]],
[[-105.6824,50.9363,575.6782],[-105.7059,50.936,583.0895],[-105.7059,50.9429,578.9631],[-105.6823,50.9429,535.9467],[-105.6824,50.9363,575.6782]],
[[-105.8226,51.0403,592.9871],[-105.8281,51.0403,593.8553],[-105.8285,51.0552,584.225],[-105.8046,51.0554,574.3618],[-105.8044,51.0404,581.0001],[-105.8226,51.0403,592.9871]]]]}}