{"type":"Feature","properties":{"featurecla":"River","scalerank":12,"rivernum":20230,"dissolve":"20230River","name":"Salmon2","name_alt":null,"note":"ID is link back to CEC data","name_full":"Salmon River","min_zoom":7.0,"strokeweig":0.15,"uident":1742701,"min_label":8.0},
"geometry":{"type": "LineString","coordinates": [[-63.360218879291239,45.361110744264863,14.2753],[-63.338449673562067,45.377956447389863,16.4942],[-63.275095181374567,45.389675197389863,10.0243],[-63.203846808978739,45.3970807963482,58.2819],[-63.172027147520396,45.407416082806527,86.7834],[-63.130523241270396,45.416530666139863,142.3463],[-63.056467251687067,45.441188869264863,179.7713],[-63.041574673562067,45.4529889994732,182.0695],[-63.023874478249567,45.482001043744027,184.3684],[-63.020822720437067,45.508124090619027,192.7504],[-63.010487433978739,45.524929103639863,195.4413],[-62.997425910541239,45.533636785931527,236.0661],[-62.950347460020396,45.5809186869732,257.6205]]}}