{"type":"Feature","properties":{"GID_3":"CAN.4.10.19_1","GID_0":"CAN","country":"Canada","GID_1":"CAN.4_1","province":"NewBrunswick","NL_NAME_1":"NA","GID_2":"CAN.4.10_1","county":"Restigouche","NL_NAME_2":"NA","city":"TideHead","VARNAME_3":"NA","NL_NAME_3":"NA","TYPE_3":"Village","ENGTYPE_3":"Village","CC_3":"NA","HASC_3":"NA","name":"Tide_Head.city"},
"geometry":{"type": "MultiPolygon","coordinates": [[[[-66.7277,47.9634,276.645],[-66.7396,47.9862,2.7],[-66.7459,47.9836,14.6003],[-66.7658,47.9851,8.6244],[-66.7693,47.9869,1.8682],[-66.7739,47.9858,2.7756],[-66.7772,47.9874,0.0],[-66.7775,47.9941,0.0],[-66.7756,47.9949,0.1182],[-66.7747,47.9976,4.5549],[-66.7824,47.9962,9.2787],[-66.7817,47.9942,0.9224],[-66.7869,47.9919,0.0],[-66.7994,47.9915,0.0],[-66.801,47.9921,0.7331],[-66.8017,47.9951,5.4722],[-66.8082,47.9946,0.0],[-66.8387,48.0006,3.8725],[-66.8235,47.9735,286.4444],[-66.8083,47.9783,140.5639],[-66.7997,47.9654,116.2636],[-66.7904,47.9673,35.8161],[-66.7872,47.9614,54.4865],[-66.7662,47.9599,269.153],[-66.7582,47.9617,258.3326],[-66.7561,47.9582,214.307],[-66.7364,47.9628,251.0185],[-66.7329,47.958,322.0623],[-66.7259,47.9601,281.2537],[-66.7277,47.9634,276.645]]],
[[[-66.7763,47.9902,0.0],[-66.7721,47.99,0.0],[-66.768,47.9921,1.9269],[-66.7624,47.9985,0.0],[-66.7658,47.9987,4.4235],[-66.7708,47.9954,2.4661],[-66.7754,47.9943,0.1182],[-66.777,47.9922,0.0],[-66.7763,47.9902,0.0]]],
[[[-66.7731,47.9955,2.5966],[-66.7715,47.9957,0.4138],[-66.7695,47.9978,0.0488],[-66.775,47.9966,0.0],[-66.7731,47.9955,2.5966]]],
[[[-66.7585,47.9914,-0.1579],[-66.761,47.9912,0.0243],[-66.7642,47.988,2.0827],[-66.7545,47.9895,0.0],[-66.7595,47.9895,0.0876],[-66.7585,47.9914,-0.1579]]],
[[[-66.7618,47.9919,0.0243],[-66.7673,47.9916,2.3296],[-66.7708,47.9895,0.0],[-66.7663,47.9884,0.0],[-66.7618,47.9919,0.0243]]],
[[[-66.7627,47.993,0.0],[-66.7596,47.9936,0.0],[-66.7622,47.9964,-0.1124],[-66.7648,47.9944,0.32],[-66.7627,47.993,0.0]]]]}}