{"type":"Feature","properties":{"GID_3":"CAN.7.11.5_1","GID_0":"CAN","country":"Canada","GID_1":"CAN.7_1","province":"NovaScotia","NL_NAME_1":"NA","GID_2":"CAN.7.11_1","county":"Kings","NL_NAME_2":"NA","city":"Kings,Subd.A","VARNAME_3":"NA","NL_NAME_3":"NA","TYPE_3":"SubdivisionofCountyMunicipali","ENGTYPE_3":"SubdivisionofCountyMunicipali","CC_3":"NA","HASC_3":"NA","name":"Kings,Subd.A.city"},
"geometry":{"type": "MultiPolygon","coordinates": [[[[-64.9613,44.9741,27.7345],[-64.8196,44.7498,195.1211],[-64.7732,44.6636,159.3783],[-64.5699,44.8118,238.2851],[-64.5876,44.8471,228.0],[-64.5838,44.8513,229.805],[-64.585,44.8542,234.2119],[-64.5835,44.8616,230.765],[-64.5845,44.8633,232.5616],[-64.5794,44.8675,232.6958],[-64.5782,44.8707,226.9812],[-64.5723,44.8745,218.8591],[-64.569,44.881,204.0997],[-64.5706,44.888,205.9453],[-64.5776,44.8909,210.2106],[-64.5757,44.8958,211.2164],[-64.574,44.8958,205.0407],[-64.5743,44.899,204.3022],[-64.5827,44.8979,204.1266],[-64.585,44.9004,203.4805],[-64.5831,44.9043,207.4718],[-64.5888,44.9051,201.6612],[-64.5905,44.9139,202.9618],[-64.5885,44.9149,202.5215],[-64.5906,44.9181,198.4075],[-64.5897,44.9208,197.7661],[-64.592,44.9234,194.9151],[-64.5899,44.9259,197.011],[-64.5934,44.9284,197.7582],[-64.5952,44.9258,193.2785],[-64.5987,44.9256,190.8464],[-64.6003,44.9229,188.5],[-64.606,44.9205,188.5],[-64.6056,44.9186,190.672],[-64.6094,44.9151,188.5],[-64.6145,44.9036,211.4225],[-64.6211,44.9055,209.4429],[-64.6197,44.9199,224.0116],[-64.6248,44.9251,208.7328],[-64.6255,44.9286,210.6496],[-64.6227,44.9321,203.8743],[-64.6127,44.9356,188.5],[-64.6184,44.9414,204.3996],[-64.6094,44.9458,198.2444],[-64.6061,44.9512,218.9249],[-64.6069,44.9577,232.5494],[-64.6128,44.9609,196.1825],[-64.6148,44.9639,201.3738],[-64.6136,44.9671,196.8656],[-64.605,44.9656,194.1889],[-64.5991,44.9668,188.5],[-64.5898,44.9742,196.4475],[-64.58,44.9681,188.5],[-64.5767,44.9684,196.8628],[-64.5648,44.9765,204.7328],[-64.5703,44.9847,209.3357],[-64.5691,44.9876,199.8557],[-64.5663,44.9887,192.733],[-64.5794,45.0012,191.0],[-64.5796,45.0067,191.0],[-64.5793,45.0108,202.1906],[-64.5761,45.016,209.6763],[-64.5677,45.0212,193.4551],[-64.5637,45.025,183.6783],[-64.5636,45.0277,183.7429],[-64.5662,45.0338,217.5526],[-64.5834,45.0522,50.8596],[-64.5878,45.0628,37.9034],[-64.5821,45.0663,23.1662],[-64.5855,45.0754,20.5641],[-64.5814,45.0787,15.6852],[-64.5809,45.0834,8.7607],[-64.5778,45.085,8.0262],[-64.5789,45.0885,21.8244],[-64.5691,45.0914,11.9507],[-64.5711,45.0964,25.0374],[-64.571,45.1194,23.4313],[-64.576,45.1296,35.6514],[-64.5932,45.1405,127.1111],[-64.5964,45.1495,191.7691],[-64.6091,45.1496,195.1619],[-64.6416,45.1984,9.301],[-64.6464,45.1981,0.6978],[-64.6558,45.1914,6.3653],[-64.6686,45.1869,25.7767],[-64.6819,45.1861,13.007],[-64.6964,45.1811,40.8313],[-64.7064,45.1808,16.8],[-64.7214,45.1747,42.5198],[-64.7403,45.1719,22.9705],[-64.7625,45.1711,0.0059],[-64.7715,45.1637,42.3829],[-64.7778,45.1625,0.0],[-64.7981,45.1533,28.9485],[-64.8286,45.1508,0.0],[-64.8425,45.1411,28.456],[-64.8531,45.1397,4.7384],[-64.8578,45.1369,34.9958],[-64.8719,45.1339,0.0],[-64.9306,45.1053,57.3553],[-64.9378,45.1039,0.0],[-64.9483,45.1047,0.0],[-64.9767,45.0853,15.5013],[-64.9942,45.0794,0.0],[-65.0195,45.0673,5.893],[-64.9613,44.9741,27.7345]],
[[-64.7154,45.0605,36.0166],[-64.71,45.0486,31.4753],[-64.7189,45.0495,28.1471],[-64.7179,45.0451,34.1397],[-64.7242,45.0441,34.9105],[-64.7307,45.0344,58.9056],[-64.7443,45.0333,55.1836],[-64.7551,45.056,28.3297],[-64.7399,45.0571,30.5007],[-64.7217,45.0615,33.5649],[-64.7161,45.062,36.0166],[-64.7154,45.0605,36.0166]],
[[-64.6397,45.0654,26.1069],[-64.6547,45.0662,24.0934],[-64.6547,45.0687,30.6794],[-64.6451,45.0684,27.9762],[-64.6397,45.0671,33.7237],[-64.6397,45.0654,26.1069]]]]}}