{"type": "Feature","bbox": [-104.982,51.6201,-104.4887,51.8816],"geometry": {"type": "MultiPolygon","coordinates": [[[[-104.4887,51.8816,520.4807],[-104.9816,51.8815,538.4326],[-104.982,51.6202,514.6915],[-104.557,51.6201,552.72],[-104.557,51.7852,519.5303],[-104.5379,51.7906,519.8827],[-104.5291,51.7905,519.4976],[-104.5286,51.7927,519.4183],[-104.5233,51.7949,519.0389],[-104.5296,51.797,519.4802],[-104.5297,51.8118,519.0877],[-104.5444,51.8128,519.1478],[-104.5522,51.8113,519.3505],[-104.5543,51.8136,520.0803],[-104.545,51.8197,519.8661],[-104.5405,51.8206,520.1749],[-104.5371,51.8256,519.9928],[-104.5336,51.8345,519.9752],[-104.5355,51.8475,521.5967],[-104.5315,51.8454,520.7423],[-104.5287,51.8388,519.1864],[-104.5133,51.837,519.3326],[-104.5077,51.855,519.928],[-104.4887,51.8816,520.4807]],
[[-104.7042,51.7905,531.5838],[-104.7041,51.7869,531.7374],[-104.7082,51.7869,532.3185],[-104.7082,51.7833,531.1005],[-104.7103,51.7825,531.1005],[-104.7223,51.7846,532.7415],[-104.7221,51.7904,533.8508],[-104.7042,51.7905,531.5838]]]]}
,"properties": {"GID_3": "CAN.12.1.48_1","GID_0": "CAN","country": "Canada","GID_1": "CAN.12_1","province": "Saskatchewan","NL_NAME_1": "NA","GID_2": "CAN.12.1_1","county": "DivisionNo.10","NL_NAME_2": "NA","city": "PrairieRoseNo.309","VARNAME_3": "NA","NL_NAME_3": "NA","TYPE_3": "RuralMunicipality","ENGTYPE_3": "RuralMunicipality","CC_3": "NA","HASC_3": "NA","name": "Prairie_Rose_No.309.city","area_km2": 871.9281,"hist_schema_id": "Elevation0-9000","hist_area_km2": {"525": 700.1804,"550": 171.7477}}}