{"type": "Feature","bbox": [-80.1419,44.4531,-79.9649,44.57],"geometry": {"type": "MultiPolygon","coordinates": [[[[-80.1419,44.4762,183.8917],[-80.1411,44.4726,188.074],[-80.1222,44.4642,190.3726],[-80.1209,44.4588,197.4831],[-80.1136,44.4604,197.4579],[-80.1059,44.457,194.4223],[-80.0735,44.4632,192.1595],[-80.0717,44.4565,194.6178],[-80.0534,44.4608,193.099],[-80.0514,44.4531,195.4895],[-80.026,44.4586,194.4546],[-80.0272,44.4635,190.8106],[-80.0203,44.465,189.2988],[-80.0206,44.4684,198.3402],[-79.9742,44.4774,195.33],[-79.9831,44.4879,193.765],[-79.9674,44.4948,196.7564],[-79.9777,44.5058,183.669],[-79.969,44.5095,196.6854],[-79.9783,44.5202,193.026],[-79.9649,44.526,190.7475],[-79.9787,44.5426,200.3693],[-79.9746,44.5444,201.83],[-79.9796,44.5504,205.8232],[-79.9727,44.5534,202.4801],[-79.9844,44.57,205.0423],[-79.9866,44.569,204.5809],[-79.9894,44.5642,188.1936],[-79.9882,44.555,191.8957],[-79.9911,44.5466,191.3605],[-80.0054,44.5272,186.3403],[-80.0259,44.5076,186.2136],[-80.0509,44.4873,176.8561],[-80.0728,44.4742,184.1154],[-80.0987,44.4631,186.8779],[-80.1061,44.4627,191.7466],[-80.1165,44.4654,193.0224],[-80.1419,44.4762,183.8917]]]]}
,"properties": {"GID_3": "CAN.9.45.20_1","GID_0": "CAN","country": "Canada","GID_1": "CAN.9_1","province": "Ontario","NL_NAME_1": "NA","GID_2": "CAN.9.45_1","county": "Simcoe","NL_NAME_2": "NA","city": "WasagaBeach","VARNAME_3": "NA","NL_NAME_3": "NA","TYPE_3": "Town","ENGTYPE_3": "Town","CC_3": "NA","HASC_3": "NA","name": "Wasaga_Beach.city","area_km2": 46.74738,"hist_schema_id": "Elevation0-9000","hist_area_km2": {"175": 8.87764,"200": 35.25329,"225": 2.61645}}}