{"type":"Feature","properties":{"featurecla":"River","scalerank":11,"rivernum":20165,"dissolve":"20165River","name":"Plum Cr.","name_alt":null,"note":"ID is link back to CEC data","name_full":"Plum Creek","min_zoom":6.7,"strokeweig":0.2,"uident":1780801,"min_label":7.7},
"geometry":{"type": "LineString","coordinates": [[-100.61900794179122,49.650173244264863,429.9512],[-100.51130123606207,49.666042384889863,432.3456],[-100.4671931631454,49.6685651713482,425.416],[-100.44908606679122,49.669623114056527,426.9796],[-100.39606686106207,49.6641706400982,429.3879],[-100.35212154856207,49.648016668744027,433.7341],[-100.3434138662704,49.641791082806527,423.8108]]}}