{"type":"Feature","properties":{"GID_3":"CAN.9.14.3_1","GID_0":"CAN","country":"Canada","GID_1":"CAN.9_1","province":"Ontario","NL_NAME_1":"NA","GID_2":"CAN.9.14_1","county":"Haliburton","NL_NAME_2":"NA","city":"MindenHills","VARNAME_3":"NA","NL_NAME_3":"NA","TYPE_3":"Township","ENGTYPE_3":"Township","CC_3":"NA","HASC_3":"NA","name":"Minden_Hills.city"},
"geometry":{"type": "MultiPolygon","coordinates": [[[[-78.614,45.0727,395.3285],[-78.7811,45.0266,365.4211],[-78.7873,45.033,370.653],[-78.7914,45.041,363.2361],[-78.7918,45.0468,374.368],[-78.805,45.0705,367.2523],[-78.8079,45.0718,360.6121],[-78.8112,45.0843,348.6668],[-78.8165,45.0865,372.035],[-78.8196,45.1041,379.0392],[-78.8238,45.1059,387.6976],[-78.8237,45.108,387.0513],[-78.8319,45.1218,381.3176],[-78.8331,45.1245,392.6725],[-78.832,45.1289,335.3641],[-78.8399,45.1342,336.3331],[-78.8406,45.1359,335.6569],[-78.8376,45.1407,338.6831],[-78.8425,45.145,349.1947],[-79.001,45.1053,350.3145],[-78.9344,44.9856,353.9736],[-78.9062,44.9275,297.7564],[-78.8668,44.8579,310.1782],[-78.8222,44.7715,300.0094],[-78.809,44.7745,274.927],[-78.8198,44.7541,272.4668],[-78.4843,44.8344,341.9324],[-78.4957,44.859,363.4062],[-78.5511,44.9645,338.5242],[-78.614,45.0727,395.3285]]]]}}