{"type":"Feature","properties":{"GID_3":"CAN.11.66.9_1","GID_0":"CAN","country":"Canada","GID_1":"CAN.11_1","province":"Québec","NL_NAME_1":"NA","GID_2":"CAN.11.66_1","county":"LesJardins-de-Napierville","NL_NAME_2":"NA","city":"Saint-Patrice-de-Sherrington","VARNAME_3":"NA","NL_NAME_3":"NA","TYPE_3":"MunicipalitéDeParoisse","ENGTYPE_3":"ParishMunicipality","CC_3":"NA","HASC_3":"NA","name":"Saint-Patrice-de-Sherrington.city"},
"geometry":{"type": "MultiPolygon","coordinates": [[[[-73.5106,45.0873,66.4796],[-73.5048,45.1035,73.2185],[-73.5027,45.1022,73.9943],[-73.4981,45.1088,76.3435],[-73.4883,45.109,75.7424],[-73.4539,45.1873,56.8322],[-73.4517,45.1872,55.4982],[-73.4503,45.1907,56.2399],[-73.4517,45.191,56.2399],[-73.4486,45.195,60.7428],[-73.4531,45.1937,57.4116],[-73.4559,45.1998,57.2697],[-73.4669,45.2065,57.2381],[-73.4823,45.1975,60.7634],[-73.4943,45.2041,60.7072],[-73.501,45.2014,61.2467],[-73.501,45.1972,61.4306],[-73.4965,45.1937,60.0214],[-73.5313,45.1955,59.4192],[-73.5296,45.1929,60.355],[-73.5387,45.192,59.0199],[-73.5395,45.1942,56.8842],[-73.5562,45.1913,56.845],[-73.5491,45.1998,56.8319],[-73.5567,45.2042,57.2562],[-73.6082,45.1613,51.4056],[-73.5948,45.1511,57.9842],[-73.6055,45.1436,50.9214],[-73.5981,45.138,51.4923],[-73.5857,45.1286,74.8285],[-73.5716,45.1334,53.9509],[-73.5106,45.0873,66.4796]]]]}}