{"type": "Feature","bbox": [-55.8086,47.8668,-55.7163,47.9045],"geometry": {"type": "MultiPolygon","coordinates": [[[[-55.7317,47.9045,178.7675],[-55.766,47.8876,154.6959],[-55.7961,47.8972,0.0],[-55.8073,47.8868,0.0],[-55.807,47.8816,32.0549],[-55.8086,47.8786,0.0],[-55.8028,47.8794,51.7517],[-55.8008,47.8781,25.5586],[-55.8025,47.8744,6.324],[-55.7993,47.8751,0.0],[-55.7978,47.8734,0.0],[-55.7925,47.8731,3.418],[-55.7894,47.8695,2.8509],[-55.7804,47.8672,26.2678],[-55.7657,47.8721,9.0444],[-55.7641,47.8668,0.0],[-55.7572,47.8679,0.0],[-55.7543,47.8722,27.5521],[-55.7477,47.8736,0.0],[-55.7438,47.8775,21.3794],[-55.7388,47.8784,0.0],[-55.7315,47.8824,14.761],[-55.7163,47.8929,5.8831],[-55.7317,47.9045,178.7675]]]]}
,"properties": {"GID_3": "CAN.5.5.19_1","GID_0": "CAN","country": "Canada","GID_1": "CAN.5_1","province": "NewfoundlandandLabrador","NL_NAME_1": "NA","GID_2": "CAN.5.5_1","county": "DivisionNo.3","NL_NAME_2": "NA","city": "Morrisville","VARNAME_3": "NA","NL_NAME_3": "NA","TYPE_3": "Town","ENGTYPE_3": "Town","CC_3": "NA","HASC_3": "NA","name": "Morrisville.city","area_km2": 14.75915,"hist_schema_id": "Elevation0-9000","hist_area_km2": {"0": 0.62572,"25": 0.85319,"50": 1.16606,"75": 1.22291,"100": 1.27977,"125": 2.77268,"150": 4.19455,"175": 2.16095,"200": 0.48332}}}