{"type":"Feature","properties":{"GID_3":"CAN.2.11.9_1","GID_0":"CAN","country":"Canada","GID_1":"CAN.2_1","province":"BritishColumbia","NL_NAME_1":"NA","GID_2":"CAN.2.11_1","county":"EastKootenay","NL_NAME_2":"NA","city":"EastKootenayF","VARNAME_3":"NA","NL_NAME_3":"NA","TYPE_3":"RegionalDistrictElectoralArea","ENGTYPE_3":"RegionalDistrictElectoralArea","CC_3":"NA","HASC_3":"NA","name":"East_Kootenay_F.city"},
"geometry":{"type": "MultiPolygon","coordinates": [[[[-115.495,50.78,2152.3193],[-115.5004,50.7772,2160.7229],[-115.4981,50.773,2111.9773],[-115.4941,50.7715,2065.2024],[-115.4939,50.7692,2070.542],[-115.5015,50.7641,1891.4718],[-115.5049,50.7581,1796.4818],[-115.5092,50.756,1788.8123],[-115.5183,50.7442,1568.3844],[-115.5234,50.7423,1539.734],[-115.5349,50.7451,1526.4119],[-115.5504,50.741,1470.2427],[-115.5602,50.7359,1463.7981],[-115.5687,50.7236,1427.2211],[-115.574,50.7196,1425.7375],[-115.5914,50.7124,1395.2452],[-115.6016,50.7101,1412.3546],[-115.6203,50.7126,1339.5479],[-115.6358,50.7178,1321.4935],[-115.6663,50.7355,1204.5752],[-115.6693,50.7392,1210.8169],[-115.7123,50.7141,1185.8881],[-115.7251,50.7099,1175.9454],[-115.7327,50.7015,1172.0416],[-115.7448,50.697,1173.2264],[-115.7658,50.6936,1178.5046],[-115.7839,50.6811,1207.0952],[-115.7816,50.6755,1163.5529],[-115.791,50.6749,1169.3062],[-115.7951,50.6603,1117.9333],[-115.8,50.6544,1162.8605],[-115.8035,50.6456,1152.9454],[-115.8034,50.6413,1126.1848],[-115.8198,50.6406,1071.1831],[-115.8149,50.6349,1060.4933],[-115.8112,50.6211,1104.488],[-115.8036,50.6185,1085.6213],[-115.8023,50.6152,1050.075],[-115.8075,50.6108,1087.2412],[-115.8465,50.6109,1402.3911],[-115.8716,50.5967,2114.9658],[-115.8785,50.5959,2197.5137],[-115.8916,50.5971,2375.53],[-115.9003,50.6017,2557.0],[-115.917,50.5895,2471.9604],[-115.9159,50.5839,2454.2722],[-115.952,50.5633,1815.4489],[-115.9871,50.5484,1009.982],[-116.0143,50.5485,895.8614],[-116.0146,50.5416,866.8539],[-115.998,50.5417,941.3524],[-115.9972,50.5151,872.7807],[-116.0195,50.5145,800.5939],[-116.0181,50.5126,824.3391],[-116.0251,50.5093,826.0115],[-116.0207,50.5003,810.6777],[-116.0238,50.4964,798.0],[-116.0288,50.4967,798.682],[-116.0319,50.495,832.4437],[-116.0249,50.4886,825.3054],[-116.0247,50.481,801.6451],[-116.0322,50.4811,930.614],[-116.0323,50.4838,870.8641],[-116.035,50.4863,864.8901],[-116.0497,50.4856,917.7544],[-116.0502,50.489,930.2938],[-116.0565,50.4885,947.8807],[-116.0563,50.4995,942.339],[-116.0547,50.4992,943.7518],[-116.0498,50.503,832.5017],[-116.0473,50.5171,808.9198],[-116.0438,50.5242,802.928],[-116.0387,50.5269,801.7153],[-116.0424,50.5376,799.2992],[-116.1223,50.5382,986.5341],[-116.1215,50.5136,1075.762],[-116.2222,50.5129,2399.637],[-116.2663,50.4999,2177.385],[-116.3172,50.4745,2540.7227],[-116.3182,50.4636,2555.5137],[-116.3637,50.4514,3131.3809],[-116.391,50.4521,2956.9087],[-116.3988,50.4545,2738.4453],[-116.4037,50.4581,2770.3267],[-116.4086,50.4661,3039.4109],[-116.4204,50.4686,2888.4641],[-116.4374,50.4671,3179.1362],[-116.4496,50.4585,2908.4402],[-116.4642,50.4394,2869.325],[-116.4567,50.4264,2652.0623],[-116.4532,50.4165,2502.3428],[-116.4654,50.4109,2610.0051],[-116.4902,50.408,2440.0757],[-116.5069,50.4115,2370.9392],[-116.5624,50.4053,3341.4248],[-116.6166,50.4308,2837.4331],[-116.6298,50.4306,2672.5479],[-116.6474,50.4242,2631.4922],[-116.652,50.4203,2728.3633],[-116.6442,50.4125,2499.4951],[-116.6371,50.3958,2543.5154],[-116.6313,50.3904,2441.3179],[-116.6348,50.3786,2537.0515],[-116.6136,50.3502,2527.7363],[-116.6226,50.345,2464.0195],[-116.6247,50.3384,2535.5276],[-116.6219,50.3346,2480.6882],[-116.6229,50.3274,2465.7097],[-116.6153,50.3231,2460.9011],[-116.6181,50.3175,2704.4705],[-116.602,50.311,2951.2021],[-116.5908,50.3084,2622.2759],[-116.5785,50.3109,2474.4736],[-116.5594,50.3176,2769.981],[-116.5408,50.3189,2891.1335],[-116.5451,50.3008,2438.3677],[-116.5551,50.2835,2389.606],[-116.5495,50.2657,2647.499],[-116.5498,50.2507,2266.9097],[-116.5541,50.2381,2566.2092],[-116.5563,50.2142,2921.2891],[-116.5468,50.2068,2650.5359],[-116.5248,50.2052,2738.7351],[-116.4991,50.1984,2742.1211],[-116.4892,50.1912,2560.186],[-116.4865,50.1818,2303.1116],[-116.4872,50.1735,2548.4941],[-116.4796,50.1676,2492.9929],[-116.4734,50.1593,2737.0957],[-116.4614,50.1556,2602.7393],[-116.4557,50.1571,2692.6008],[-116.4506,50.1548,2645.625],[-116.4461,50.1332,2416.1714],[-116.4486,50.124,2395.2642],[-116.4558,50.1176,2542.1128],[-116.4642,50.115,2547.9282],[-116.4772,50.1146,2715.0632],[-116.4799,50.1068,2661.3],[-116.4929,50.0938,2689.543],[-116.4954,50.0745,2661.23],[-116.4971,50.0563,2672.1199],[-116.471,50.0382,2968.6265],[-116.4668,50.0208,2822.5103],[-116.4694,50.0139,2612.3508],[-116.4665,50.0018,2687.7705],[-116.4433,49.9883,2784.6536],[-116.4446,49.9798,2623.4341],[-116.4102,49.9445,2327.5115],[-116.4004,49.9371,2545.3479],[-116.3602,49.9347,2721.2345999999998],[-116.3403,49.9307,2614.0422],[-116.3289,49.9226,2158.4653],[-116.3183,49.9258,2184.4875],[-116.3116,49.9244,2392.6604],[-116.3026,49.9378,2224.4299],[-116.2973,49.9411,2322.8818],[-116.2845,49.9421,2614.4409],[-116.2826,49.9435,2530.9797],[-116.2826,49.9472,2543.6489],[-116.2783,49.9561,2627.5554],[-116.2566,49.9628,2536.6123],[-116.2515,49.9683,2516.5876],[-116.2469,49.9932,2559.165],[-116.2471,49.9992,2548.9695],[-116.2433,50.0011,2498.7927],[-116.2149,50.0062,2477.6089],[-116.1632,50.0043,2654.606],[-116.1503,50.0178,2462.2954],[-116.1417,50.0214,2569.3162],[-116.1174,50.0202,2399.9883],[-116.1099,50.0263,2356.718],[-116.0966,50.0284,2398.2454],[-116.0844,50.0283,2482.4736],[-116.0707,50.0238,2474.261],[-116.0439,50.0091,2262.2065],[-116.0255,50.0074,2282.6323],[-116.0192,50.013,2241.3438],[-116.0183,50.0161,2257.4626],[-115.9999,50.0229,2407.623],[-115.993,50.0146,2295.3044],[-115.979,50.0122,2396.3706],[-115.9762,50.0179,2279.3501],[-115.9783,50.0346,2125.2722],[-115.9798,50.0339,2125.2722],[-115.9783,50.0347,2125.2722],[-115.979,50.0375,2019.7627],[-115.9757,50.0408,1870.6067],[-115.9697,50.0451,1512.2773],[-115.9611,50.0478,1327.8196],[-115.9463,50.0447,1308.8655],[-115.9347,50.0487,1254.5275],[-115.929,50.0559,1661.8646],[-115.9313,50.0616,1963.4865],[-115.9276,50.0645,2166.8154],[-115.9249,50.071,1966.4178],[-115.9228,50.0873,2163.7422],[-115.9088,50.0873,2261.7063],[-115.899,50.0902,2210.1292],[-115.8794,50.0842,1787.259],[-115.8718,50.0787,1942.4734],[-115.8559,50.0738,1766.2937],[-115.853,50.0651,1838.618],[-115.8534,50.0587,1919.7673],[-115.863,50.0418,1688.8248],[-115.8764,50.0329,1427.7529],[-115.8723,50.0249,1704.129],[-115.8616,50.018,1775.6044],[-115.8616,50.0136,1556.9712],[-115.8497,50.0034,1633.0604],[-115.8484,50.0,1815.5074],[-115.8459,49.999,1863.7015],[-115.7019,50.0012,1210.4381],[-115.7021,50.0159,1090.4652],[-115.7069,50.0308,1446.4478],[-115.7,50.0487,1633.9246],[-115.7022,50.0587,1506.7814],[-115.7094,50.0731,1706.7059],[-115.7119,50.09,1832.0027],[-115.7112,50.1109,1798.7034],[-115.706,50.1251,1522.7266],[-115.7083,50.1334,1243.7037],[-115.6985,50.1354,1270.5396],[-115.6957,50.143,1108.7734],[-115.7012,50.146,1391.4905],[-115.6889,50.1502,1093.0992],[-115.686,50.1581,1069.4502],[-115.6575,50.1566,1098.0518],[-115.662,50.1693,1274.187],[-115.6588,50.1781,1420.9421],[-115.6682,50.1969,1698.887],[-115.6602,50.2134,1960.4807],[-115.6474,50.2174,2169.1238],[-115.6238,50.2117,1573.1453],[-115.6182,50.2065,1735.4022],[-115.6192,50.1987,2022.8975],[-115.6161,50.1866,2197.8931],[-115.6058,50.1768,2171.7207],[-115.5969,50.173,2113.1284],[-115.5803,50.1801,2193.5596],[-115.5602,50.1796,2411.4668],[-115.5443,50.1715,2548.9888],[-115.5308,50.1496,2308.7119],[-115.5369,50.135,1612.8125],[-115.5505,50.1209,1181.6025],[-115.5527,50.1165,1309.7832],[-115.5394,50.1066,1335.5042],[-115.5224,50.0989,1424.1958],[-115.5103,50.097,1521.8014],[-115.4773,50.1037,2274.9971],[-115.4707,50.1106,2486.3784],[-115.4633,50.1104,2407.5632],[-115.4514,50.0981,2407.4871],[-115.4407,50.0936,2464.592],[-115.4379,50.0815,2578.8606],[-115.4097,50.0701,2519.1858],[-115.4209,50.0628,2614.4207],[-115.4148,50.0556,2249.2239],[-115.4068,50.0416,2414.7861],[-115.3868,50.0272,2471.687],[-115.3862,50.0188,2593.2485],[-115.3714,50.0123,2574.3787],[-115.3614,50.0107,2720.147],[-115.3644,49.9999,2539.8125],[-115.36,49.9926,2403.5244],[-115.3545,49.9544,2426.167],[-115.3259,49.9544,2230.958],[-115.3212,49.9608,2175.8071],[-115.3109,49.9689,1913.2211],[-115.295,49.9746,1990.8818],[-115.262,49.9726,2910.4968],[-115.2491,49.9781,2367.2397],[-115.2479,49.9893,2688.927],[-115.2368,49.9969,2564.3237],[-115.2671,50.0058,3224.5181],[-115.2487,50.0165,2509.5615],[-115.2693,50.038,2699.5464],[-115.2429,50.043,2487.4602],[-115.2208,50.0539,2559.5378],[-115.2134,50.0605,3224.1274],[-115.2249,50.0658,2582.342],[-115.2214,50.0826,2733.3457],[-115.2036,50.1069,2934.7366],[-115.1805,50.1081,2407.9058],[-115.1396,50.1138,2571.6853],[-115.134,50.1116,2458.9795],[-115.1248,50.113,2293.1345],[-115.1162,50.1072,2194.7026],[-115.1009,50.1076,1606.6077],[-115.0744,50.1159,2247.7148],[-115.0591,50.1157,2505.292],[-115.0509,50.1192,2283.0635],[-115.0476,50.1271,2547.6697],[-115.0495,50.1303,2589.2734],[-115.0672,50.1388,2571.5688],[-115.0679,50.1438,2477.6899],[-115.0663,50.1469,2589.4404],[-115.0717,50.1497,2556.5994],[-115.0728,50.152,2511.8159],[-115.0728,50.1545,2641.0701],[-115.0689,50.1567,2631.6462],[-115.0696,50.1615,2583.313],[-115.084,50.1721,2414.2678],[-115.0896,50.1815,2434.6606],[-115.09,50.1864,2447.3586],[-115.0958,50.1927,2382.1604],[-115.0962,50.2012,2483.3403],[-115.1023,50.2069,2446.2913],[-115.0965,50.2118,2467.23],[-115.0988,50.2169,2432.6968],[-115.1156,50.2214,2285.6418],[-115.1182,50.2233,2392.9456],[-115.1214,50.2294,2542.7603],[-115.1345,50.2355,2430.5107],[-115.1326,50.2432,2438.4678],[-115.134,50.2497,2488.967],[-115.137,50.2515,2525.7595],[-115.1363,50.2576,2625.1802],[-115.127,50.2596,2532.769],[-115.118,50.2645,2620.3638],[-115.1142,50.2643,2769.8855],[-115.1119,50.2655,2826.2249],[-115.1105,50.269,2735.3989],[-115.1216,50.2735,2822.4905],[-115.129,50.2742,2900.3696],[-115.1352,50.2779,2720.5762],[-115.126,50.2874,2606.5288],[-115.1285,50.2908,2619.8496],[-115.1268,50.2937,2668.9656],[-115.1266,50.2997,2482.1611],[-115.1356,50.3052,2381.4253],[-115.1308,50.3108,2706.3091],[-115.1373,50.3167,2716.937],[-115.1269,50.3218,2688.3953],[-115.1141,50.3187,2248.0164],[-115.1021,50.3191,2097.1431],[-115.099,50.3205,2014.1776],[-115.095,50.3258,1929.4246],[-115.094,50.33,1921.3499],[-115.1016,50.3419,2429.009],[-115.1231,50.3553,2744.572],[-115.1212,50.3567,2528.3586],[-115.1235,50.3624,2664.5229],[-115.1217,50.3692,2968.6707],[-115.1256,50.38,2873.1641],[-115.1246,50.3834,2855.0093],[-115.1296,50.3866,2885.3838],[-115.1284,50.3883,2787.2583],[-115.1193,50.3915,2741.9536],[-115.1255,50.3935,2772.6799],[-115.1234,50.3983,2687.1143],[-115.1265,50.4044,2730.9224],[-115.1328,50.407,2791.3079],[-115.1331,50.4133,2696.333],[-115.1373,50.4186,2880.9272],[-115.1341,50.4217,2660.5256],[-115.1356,50.424,2780.6165],[-115.1202,50.4379,2985.0503],[-115.1193,50.4418,3165.7781],[-115.1302,50.4458,2899.3262],[-115.1371,50.4524,2382.1147],[-115.1374,50.4562,2484.855],[-115.14,50.4573,2534.8877],[-115.1394,50.4624,2496.4309],[-115.16,50.4734,2732.6472],[-115.1638,50.4817,2743.5898],[-115.1613,50.4925,2860.3428],[-115.1632,50.4951,2835.6877],[-115.1647,50.5029,2742.9546],[-115.1641,50.5101,2933.8467],[-115.1739,50.5191,3116.4688],[-115.1817,50.521,2995.5269],[-115.188,50.5188,3067.1328],[-115.1948,50.5246,3052.2441],[-115.2081,50.5278,3198.8235],[-115.2169,50.5365,2931.677],[-115.221,50.537,2723.0605],[-115.2225,50.5397,2885.5786],[-115.231,50.5449,2797.1675],[-115.2319,50.5507,2942.9111],[-115.2296,50.5515,2826.2983],[-115.2284,50.5541,2851.4009],[-115.2298,50.5592,2691.5522],[-115.2349,50.5676,2867.8418],[-115.2419,50.5712,2693.6755],[-115.2393,50.5749,2643.4412],[-115.235,50.5748,2616.4771],[-115.2302,50.5775,2449.5332],[-115.2362,50.5857,2633.074],[-115.2396,50.5892,2730.1323],[-115.2473,50.5881,2685.5652],[-115.2601,50.5963,2743.5674],[-115.2719,50.5979,2719.5874],[-115.2779,50.6011,2638.2114],[-115.2804,50.6055,2620.0273],[-115.2847,50.6088,2614.4075],[-115.2876,50.6082,2628.0901],[-115.2954,50.613,2588.7593],[-115.2982,50.6202,2593.293],[-115.2969,50.6262,2863.2068],[-115.3052,50.6259,2790.6902],[-115.3115,50.6286,2723.8496],[-115.3118,50.6304,2712.7383],[-115.3095,50.6315,2637.7859],[-115.3101,50.6353,2625.8193],[-115.313,50.6376,2723.2446],[-115.3119,50.6382,2716.9048],[-115.2996,50.6393,2501.147],[-115.2884,50.6376,2294.9812],[-115.2855,50.6389,2303.8445],[-115.2821,50.647,2478.0271],[-115.2742,50.6489,2656.3184],[-115.2813,50.6538,2823.2656],[-115.2817,50.6571,2792.3877],[-115.2859,50.6603,2832.9712],[-115.2823,50.6632,2801.9199],[-115.2984,50.6833,2521.8389],[-115.3008,50.6907,2274.7939],[-115.2936,50.6984,2785.5771],[-115.3016,50.7006,2923.1382],[-115.3088,50.7078,2774.2188],[-115.3147,50.7163,2717.6104],[-115.3107,50.7216,2744.0444],[-115.3123,50.7239,2723.2141],[-115.3183,50.7265,2940.7729],[-115.3276,50.7219,2813.4895],[-115.3351,50.7242,3053.7344],[-115.3392,50.7221,3316.4546],[-115.3499,50.7213,2857.4385],[-115.3546,50.7227,2848.0068],[-115.3634,50.7179,2596.7139],[-115.3702,50.7173,2439.9849],[-115.3699,50.7143,2420.0754],[-115.3776,50.7109,2240.6978],[-115.3756,50.7079,2223.1064],[-115.3789,50.7053,2160.0002],[-115.3864,50.708,2077.8931],[-115.3912,50.7065,2129.9121],[-115.4037,50.7123,2727.5127],[-115.4138,50.7113,2877.7107],[-115.4167,50.7137,2832.8752],[-115.4169,50.7199,2581.6213],[-115.4158,50.7222,2598.1968],[-115.4114,50.7232,2453.5728],[-115.4108,50.7283,2613.9316],[-115.4136,50.7318,2486.1748],[-115.4124,50.7336,2557.6699],[-115.4147,50.7357,2614.7822],[-115.4196,50.7366,2473.4028],[-115.4363,50.7557,2505.1199],[-115.4471,50.7532,2624.6362],[-115.4523,50.7564,2480.6921],[-115.4589,50.7572,2527.738],[-115.464,50.7536,2512.645],[-115.4703,50.752,2758.895],[-115.475,50.7548,2854.8423],[-115.4812,50.7552,2787.6414],[-115.4848,50.7607,2537.615],[-115.4819,50.7686,2379.5562],[-115.495,50.78,2152.3193]],
[[-115.9477,50.4624,915.9957],[-115.9477,50.447,873.2906],[-115.8913,50.4466,1257.9248],[-115.891,50.3961,914.9019],[-115.8574,50.3963,1166.4575],[-115.8573,50.3564,922.1622],[-115.8723,50.3565,806.1998],[-115.8756,50.3588,801.7735],[-115.8773,50.3572,801.7876],[-115.8861,50.3585,801.0225],[-115.8932,50.3643,800.7049],[-115.8974,50.365,811.6275],[-115.8996,50.3686,800.37],[-115.8993,50.371,800.5423],[-115.8929,50.3751,798.9726],[-115.9066,50.3851,799.4731],[-115.9092,50.3914,799.2215],[-115.9074,50.3964,798.9885],[-115.9088,50.3987,799.0456],[-115.9188,50.4042,801.9569],[-115.9216,50.4098,810.5522],[-115.9319,50.4201,821.7679],[-115.94,50.4211,798.5463],[-115.978,50.4524,839.2369],[-115.9707,50.4524,849.1836],[-115.9704,50.4618,863.6098],[-115.9477,50.4624,915.9957]]]]}}