{"type":"Feature","properties":{"GID_3":"CAN.4.4.27_1","GID_0":"CAN","country":"Canada","GID_1":"CAN.4_1","province":"NewBrunswick","NL_NAME_1":"NA","GID_2":"CAN.4.4_1","county":"Gloucester","NL_NAME_2":"NA","city":"Shippagan","VARNAME_3":"NA","NL_NAME_3":"NA","TYPE_3":"Parish","ENGTYPE_3":"Parish","CC_3":"NA","HASC_3":"NA","name":"Shippagan.city"},
"geometry":{"type": "MultiPolygon","coordinates": [[[[-64.7652,47.6949,3.1315],[-64.7538,47.6926,0.0533],[-64.7453,47.6956,-0.3215],[-64.7417,47.6911,-0.3446],[-64.7472,47.69,-0.0766],[-64.7492,47.6883,-0.0614],[-64.7481,47.6858,0.021],[-64.7456,47.6886,-0.1722],[-64.7444,47.6867,-0.1785],[-64.7431,47.6886,-0.1529],[-64.7403,47.6872,-0.281],[-64.7372,47.6892,-0.0787],[-64.7389,47.6867,0.2067],[-64.7378,47.6856,0.2067],[-64.7272,47.6888,0.0],[-64.7167,47.6949,0.0],[-64.7248,47.7076,7.4113],[-64.7244,47.7108,7.1242],[-64.7163,47.7161,5.2449],[-64.7135,47.7162,5.0073],[-64.7123,47.7218,5.4762],[-64.6901,47.7148,7.9435],[-64.6851,47.717,4.6179],[-64.6861,47.7183,2.9279],[-64.6775,47.7192,0.0],[-64.6781,47.725,-0.2724],[-64.6747,47.7272,0.0],[-64.6864,47.7331,0.2163],[-64.6942,47.7311,0.5268],[-64.6978,47.7364,-0.0267],[-64.7025,47.7327,5.3394],[-64.7083,47.7237,4.1741],[-64.7287,47.7294,4.7748],[-64.7312,47.7265,6.3943],[-64.7344,47.7274,4.8834],[-64.7423,47.7182,1.3439],[-64.747,47.7184,0.2735],[-64.7481,47.7146,0.032],[-64.7565,47.7027,0.0],[-64.7644,47.7041,0.0],[-64.7675,47.7022,0.0],[-64.7705,47.7042,0.0],[-64.772,47.7036,0.2279],[-64.7726,47.6998,0.1083],[-64.7697,47.6979,0.2302],[-64.7709,47.6961,0.0052],[-64.7652,47.6949,3.1315]]],
[[[-64.767,47.7143,0.0],[-64.7654,47.7137,0.0],[-64.7627,47.7158,0.0],[-64.7654,47.7154,0.3013],[-64.767,47.7143,0.0]]],
[[[-64.7306,47.7557,2.6966],[-64.7267,47.7605,0.0],[-64.7322,47.763,0.1745],[-64.7345,47.7677,0.0],[-64.7416,47.7689,0.0],[-64.7443,47.7684,0.086],[-64.7444,47.7665,0.064],[-64.7405,47.7653,0.0483],[-64.7405,47.763,0.5584],[-64.7456,47.75,0.3411],[-64.76,47.7494,0.577],[-64.7622,47.7517,0.0],[-64.7592,47.7525,0.0],[-64.7585,47.755,0.0066],[-64.7611,47.7562,-0.0074],[-64.7576,47.7586,0.0],[-64.7686,47.7564,1.0176],[-64.7759,47.7464,0.16],[-64.7731,47.743899999999996,0.9377],[-64.7705,47.7448,0.2086],[-64.7688,47.7435,0.0],[-64.7693,47.7403,4.0085],[-64.7768,47.735,0.0],[-64.7731,47.7327,3.9311],[-64.772,47.7255,3.9521],[-64.7647,47.7246,0.0],[-64.7647,47.7268,0.0817],[-64.7614,47.7277,1.9014],[-64.7553,47.7259,0.3743],[-64.7545,47.7243,2.4616],[-64.7431,47.7403,6.757],[-64.7392,47.7393,8.6907],[-64.7347,47.7458,2.641],[-64.736,47.7478,2.5987],[-64.7306,47.7557,2.6966]]],
[[[-64.6262,47.7978,-0.1937],[-64.6266,47.7974,2.8798],[-64.6254,47.7979,-0.1937],[-64.6262,47.7979,-0.1937],[-64.6262,47.7978,-0.1937]]],
[[[-64.6251,47.7979,-0.1937],[-64.6196,47.7993,-0.0497],[-64.6183,47.7959,0.0],[-64.6223,47.7959,-0.0051],[-64.6247,47.7931,0.0],[-64.6363,47.7889,0.0],[-64.6377,47.7876,0.2523],[-64.6369,47.7824,0.6259],[-64.6404,47.7827,0.884],[-64.6465,47.779,0.0],[-64.6521,47.78,0.7992],[-64.6607,47.7766,0.0],[-64.662,47.7738,0.0],[-64.6584,47.7747,0.6025],[-64.6557,47.7733,0.2482],[-64.6575,47.7704,1.5301],[-64.6612,47.7722,0.0],[-64.6655,47.7713,0.2721],[-64.6661,47.7723,0.0287],[-64.6633,47.7731,0.0],[-64.6659,47.7733,0.0287],[-64.6935,47.7631,0.0319],[-64.6907,47.7621,0.5552],[-64.6908,47.7605,0.0],[-64.6974,47.7577,0.0],[-64.6899,47.7517,0.7418],[-64.6897,47.75,0.0479],[-64.6806,47.7459,-0.0486],[-64.6613,47.7468,0.0],[-64.6579,47.7484,-0.0387],[-64.658,47.7503,-0.0251],[-64.6542,47.7498,-0.0755],[-64.6516,47.7468,0.4381],[-64.6565,47.7476,0.0],[-64.6533,47.7403,0.0603],[-64.6577,47.7392,0.2491],[-64.6564,47.7356,2.5993],[-64.6504,47.7296,0.5243],[-64.6511,47.7263,0.8431],[-64.6622,47.7231,0.298],[-64.6653,47.7196,0.3062],[-64.665,47.7181,0.0],[-64.6606,47.7211,1.5527],[-64.6314,47.7314,0.0],[-64.6126,47.7427,0.5081],[-64.6072,47.7508,0.1881],[-64.6167,47.7521,0.9562],[-64.6155,47.7564,0.772],[-64.6186,47.7572,0.3697],[-64.6196,47.7594,0.5706],[-64.6064,47.7515,0.1881],[-64.5863,47.764,1.8454],[-64.6046,47.7751,6.4423],[-64.601,47.7788,7.9178],[-64.6049,47.7811,8.2764],[-64.5986,47.7871,10.0438],[-64.5937,47.7849,12.4186],[-64.591,47.7865,10.1907],[-64.5842,47.7938,8.4745],[-64.5937,47.798,9.37],[-64.6001,47.7939,11.7681],[-64.6065,47.7978,13.6536],[-64.596,47.8059,17.8006],[-64.5974,47.8072,18.8355],[-64.5918,47.8116,24.6563],[-64.5849,47.8077,19.0844],[-64.5798,47.8118,21.2828],[-64.5894,47.8173,25.3086],[-64.5826,47.8232,25.6799],[-64.5765,47.8201,23.8115],[-64.5711,47.8244,21.1689],[-64.549,47.813,8.3268],[-64.5576,47.8047,8.4586],[-64.5504,47.8009,4.7902],[-64.5381,47.8088,6.5789],[-64.5289,47.8264,0.3613],[-64.5333,47.8272,-1.5],[-64.5358,47.8303,-0.1478],[-64.5308,47.8303,-1.5],[-64.5281,47.8272,-0.4069],[-64.5236,47.8353,0.0],[-64.5064,47.8493,0.0],[-64.5025,47.866,0.0],[-64.5035,47.8777,0.6772],[-64.5017,47.8836,0.0],[-64.5046,47.8839,0.0],[-64.5033,47.8822,0.1611],[-64.5061,47.8778,0.5312],[-64.5236,47.8706,0.0],[-64.5331,47.8625,0.9562],[-64.5433,47.8622,0.0],[-64.5481,47.8644,0.2336],[-64.561,47.8658,0.0],[-64.5697,47.8594,1.3567],[-64.5708,47.8557,9.8109],[-64.5719,47.8589,0.0],[-64.5769,47.8588,0.0],[-64.5836,47.8553,4.0107],[-64.5789,47.8597,0.0],[-64.5811,47.8611,-0.1877],[-64.5759,47.863,0.0026],[-64.575,47.8653,0.1287],[-64.5715,47.8647,0.0],[-64.5697,47.8722,0.8389],[-64.5672,47.8733,-0.1656],[-64.5684,47.8778,0.0],[-64.5764,47.8799,0.6689],[-64.5753,47.8825,0.5247],[-64.5919,47.8816,2.7915],[-64.6034,47.8851,0.0132],[-64.6316,47.8862,0.3229],[-64.6517,47.8775,0.0],[-64.6486,47.8731,0.0127],[-64.6472,47.8742,0.0],[-64.6502,47.8761,0.2666],[-64.6447,47.8778,0.2147],[-64.6397,47.8767,0.0],[-64.6372,47.8739,0.1503],[-64.6411,47.875,0.321],[-64.6461,47.8721,0.0],[-64.6527,47.8722,0.0],[-64.6591,47.868899999999996,0.2128],[-64.6661,47.8688,0.0],[-64.6666,47.8661,0.7198],[-64.6771,47.8574,0.2182],[-64.6883,47.8566,0.0],[-64.6836,47.8519,4.9443],[-64.6881,47.8528,1.0395],[-64.6888,47.8548,0.3568],[-64.6925,47.8483,0.6618],[-64.6885,47.8463,0.5063],[-64.6936,47.8446,0.1743],[-64.7058,47.8344,0.0],[-64.7075,47.8272,0.0],[-64.7025,47.8222,1.1739],[-64.7053,47.8144,0.0],[-64.7049,47.8095,0.0],[-64.7028,47.8122,0.6532],[-64.6899,47.8116,0.0],[-64.689,47.8144,0.636],[-64.6833,47.8185,0.0],[-64.6781,47.8189,0.6239],[-64.6748,47.8167,0.0],[-64.6692,47.8182,1.667],[-64.6673,47.8158,1.6307],[-64.6801,47.8081,0.1965],[-64.6828,47.8046,4.1879],[-64.6882,47.8026,0.2798],[-64.6894,47.7986,3.8193],[-64.6974,47.7891,0.0],[-64.6951,47.7847,0.0],[-64.693,47.7843,0.1087],[-64.681,47.7861,0.1653],[-64.68,47.7898,0.0],[-64.6712,47.7924,0.0784],[-64.6709,47.7935,0.0784],[-64.6762,47.7961,0.0045],[-64.6722,47.7994,-0.0012],[-64.6745,47.8001,-0.1159],[-64.6747,47.8023,1.0164],[-64.6704,47.8036,0.0],[-64.6645,47.8008,1.1346],[-64.6574,47.8013,0.386],[-64.6562,47.8044,1.798],[-64.6471,47.8093,1.8649],[-64.6407,47.8088,4.7419],[-64.6442,47.8205,10.1662],[-64.6436,47.8235,8.7426],[-64.6376,47.824,15.277],[-64.6325,47.8265,9.7236],[-64.633,47.8282,15.3691],[-64.6263,47.8349,18.8145],[-64.6235,47.8349,15.2881],[-64.611,47.8277,12.7241],[-64.5992,47.8366,15.7968],[-64.589,47.831,21.7086],[-64.5984,47.8215,23.4886],[-64.5959,47.8201,23.0917],[-64.6141,47.8048,13.158],[-64.6228,47.8096,4.7292],[-64.6198,47.8007,-0.1719],[-64.6251,47.7979,-0.1937]]],
[[[-64.5042,47.8867,0.0],[-64.5022,47.8864,0.0],[-64.5011,47.8956,0.409],[-64.4933,47.9158,-0.0599],[-64.5006,47.9033,0.365],[-64.5042,47.8867,0.0]]],
[[[-64.5175,48.0206,0.0],[-64.5214,48.0211,0.34],[-64.5175,48.0189,0.3326],[-64.5181,48.0175,-0.5568],[-64.5275,48.0144,1.7334],[-64.5308,48.0147,0.277],[-64.5311,48.0167,0.5255],[-64.5278,48.0194,-0.0541],[-64.5256,48.0192,-0.4796],[-64.5253,48.0206,0.0904],[-64.5411,48.0174,0.0],[-64.5453,48.0142,0.1932],[-64.5477,48.0107,0.2665],[-64.5506,48.0,0.0],[-64.5484,47.9962,0.405],[-64.5478,47.9817,1.3875],[-64.5531,47.9709,0.8505],[-64.5611,47.9608,0.3156],[-64.5875,47.9409,0.0],[-64.5955,47.9325,0.4211],[-64.5987,47.9211,-0.02],[-64.5968,47.9063,2.6134],[-64.5925,47.8991,0.2575],[-64.5821,47.8945,0.2078],[-64.5775,47.8891,1.5502],[-64.5764,47.8904,0.0],[-64.5783,47.8925,0.3695],[-64.586,47.8977,2.0245],[-64.5795,47.8973,3.0292],[-64.5786,47.8956,0.2226],[-64.5728,47.8997,0.2684],[-64.5644,47.9019,0.0],[-64.5511,47.9161,2.9307],[-64.5368,47.9149,0.0],[-64.5321,47.9178,0.3682],[-64.5265,47.9183,0.0],[-64.5206,47.9269,0.0],[-64.5086,47.9311,0.0],[-64.5039,47.9353,0.3316],[-64.496,47.9374,0.0],[-64.4986,47.9397,0.0],[-64.4939,47.9386,0.0],[-64.4919,47.9361,0.3992],[-64.492,47.933,1.7677],[-64.4939,47.931399999999996,0.0],[-64.497,47.9321,0.0],[-64.4953,47.9269,0.0],[-64.4906,47.925,0.3882],[-64.4931,47.9186,-0.0036],[-64.4896,47.9179,0.0],[-64.4843,47.929,0.0],[-64.4679,47.9424,0.0],[-64.4731,47.9558,0.292],[-64.4747,47.9489,-0.0644],[-64.4706,47.9442,-0.0594],[-64.4767,47.9417,-0.553],[-64.4775,47.9456,0.0],[-64.4869,47.9481,0.6857],[-64.4847,47.9514,0.9904],[-64.4861,47.9528,0.6948],[-64.4839,47.9553,0.0],[-64.485,47.9567,2.0345],[-64.4926,47.9571,0.0],[-64.4931,47.9544,0.0],[-64.4956,47.9525,0.8825],[-64.4997,47.9542,0.1449],[-64.4969,47.9575,1.8586],[-64.4903,47.9583,0.0],[-64.4922,47.9597,0.0],[-64.4925,47.9628,0.0],[-64.4864,47.9656,2.3875],[-64.4803,47.9661,0.8371],[-64.4792,47.9617,0.6888],[-64.4811,47.9597,0.0],[-64.4778,47.9597,0.086],[-64.4794,47.9581,0.0],[-64.4783,47.9569,0.0],[-64.4747,47.9561,0.4228],[-64.4736,47.9572,0.0],[-64.4786,47.9819,0.3319],[-64.4813,47.9883,0.0],[-64.4828,48.0,0.0],[-64.4904,48.006,0.2333],[-64.4901,48.0095,0.0],[-64.4989,48.0117,0.1421],[-64.5175,48.0206,0.0]]]]}}