{"type": "Feature","bbox": [-130.4833,53.7491,-130.3927,53.7986],"geometry": {"type": "MultiPolygon","coordinates": [[[[-130.4717,53.7558,0.0],[-130.475,53.7567,2.8356],[-130.4767,53.7558,0.0],[-130.4728,53.7544,0.0],[-130.4717,53.7558,0.0]]],
[[[-130.471,53.7627,13.7818],[-130.4722,53.7631,13.7818],[-130.4739,53.7622,0.0],[-130.4689,53.7614,1.6341],[-130.471,53.7627,13.7818]]],
[[[-130.4805,53.766,5.2311],[-130.4783,53.7667,9.7642],[-130.4805,53.7681,3.7973],[-130.4833,53.7667,0.0],[-130.4828,53.7659,0.0],[-130.4805,53.766,5.2311]]],
[[[-130.4597,53.7771,24.067],[-130.4551,53.7773,0.0],[-130.4528,53.7806,0.0],[-130.4544,53.7814,8.1642],[-130.4606,53.7792,2.8117],[-130.4597,53.7771,24.067]]],
[[[-130.4139,53.7508,0.0],[-130.4122,53.7497,0.0],[-130.4111,53.752,0.0],[-130.4133,53.7522,0.0],[-130.4139,53.7508,0.0]]],
[[[-130.4311,53.7966,8.2816],[-130.4344,53.7967,1.6327],[-130.4334,53.7959,1.6327],[-130.4367,53.7947,25.1744],[-130.44,53.7964,2.5805],[-130.4417,53.7947,0.0],[-130.4394,53.7933,10.1797],[-130.4411,53.7928,10.1797],[-130.4519,53.7937,21.3375],[-130.4645,53.7903,12.5095],[-130.4669,53.7837,11.9383],[-130.4717,53.7789,3.4304],[-130.4639,53.7792,2.8117],[-130.4522,53.7836,0.0],[-130.4506,53.7822,12.8292],[-130.4511,53.78,5.3767],[-130.4478,53.7772,0.0],[-130.4533,53.7753,27.2649],[-130.4544,53.7739,5.4993],[-130.4527,53.7725,17.2889],[-130.4544,53.7717,16.2639],[-130.4572,53.7747,1.2488],[-130.4705,53.7775,0.0],[-130.4751,53.7745,10.3378],[-130.4752,53.7714,11.6417],[-130.48,53.7711,7.9014],[-130.4756,53.7683,16.2181],[-130.4721,53.7701,7.1455],[-130.4727,53.7681,16.2181],[-130.478,53.7659,9.7642],[-130.4686,53.7626,3.4526],[-130.469,53.7655,17.8797],[-130.4646,53.7637,0.0],[-130.4552,53.7555,16.8701],[-130.4499,53.7532,17.8321],[-130.4476,53.75,0.0],[-130.4447,53.7492,7.1502],[-130.4358,53.7491,10.3415],[-130.4317,53.7505,0.0],[-130.435,53.7569,2.9389],[-130.4378,53.7583,14.56],[-130.4361,53.7589,7.2003],[-130.4339,53.7592,12.5949],[-130.425,53.7547,0.0],[-130.4193,53.7575,10.1046],[-130.4139,53.7567,0.0],[-130.4117,53.7595,9.0523],[-130.4133,53.7619,40.0279],[-130.4032,53.7693,29.8792],[-130.4026,53.7724,48.9095],[-130.4041,53.7751,9.9671],[-130.401,53.7787,11.3943],[-130.4045,53.7815,14.3368],[-130.4117,53.7828,11.2417],[-130.4128,53.7845,30.4904],[-130.4022,53.7828,6.9073],[-130.3999,53.7839,0.0],[-130.4005,53.7859,7.0718],[-130.4061,53.7861,5.6309],[-130.4061,53.7887,0.0],[-130.4082,53.7907,0.0],[-130.4201,53.7925,1.225],[-130.4256,53.7958,0.0],[-130.4311,53.7966,8.2816]]],
[[[-130.398,53.7873,0.0],[-130.3943,53.7865,0.0],[-130.3927,53.7878,0.0],[-130.3952,53.7885,4.8943],[-130.398,53.7873,0.0]]],
[[[-130.4539,53.7956,2.4713],[-130.455,53.7942,2.4566],[-130.4478,53.7953,0.0],[-130.4456,53.7972,3.2367],[-130.4483,53.7986,19.7343],[-130.4539,53.7956,2.4713]]]]}
,"properties": {"GID_3": "CAN.2.24.1_1","GID_0": "CAN","country": "Canada","GID_1": "CAN.2_1","province": "BritishColumbia","NL_NAME_1": "NA","GID_2": "CAN.2.24_1","county": "Skeena-QueenCharlotte","NL_NAME_2": "NA","city": "DolphinIsland1","VARNAME_3": "NA","NL_NAME_3": "NA","TYPE_3": "RéserveIndienne","ENGTYPE_3": "IndianReserve","CC_3": "NA","HASC_3": "NA","name": "Dolphin_Island1.city","area_km2": 17.31624,"hist_schema_id": "Elevation0-9000","hist_area_km2": {"0": 2.93207,"25": 9.17213,"50": 3.65854,"75": 0.91458,"100": 0.36334,"125": 0.21295,"150": 0.03758,"175": 0.02505}}}