{"type":"Feature","properties":{"featurecla":"Lake","scalerank":0,"name":"Lake Ontario","name_abb":"L. Ontario","name_alt":"Great Lakes","note":null,"delta":null,"dam_name":null,"year":-99,"admin":"admin-0","min_zoom":1.0,"min_label":3.0},
"geometry":{"type": "Polygon","coordinates": [[[-76.087235569117141,43.970460904238053,88.6914],[-76.071928634506293,43.976348186780683,73.5],[-76.060301251484589,43.988417115993087,75.7283],[-76.057946338467531,43.999602952824091,73.5],[-76.065158259582262,44.00784514838378,108.8604],[-76.0817898327652,44.011083153782209,104.0628],[-76.097832677693873,44.006962056002379,100.1483],[-76.1253557235807,43.988122751865944,98.6646],[-76.143900663589989,43.983707289958971,86.8375],[-76.206011494414767,43.983707289958971,75.1167],[-76.212193141084526,43.989300208374488,73.5],[-76.201743214571351,44.000780409332606,73.5],[-76.184670095197717,44.012554974417867,73.5],[-76.158324505819436,44.022268990613213,73.5],[-76.144342209780689,44.032571735062817,73.5],[-76.132714826758985,44.045818120783764,83.1537],[-76.126533180089211,44.05877014237754,89.1043],[-76.136394378348129,44.058181414123283,84.6288],[-76.145372484225646,44.05553213697911,74.515],[-76.153614679785335,44.051116675072137,73.5],[-76.161268147090752,44.045229392529478,73.5],[-76.157147049310908,44.058181414123283,73.5],[-76.154350590103164,44.061419419521741,73.5],[-76.146991486924861,44.066423609682971,73.5],[-76.161268147090752,44.077315082386832,87.0991],[-76.201007304253523,44.072016528098487,84.9453],[-76.209691046003911,44.085557277946521,92.7966],[-76.274745518100019,44.062008147776,85.5847],[-76.284165170168222,44.048761762055079,78.8707],[-76.287550357630238,44.037281561096933,84.724],[-76.295203824935669,44.032571735062817,83.9958],[-76.304329112876744,44.033454827444217,73.5],[-76.311541033991475,44.039047745859733,73.5],[-76.313012854627132,44.046995577292279,73.5],[-76.309186120974417,44.053471588089167,73.5],[-76.30653684383023,44.0611250553946,80.9415],[-76.311541033991475,44.072605256352745,97.3419],[-76.329350063682938,44.084968549692263,90.6921],[-76.347011911310844,44.088795283344979,73.9026],[-76.360699843222463,44.095860022396153,73.5],[-76.3661455795744,44.11734860367676,73.5],[-76.357461837824,44.131478081779079,73.5],[-76.183492638689188,44.223025325317025,73.5],[-76.0538252406877,44.265708123751125,73.5],[-75.923863478559056,44.347835715220839,73.5],[-75.914296644427282,44.357255367289071,73.5],[-75.908998090138908,44.363731378085959,90.4249],[-75.856601275509476,44.379332676823935,73.5],[-75.852921723920332,44.381098861586736,80.6115],[-75.849094990267616,44.386103051747966,86.3261],[-75.847623169631959,44.392579062544854,73.5],[-75.846740077250558,44.39817198096037,73.5],[-75.845415438678472,44.4014099863588,73.5],[-75.780802512773064,44.432318219707639,73.5],[-75.770205404196332,44.446153333682815,73.5],[-75.772265953086247,44.463815181310736,77.6403],[-75.77918351007385,44.482360121320028,73.5],[-75.791988349604068,44.497078327676604,73.5],[-75.811857928185461,44.504437430854892,110.1415],[-75.844532346297072,44.4876586756084,94.3123],[-75.941525326186962,44.4014099863588,97.0739],[-75.973905380171445,44.385219959366566,96.6352],[-76.009523439554371,44.374622850789819,95.3264],[-76.089001753879927,44.367263747611531,90.9434],[-76.108282604207048,44.3622595574503,100.5072],[-76.151701312958977,44.339299155534036,94.2793],[-76.168185704078354,44.332528780610005,77.7935],[-76.235742271255063,44.331940052355748,95.0567],[-76.260321675870557,44.320165487270458,104.1922],[-76.307272754148059,44.310745835202255,84.709],[-76.315220585580619,44.306036009168139,83.356],[-76.32243250669535,44.299265634244136,83.6561],[-76.332588069081382,44.292200895192963,89.379],[-76.407650921499965,44.264236303115467,109.4783],[-76.441355614056533,44.246280091360433,107.1031],[-76.45239426882398,44.243925178343375,106.0912],[-76.4604892823201,44.24775191199609,95.5221],[-76.468584295816214,44.255111015174379,73.5],[-76.477120855503031,44.259232112954209,73.5],[-76.486540507571249,44.254227922792978,87.6861],[-76.503466444881326,44.2395097164364,104.4175],[-76.523041659335576,44.23009006436817,102.4818],[-76.544235876489054,44.225380238334083,74.6765],[-76.616502269699879,44.223319689444139,96.9464],[-76.624008554941739,44.227146423096855,73.5],[-76.6301902016115,44.233622433893771,100.6051],[-76.637990850980486,44.2359773469108,106.9309],[-76.651090054637848,44.227146423096855,93.2055],[-76.659332250197536,44.223319689444139,96.6371],[-76.6956862198983,44.217138042774394,81.5026],[-76.736750015633163,44.203008564672075,87.5456],[-76.79459256661454,44.172689059577493,95.3639],[-76.836686636794369,44.16415249989069,95.8008],[-76.887464448724586,44.127062619872106,85.213],[-76.9313247036672,44.110578228752729,92.461],[-76.953254831138509,44.098509299540325,93.6895],[-76.962674483206726,44.082319272548091,84.8301],[-76.973713137974158,44.076726354132575,86.5651],[-77.044507710549325,44.066423609682971,74.2389],[-77.044507710549325,44.072605256352745,74.5838],[-77.039650702451652,44.07554889762406,87.5668],[-77.036707061180337,44.07878690302249,88.5574],[-77.034499330226851,44.082024908420948,94.3574],[-77.031555688955535,44.085557277946521,84.4526],[-77.042594343722968,44.084968549692263,98.8276],[-77.053338634363271,44.085851642073663,80.743],[-77.063494196749318,44.088795283344979,73.5],[-77.072472302626835,44.092916381124809,73.5],[-77.0037382789416,44.1464906522628,104.8111],[-76.98681234163152,44.154438483695344,100.5613],[-76.974007502101287,44.1567933967124,78.4678],[-76.94633727415092,44.166507412907748,73.5],[-76.931913431921458,44.168567961797663,73.5],[-76.9067452990517,44.166801777034863,73.5],[-76.89614819047496,44.170334146560464,75.3108],[-76.887464448724586,44.182403075772839,81.8273],[-76.897914375237761,44.183580532281383,76.6533],[-76.907039663178836,44.187701630061213,77.3389],[-76.9149874946114,44.194177640858129,76.8464],[-76.921757869535426,44.203008564672075,81.1428],[-77.021988854823761,44.143547010991483,118.8633],[-77.039356338324524,44.136187907813166,121.1061],[-77.049217536583441,44.14148646210154,118.6721],[-77.044507710549325,44.168567961797663,77.8822],[-77.039650702451652,44.180636891010067,73.5],[-77.034793694353979,44.187112901806955,73.5],[-77.020958580378789,44.199181831019359,73.5],[-77.00226645830594,44.21007330372322,82.5324],[-76.999469999098181,44.215077493884479,90.54],[-77.014188205454772,44.217138042774394,98.2667],[-77.038473245943123,44.215077493884479,94.3638],[-77.170789921088812,44.171805967196121,79.3327],[-77.192278502369419,44.168567961797663,85.3339],[-77.2049361598361,44.172689059577493,74.8361],[-77.224952920481044,44.190350907205413,86.0949],[-77.2362859393756,44.195355097366644,83.5493],[-77.246441501761652,44.193883276730986,91.2557],[-77.25512524351204,44.187701630061213,83.0172],[-77.263367439071729,44.180636891010067,82.7812],[-77.271756816694975,44.175632700848809,84.1089],[-77.293981308293411,44.168862325924806,83.4502],[-77.306491783696515,44.16827359767052,75.5401],[-77.315764253701161,44.172100331323236,82.0889],[-77.327097272595736,44.180931255137182,100.6002],[-77.336222560536811,44.181225619264325,87.937],[-77.3453478484779,44.177693249738752,88.9598],[-77.376697628017411,44.172394695450379,96.0912],[-77.5085727569724,44.128828804634878,85.2579],[-77.5559653814406,44.123824614473648,97.1895],[-77.572891318750678,44.114404962405445,84.6408],[-77.583635609390981,44.099392391921725,88.8532],[-77.586432068598725,44.079375631276775,82.8735],[-77.552433011915028,44.090267103980636,73.5],[-77.490174999026678,44.120880973202333,82.4846],[-77.452937936944522,44.127062619872106,73.5],[-77.4430767386856,44.130006261143421,73.5],[-77.424090252485612,44.143547010991483,86.4998],[-77.4151121466081,44.148256837025571,90.2919],[-77.4068699510484,44.149139929406971,87.4683],[-77.389355285484072,44.147962472898456,73.5],[-77.305314327187986,44.154438483695344,74.583],[-77.305314327187986,44.148256837025571,73.5],[-77.325036723705807,44.141780826228683,86.7286],[-77.333131737201924,44.140897733847282,75.9977],[-77.330040913867052,44.13736536432171,79.7629],[-77.32768600085,44.133832994796137,90.1906],[-77.3245951775151,44.130300625270536,84.8399],[-77.318855077036048,44.127062619872106,75.4945],[-77.326655726405036,44.114699326532559,78.9268],[-77.331659916566267,44.110578228752729,86.3468],[-77.340049294189527,44.107340223354271,79.3684],[-77.32768600085,44.094976930014752,73.5],[-77.306491783696515,44.094682565887609,73.5],[-77.264250531453115,44.107340223354271,93.1203],[-77.264250531453115,44.113521870024044,83.3255],[-77.290448938767838,44.1141105982783,73.5],[-77.298985498454655,44.113521870024044,73.5],[-77.298985498454655,44.120880973202333,73.5],[-77.28765247956008,44.127062619872106,73.5],[-77.262337164626757,44.1447244675,73.5],[-77.247177412079481,44.148256837025571,73.5],[-77.185360945381831,44.148256837025571,73.5],[-77.17152583140664,44.150906114169771,73.5],[-77.141647872502773,44.163858135763547,76.7986],[-77.082627865012881,44.179753798628667,78.2655],[-77.066290655957076,44.182403075772839,73.5],[-77.0916059708904,44.10557403859147,122.4863],[-77.108237544073333,44.073193984607,119.1849],[-77.133994405197356,44.045229392529478,97.3245],[-77.121189565667123,44.044640664275221,73.5],[-77.081891954695053,44.055826501106225,73.5],[-77.062611104367932,44.05877014237754,73.5],[-77.028759229747777,44.051705403326395,73.5],[-77.009036833229956,44.04964485443648,73.5],[-76.920727595090455,44.084674185565149,73.5],[-76.890996818250159,44.108223315735671,73.5],[-76.87686734014784,44.113521870024044,73.5],[-76.85022738664243,44.1158767830411,73.5],[-76.852582299659474,44.1123444135155,73.5],[-76.871274421732338,44.096154386523267,83.8226],[-76.884667989516828,44.087323462709321,76.5254],[-76.890555272059459,44.082319272548091,78.278],[-76.895853826347832,44.0740770769884,76.5411],[-76.89820873936489,44.05877014237754,75.8468],[-76.9011523806362,44.051999767453509,74.2922],[-76.927350787950928,44.03286609918996,110.3082],[-76.991374985602064,44.01284933854501,92.0743],[-77.017279028789645,43.997248039807033,90.2642],[-77.013010748946243,43.988122751865944,91.6116],[-77.036412697053208,43.97104963249231,84.4967],[-77.044507710549325,43.956625790262848,82.1731],[-77.04156406927801,43.938080850253556,98.1469],[-77.029789504192749,43.940730127397757,73.5],[-77.003591096878026,43.962513072805507,73.5],[-76.971063860829972,43.951621600101618,73.5],[-76.887317266661015,43.965751078203937,73.5],[-76.856556215375761,43.959569431534163,73.5],[-76.84978584045173,43.9469117740675,73.5],[-76.864945592999,43.942790676287672,80.76],[-76.9080699376238,43.942201948033414,73.5],[-76.9248486928703,43.937197757872156,73.5],[-76.976362415118345,43.915414812464434,85.4875],[-77.085424324220625,43.887155856259795,85.092],[-77.110298092963262,43.870671465140418,80.7206],[-77.11633255756945,43.8650785467249,79.9171],[-77.122808568366352,43.861840541326472,80.7685],[-77.130609217735341,43.860368720690815,79.324],[-77.164902638546181,43.860368720690815,74.9789],[-77.1682878260082,43.86242926958073,73.5],[-77.168140643944625,43.867139095614846,84.5567],[-77.167110369499667,43.871848921648933,78.4879],[-77.168140643944625,43.874498198793134,79.7066],[-77.2199487303198,43.876264383555906,91.9655],[-77.2362859393756,43.880679845462879,73.5],[-77.181534211729115,43.9357259372365,73.5],[-77.168140643944625,43.956625790262848,81.1886],[-77.207143890789581,43.938080850253556,84.9271],[-77.256155517957,43.921007730879921,85.3799],[-77.300457319090313,43.923362643896979,76.2815],[-77.325772634023636,43.962513072805507,86.2825],[-77.283972927970936,43.945439953431844,73.5],[-77.264250531453115,43.9477948664489,73.5],[-77.2505625995415,43.97016654011091,77.1047],[-77.271903998758546,43.965162349949679,75.0809],[-77.291626395276367,43.956625790262848,73.5],[-77.318413530845348,43.972227089000825,91.8185],[-77.360066054834476,43.968105991220995,94.9535],[-77.439102822969332,43.9495610512117,82.6699],[-77.477370159496445,43.9486779588303,83.8726],[-77.491794001725893,43.952210328355875,76.8075],[-77.563766030809589,43.99106639313726,76.7187],[-77.579514511611137,44.004312778858178,73.5],[-77.566120943826647,44.003724050603921,73.5],[-77.553316104296414,44.005784599493836,73.5],[-77.541835903338281,44.010494425527952,79.9169],[-77.5318275230158,44.01785352870624,92.848],[-77.600708728764616,44.045229392529478,86.2755],[-77.616310027502593,44.045523756656621,80.5491],[-77.660759010699479,44.037575925224075,86.1951],[-77.675182852928927,44.031688642681445,76.6629],[-77.690489787539775,44.043168843639563,85.6176],[-77.70888754548551,44.044640664275221,94.3439],[-77.725960664859144,44.03787028935119,92.4807],[-77.737146501690148,44.025506996011671,86.0812],[-77.701528442307207,44.0202084417233,73.5],[-77.684749687060716,44.014909887434925,74.313],[-77.675182852928927,44.004312778858178,73.5],[-77.718307197553713,44.008433876638037,73.5],[-77.782184213141292,44.021385898231813,88.4518],[-77.8032312482312,44.019030985214783,108.4014],[-77.90655305685442,43.985767838848886,96.4298],[-78.001632669917953,43.982235469323314,91.342],[-78.020766338181517,43.977820007416341,86.361],[-78.279512405930248,43.958686339152791,91.9785],[-78.422426189652668,43.92924992643961,148.5626],[-78.480121558570474,43.904523339760544,104.9178],[-78.501315775723967,43.901285334362115,102.7931],[-78.582118728621609,43.914531720083033,94.8834],[-78.607434043554932,43.915414812464434,92.8597],[-78.670133602633967,43.897164236582256,83.4877],[-78.810692473339344,43.876853111810163,74.5194],[-78.8548470924091,43.86331236196213,99.2903],[-78.878396222579624,43.860368720690815,91.6423],[-78.952723164680378,43.86566727497916,80.2186],[-78.977302569295873,43.860368720690815,81.8997],[-79.04103240281988,43.829754851469119,81.6074],[-79.062668166164059,43.82563375368926,90.5469],[-79.088425027288082,43.82651684607066,87.0269],[-79.0965200407842,43.825045025435,76.8663],[-79.1077058776152,43.819157742892372,94.1404],[-79.11668398349272,43.811209911459827,100.535],[-79.128458548577981,43.792076243196249,89.0893],[-79.135081741438441,43.784422775890846,90.2229],[-79.156128776528362,43.772648210805556,88.488],[-79.200872123852378,43.754103270796264,138.4235],[-79.280203256114362,43.699057179022645,131.5109],[-79.338340171222868,43.670503858690864,96.8135],[-79.355118926469373,43.659612385987,77.875],[-79.371456135525179,43.644599815503284,77.7361],[-79.386174341881755,43.644599815503284,93.6736],[-79.447254898261576,43.651958918681572,111.6674],[-79.470804028432113,43.648132185028857,90.116],[-79.4846391424073,43.633708342799423,99.3106],[-79.495089068920478,43.615457766917245,91.9512],[-79.50818827257784,43.600150832306412,88.1752],[-79.52908812560419,43.593380457382381,85.7191],[-79.5496936145034,43.590142451983922,85.5977],[-79.570887831656876,43.582194620551377,100.544],[-79.589285589602611,43.571008783720373,100.4274],[-79.601207336751443,43.558645490380854,93.3587],[-79.609155168184,43.536568180845961,94.1973],[-79.61180444532819,43.515079599565354,95.9891],[-79.616955817552991,43.494179746539004,84.1578],[-79.683040564094043,43.41529016046772,73.5],[-79.748683764444408,43.362304617584016,88.4856],[-79.77473498969556,43.329335835345262,73.5],[-79.772527258742073,43.29165722707242,73.5],[-79.740441568884719,43.261926450232124,73.5],[-79.692313034098689,43.241320961332889,73.5],[-79.593701051509584,43.216005646399566,73.5],[-79.5449837884693,43.209529635602678,73.5],[-79.444458439053832,43.213650733382536,73.5],[-79.395005265695715,43.209823999729821,73.5],[-79.353205559643015,43.1939283368647,73.5],[-79.330392339790308,43.190101603211986,73.5],[-79.309492486763958,43.198932527025931,73.5],[-79.2912419108818,43.210412727984078,73.5],[-79.230602900692674,43.22895766799337,73.5],[-79.195573569564,43.24985752101972,73.5],[-79.174379352410526,43.259571537215066,73.5],[-79.079005375219865,43.271346102300328,73.5],[-79.059282978702043,43.278116477224359,73.5],[-78.990696137080363,43.286947401038304,73.5],[-78.862059013523819,43.324331645184031,73.5],[-78.754174560930068,43.338166759159208,73.5],[-78.6894144529611,43.361421525202616,73.5],[-78.380184937409282,43.39615649220417,73.5],[-78.226968409237244,43.379966465211908,73.5],[-78.106573481240389,43.394095943314227,73.5],[-77.748773884711852,43.344642769956124,73.5],[-77.723900115969215,43.335811846142178,73.5],[-77.723605751842086,43.325214737565432,87.8257],[-77.701086896116522,43.320799275658459,73.5],[-77.696229888018848,43.319033090895658,73.5],[-77.624699405125853,43.271346102300328,73.5],[-77.583194063200281,43.257216624198009,73.5],[-77.538009169685566,43.256922260070894,73.5],[-77.412462869463909,43.29077413469102,73.5],[-77.366689247694936,43.297838873742194,73.5],[-76.983132790042376,43.284298123894132,73.5],[-76.987989798140049,43.274289743571643,80.4539],[-76.990491893220664,43.270463009918927,92.5439],[-76.983721518296633,43.263103906740639,73.5],[-76.975773686864088,43.258099716579409,73.5],[-76.966501216859442,43.256039167689494,73.5],[-76.9563456544734,43.256922260070894,73.5],[-76.947073184468749,43.259277173087924,97.5057],[-76.945601363833092,43.261337721977867,74.4846],[-76.94589572796022,43.264281363249182,85.3738],[-76.942216176371076,43.270463009918927,73.5],[-76.940597173671847,43.275467200080186,73.5],[-76.941774630180376,43.281648846749931,73.5],[-76.941333083989676,43.289007949928219,73.5],[-76.935298619383474,43.297838873742194,73.5],[-76.930147247158672,43.300782515013509,73.5],[-76.826972620599022,43.3166781778786,73.5],[-76.762506876757186,43.338461123286351,73.5],[-76.757208322468813,43.342582221066209,73.5],[-76.751026675799054,43.353768057897213,73.5],[-76.736897197696734,43.351118780753012,73.5],[-76.71275933927194,43.338755487413493,73.5],[-76.667868809884354,43.401455046492543,73.5],[-76.633133842882813,43.427064725552981,73.5],[-76.5948665063557,43.447375850325074,73.5],[-76.490367241223964,43.484171366216543,73.5],[-76.4712335729604,43.495357203047547,74.8292],[-76.419278304521669,43.533918903701789,73.5],[-76.401469274830191,43.536273816718847,73.5],[-76.359963932904634,43.524499251633557,73.5],[-76.334059889717039,43.520966882107984,73.5],[-76.266797686667459,43.531269626557588,73.5],[-76.246339379831809,43.538334365608762,73.5],[-76.207336132986853,43.573363696737431,73.5],[-76.188055282659732,43.58661008245835,83.946],[-76.215431146482985,43.601328288814926,73.5],[-76.21042695632174,43.623405598349819,73.5],[-76.168185704078354,43.668443309800949,85.5377],[-76.180843361545016,43.67433059234358,75.326],[-76.191734834248876,43.671386951072265,73.5],[-76.2011544863171,43.661967299004061,73.5],[-76.209691046003911,43.648132185028857,73.5],[-76.216608602991514,43.67109258694515,73.5],[-76.220435336644215,43.69523044536993,73.5],[-76.218963516008557,43.71789648315908,73.5],[-76.209691046003911,43.737324515549773,73.5],[-76.216461420927942,43.749687808889291,73.5],[-76.225292344741888,43.777063672712529,73.5],[-76.238685912526378,43.796491705103222,73.5],[-76.240010551098479,43.804145172408653,73.5],[-76.240157733162036,43.811798639714084,73.5],[-76.243248556496923,43.819157742892372,83.657],[-76.248252746658167,43.823867568926488,76.9276],[-76.261057586188386,43.831226672104776,79.4391],[-76.266797686667459,43.835936498138864,73.5],[-76.282398985405436,43.84653360671561,87.763],[-76.297264373825584,43.851537796876841,74.0818],[-76.303151656368215,43.858602535928014,73.5],[-76.291671455410082,43.874498198793134,73.5],[-76.278425069689163,43.883917850861337,73.5],[-76.228971896331032,43.901285334362115,73.5],[-76.238244366335678,43.880974209590022,118.3235],[-76.243248556496923,43.874498198793134,108.0037],[-76.215872692673685,43.860368720690815,108.7076],[-76.204834037906238,43.874498198793134,73.5],[-76.161268147090752,43.901285334362115,73.5],[-76.145814030416346,43.916886633100091,73.5],[-76.1416929326365,43.92924992643961,73.5],[-76.140515476127973,43.941613219779157,73.5],[-76.133450737076814,43.956625790262848,73.5],[-76.120057169292323,43.966339806458194,73.5],[-76.087235569117141,43.970460904238053,88.6914]],
[[-76.051470327670643,44.340182247915436,87.8695],[-76.043522496238083,44.341359704423951,73.5],[-76.037488031631881,44.341359704423951,74.2903],[-76.033219751788479,44.340770976169694,73.5],[-76.030864838771421,44.340182247915436,73.5],[-76.025566284483048,44.347246986966582,73.5],[-76.0176184530505,44.35136808474644,73.5],[-76.007757254791585,44.353722997763469,87.2923],[-75.996129871769881,44.353722997763469,78.9168],[-75.99819042065981,44.349601899983639,73.5],[-75.999220695104768,44.348424443475125,73.5],[-76.0003981516133,44.348424443475125,73.5],[-76.003047428757483,44.346363894585181,73.5],[-75.996129871769881,44.340182247915436,94.1181],[-75.973022287790045,44.369029932374332,106.971],[-75.960658994450526,44.376094671425477,106.2176],[-75.955213258098581,44.3604933726875,94.5808],[-75.938140138724947,44.376094671425477,84.862],[-75.927837394275343,44.38051013333245,73.5],[-75.914296644427282,44.381098861586736,73.5],[-75.914443826490853,44.37638903555262,73.5],[-75.916062829190068,44.373445394281305,73.5],[-75.918712106334254,44.370796117137132,73.5],[-75.933283130627274,44.3528399053821,93.6924],[-75.953299891272223,44.337238606644121,77.471],[-75.9753772008071,44.324875313304574,106.7378],[-75.993039048435008,44.3195767590162,73.5],[-76.021739550830347,44.300737454879794,91.3154],[-76.030864838771421,44.299265634244136,107.6934],[-76.03866548814041,44.3083909221852,73.5],[-76.037488031631881,44.319871123143344,73.5],[-76.038371124013281,44.329290775211547,81.0101],[-76.051470327670643,44.332528780610005,73.5],[-76.051470327670643,44.340182247915436,87.8695]],
[[-76.158324505819436,44.285136156141789,73.5],[-76.154497772166721,44.292200895192963,73.5],[-76.143753481526417,44.299265634244136,73.5],[-76.117849438338837,44.305447280913882,73.5],[-76.106074873253561,44.31280638409217,73.5],[-76.095330582613258,44.3075078298038,73.5],[-76.086205294672183,44.309862742820854,73.5],[-76.078551827366752,44.313395112346456,73.5],[-76.071928634506293,44.31280638409217,73.5],[-76.066777262281491,44.306624737422425,73.5],[-76.065305441645833,44.303386732023966,73.5],[-76.065158259582262,44.299265634244136,73.5],[-76.088560207689227,44.290140346303048,83.7755],[-76.126533180089211,44.26865176502244,97.7964],[-76.15067103851402,44.264236303115467,115.7898],[-76.158030141692308,44.26776867264104,82.3546],[-76.160090690582223,44.276010868200729,73.5],[-76.158324505819436,44.285136156141789,73.5]],
[[-76.640492946061116,44.175632700848809,86.0899],[-76.658890704006836,44.16326940750929,89.3134],[-76.703192505140152,44.124707706855048,75.1252],[-76.7193825321324,44.124118978600791,78.8803],[-76.736455651506034,44.120880973202333,79.6322],[-76.7784025396223,44.122941522092248,74.9501],[-76.81460932725949,44.132361174160479,73.5],[-76.815198055513761,44.151200478296886,73.5],[-76.794298202487411,44.162680679255033,73.5],[-76.716144526733956,44.182403075772839,73.5],[-76.660068160515365,44.200653651655017,73.5],[-76.636813394471972,44.198887466892216,73.5],[-76.640492946061116,44.175632700848809,86.0899]],
[[-76.313895947008518,44.288962889794504,73.5],[-76.279160980006992,44.303681096151109,81.6211],[-76.241923917924836,44.310745835202255,84.2964],[-76.195414385838021,44.31280638409217,82.2915],[-76.2058643123512,44.301914911388309,86.59],[-76.238685912526378,44.279837601853444,95.1076],[-76.275481428417848,44.269534857403812,89.4668],[-76.3531935579806,44.264236303115467,73.5],[-76.313895947008518,44.288962889794504,73.5]],
[[-76.416187481186782,44.222730961189882,73.5],[-76.379686329422455,44.233622433893771,73.5],[-76.359963932904634,44.237154803419344,73.5],[-76.271507512701561,44.238037895800744,73.5],[-76.24427883094188,44.242747721834832,73.5],[-76.22588107299616,44.243925178343375,73.5],[-76.190704559803919,44.244513906597632,73.5],[-76.1812849077357,44.240981537072059,73.5],[-76.195414385838021,44.230678792622456,87.811],[-76.222054339343444,44.219787319918566,94.4415],[-76.2528153906287,44.216254950392994,98.1774],[-76.406031918800736,44.215371858011594,75.1025],[-76.4350267853232,44.223319689444139,73.5],[-76.416187481186782,44.222730961189882,73.5]],
[[-76.408534013881351,44.135010451304652,88.8441],[-76.42442967674647,44.124118978600791,78.9192],[-76.433260600560416,44.120292244948075,78.041],[-76.441355614056533,44.122058429710847,76.491],[-76.4488618992984,44.125590799236448,76.4071],[-76.456073820413124,44.127062619872106,76.5157],[-76.471086390896829,44.126768255744963,73.5],[-76.480064496774347,44.125296435109306,73.5],[-76.489631330906136,44.120880973202333,73.5],[-76.489631330906136,44.127062619872106,73.5],[-76.483008138045662,44.130006261143421,73.5],[-76.4777095837573,44.134716087177509,73.5],[-76.473441303913887,44.140603369720139,77.5118],[-76.469173024070486,44.148256837025571,81.5569],[-76.5022889883728,44.150023021788371,74.3864],[-76.499345347101482,44.166507412907748,78.9313],[-76.4596061899387,44.206246570070505,73.5],[-76.4354683315139,44.214194401503079,73.5],[-76.401322092766634,44.210956396104621,79.9619],[-76.36791176433718,44.200948015782132,75.9334],[-76.346276000993,44.18917345069687,73.5],[-76.350985827027117,44.18917345069687,73.5],[-76.353782286234861,44.1874072659341,73.5],[-76.35628438131549,44.1847579887899,73.5],[-76.365262487193007,44.177987613865866,77.184],[-76.379686329422455,44.161797586873632,90.1033],[-76.359963932904634,44.154438483695344,73.5],[-76.408534013881351,44.135010451304652,88.8441]],
[[-76.215872692673685,44.031688642681445,73.5],[-76.2282359860132,44.009316969019437,95.386],[-76.2416295537977,43.99695367567989,85.1765],[-76.277394795244192,43.976348186780683,73.5],[-76.2803384365155,44.008728240765151,73.5],[-76.274451153972876,44.0193253493419,73.5],[-76.256200578090713,44.031688642681445,73.5],[-76.241335189670565,44.038164653478333,73.5],[-76.2239677061698,44.043757571893821,73.5],[-76.2127818693388,44.042874479512449,73.5],[-76.215872692673685,44.031688642681445,73.5]]]}}