{"type":"Feature","properties":{"featurecla":"River","scalerank":12,"rivernum":21996,"dissolve":"21996River","name":"Long Harbour","name_alt":null,"note":"ID is link back to CEC data","name_full":"Long Harbour River","min_zoom":7.0,"strokeweig":0.2,"uident":1599901,"min_label":8.0},
"geometry":{"type": "LineString","coordinates": [[-54.923410611062067,48.1483014994732,216.0],[-54.896351691791239,48.148952541139863,233.9992],[-54.901478644916239,48.115668035931527,199.0],[-54.915353970437067,48.080145574994027,213.3409],[-54.921457486062067,48.043524481244027,192.876],[-54.917307095437067,48.018500067181527,194.2423],[-54.886952277728739,47.9869245463482,160.552],[-54.887928840228739,47.956122137494027,148.9111],[-54.928293423562067,47.929266668744027,121.7588],[-54.956776496478739,47.878119207806527,155.4259],[-54.942982551166239,47.829779364056527,14.969],[-54.938099738666239,47.787380275514863,0.7055]]}}