{"type":"Feature","properties":{"GID_3":"CAN.11.37.9_1","GID_0":"CAN","country":"Canada","GID_1":"CAN.11_1","province":"Québec","NL_NAME_1":"NA","GID_2":"CAN.11.37_1","county":"LaHaute-Gaspésie","NL_NAME_2":"NA","city":"Sainte-Anne-des-Monts--Tourelle","VARNAME_3":"NA","NL_NAME_3":"NA","TYPE_3":"Ville","ENGTYPE_3":"Ville","CC_3":"NA","HASC_3":"NA","name":"Sainte-Anne-des-Monts--Tourelle.city"},
"geometry":{"type": "MultiPolygon","coordinates": [[[[-66.5473,49.043,380.6505],[-66.5096,49.0494,361.3999],[-66.5193,49.0758,116.2543],[-66.473,49.0828,302.9677],[-66.4585,49.0421,223.3465],[-66.4281,49.0622,183.2986],[-66.4356,49.067,259.1307],[-66.3451,49.0918,409.3251],[-66.3369,49.0794,343.0593],[-66.3347,49.0801,355.2803],[-66.2929,49.0116,587.4612],[-66.2017,49.036,596.8728],[-66.2424,49.1033,717.8033],[-66.2373,49.1047,635.8215],[-66.2456,49.1177,521.4026],[-66.2373,49.1197,468.9622],[-66.301,49.1631,511.9946],[-66.3048,49.1813,7.2505],[-66.3308,49.1786,19.722],[-66.3703,49.168,7.6101],[-66.3742,49.1692,0.0],[-66.3967,49.163,14.1476],[-66.4093,49.1626,0.0],[-66.417,49.1602,0.0],[-66.4231,49.1556,0.0],[-66.4327,49.1545,0.9827],[-66.4508,49.1409,2.5346],[-66.4797,49.1297,5.1723],[-66.4885,49.1324,0.0],[-66.4892,49.1303,3.5498],[-66.4958,49.1293,0.0],[-66.4988,49.1266,2.2244],[-66.5065,49.1268,0.4353],[-66.5183,49.1245,1.1208],[-66.5339,49.1247,1.9269],[-66.5447,49.1269,3.7327],[-66.5483,49.1294,0.5313],[-66.5583,49.1283,2.9348],[-66.595,49.1133,15.6215],[-66.6082,49.112,10.4249],[-66.5772,49.0915,267.648],[-66.5937,49.0868,247.5332],[-66.577,49.0765,350.9213],[-66.5949,49.0734,330.9047],[-66.5801,49.0638,354.3498],[-66.578,49.0642,352.4683],[-66.5473,49.043,380.6505]]]]}}