{"type":"Feature","properties":{"GID_3":"CAN.4.4.25_1","GID_0":"CAN","country":"Canada","GID_1":"CAN.4_1","province":"NewBrunswick","NL_NAME_1":"NA","GID_2":"CAN.4.4_1","county":"Gloucester","NL_NAME_2":"NA","city":"Sainte-Marie-Saint-Raphaël","VARNAME_3":"NA","NL_NAME_3":"NA","TYPE_3":"Village","ENGTYPE_3":"Village","CC_3":"NA","HASC_3":"NA","name":"Sainte-Marie-Saint-Raphaël.city"},
"geometry":{"type": "MultiPolygon","coordinates": [[[[-64.5496,47.8014,0.0],[-64.5576,47.8047,8.4586],[-64.549,47.813,8.3268],[-64.5711,47.8244,21.1689],[-64.5765,47.8201,23.8115],[-64.5826,47.8232,25.6799],[-64.5894,47.8173,25.3086],[-64.5798,47.8118,21.2828],[-64.5849,47.8077,19.0844],[-64.5918,47.8116,24.6563],[-64.5974,47.8072,18.8355],[-64.596,47.8059,17.8006],[-64.6065,47.7978,13.6536],[-64.6001,47.7939,11.7681],[-64.5937,47.798,9.37],[-64.5842,47.7938,8.4745],[-64.5937,47.7849,12.4186],[-64.5986,47.7871,10.0438],[-64.6049,47.7811,8.2764],[-64.601,47.7788,7.9178],[-64.6046,47.7751,6.4423],[-64.5863,47.764,1.8454],[-64.5878,47.7628,0.6596],[-64.5803,47.7669,0.0],[-64.5725,47.7739,0.0],[-64.5496,47.8014,0.0]]]]}}