{"type":"Feature","properties":{"GID_3":"CAN.5.3.21_1","GID_0":"CAN","country":"Canada","GID_1":"CAN.5_1","province":"NewfoundlandandLabrador","NL_NAME_1":"NA","GID_2":"CAN.5.3_1","county":"DivisionNo.1","NL_NAME_2":"NA","city":"ConceptionBaySouth","VARNAME_3":"NA","NL_NAME_3":"NA","TYPE_3":"Town","ENGTYPE_3":"Town","CC_3":"NA","HASC_3":"NA","name":"Conception_Bay_South.city"},
"geometry":{"type": "MultiPolygon","coordinates": [[[[-53.0956,47.4568,0.1919],[-53.0937,47.4558,-0.1601],[-53.0967,47.4545,-0.3217],[-53.0933,47.4537,0.9068],[-53.0912,47.4511,9.4088],[-53.0915,47.4451,22.4405],[-53.0938,47.4404,26.1515],[-53.0934,47.4368,28.9887],[-53.0868,47.4355,52.7737],[-53.0844,47.4336,71.2275],[-53.0547,47.449,64.5014],[-53.0551,47.4503,64.5014],[-53.0393,47.4501,116.9972],[-53.0366,47.448,114.8631],[-53.0378,47.4637,106.6533],[-53.0121,47.4764,42.1185],[-52.9762,47.4706,136.8928],[-52.9319,47.4806,138.2422],[-52.9246,47.4998,97.015],[-52.9169,47.5069,128.5355],[-52.9208,47.5106,110.2497],[-52.9188,47.5117,114.6087],[-52.9204,47.5197,123.6316],[-52.9223,47.5238,95.6932],[-52.9246,47.5251,91.6522],[-52.9221,47.53,89.8308],[-52.915,47.5325,98.5921],[-52.9101,47.5313,114.6441],[-52.9148,47.5554,4.6957],[-52.9186,47.5433,0.8365],[-52.9203,47.5417,5.6114],[-52.9388,47.5408,0.0],[-52.9429,47.537,3.1448],[-52.9524,47.5368,3.7704],[-52.9576,47.5344,0.0],[-52.9667,47.5247,0.0],[-52.9786,47.5181,0.0],[-52.9967,47.5123,0.5407],[-53.0012,47.5135,0.6609],[-53.0126,47.5086,4.9238],[-53.0197,47.5031,-0.0601],[-53.0235,47.5049,0.0],[-53.0301,47.4985,4.6476],[-53.0571,47.4838,0.0],[-53.0619,47.4781,2.5728],[-53.0737,47.477,5.6215],[-53.0812,47.4725,0.0],[-53.0844,47.4699,6.7218],[-53.0892,47.4614,0.0],[-53.0956,47.4568,0.1919]]]]}}