{"type": "Feature","bbox": [-62.4477,46.3017,-62.3322,46.4708],"geometry": {"type": "MultiPolygon","coordinates": [[[[-62.4099,46.3891,48.2929],[-62.3745,46.3036,0.0],[-62.3589,46.3039,12.2436],[-62.3508,46.3017,0.0],[-62.3425,46.3042,5.8668],[-62.3322,46.3039,5.0476],[-62.3343,46.3065,8.2696],[-62.3453,46.3086,7.5076],[-62.3494,46.3122,0.0],[-62.3578,46.3136,4.0579],[-62.3675,46.3183,5.283],[-62.3658,46.3194,2.5883],[-62.3583,46.3189,1.8359],[-62.3536,46.3217,0.0394],[-62.3525,46.3242,6.5705],[-62.3417,46.3244,0.0],[-62.3431,46.3267,3.5331],[-62.3542,46.3269,8.5129],[-62.3607,46.3301,2.1286],[-62.3667,46.3367,0.0],[-62.3603,46.3328,1.8596],[-62.3497,46.3331,2.6462],[-62.3494,46.33,0.3778],[-62.3475,46.329,1.745],[-62.3428,46.3356,2.1534],[-62.3364,46.3397,9.344],[-62.3406,46.3431,3.7565],[-62.3473,46.3423,0.0],[-62.3589,46.3464,4.8466],[-62.3622,46.3492,0.0],[-62.365,46.3489,0.0],[-62.37,46.3556,5.2842],[-62.3631,46.3511,0.0],[-62.3597,46.3525,2.6946],[-62.3514,46.3511,1.6017],[-62.3397,46.3531,0.4929],[-62.3348,46.3512,1.3384],[-62.3739,46.4393,39.5958],[-62.3898,46.4684,6.4947],[-62.4111,46.4675,0.0],[-62.4233,46.4708,0.0],[-62.4477,46.4708,0.0],[-62.4166,46.3958,45.7066],[-62.4131,46.3965,24.1498],[-62.4099,46.3891,48.2929]]]]}
,"properties": {"GID_3": "CAN.10.1.9_1","GID_0": "CAN","country": "Canada","GID_1": "CAN.10_1","province": "PrinceEdwardIsland","NL_NAME_1": "NA","GID_2": "CAN.10.1_1","county": "Kings","NL_NAME_2": "NA","city": "Lot43","VARNAME_3": "NA","NL_NAME_3": "NA","TYPE_3": "TownshipandRoyalty","ENGTYPE_3": "TownshipandRoyalty","CC_3": "NA","HASC_3": "NA","name": "Lot43.city","area_km2": 73.56694,"hist_schema_id": "Elevation0-9000","hist_area_km2": {"0": 9.23166,"25": 30.20945,"50": 27.48758,"75": 6.63825}}}