{"type": "Feature","bbox": [-97.7425,51.2155,-97.4617,51.3925],"geometry": {"type": "MultiPolygon","coordinates": [[[[-97.4621,51.304,244.5705],[-97.4617,51.3925,227.4139],[-97.6023,51.3916,225.7677],[-97.6023,51.3631,226.933],[-97.6368,51.3633,238.8759],[-97.6373,51.3655,232.344],[-97.6487,51.3655,233.1311],[-97.6487,51.3633,234.768],[-97.6731,51.3633,236.0974],[-97.6743,51.2893,239.4819],[-97.7421,51.2894,252.2418],[-97.7425,51.2157,252.1304],[-97.6022,51.2157,233.993],[-97.6022,51.2225,233.2044],[-97.5909,51.2224,235.0656],[-97.5908,51.2155,230.8177],[-97.4617,51.2156,241.7242],[-97.4621,51.304,244.5705]],
[[-97.5437,51.25,230.5644],[-97.5431,51.245,228.5506],[-97.5538,51.2451,227.4118],[-97.5541,51.2516,227.2903],[-97.544,51.2518,233.3795],[-97.5437,51.25,230.5644]],
[[-97.5319,51.2564,229.595],[-97.532,51.2598,229.0403],[-97.521,51.2598,230.4417],[-97.5207,51.252,228.7907],[-97.5319,51.252,231.7665],[-97.5319,51.2564,229.595]],
[[-97.4753,51.3698,225.2326],[-97.4853,51.3693,225.0567],[-97.4853,51.3769,224.6529],[-97.4751,51.3768,225.4667],[-97.4753,51.3698,225.2326]]]]}
,"properties": {"GID_3": "CAN.3.10.15_1","GID_0": "CAN","country": "Canada","GID_1": "CAN.3_1","province": "Manitoba","NL_NAME_1": "NA","GID_2": "CAN.3.10_1","county": "DivisionNo.19","NL_NAME_2": "NA","city": "Peguis1B","VARNAME_3": "NA","NL_NAME_3": "NA","TYPE_3": "RéserveIndienne","ENGTYPE_3": "IndianReserve","CC_3": "NA","HASC_3": "NA","name": "Peguis1_B.city","area_km2": 310.1657,"hist_schema_id": "Elevation0-9000","hist_area_km2": {"225": 226.0016,"250": 83.6467,"275": 0.5174}}}