{"type":"Feature","properties":{"GID_3":"CAN.5.3.19_1","GID_0":"CAN","country":"Canada","GID_1":"CAN.5_1","province":"NewfoundlandandLabrador","NL_NAME_1":"NA","GID_2":"CAN.5.3_1","county":"DivisionNo.1","NL_NAME_2":"NA","city":"Colliers","VARNAME_3":"NA","NL_NAME_3":"NA","TYPE_3":"Town","ENGTYPE_3":"Town","CC_3":"NA","HASC_3":"NA","name":"Colliers.city"},
"geometry":{"type": "MultiPolygon","coordinates": [[[[-53.17,47.509,0.0],[-53.1789,47.5039,7.3812],[-53.181399999999996,47.4964,0.0],[-53.1891,47.487,0.0],[-53.1858,47.4869,2.2346],[-53.1881,47.4827,4.1127],[-53.1948,47.4776,0.2521],[-53.1935,47.4755,3.7581],[-53.195,47.4725,1.8457],[-53.1995,47.4696,1.1158],[-53.2002,47.4709,0.0],[-53.2033,47.4711,0.0],[-53.2014,47.4742,0.0],[-53.2031,47.4747,0.0],[-53.2083,47.4696,0.0],[-53.206,47.4657,11.2564],[-53.2111,47.4618,6.7473],[-53.2223,47.4573,0.5275],[-53.224,47.4579,0.0],[-53.2239,47.4636,0.0],[-53.2166,47.4744,65.844],[-53.2261,47.4767,82.0602],[-53.2651,47.4657,72.8271],[-53.274,47.4651,117.6531],[-53.2803,47.4494,141.2657],[-53.2846,47.4483,159.7226],[-53.3,47.434,160.1895],[-53.3069,47.4257,131.8148],[-53.308,47.419,135.4934],[-53.3039,47.4137,125.4086],[-53.2979,47.4106,119.145],[-53.2977,47.407,118.1111],[-53.2805,47.412,150.0463],[-53.2695,47.4213,100.6783],[-53.2653,47.4318,110.2895],[-53.2612,47.4348,100.6552],[-53.2492,47.4379,82.689],[-53.24,47.4492,126.2332],[-53.2231,47.4496,49.5805],[-53.2029,47.4564,40.3972],[-53.1889,47.4652,101.9648],[-53.1713,47.4884,65.394],[-53.17,47.509,0.0]]]]}}