{"type": "Feature","bbox": [-64.3598,45.3644,-64.2973,45.4255],"geometry": {"type": "MultiPolygon","coordinates": [[[[-64.3344,45.3697,14.027],[-64.3369,45.3697,0.0],[-64.3394,45.3664,0.0],[-64.3361,45.3644,0.0],[-64.3303,45.3661,15.6557],[-64.3344,45.3697,14.027]]],
[[[-64.3519,45.3943,86.8968],[-64.3571,45.3785,0.0],[-64.3456,45.3764,1.832],[-64.3389,45.3731,0.0],[-64.3283,45.3739,13.588],[-64.3208,45.3781,0.8985],[-64.3231,45.3794,0.7254],[-64.3231,45.3847,1.3077],[-64.3286,45.3903,22.5799],[-64.3264,45.3911,2.3238],[-64.3272,45.3947,11.3319],[-64.3261,45.3967,11.4414],[-64.3208,45.3914,2.0049],[-64.3057,45.3908,8.8683],[-64.3058,45.4029,48.0708],[-64.2973,45.4046,37.7219],[-64.2993,45.4083,21.0144],[-64.311,45.4142,9.5505],[-64.3163,45.4191,13.1073],[-64.3152,45.4248,12.7914],[-64.3177,45.4255,15.0632],[-64.3214,45.4242,15.0024],[-64.3248,45.4184,18.6134],[-64.3284,45.4163,20.202],[-64.3322,45.417,22.6191],[-64.3351,45.4195,13.9848],[-64.3598,45.4155,26.3603],[-64.3519,45.3943,86.8968]]]]}
,"properties": {"GID_3": "CAN.7.5.7_1","GID_0": "CAN","country": "Canada","GID_1": "CAN.7_1","province": "NovaScotia","NL_NAME_1": "NA","GID_2": "CAN.7.5_1","county": "Cumberland","NL_NAME_2": "NA","city": "Parrsboro","VARNAME_3": "NA","NL_NAME_3": "NA","TYPE_3": "Town","ENGTYPE_3": "Town","CC_3": "NA","HASC_3": "NA","name": "Parrsboro.city","area_km2": 16.40601,"hist_schema_id": "Elevation0-9000","hist_area_km2": {"0": 2.263,"25": 8.87217,"50": 3.08197,"75": 1.0721,"100": 0.80407,"125": 0.3127}}}