{"type": "Feature","bbox": [-92.544,53.9348,-92.4409,53.9945],"geometry": {"type": "MultiPolygon","coordinates": [[[[-92.5095,53.9507,253.7527],[-92.5177,53.9554,238.2577],[-92.5274,53.9552,239.4513],[-92.5312,53.9508,249.4443],[-92.5371,53.9542,242.5615],[-92.544,53.9492,259.3391],[-92.5121,53.9353,239.9294],[-92.51,53.9376,232.0],[-92.4957,53.9348,241.4868],[-92.4845,53.9437,231.0],[-92.4917,53.9462,236.9054],[-92.4947,53.9427,250.2494],[-92.5033,53.9496,234.4229],[-92.5095,53.9507,253.7527]]],
[[[-92.5043,53.9651,243.1278],[-92.5074,53.9628,238.2839],[-92.5202,53.9636,234.045],[-92.5186,53.9616,231.0],[-92.512,53.9607,231.0],[-92.5038,53.9553,231.0],[-92.4941,53.9565,231.0],[-92.4864,53.9533,231.0],[-92.4798,53.9556,231.0],[-92.4708,53.9495,231.0],[-92.4658,53.949,231.0],[-92.4642,53.9475,231.0],[-92.4409,53.9637,254.6735],[-92.505,53.9945,247.6661],[-92.5291,53.9767,231.0],[-92.5126,53.9762,238.4627],[-92.5133,53.9728,237.2343],[-92.5168,53.9705,231.0],[-92.5043,53.9651,243.1278]]]]}
,"properties": {"GID_3": "CAN.9.20.41_1","GID_0": "CAN","country": "Canada","GID_1": "CAN.9_1","province": "Ontario","NL_NAME_1": "NA","GID_2": "CAN.9.20_1","county": "Kenora","NL_NAME_2": "NA","city": "SachigoLake2","VARNAME_3": "NA","NL_NAME_3": "NA","TYPE_3": "RéserveIndienne","ENGTYPE_3": "IndianReserve","CC_3": "NA","HASC_3": "NA","name": "Sachigo_Lake2.city","area_km2": 18.68487,"hist_schema_id": "Elevation0-9000","hist_area_km2": {"225": 4.16613,"250": 14.34413,"275": 0.17461}}}