{"type": "Feature","bbox": [-107.2173,49.0,-106.8082,49.5238],"geometry": {"type": "MultiPolygon","coordinates": [[[[-107.2173,49.2618,995.6655],[-107.2173,49.1746,887.3987],[-107.2063,49.1747,900.0927],[-107.2055,49.1561,938.4465],[-107.2089,49.0,906.5154],[-106.8086,49.0001,796.3435],[-106.8082,49.1746,903.2611],[-106.8138,49.1746,883.7816],[-106.8138,49.5238,739.3479],[-107.2161,49.5238,768.1689],[-107.2173,49.2618,995.6655]],
[[-107.0765,49.4271,814.1555],[-107.0704,49.4268,813.3958],[-107.0703,49.4232,808.2468],[-107.0597,49.4238,808.4984],[-107.0599,49.4155,791.6834],[-107.0812,49.4156,798.4372],[-107.0812,49.4242,812.9545],[-107.0774,49.4224,808.493],[-107.0779,49.4259,809.8994],[-107.0765,49.4271,814.1555]]]]}
,"properties": {"GID_3": "CAN.12.12.19_1","GID_0": "CAN","country": "Canada","GID_1": "CAN.12_1","province": "Saskatchewan","NL_NAME_1": "NA","GID_2": "CAN.12.12_1","county": "DivisionNo.3","NL_NAME_2": "NA","city": "MankotaNo.45","VARNAME_3": "NA","NL_NAME_3": "NA","TYPE_3": "RuralMunicipality","ENGTYPE_3": "RuralMunicipality","CC_3": "NA","HASC_3": "NA","name": "Mankota_No.45.city","area_km2": 1693.028,"hist_schema_id": "Elevation0-9000","hist_area_km2": {"725": 0.537,"750": 76.633,"775": 133.068,"800": 206.945,"825": 304.487,"850": 279.77,"875": 215.154,"900": 165.924,"925": 129.888,"950": 87.873,"975": 60.502,"1000": 32.247}}}