{"type":"Feature","properties":{"featurecla":"Lake","scalerank":6,"name":"null48","name_abb":null,"name_alt":null,"note":"_untitled_10","delta":null,"dam_name":null,"year":-99,"admin":null,"min_zoom":5.0,"min_label":6.5},
"geometry":{"type": "Polygon","coordinates": [[[-60.598236745639383,52.330107750650342,346.5195],[-60.61560422914016,52.328635930014684,347.7727],[-60.632971712640924,52.330107750650342,340.9109],[-60.647248372806814,52.337172489701487,356.6339],[-60.651811016777359,52.344825957006918,374.7692],[-60.6537243836037,52.353656880820864,397.8142],[-60.659611666146347,52.364253989397611,439.5852],[-60.693905086957187,52.399872048780537,354.9721],[-60.713627483475008,52.414884619264257,361.586],[-60.735999157137016,52.426364820222375,369.7409],[-60.727904143640885,52.439022477689036,430.9333],[-60.722752771416083,52.443437939596009,390.341],[-60.714804939983523,52.44697030912161,355.2936],[-60.729670328403685,52.455506868808413,357.5811],[-60.771617216519942,52.470813803419276,372.3358],[-60.801347993360238,52.475817993580506,375.9967],[-60.83402241147185,52.485532009775852,352.8671],[-60.8911290521354,52.492302384699883,386.3152],[-60.907171897064075,52.505843134547945,449.0768],[-60.905847258491988,52.527331715828552,429.6664],[-60.899812793885786,52.549409025363417,355.0788],[-60.949560331371032,52.565893416482794,347.8853],[-61.0570032377741,52.582083443475028,419.3786],[-61.105867682877957,52.597684742213005,390.1241],[-61.147961753057785,52.619467687620755,357.5882],[-61.170774972910479,52.62152823651067,348.8936],[-61.191233279746143,52.607693122535494,354.635],[-61.210514130073264,52.598862198721548,458.4647],[-61.240392088977131,52.598567834594405,291.9774],[-61.270270047880985,52.603866388882778,320.3905],[-61.290139626462377,52.61151985618821,364.8453],[-61.297645911704237,52.603866388882778,304.1282],[-61.279100971694945,52.595918557450233,291.7302],[-61.258937028986423,52.591208731416117,342.2443],[-61.237595629769373,52.589442546653316,414.3123],[-61.215665502298066,52.590914367289,497.5173],[-61.181813627677926,52.601217111738606,353.3893],[-61.163415869732191,52.604749481264179,340.3272],[-61.1500223019477,52.60062838348432,339.5],[-61.117495065899647,52.579139802203713,349.1279],[-61.077608726673319,52.565599052355651,366.596],[-60.975905920749327,52.543816106947929,339.5],[-60.962659535028394,52.536457003769641,339.5],[-60.953828611214448,52.525565531065752,339.5],[-60.947646964544674,52.507609319310717,339.5],[-60.945439233591188,52.479350363106079,347.3841],[-60.936313945650113,52.470519439292133,356.3202],[-60.830784406073406,52.460216694842529,345.0255],[-60.794283254309079,52.445792852613067,339.5],[-60.769409485566456,52.419594445298344,339.5],[-60.798551534152494,52.41930008117123,340.0],[-60.811945101936985,52.416945168154172,357.6412],[-60.8247499414672,52.412235342120056,339.5],[-60.738942798408331,52.385448206551075,339.5],[-60.699645187436246,52.364548353524725,339.5],[-60.681247429490526,52.330107750650342,339.5],[-60.660494758527733,52.317155729056537,387.043],[-60.630616799623866,52.313917723658079,426.3263],[-60.5714496100704,52.31656700080228,434.4262],[-60.582929811028535,52.328341565887541,345.3152],[-60.598236745639383,52.330107750650342,346.5195]]]}}