{"type":"Feature","properties":{"featurecla":"River","scalerank":11,"rivernum":22115,"dissolve":"22115River","name":"Baldwin","name_alt":null,"note":"ID is link back to CEC data","name_full":"Baldwin River","min_zoom":6.7,"strokeweig":0.15,"uident":1139201,"min_label":7.7},
"geometry":{"type": "LineString","coordinates": [[-106.98346920481205,75.33173248905652,166.5325],[-106.80882727772872,75.34247467655652,138.9891],[-106.6644587881454,75.37177155155652,115.3246],[-106.61945553293705,75.424099025514863,93.9684],[-106.62458248606205,75.478623765098192,120.9961],[-106.62140865793705,75.502061265098192,108.4057],[-106.58018958241622,75.52045319218152,88.9927]]}}