{"type":"Feature","properties":{"featurecla":"River","scalerank":11,"rivernum":21601,"dissolve":"21601River","name":"null682","name_alt":null,"note":"ID is link back to CEC data","name_full":null,"min_zoom":6.7,"strokeweig":0.2,"uident":1289701,"min_label":7.7},
"geometry":{"type": "LineString","coordinates": [[-68.3465876943954,65.41681549686902,334.1935],[-68.451893683978739,65.359727280723192,339.9695],[-68.5819392568954,65.319932358848192,334.1404],[-68.605458137103739,65.27936432499402,290.5189],[-68.593617316791239,65.25580475468152,262.9466],[-68.5397029287704,65.224636134889863,301.6562],[-68.530262824603739,65.19220612186902,314.748],[-68.402414517312067,65.139675197389863,400.1799],[-68.2748103506454,65.11981842655652,451.9116],[-68.172189907937067,65.090602931764863,449.7596],[-68.1214900381454,65.07233307499402,422.845],[-68.0353083975204,65.006944077598192,432.6781],[-68.037220832416239,64.961452541139863,442.0716],[-68.029855923562067,64.93292877811902,442.7607],[-67.989003058978739,64.89215729374402,467.9426],[-67.942697720437067,64.879990952598192,474.6899],[-67.848703579812067,64.86810944218152,521.313],[-67.678456183978739,64.865261134889863,563.9533],[-67.6390681631454,64.892442124473192,534.1611],[-67.592396613666239,64.902126369264863,535.3801],[-67.546131965228739,64.895290431764863,574.1813],[-67.551625129291239,64.88324616093152,533.1993],[-67.576730923562067,64.86774323124402,519.0],[-67.620961066791239,64.837998765098192,519.0],[-67.605417446999567,64.797145900514863,522.632]]}}