{"type":"Feature","properties":{"featurecla":"River","scalerank":10,"rivernum":21867,"dissolve":"21867River","name":"Jungersen1","name_alt":null,"note":"ID is link back to CEC data","name_full":"Jungersen River","min_zoom":6.0,"strokeweig":0.2,"uident":1184801,"min_label":7.0},
"geometry":{"type": "LineString","coordinates": [[-84.590891079812067,71.43915436405652,0.0],[-84.4090876943954,71.38556549686902,33.6723],[-84.299549933978724,71.36933014530652,22.8851],[-84.171009894916224,71.36627838749402,35.8779],[-84.081044074603724,71.35895416874402,39.7144],[-83.953439907937067,71.33002350468152,31.9114],[-83.616037564187067,71.302354233848192,43.3487],[-83.3905330068954,71.30145905155652,156.6459],[-83.211048957416239,71.28949616093152,184.5807],[-83.067616340228739,71.283555405723192,57.5291],[-82.880360480853739,71.26239655155652,65.2943],[-82.804188605853739,71.248073634889863,65.6917],[-82.741566535541239,71.22370026249402,63.8032],[-82.698312954812067,71.189479884889863,71.6802],[-82.646799282937067,71.165391343223192,73.939],[-82.580433723041239,71.15460846561902,71.723],[-82.5060115225204,71.153916733848192,96.0677],[-82.455555793353739,71.160915431764863,82.626],[-82.319447394916239,71.18585846561902,98.3891],[-82.238514777728739,71.20380280155652,96.9905],[-82.181711392312067,71.21405670780652,99.2142],[-82.081898566791239,71.240016994264863,114.8978],[-81.841379361062067,71.247829494264863,179.62],[-81.5953669912704,71.261745509889863,284.749],[-81.520619269916239,71.29315827030652,239.8492],[-81.507191535541239,71.29535553593152,236.8825]]}}