{"type":"Feature","properties":{"featurecla":"River","scalerank":11,"rivernum":21597,"dissolve":"21597River","name":"Aua","name_alt":null,"note":"ID is link back to CEC data","name_full":"Aua River","min_zoom":6.7,"strokeweig":0.15,"uident":1295401,"min_label":7.7},
"geometry":{"type": "LineString","coordinates": [[-84.097971157937067,67.30756256718152,333.5695],[-84.0470271475204,67.314805405723192,339.2821],[-83.981027798562067,67.330186265098192,304.2988],[-83.884592251687067,67.33954498905652,310.0856],[-83.803781704812067,67.338731186973192,329.1752],[-83.751820441791239,67.328477280723192,298.6064],[-83.7101130850204,67.31574127811902,284.4844]]}}