{"type":"Feature","properties":{"featurecla":"River","scalerank":11,"rivernum":21885,"dissolve":"21885River","name":"null122","name_alt":null,"note":"ID is link back to CEC data","name_full":null,"min_zoom":6.7,"strokeweig":0.15,"uident":1181201,"min_label":7.7},
"geometry":{"type": "LineString","coordinates": [[-88.380848762103724,71.92621491093152,194.0585],[-88.347157355853724,71.92255280155652,192.1817],[-88.292307095437067,71.91034577030652,201.8903],[-88.281727668353724,71.896592515098192,186.0181],[-88.309803840228724,71.87946198124402,211.9715],[-88.3109431631454,71.83832428593152,199.8174],[-88.3443904287704,71.81439850468152,228.8859],[-88.3282771475204,71.80060455936902,200.9102],[-88.279367642312067,71.791856186973192,203.2867],[-88.246652798562067,71.78156159061902,211.9706],[-88.236805793353724,71.74542877811902,223.5756],[-88.220773892312067,71.72821686405652,222.1945],[-88.177316861062067,71.717800197389863,231.2914],[-88.139027473041224,71.72101471561902,244.5602],[-88.100168423562067,71.73639557499402,247.1718],[-88.094593879291224,71.74323151249402,240.4595]]}}