{"type":"Feature","properties":{"featurecla":"River","scalerank":12,"rivernum":21804,"dissolve":"21804River","name":"null111","name_alt":null,"note":"ID is link back to CEC data","name_full":null,"min_zoom":7.0,"strokeweig":0.15,"uident":1206301,"min_label":8.0},
"geometry":{"type": "LineString","coordinates": [[-72.526315884499567,69.397569077598192,406.9753],[-72.466297980853739,69.400661525514863,345.0459],[-72.346262173562067,69.39740631718152,407.1613],[-72.2867732412704,69.422959702598192,340.809],[-72.246693488666239,69.442165431764863,329.6145],[-72.232980923562067,69.477077541139863,331.6204],[-72.219064907937067,69.503200588014863,333.3242],[-72.201649543353739,69.51410553593152,334.4555],[-72.1605525381454,69.52948639530652,368.9528]]}}