{"type":"Feature","properties":{"featurecla":"River","scalerank":11,"rivernum":21486,"dissolve":"21486River","name":"null103","name_alt":null,"note":"ID is link back to CEC data","name_full":null,"min_zoom":6.7,"strokeweig":0.15,"uident":1318901,"min_label":7.7},
"geometry":{"type": "LineString","coordinates": [[-69.4076228506454,63.554063218223192,577.5625],[-69.385609504291239,63.543483791139863,590.3994],[-69.337391730853739,63.525702215619027,602.0709],[-69.3094783193954,63.501735744264863,566.7032],[-69.265939907937067,63.482733465619027,590.0715],[-69.138050910541239,63.462958074994027,591.7668],[-69.0956111318954,63.423936265098192,672.0541],[-69.063832160541239,63.374050197389863,660.5414],[-68.981190558978739,63.368963934369027,615.059]]}}