{"type":"Feature","properties":{"featurecla":"River","scalerank":12,"rivernum":22150,"dissolve":"22150River","name":"null950","name_alt":null,"note":"ID is link back to CEC data","name_full":null,"min_zoom":7.0,"strokeweig":0.15,"uident":1114101,"min_label":8.0},
"geometry":{"type": "LineString","coordinates": [[-81.957264777728739,79.43402741093152,40.8983],[-81.992298957416239,79.412624416139863,40.3584],[-82.014719204812067,79.38971588749402,41.6982],[-81.9964900381454,79.37433502811902,108.7643],[-81.934152798562067,79.34320709843152,180.6885],[-81.944813605853739,79.31793854374402,39.0997],[-81.931752082416239,79.29315827030652,61.3272],[-81.929676887103739,79.26178619999402,305.0418],[-82.035145637103739,79.24030182499402,365.0225],[-82.086984829812067,79.211940822389863,265.035],[-82.042958137103739,79.16779205936902,539.9747],[-82.049061652728739,79.12641022343152,772.9109]]}}