{"type":"Feature","properties":{"featurecla":"River","scalerank":7,"rivernum":587,"dissolve":"587River","name":"null129","name_alt":null,"note":null,"min_zoom":6.0,"strokeweig":0.2,"name_en":null,"min_label":7.0},
"geometry":{"type": "LineString","coordinates": [[-71.476123046874989,66.594745184369117,33.4102],[-71.540698242187489,66.60236237186912,34.5118],[-71.579638671874989,66.611346746869117,34.2406],[-71.662060546875,66.62482330936912,33.8644],[-71.7548828125,66.63983795780662,33.5767],[-71.86572265625,66.65180084843162,31.3409],[-71.946630859374991,66.66974518436912,32.1552],[-72.017041015625,66.67572662968162,29.0],[-72.076953124999989,66.69074127811912,30.6773],[-72.148876953125,66.69672272343162,30.1552],[-72.333105468749991,66.695184637494123,23.8766],[-72.473876953125,66.70270416874412,22.4943],[-72.604248046875,66.70416901249412,17.7632],[-72.7060546875,66.70416901249412,13.5249],[-72.806445312499989,66.71320221561912,8.7555],[-72.909765624999991,66.72516510624412,5.1471],[-72.948876953125,66.73456452030662,3.8953]]}}