{"type":"Feature","properties":{"featurecla":"River","scalerank":11,"rivernum":21677,"dissolve":"21677River","name":"Hantzsch2","name_alt":null,"note":"ID is link back to CEC data","name_full":"Hantzsch River","min_zoom":6.7,"strokeweig":0.2,"uident":1244901,"min_label":7.7},
"geometry":{"type": "LineString","coordinates": [[-72.426014777728739,67.54328034061902,4.5365],[-72.404774543353739,67.554551499473192,20.0861],[-72.352528449603739,67.560085353639863,9.8261],[-72.332875129291239,67.58392975468152,36.1395],[-72.288034634499567,67.594834702598192,36.0498],[-72.234486457416239,67.58844635624402,22.3451]]}}