{"type":"Feature","properties":{"featurecla":"River","scalerank":11,"rivernum":22113,"dissolve":"22113River","name":"Mecham","name_alt":null,"note":"ID is link back to CEC data","name_full":"Mecham River","min_zoom":6.7,"strokeweig":0.15,"uident":1140701,"min_label":7.7},
"geometry":{"type": "LineString","coordinates": [[-109.7853083975204,75.26251862186902,203.225],[-109.5892634756454,75.27448151249402,158.5872],[-109.39679928293705,75.27216217655652,124.0002],[-109.30939693918705,75.27387116093152,96.7788],[-109.28123938710372,75.273301499473192,113.6374]]}}