{"type":"Feature","properties":{"featurecla":"River","scalerank":12,"rivernum":21442,"dissolve":"21442River","name":"Soper","name_alt":null,"note":"ID is link back to CEC data","name_full":"Soper River","min_zoom":7.0,"strokeweig":0.15,"uident":1330801,"min_label":8.0},
"geometry":{"type": "LineString","coordinates": [[-69.550770637103739,63.553574936973192,571.7105],[-69.630726691791239,63.526393947389863,531.6428],[-69.613148566791239,63.498480535931527,510.8386],[-69.5963435537704,63.476996160931527,464.693],[-69.593129035541239,63.472764390098192,472.2383],[-69.622425910541239,63.457831121869027,524.3239],[-69.635243293353739,63.451239324994027,522.9988],[-69.6251521475204,63.427557684369027,393.6628],[-69.622303840228739,63.425482489056527,378.5483],[-69.557972785541239,63.378933009889863,253.8158],[-69.5987849600204,63.353827215619027,456.5036],[-69.614694790749567,63.344061590619027,525.101],[-69.626820441791239,63.311224676556527,252.7671],[-69.616932746478739,63.287909246869027,219.263],[-69.606678840228739,63.263780015098192,237.8642],[-69.643422004291239,63.250189520306527,425.0688],[-69.647816535541239,63.248561916139863,388.4435]]}}