{"type":"Feature","properties":{"featurecla":"River","scalerank":3,"rivernum":88,"dissolve":"88River","name":"Niagara","name_alt":null,"note":null,"min_zoom":3.0,"strokeweig":0.25,"name_en":"Niagara","min_label":4.0},
"geometry":{"type": "LineString","coordinates": [[-79.059179687499991,43.27802155155662,73.5],[-79.054541015624991,43.26068756718162,86.9074],[-79.049414062499991,43.17084381718162,83.0167],[-79.050097656249989,43.16010162968162,172.6906],[-79.052416992187489,43.147088934369116,173.3844],[-79.056396484375,43.138690496869117,174.6978],[-79.062182617187489,43.13056061405662,175.523],[-79.066503906249991,43.120477606244116,108.8962],[-79.066015624999991,43.106073309369116,181.8458]]}}