{"type":"Feature","properties":{"GID_3":"CAN.9.20.6_1","GID_0":"CAN","country":"Canada","GID_1":"CAN.9_1","province":"Ontario","NL_NAME_1":"NA","GID_2":"CAN.9.20_1","county":"Kenora","NL_NAME_2":"NA","city":"EagleLake27","VARNAME_3":"NA","NL_NAME_3":"NA","TYPE_3":"RéserveIndienne","ENGTYPE_3":"IndianReserve","CC_3":"NA","HASC_3":"NA","name":"Eagle_Lake27.city"},
"geometry":{"type": "MultiPolygon","coordinates": [[[[-93.0693,49.7377,366.4824],[-93.0629,49.7301,368.5467],[-93.0484,49.7284,364.9916],[-93.0437,49.7243,375.1363],[-93.0345,49.7205,372.7643],[-93.029,49.7091,368.5587],[-93.0309,49.705,361.0],[-93.0358,49.7043,361.0],[-93.0401,49.707,365.2937],[-93.0524,49.7066,367.1112],[-93.0555,49.7041,365.1451],[-93.0541,49.7023,376.3949],[-93.0463,49.701,361.0],[-93.0442,49.6992,369.4844],[-93.0493,49.6946,376.5917],[-93.0457,49.6916,370.1211],[-93.0345,49.6913,371.9446],[-93.0236,49.6934,365.8713],[-93.0244,49.6894,373.39],[-93.0151,49.6904,366.9841],[-93.0155,49.7033,383.9484],[-93.0132,49.7147,397.4439],[-93.0116,49.7394,384.8171],[-93.0127,49.7642,361.9823],[-93.0092,49.7764,383.3455],[-93.0704,49.7725,366.6708],[-93.092,49.7688,372.0651],[-93.0924,49.7458,373.7776],[-93.0755,49.7418,364.308],[-93.0693,49.7377,366.4824]]]]}}