{"type": "Feature","bbox": [-118.8503,49.0004,-118.7504,49.0184],"geometry": {"type": "MultiPolygon","coordinates": [[[[-118.8503,49.0004,787.1454],[-118.7504,49.0005,773.6666],[-118.7506,49.0077,703.3671],[-118.756,49.0078,615.1718],[-118.7566,49.0152,759.6514],[-118.7727,49.0153,677.2145],[-118.7728,49.0179,806.634],[-118.8442,49.0184,778.4058],[-118.8443,49.0116,577.0123],[-118.8406,49.009,577.4956],[-118.8338,49.0099,580.4852],[-118.8338,49.0031,657.3834],[-118.8502,49.0035,645.4985],[-118.8503,49.0004,787.1454]]]]}
,"properties": {"GID_3": "CAN.2.16.9_1","GID_0": "CAN","country": "Canada","GID_1": "CAN.2_1","province": "BritishColumbia","NL_NAME_1": "NA","GID_2": "CAN.2.16_1","county": "KootenayBoundary","NL_NAME_2": "NA","city": "Midway","VARNAME_3": "NA","NL_NAME_3": "NA","TYPE_3": "Village","ENGTYPE_3": "Village","CC_3": "NA","HASC_3": "NA","name": "Midway.city","area_km2": 12.099444,"hist_schema_id": "Elevation0-9000","hist_area_km2": {"575": 4.825751,"600": 1.40459,"625": 1.30731,"650": 0.876199,"675": 0.820573,"700": 0.625861,"725": 0.472862,"750": 0.486755,"775": 0.333778,"800": 0.264239,"825": 0.27816,"850": 0.12518,"875": 0.208639,"900": 0.041729,"925": 0.027819}}}