{"type":"Feature","properties":{"GID_3":"CAN.11.92.1_1","GID_0":"CAN","country":"Canada","GID_1":"CAN.11_1","province":"Québec","NL_NAME_1":"NA","GID_2":"CAN.11.92_1","county":"Rouville","NL_NAME_2":"NA","city":"Ange-Gardien","VARNAME_3":"NA","NL_NAME_3":"NA","TYPE_3":"Municipalité","ENGTYPE_3":"Municipality","CC_3":"NA","HASC_3":"NA","name":"Ange-Gardien.city"},
"geometry":{"type": "MultiPolygon","coordinates": [[[[-72.8767,45.2831,75.3004],[-72.8411,45.382,101.9698],[-72.9253,45.3952,61.6628],[-72.9271,45.3891,66.0557],[-72.9425,45.3921,45.993899999999996],[-72.95,45.3671,59.9127],[-72.9646,45.3755,45.4608],[-72.9697,45.3495,54.6531],[-72.9732,45.352,50.1801],[-72.9781,45.3334,51.9436],[-72.9303,45.2995,73.2555],[-72.9232,45.2999,83.7334],[-72.9052,45.2884,66.9047],[-72.9125,45.2879,66.1997],[-72.9126,45.2868,66.5694],[-72.8824,45.2646,82.495],[-72.8767,45.2831,75.3004]]]]}}