{"type":"Feature","properties":{"featurecla":"River","scalerank":11,"rivernum":23284,"dissolve":"23284River","name":"Ottawa3","name_alt":null,"note":null,"name_full":"Ottawa River","min_zoom":6.7,"strokeweig":0.2,"uident":0,"min_label":7.7},
"geometry":{"type": "LineString","coordinates": [[-76.902414517312067,45.892523504681527,134.8858],[-76.908924933978739,45.890204168744027,125.4539],[-76.923329230853739,45.883734442181527,120.5018],[-76.929554816791239,45.868434963014863,120.9552],[-76.927113410541239,45.854925848431527,103.5],[-76.9217830068954,45.839300848431527,103.5],[-76.9173884756454,45.824042059369027,103.5],[-76.918039517312067,45.811468817181527,103.5],[-76.935861782937067,45.794378973431527,103.5],[-76.963734504291239,45.788397528119027,103.5],[-76.993478970437067,45.790228582806527,103.5],[-77.016590949603739,45.796210028119027,103.5],[-77.056385871478739,45.810573634889863,109.125],[-77.0978083975204,45.824408270306527,147.4888],[-77.138539191791239,45.839789129681527,111.4521],[-77.176014777728739,45.858587957806527,111.5819],[-77.200754361062067,45.873806056764863,110.0],[-77.2264705068954,45.890814520306527,110.0],[-77.250965949603739,45.909450588014863,115.1823],[-77.2718806631454,45.929266668744027,111.6185],[-77.272938605853739,45.947577215619027,111.6723]]}}