{"type": "Feature","bbox": [-125.4751,52.5709,-125.4358,52.5999],"geometry": {"type": "MultiPolygon","coordinates": [[[[-125.4751,52.5863,1107.6997],[-125.4652,52.5858,1099.3344],[-125.465,52.5782,1111.7394],[-125.4527,52.5784,1094.1835],[-125.4527,52.5709,1101.9473],[-125.4358,52.5712,1082.704],[-125.4464,52.583,1083.8207],[-125.4715,52.5953,1093.0443],[-125.4728,52.598,1095.0465],[-125.4703,52.5998,1094.5469],[-125.4749,52.5999,1096.7917],[-125.4751,52.5863,1107.6997]]]]}
,"properties": {"GID_3": "CAN.2.4.62_1","GID_0": "CAN","country": "Canada","GID_1": "CAN.2_1","province": "BritishColumbia","NL_NAME_1": "NA","GID_2": "CAN.2.4_1","county": "Cariboo","NL_NAME_2": "NA","city": "LouisSquinasRanch14","VARNAME_3": "NA","NL_NAME_3": "NA","TYPE_3": "RéserveIndienne","ENGTYPE_3": "IndianReserve","CC_3": "NA","HASC_3": "NA","name": "Louis_Squinas_Ranch14.city","area_km2": 2.872866,"hist_schema_id": "Elevation0-9000","hist_area_km2": {"1075": 0.772998,"1100": 2.099869}}}