{"type": "Feature","bbox": [-108.4056,49.2039,-108.3815,49.2111],"geometry": {"type": "MultiPolygon","coordinates": [[[[-108.3841,49.2111,943.1227],[-108.4055,49.211,933.7906],[-108.4056,49.2089,929.9807],[-108.3942,49.2068,930.2178],[-108.3941,49.204,927.0989],[-108.3828,49.2039,935.2863],[-108.3815,49.2048,932.999],[-108.3818,49.2111,943.2928],[-108.3841,49.2111,943.1227]]]]}
,"properties": {"GID_3": "CAN.12.13.8_1","GID_0": "CAN","country": "Canada","GID_1": "CAN.12_1","province": "Saskatchewan","NL_NAME_1": "NA","GID_2": "CAN.12.13_1","county": "DivisionNo.4","NL_NAME_2": "NA","city": "Climax","VARNAME_3": "NA","NL_NAME_3": "NA","TYPE_3": "Village","ENGTYPE_3": "Village","CC_3": "NA","HASC_3": "NA","name": "Climax.city","area_km2": 1.0388779,"hist_schema_id": "Elevation0-9000","hist_area_km2": {"925": 0.7895533,"950": 0.2493246}}}