{"type": "Feature","bbox": [-136.6468,62.7836,-136.5138,62.8582],"geometry": {"type": "MultiPolygon","coordinates": [[[[-136.5319,62.7934,485.641],[-136.5138,62.7959,489.2271],[-136.5574,62.8582,620.3055],[-136.6468,62.8454,538.1813],[-136.6042,62.7836,570.5112],[-136.5319,62.7934,485.641]]]]}
,"properties": {"GID_3": "CAN.13.1.21_1","GID_0": "CAN","country": "Canada","GID_1": "CAN.13_1","province": "Yukon","NL_NAME_1": "NA","GID_2": "CAN.13.1_1","county": "Yukon","NL_NAME_2": "NA","city": "PellyCrossing","VARNAME_3": "NA","NL_NAME_3": "NA","TYPE_3": "Settlement","ENGTYPE_3": "Settlement","CC_3": "NA","HASC_3": "NA","name": "Pelly_Crossing.city","area_km2": 34.57422,"hist_schema_id": "Elevation0-9000","hist_area_km2": {"450": 2.38222,"475": 16.34889,"500": 5.36685,"525": 4.02991,"550": 3.9786,"575": 2.33233,"600": 0.11608,"625": 0.01935}}}