{"type":"Feature","properties":{"GID_3":"CAN.12.8.29_1","GID_0":"CAN","country":"Canada","GID_1":"CAN.12_1","province":"Saskatchewan","NL_NAME_1":"NA","GID_2":"CAN.12.8_1","county":"DivisionNo.17","NL_NAME_2":"NA","city":"MeadowLake105A","VARNAME_3":"NA","NL_NAME_3":"NA","TYPE_3":"RéserveIndienne","ENGTYPE_3":"IndianReserve","CC_3":"NA","HASC_3":"NA","name":"Meadow_Lake105_A.city"},
"geometry":{"type": "MultiPolygon","coordinates": [[[[-108.5096,54.0501,510.2093],[-108.5344,54.0502,507.524],[-108.5343,54.0352,542.6913],[-108.5096,54.0352,526.2369],[-108.5096,54.0501,510.2093]]]]}}