{"type": "Feature","bbox": [-127.3527,55.0197,-127.3311,55.0315],"geometry": {"type": "MultiPolygon","coordinates": [[[[-127.3318,55.0315,403.7799],[-127.349,55.0306,435.0618],[-127.3527,55.0255,433.4879],[-127.3451,55.0197,419.4628],[-127.3425,55.0223,410.8339],[-127.3311,55.0227,418.449],[-127.3318,55.0315,403.7799]]]]}
,"properties": {"GID_3": "CAN.2.15.2_1","GID_0": "CAN","country": "Canada","GID_1": "CAN.2_1","province": "BritishColumbia","NL_NAME_1": "NA","GID_2": "CAN.2.15_1","county": "Kitimat-Stikine","NL_NAME_2": "NA","city": "Babine17","VARNAME_3": "NA","NL_NAME_3": "NA","TYPE_3": "RéserveIndienne","ENGTYPE_3": "IndianReserve","CC_3": "NA","HASC_3": "NA","name": "Babine17.city","area_km2": 1.2153103,"hist_schema_id": "Elevation0-9000","hist_area_km2": {"400": 0.5104377,"425": 0.5954973,"450": 0.1093752}}}