{"type":"Feature","properties":{"GID_2":"CAN.1.18_1","GID_0":"CAN","country":"Canada","GID_1":"CAN.1_1","province":"Alberta","NL_NAME_1":"NA","county":"DivisionNo.8","VARNAME_2":"NA","NL_NAME_2":"NA","TYPE_2":"CensusDivision","ENGTYPE_2":"CensusDivision","CC_2":"08","HASC_2":"CA.AB.EI","name":"Division_No.8.county"},
"geometry":{"type": "MultiPolygon","coordinates": [[[[-112.996,51.9694,887.0493],[-112.9182,51.9694,817.9209],[-112.9187,51.9838,821.8687],[-112.9119,51.9922,718.5421],[-112.9119,51.9966,721.6521],[-112.9296,52.0136,721.8188],[-112.9512,52.0274,728.7502],[-112.9689,52.0444,719.7922],[-112.9803,52.0637,727.3613],[-113.002,52.081,746.0068],[-113.0132,52.0844,827.2466],[-113.0287,52.101,798.2565],[-113.0298,52.1096,792.0588],[-113.0357,52.1202,845.7781],[-113.0302,52.1313,763.9847],[-113.0288,52.1515,743.616],[-113.0347,52.1859,830.6064],[-113.0474,52.1948,828.9971],[-113.0642,52.2017,830.2363],[-113.0725,52.2188,814.1595],[-113.0736,52.2274,765.2406],[-113.0687,52.2343,747.4225],[-113.068,52.2509,800.0778],[-113.0759,52.2665,790.3303],[-113.0699,52.2799,757.6935],[-113.0717,52.2819,758.527],[-113.0824,52.2844,821.931],[-113.0854,52.2883,818.6688],[-113.0766,52.2956,755.0171],[-113.0758,52.299,753.9783],[-113.1019,52.3157,805.2269],[-113.1066,52.3172,804.3062],[-113.0758,52.3176,769.1108],[-113.0756,52.376,819.1071],[-113.0272,52.376,804.3401],[-113.0268,52.4169,782.9506],[-113.0279,52.4205,791.175],[-113.0235,52.4249,789.6268],[-113.0146,52.4274,783.5821],[-113.0117,52.4306,784.9816],[-113.0159,52.437,785.4801],[-113.0141,52.4401,785.8214],[-113.0084,52.4417,784.0776],[-113.0157,52.4462,784.6707],[-113.0369,52.4477,780.9141],[-113.0364,52.4585,780.0],[-113.0307,52.4571,780.0],[-113.0275,52.4546,780.0],[-113.019,52.4555,780.0],[-113.0115,52.4516,780.0],[-113.0058,52.4569,780.0],[-113.0,52.451,780.0],[-112.9936,52.4506,780.0],[-112.9829,52.4582,780.0],[-112.9732,52.4611,781.2551],[-112.9705,52.4698,790.3226],[-112.9641,52.4739,787.2891],[-112.9473,52.477,783.4094],[-112.9366,52.4825,783.639],[-112.939,52.4929,780.35],[-112.9464,52.4899,783.5624],[-112.9504,52.4933,784.0752],[-112.9561,52.4934,786.5648],[-112.9588,52.4962,784.9977],[-112.9588,52.5006,783.2656],[-112.9716,52.5076,787.9413],[-112.967,52.5134,783.2321],[-112.9679,52.5191,780.3398],[-112.9724,52.5211,785.2948],[-112.983,52.5195,784.9857],[-112.9862,52.5205,784.6059],[-112.9979,52.5299,782.5037],[-113.0,52.5338,785.4539],[-113.0,52.5503,780.0],[-113.0278,52.5503,789.6491],[-113.0274,52.5648,793.3181],[-113.0758,52.5648,825.8154],[-113.0758,52.5793,836.4343],[-113.1479,52.5792,898.4983],[-113.1479,52.623,837.616],[-113.0518,52.6234,789.3036],[-113.0518,52.7199,768.5],[-113.0645,52.7253,768.5],[-113.0676,52.7283,768.5],[-113.0679,52.7322,772.9182],[-113.0714,52.7335,771.7678],[-113.0767,52.732,768.5],[-113.0977,52.7558,768.5],[-113.2303,52.7558,776.3317],[-113.2334,52.7581,771.7057],[-113.2409,52.7585,771.5201],[-113.2475,52.7625,772.9291],[-113.2566,52.7619,772.0276],[-113.2605,52.7599,772.1055],[-113.2756,52.7637,772.4493],[-113.2884,52.7696,772.7925],[-113.2971,52.7767,775.8676],[-113.3087,52.7793,778.7247],[-113.3137,52.7826,782.2366],[-113.3018,52.7902,777.9034],[-113.3028,52.7924,773.7014],[-113.3076,52.793,779.7034],[-113.3091,52.7947,777.9168],[-113.3025,52.7993,776.5364],[-113.3009,52.8044,774.83],[-113.3058,52.806399999999996,772.4907],[-113.2995,52.8111,772.3904],[-113.3016,52.8135,772.8794],[-113.2975,52.8152,770.0841],[-113.298,52.8178,768.7607],[-113.3067,52.8183,773.8995],[-113.3098,52.8215,772.3641],[-113.3076,52.828,772.2548],[-113.3041,52.8319,766.5972],[-113.2935,52.8323,768.1439],[-113.2935,52.8433,771.5786],[-113.3663,52.8432,786.3013],[-113.3664,52.8214,788.4415],[-113.4588,52.8212,805.6182],[-113.4587,52.8248,807.9233],[-113.4872,52.8246,831.2079],[-113.4871,52.8287,838.3875],[-113.4994,52.8287,850.2485],[-113.4993,52.8432,833.615],[-114.0501,52.8438,914.5813],[-114.0502,52.8579,864.0405],[-114.0605,52.8581,883.5649],[-114.0609,52.8651,862.2404],[-114.0985,52.8652,907.4166],[-114.0985,52.8725,871.4828],[-114.1451,52.8725,942.9039],[-114.145,52.8871,899.0946],[-114.5335,52.8873,981.863],[-114.5334,52.8434,990.751],[-114.5816,52.8435,1004.4238],[-114.5815,52.713,978.4838],[-114.6542,52.7133,961.7389],[-114.6541,52.6689,962.749],[-114.649,52.669,962.6944],[-114.6484,52.5953,1018.8237],[-114.5761,52.5957,954.1936],[-114.5762,52.5813,952.0603],[-114.5035,52.5815,952.6221],[-114.5036,52.5667,950.2133],[-114.4655,52.5667,947.0992],[-114.465,52.5089,941.7137],[-114.5276,52.5091,976.1439],[-114.5278,52.4502,1020.6594],[-114.5039,52.4503,1034.5331],[-114.5038,52.4462,1012.5934],[-114.508,52.4438,1006.4672],[-114.5085,52.4419,1029.1658],[-114.5038,52.4355,1015.845],[-114.4932,52.4355,1001.629],[-114.4937,52.3999,1010.9023],[-114.4815,52.3997,1001.4284],[-114.4815,52.3775,949.9604],[-114.4574,52.3776,983.1245],[-114.4574,52.3193,962.9599],[-114.4415,52.3193,957.3418],[-114.4415,52.2756,980.4607],[-114.4301,52.2756,973.8229],[-114.4284,52.2321,949.287],[-114.4287,52.1302,983.0657],[-114.5709,52.1304,985.0869],[-114.5707,52.0722,1006.0416],[-114.5,52.0724,982.0345],[-114.5014,51.9697,1031.5961],[-114.4975,51.9693,1052.9021],[-114.497,51.9346,1010.4556],[-114.4927,51.9369,1009.0557],[-114.4766,51.9403,1004.3693],[-114.4502,51.9406,999.8475],[-114.4502,51.9115,1062.0841],[-114.1903,51.9115,1020.6154],[-114.1904,51.8968,1017.7933],[-114.167,51.8968,1048.9827],[-114.1669,51.8824,1041.6152],[-113.8312,51.8818,971.0441],[-113.8311,51.8965,943.1775],[-113.6422,51.8963,952.3568],[-113.6423,51.9402,1018.0235],[-113.6407,51.9548,967.6178],[-113.4783,51.9549,919.0514],[-113.4782,51.9692,927.1691],[-113.4816,51.9691,927.0397],[-113.4815,51.9834,928.7046],[-113.2912,51.9834,922.8165],[-113.291,51.9692,904.6223],[-113.1728,51.9692,915.0201],[-113.1717,51.968,907.3121],[-112.996,51.9694,887.0493]]]]}}