{"type":"Feature","properties":{"GID_3":"CAN.4.5.7_1","GID_0":"CAN","country":"Canada","GID_1":"CAN.4_1","province":"NewBrunswick","NL_NAME_1":"NA","GID_2":"CAN.4.5_1","county":"Kent","NL_NAME_2":"NA","city":"Huskisson","VARNAME_3":"NA","NL_NAME_3":"NA","TYPE_3":"Parish","ENGTYPE_3":"Parish","CC_3":"NA","HASC_3":"NA","name":"Huskisson.city"},
"geometry":{"type": "MultiPolygon","coordinates": [[[[-65.5136,46.6729,109.2491],[-65.5855,46.6312,88.2549],[-65.714,46.4923,104.7644],[-65.2606,46.4918,35.8756],[-65.4992,46.6637,107.0642],[-65.5136,46.6729,109.2491]]]]}}