{"type":"Feature","properties":{"featurecla":"River","scalerank":10,"rivernum":20412,"dissolve":"20412River","name":"Carrot2","name_alt":null,"note":"ID is link back to CEC data","name_full":"Carrot River","min_zoom":6.0,"strokeweig":0.2,"uident":1698801,"min_label":7.0},
"geometry":{"type": "LineString","coordinates": [[-105.4645076162704,52.790106512494027,582.0494],[-105.3724666006454,52.837022202598192,549.2966],[-105.33771725168705,52.845811265098192,500.3075],[-105.28254147043707,52.853054103639863,494.627],[-105.22594153554122,52.865668035931527,474.3669],[-105.21027584543707,52.870713608848192,459.694],[-105.12800045481207,52.904852606244027,454.8258],[-105.04222571522872,52.947821356244027,463.4132],[-104.96271725168707,53.004014390098192,446.8688],[-104.92992102772872,53.031439520306527,442.4704],[-104.89110266835372,53.047308660931527,437.6988],[-104.84288489491622,53.060614324994027,442.6405],[-104.77570553293707,53.067002671348192,436.8721],[-104.53376217356207,53.041327215619027,428.9777],[-104.4564509756454,53.041530666139863,422.9092],[-104.3812556631454,53.050156968223192,429.9401],[-104.26842200429122,53.069118556764863,415.2211],[-104.21446692616622,53.082586981244027,403.3431],[-104.18285071522872,53.094020900514863,396.553],[-104.1388240225204,53.113470770306527,383.063],[-104.0965876943954,53.139715887494027,366.777],[-104.07494055897872,53.145046291139863,361.5094],[-104.03058834543707,53.140326239056527,359.8945],[-103.98151607981207,53.127305405723192,356.7977],[-103.95270748606207,53.126491603639863,358.5751],[-103.9305720693954,53.129990952598192,357.4696],[-103.84943600168707,53.150824285931527,359.0426],[-103.7272029287704,53.168239650514863,357.1595],[-103.5831599600204,53.190741278119027,353.4393],[-103.51227779856207,53.206895249473192,348.8423],[-103.46495520741622,53.226345119264863,332.5863],[-103.44298255116622,53.243679103639863,342.8942],[-103.42585201731207,53.269151108848192,339.3206],[-103.3985896475204,53.288641668744027,339.8743],[-103.3575740225204,53.310980535931527,341.0201],[-103.31017005116622,53.356146551556527,329.6821],[-103.29112708241622,53.387030340619027,329.5285],[-103.27513587147872,53.405462957806527,328.0127],[-103.23827063710372,53.434271551556527,324.3533],[-103.21174068918707,53.445013739056527,320.1977],[-103.15196692616622,53.461778061973192,321.3865],[-103.10765540272872,53.470526434369027,304.3946],[-103.05016028554122,53.485296942181527,289.3366],[-102.91588294179122,53.506048895306527,269.7742],[-102.80988522043707,53.538153387494027,269.3582],[-102.7557673818954,53.542263088014863,269.12],[-102.71837317616622,53.529486395306527,269.2986],[-102.68248450429122,53.509833074994027,268.2235],[-102.66462154856207,53.507635809369027,268.2899],[-102.63947506418707,53.511297918744027,268.5283],[-102.59984290272872,53.529730535931527,268.61],[-102.56501217356207,53.532171942181527,268.5315]]}}