{"type":"Feature","properties":{"GID_3":"CAN.11.94.17_1","GID_0":"CAN","country":"Canada","GID_1":"CAN.11_1","province":"Québec","NL_NAME_1":"NA","GID_2":"CAN.11.94_1","county":"Sept-Rivières--Caniapiscau","NL_NAME_2":"NA","city":"Sept-Îles","VARNAME_3":"NA","NL_NAME_3":"NA","TYPE_3":"Ville","ENGTYPE_3":"Ville","CC_3":"NA","HASC_3":"NA","name":"Sept-Îles.city"},
"geometry":{"type": "MultiPolygon","coordinates": [[[[-66.3472,50.13,2.8795],[-66.3511,50.1358,6.4672],[-66.3572,50.1403,7.3728],[-66.3561,50.142,10.6262],[-66.3629,50.1419,53.0553],[-66.3667,50.1394,4.9574],[-66.3656,50.1353,0.0],[-66.3594,50.1311,4.7662],[-66.3462,50.1261,3.8189],[-66.3472,50.13,2.8795]]],
[[[-66.2894,50.1575,6.26],[-66.2928,50.1572,5.7663],[-66.2906,50.1558,7.6925],[-66.2928,50.1542,17.5677],[-66.2911,50.1492,30.0787],[-66.2989,50.1431,10.4759],[-66.3061,50.1403,0.0],[-66.3056,50.1328,21.9996],[-66.3094,50.1267,1.6537],[-66.305,50.1239,25.0075],[-66.2986,50.1261,10.0092],[-66.2978,50.1292,47.4099],[-66.2944,50.1289,18.6982],[-66.2725,50.1373,0.982],[-66.2725,50.1396,0.0],[-66.2772,50.1425,0.0],[-66.2793,50.1479,1.0047],[-66.2833,50.1511,15.9081],[-66.2809,50.1554,0.0],[-66.2894,50.1575,6.26]]],
[[[-66.3658,50.1763,20.9459],[-66.3697,50.1769,17.031],[-66.3728,50.1747,7.2853],[-66.3728,50.1725,8.8557],[-66.3749,50.1721,0.0],[-66.3754,50.17,2.2342],[-66.3728,50.1686,24.7525],[-66.3739,50.1617,16.4546],[-66.3767,50.1589,0.0],[-66.3778,50.1536,0.0],[-66.3711,50.1489,30.9376],[-66.3572,50.1464,1.0694],[-66.3522,50.1503,1.8903],[-66.3533,50.1536,13.6185],[-66.3517,50.155,0.0],[-66.3522,50.1575,0.0],[-66.36,50.1692,1.8684],[-66.36,50.1744,0.3142],[-66.3626,50.1767,7.4559],[-66.3658,50.1763,20.9459]]],
[[[-66.3006,50.1726,0.0],[-66.3072,50.1714,11.8671],[-66.3105,50.1686,0.0],[-66.3117,50.1647,0.0],[-66.3102,50.1619,0.0],[-66.2989,50.1589,12.9073],[-66.2906,50.1619,0.0],[-66.2894,50.1636,0.0],[-66.2906,50.1658,0.0],[-66.294,50.1675,10.3637],[-66.2951,50.1703,0.0],[-66.3006,50.1726,0.0]]],
[[[-66.375,50.0903,2.0161],[-66.3866,50.0955,0.0],[-66.3883,50.0928,5.5788],[-66.3956,50.0917,13.6245],[-66.4,50.0883,1.7732],[-66.3911,50.0867,0.0],[-66.3783,50.0875,19.3556],[-66.375,50.0903,2.0161]]],
[[[-66.4088,50.111,2.618],[-66.4178,50.1134,3.3199],[-66.4233,50.1106,0.0],[-66.4217,50.1075,1.1922],[-66.4122,50.1042,12.7614],[-66.4126,50.102,0.9997],[-66.4078,50.1023,20.9767],[-66.3989,50.0972,18.6547],[-66.3921,50.0975,20.5344],[-66.3944,50.0939,6.7648],[-66.3903,50.0941,18.3055],[-66.3883,50.0981,11.1691],[-66.3817,50.1017,0.0],[-66.3875,50.1053,5.7086],[-66.4049,50.1085,8.3079],[-66.4088,50.111,2.618]]],
[[[-66.4287,50.1215,6.0416],[-66.4292,50.1201,0.8043],[-66.4259,50.1205,6.0416],[-66.425,50.1245,1.4794],[-66.4278,50.1244,1.4794],[-66.4287,50.1215,6.0416]]],
[[[-66.6032,50.1462,0.0],[-66.6007,50.1401,0.0],[-66.5993,50.14,0.0],[-66.5711,50.1489,9.8596],[-66.5344,50.1511,8.256],[-66.5226,50.1485,11.4506],[-66.525,50.1433,7.1855],[-66.5228,50.1417,0.3584],[-66.5056,50.1461,1.7018],[-66.4978,50.14,0.0],[-66.4883,50.1378,9.7236],[-66.4811,50.1328,2.1322],[-66.4733,50.1306,2.4046],[-66.4744,50.1292,3.0832],[-66.4724,50.1269,0.0],[-66.4573,50.1255,12.8813],[-66.4517,50.1272,5.0576],[-66.4572,50.1327,1.2429],[-66.4539,50.1381,7.2897],[-66.4544,50.14,8.9958],[-66.4483,50.1461,20.4694],[-66.4378,50.1522,41.7236],[-66.4256,50.1497,0.0],[-66.4239,50.1506,4.9373],[-66.4261,50.1575,8.7049],[-66.43,50.1594,2.7042],[-66.4239,50.1625,0.0],[-66.4294,50.165,11.5525],[-66.4344,50.165,7.8979],[-66.4528,50.1597,14.4179],[-66.4622,50.1617,1.5652],[-66.4678,50.1586,10.719],[-66.4715,50.1605,0.0],[-66.48,50.1589,1.2742],[-66.4811,50.1597,10.8003],[-66.4767,50.1625,3.2911],[-66.4811,50.1647,2.3395],[-66.5017,50.1597,7.9514],[-66.5144,50.1603,8.5378],[-66.5194,50.1633,8.7758],[-66.5255,50.1705,0.0],[-66.5339,50.1844,0.0],[-66.535,50.2003,0.0],[-66.5401,50.2113,0.419],[-66.5339,50.2158,0.0],[-66.5328,50.2244,3.6636],[-66.5294,50.2294,2.7771],[-66.4989,50.2469,0.0762],[-66.4683,50.2581,5.1301],[-66.465,50.2642,2.2047],[-66.4556,50.2694,3.6],[-66.4511,50.2658,2.2984],[-66.4256,50.2664,2.7187],[-66.4189,50.2636,0.0],[-66.415,50.2653,3.4347],[-66.4083,50.2628,1.699],[-66.4089,50.2564,0.3454],[-66.4,50.2464,4.1232],[-66.3972,50.2378,2.7327],[-66.3978,50.2331,2.6105],[-66.3935,50.2296,5.1304],[-66.3948,50.2286,6.9357],[-66.3893,50.2299,6.1461],[-66.3875,50.2289,10.529],[-66.4064,50.2168,3.4351],[-66.4006,50.2136,0.0],[-66.3982,50.2152,5.1902],[-66.3959,50.214,6.6648],[-66.3983,50.2122,0.6635],[-66.3906,50.2075,0.8393],[-66.3883,50.2039,0.5431],[-66.3828,50.1989,1.5884],[-66.3789,50.1975,0.9091],[-66.3783,50.1953,0.0],[-66.3743,50.1933,1.5206],[-66.37,50.188,0.0],[-66.3633,50.1858,0.749],[-66.3139,50.2039,4.0395],[-66.2872,50.205,0.0],[-66.275,50.2089,9.347],[-66.2517,50.2128,2.1293],[-66.2207,50.2121,11.0885],[-66.2173,50.2432,60.1477],[-66.4174,50.3419,238.1299],[-66.6607,50.214,56.2405],[-66.6567,50.2119,29.0871],[-66.6529,50.2058,27.5284],[-66.6464,50.2056,18.25],[-66.6349,50.1965,6.7073],[-66.6301,50.1866,55.6702],[-66.631,50.1737,3.5067],[-66.6264,50.1664,0.0],[-66.6157,50.1604,0.0],[-66.6059,50.1577,0.0],[-66.6046,50.1551,0.0],[-66.5959,50.1532,5.6987],[-66.6054,50.1486,0.0],[-66.6032,50.1462,0.0]]]]}}