{"type":"Feature","properties":{"featurecla":"River","scalerank":11,"rivernum":23286,"dissolve":"23286River","name":"Patapedia1","name_alt":null,"note":null,"name_full":"Patapedia River","min_zoom":6.7,"strokeweig":0.2,"uident":0,"min_label":7.7},
"geometry":{"type": "LineString","coordinates": [[-67.3912654287704,47.849920965619027,171.8712],[-67.3961482412704,47.855739650514863,193.8641],[-67.398874478249567,47.863308009889863,169.6241],[-67.401722785541239,47.8709577494732,118.2049],[-67.407175259499567,47.877142645306527,174.3739],[-67.414865689187067,47.881293035931527,250.0481],[-67.422963019916239,47.884100653119027,245.8635],[-67.431385871478739,47.886297918744027,219.2451],[-67.439808723041239,47.888373114056527,242.244],[-67.454457160541239,47.893337306764863,180.8198],[-67.468617316791239,47.8995222025982,222.1044],[-67.482736782937067,47.906073309369027,355.2057],[-67.497059699603739,47.911932684369027,277.8768],[-67.521229621478739,47.9197858744732,354.813],[-67.543934699603739,47.925726629681527,379.4637],[-67.566883918353739,47.930365301556527,325.9051],[-67.591623501687067,47.934352931764863,373.541],[-67.605946418353739,47.938055731244027,156.266],[-67.608957486062067,47.943304754681527,185.3665],[-67.606800910541239,47.950954494264863,161.8253],[-67.605783657937067,47.961737371869027,175.3529],[-67.607004361062067,47.968776759889863,285.6223],[-67.609242316791239,47.980983791139863,201.0965],[-67.6114802725204,47.992458400514863,238.9291],[-67.612863736062067,47.997503973431527,304.9651],[-67.606638150124567,48.019842840619027,303.2147],[-67.606760220437067,48.039374090619027,367.8088],[-67.600941535541239,48.051947332806527,294.3621],[-67.5960994131454,48.0623639994732,313.3474],[-67.604196743874567,48.067938543744027,324.8669],[-67.661000129291239,48.0960554057232,294.1073],[-67.6935115225204,48.1053327494732,332.0988],[-67.731190558978739,48.109564520306527,403.0432]]}}