{"type": "Feature","bbox": [-125.828,54.1741,-125.4816,54.2958],"geometry": {"type": "MultiPolygon","coordinates": [[[[-125.4848,54.1741,726.4479],[-125.4843,54.1764,700.5714],[-125.4816,54.177,703.8619],[-125.4827,54.185,725.4164],[-125.5013,54.1848,698.571],[-125.5001,54.1816,698.441],[-125.4938,54.1781,698.5477],[-125.4931,54.176,716.7963],[-125.4848,54.1741,726.4479]]],
[[[-125.7598,54.2447,804.2106],[-125.7599,54.2367,756.4184],[-125.7713,54.236,708.8226],[-125.772,54.2416,752.2097],[-125.777,54.24,708.6675],[-125.7717,54.235,707.4333],[-125.7732,54.2291,698.0],[-125.7597,54.2185,704.074],[-125.7367,54.2089,698.0],[-125.7316,54.212,723.3333],[-125.7254,54.2114,809.4678],[-125.7258,54.225,770.8234],[-125.7344,54.2288,770.5613],[-125.7349,54.2337,785.8878],[-125.7382,54.2337,791.1768],[-125.738,54.2297,785.0085],[-125.7444,54.2298,792.5839],[-125.7461,54.2448,791.6598],[-125.7598,54.2447,804.2106]],
[[-125.7705,54.2327,705.2882],[-125.7609,54.2258,703.5018],[-125.7631,54.2237,701.3644],[-125.766,54.2249,700.214],[-125.7708,54.2291,698.7773],[-125.7705,54.2327,705.2882]],
[[-125.768,54.2326,709.246],[-125.7649,54.2337,714.3219],[-125.7649,54.2295,706.6791],[-125.7685,54.2324,708.1965],[-125.768,54.2326,709.246]]],
[[[-125.828,54.2889,726.6706],[-125.8171,54.2894,753.1992],[-125.8057,54.2945,794.6575],[-125.8078,54.2958,806.8737],[-125.8167,54.2947,784.5947],[-125.8163,54.2899,753.1992],[-125.828,54.2889,726.6706]]]]}
,"properties": {"GID_3": "CAN.2.2.13_1","GID_0": "CAN","country": "Canada","GID_1": "CAN.2_1","province": "BritishColumbia","NL_NAME_1": "NA","GID_2": "CAN.2.2_1","county": "Bulkley-Nechako","NL_NAME_2": "NA","city": "BurnsLake","VARNAME_3": "NA","NL_NAME_3": "NA","TYPE_3": "Village","ENGTYPE_3": "Village","CC_3": "NA","HASC_3": "NA","name": "Burns_Lake.city","area_km2": 7.858866,"hist_schema_id": "Elevation0-9000","hist_area_km2": {"700": 2.752748,"725": 0.880187,"750": 1.028657,"775": 1.772093,"800": 1.325993,"825": 0.099188}}}