{"type": "Feature","bbox": [-71.7193,48.4264,-71.5343,48.5176],"geometry": {"type": "MultiPolygon","coordinates": [[[[-71.7043,48.5176,121.2446],[-71.7102,48.5033,137.2596],[-71.705,48.5023,132.4058],[-71.7107,48.4881,133.1229],[-71.6938,48.485,140.7872],[-71.6995,48.4706,147.7374],[-71.7135,48.4731,138.1378],[-71.7193,48.4588,150.8649],[-71.6841,48.4522,149.0914],[-71.6811,48.4593,148.1687],[-71.6399,48.4519,156.4345],[-71.641,48.4492,156.8098],[-71.6176,48.445,163.7887],[-71.6211,48.4368,161.3105],[-71.6126,48.4353,165.1663],[-71.6155,48.4293,162.7626],[-71.5986,48.4264,189.4192],[-71.5934,48.4398,177.6985],[-71.5547,48.4325,216.789],[-71.5343,48.4862,175.8076],[-71.5619,48.4903,201.3497],[-71.7043,48.5176,121.2446]]]]}
,"properties": {"GID_3": "CAN.11.47.14_1","GID_0": "CAN","country": "Canada","GID_1": "CAN.11_1","province": "Québec","NL_NAME_1": "NA","GID_2": "CAN.11.47_1","county": "Lac-Saint-Jean-Est","NL_NAME_2": "NA","city": "Saint-Bruno","VARNAME_3": "NA","NL_NAME_3": "NA","TYPE_3": "Municipalité","ENGTYPE_3": "Municipality","CC_3": "NA","HASC_3": "NA","name": "Saint-Bruno.city","area_km2": 77.68947,"hist_schema_id": "Elevation0-9000","hist_area_km2": {"100": 0.28093,"125": 14.0074,"150": 38.02509,"175": 13.88945,"200": 6.84657,"225": 3.99313,"250": 0.64691}}}