{"type": "Feature","bbox": [-114.3807,53.6598,-114.343,53.677],"geometry": {"type": "MultiPolygon","coordinates": [[[[-114.3807,53.6652,731.2564],[-114.3805,53.6598,732.8927],[-114.3696,53.6642,729.2932],[-114.3655,53.6629,730.3562],[-114.3595,53.6702,728.342],[-114.3561,53.6682,729.8537],[-114.356,53.6655,731.4363],[-114.343,53.6662,737.3153],[-114.3441,53.677,730.0233],[-114.3636,53.6763,721.0],[-114.377,53.6653,742.4918],[-114.3807,53.6652,731.2564]]]]}
,"properties": {"GID_3": "CAN.1.4.1_1","GID_0": "CAN","country": "Canada","GID_1": "CAN.1_1","province": "Alberta","NL_NAME_1": "NA","GID_2": "CAN.1.4_1","county": "DivisionNo.13","NL_NAME_2": "NA","city": "AlbertaBeach","VARNAME_3": "NA","NL_NAME_3": "NA","TYPE_3": "Village","ENGTYPE_3": "Village","CC_3": "NA","HASC_3": "NA","name": "Alberta_Beach.city","area_km2": 2.298658,"hist_schema_id": "Elevation0-9000","hist_area_km2": {"725": 2.210721,"750": 0.087937}}}