{"type": "Feature","bbox": [-120.1834,53.2894,-120.1515,53.3223],"geometry": {"type": "MultiPolygon","coordinates": [[[[-120.1566,53.3093,718.5428],[-120.1681,53.3136,719.5828],[-120.1808,53.3223,715.9393],[-120.1834,53.3222,720.4029],[-120.182,53.3062,727.3549],[-120.1768,53.307,725.1484],[-120.1751,53.2955,726.028],[-120.1686,53.2956,721.5343],[-120.1637,53.2894,724.0424],[-120.1589,53.2918,711.8924],[-120.1573,53.2943,708.2177],[-120.1579,53.2991,714.7318],[-120.1515,53.2992,707.9652],[-120.1517,53.304,710.8188],[-120.1566,53.3093,718.5428]]]]}
,"properties": {"GID_3": "CAN.2.12.10_1","GID_0": "CAN","country": "Canada","GID_1": "CAN.2_1","province": "BritishColumbia","NL_NAME_1": "NA","GID_2": "CAN.2.12_1","county": "Fraser-FortGeorge","NL_NAME_2": "NA","city": "McBride","VARNAME_3": "NA","NL_NAME_3": "NA","TYPE_3": "Village","ENGTYPE_3": "Village","CC_3": "NA","HASC_3": "NA","name": "Mc_Bride.city","area_km2": 3.876819,"hist_schema_id": "Elevation0-9000","hist_area_km2": {"700": 0.152046,"725": 3.724772}}}