{"type": "Feature","bbox": [-94.2033,58.7008,-94.0287,58.7889],"geometry": {"type": "MultiPolygon","coordinates": [[[[-94.1761,58.7211,1.3587],[-94.1739,58.7222,1.3992],[-94.1783,58.7225,1.0221],[-94.1772,58.7211,1.3587],[-94.1761,58.7211,1.3587]]],
[[[-94.15,58.7407,1.3473],[-94.1483,58.7411,1.6423],[-94.1539,58.7428,1.0133],[-94.1572,58.7428,0.8819],[-94.1539,58.7422,1.0133],[-94.1561,58.7411,1.0369],[-94.15,58.7407,1.3473]]],
[[[-94.0418,58.7478,14.6187],[-94.0287,58.7626,0.7077],[-94.0389,58.7619,8.0079],[-94.0405,58.7644,2.78],[-94.0439,58.765,2.78],[-94.0572,58.7651,7.5506],[-94.0583,58.7628,19.5429],[-94.0622,58.7628,2.3485],[-94.0633,58.7642,0.309],[-94.0711,58.7631,1.8526],[-94.0753,58.7656,0.0],[-94.0822,58.7631,2.2696],[-94.0894,58.7661,0.8809],[-94.1061,58.765,6.6301],[-94.1089,58.7675,0.0],[-94.1445,58.7697,5.3935],[-94.1567,58.7725,0.986],[-94.1656,58.7728,3.7888],[-94.1739,58.7747,7.3806],[-94.1778,58.7794,1.8834],[-94.1828,58.7806,0.2777],[-94.1844,58.7831,1.8623],[-94.1977,58.787,3.9141],[-94.1994,58.7889,0.4625],[-94.2033,58.7883,1.0423],[-94.2022,58.7828,3.8455],[-94.1955,58.7806,6.0483],[-94.195,58.7783,1.9224],[-94.1928,58.7787,1.9224],[-94.1956,58.7778,1.9224],[-94.1978,58.7789,1.3201],[-94.1961,58.7753,1.7137],[-94.1811,58.7697,1.9291],[-94.1783,58.7628,0.4909],[-94.1756,58.7619,3.5716],[-94.1761,58.7583,0.3031],[-94.1733,58.7575,2.3779],[-94.1728,58.7536,0.4147],[-94.1639,58.7564,1.404],[-94.165,58.7559,1.404],[-94.1628,58.7544,1.6675],[-94.1639,58.7522,1.1029],[-94.1628,58.7517,1.1241],[-94.1594,58.7522,1.2051],[-94.1594,58.7536,1.2051],[-94.1544,58.7531,1.4723],[-94.1506,58.7492,1.7744],[-94.1583,58.7492,1.047],[-94.1589,58.7461,1.1063],[-94.1508,58.7472,1.7367],[-94.1522,58.7469,1.1619],[-94.1489,58.7461,1.8291],[-94.1516,58.7458,1.1619],[-94.1483,58.7447,1.6173],[-94.1511,58.7442,1.12],[-94.1467,58.7433,1.4886],[-94.1516,58.7431,1.0879],[-94.1472,58.7409,1.6423],[-94.1483,58.7397,1.6531],[-94.1511,58.74,1.4717],[-94.1461,58.7383,1.6874],[-94.1556,58.7403,1.1378],[-94.1561,58.7392,1.1378],[-94.1533,58.7389,1.4276],[-94.1567,58.7378,1.089],[-94.1561,58.7367,1.5757],[-94.1615,58.7369,1.2246],[-94.1622,58.735,1.6956],[-94.165,58.7361,1.1305],[-94.1622,58.7325,1.5026],[-94.1706,58.7339,0.6996],[-94.1639,58.7294,1.6015],[-94.1711,58.7323,1.2373],[-94.1722,58.7306,1.4032],[-94.175,58.7311,1.1535],[-94.1789,58.7286,1.3314],[-94.1783,58.7253,0.9507],[-94.1739,58.7264,1.4994],[-94.1755,58.7239,1.4965],[-94.1733,58.7228,1.7544],[-94.1728,58.7206,1.6293],[-94.1789,58.7195,1.1179],[-94.1756,58.7153,1.6424],[-94.1789,58.7156,0.9893],[-94.1783,58.7117,1.0497],[-94.1767,58.7108,1.6678],[-94.1794,58.71,1.2385],[-94.1783,58.7089,1.2385],[-94.1805,58.7061,0.8094],[-94.1784,58.7041,1.2505],[-94.1793,58.7016,1.742],[-94.0462,58.7008,14.0],[-94.0418,58.7478,14.6187]]]]}
,"properties": {"GID_3": "CAN.3.15.2_1","GID_0": "CAN","country": "Canada","GID_1": "CAN.3_1","province": "Manitoba","NL_NAME_1": "NA","GID_2": "CAN.3.15_1","county": "DivisionNo.23","NL_NAME_2": "NA","city": "Churchill","VARNAME_3": "NA","NL_NAME_3": "NA","TYPE_3": "Town","ENGTYPE_3": "Town","CC_3": "NA","HASC_3": "NA","name": "Churchill.city","area_km2": 56.30567,"hist_schema_id": "Elevation0-9000","hist_area_km2": {"0": 25.36345,"25": 30.94222}}}