{"type": "Feature","bbox": [-64.0758,46.4659,-63.8527,46.5595],"geometry": {"type": "MultiPolygon","coordinates": [[[[-64.0758,46.5184,25.1227],[-64.0564,46.4659,34.0675],[-63.9998,46.4753,37.87],[-63.9294,46.4881,0.0],[-63.9311,46.4906,0.0],[-63.9297,46.4947,0.1102],[-63.9226,46.5026,0.0],[-63.9267,46.5056,0.0],[-63.9303,46.5061,0.2662],[-63.9283,46.5072,2.0845],[-63.9231,46.5044,1.0461],[-63.9192,46.5058,0.7099],[-63.9167,46.5094,2.7549],[-63.9197,46.5122,2.3029],[-63.9183,46.515,0.0],[-63.9144,46.5125,8.8116],[-63.9175,46.5061,0.0],[-63.9164,46.5033,0.0],[-63.9071,46.5069,0.0],[-63.8993,46.5062,0.6124],[-63.8955,46.5078,1.6605],[-63.8928,46.5067,0.0],[-63.8884,46.5119,1.107],[-63.8814,46.5133,0.0],[-63.875,46.5179,0.221],[-63.8733,46.5242,2.8407],[-63.8689,46.5247,0.1474],[-63.8719,46.5203,0.0],[-63.8694,46.5208,0.104],[-63.8603,46.5369,0.0],[-63.86,46.5411,0.0],[-63.8647,46.5442,0.0],[-63.8659,46.5478,0.0],[-63.8578,46.5561,3.443],[-63.8527,46.5584,0.0],[-63.8531,46.5595,2.6235],[-63.8592,46.5562,5.161],[-63.8637,46.5572,14.8939],[-64.0758,46.5184,25.1227]]]]}
,"properties": {"GID_3": "CAN.10.2.23_1","GID_0": "CAN","country": "Canada","GID_1": "CAN.10_1","province": "PrinceEdwardIsland","NL_NAME_1": "NA","GID_2": "CAN.10.2_1","county": "Prince","NL_NAME_2": "NA","city": "Lot14","VARNAME_3": "NA","NL_NAME_3": "NA","TYPE_3": "TownshipandRoyalty","ENGTYPE_3": "TownshipandRoyalty","CC_3": "NA","HASC_3": "NA","name": "Lot14.city","area_km2": 88.92072,"hist_schema_id": "Elevation0-9000","hist_area_km2": {"0": 11.68735,"25": 53.93005,"50": 23.30331}}}