{"type":"Feature","properties":{"GID_3":"CAN.11.75.5_1","GID_0":"CAN","country":"Canada","GID_1":"CAN.11_1","province":"Québec","NL_NAME_1":"NA","GID_2":"CAN.11.75_1","county":"Matane","NL_NAME_2":"NA","city":"Petit-Matane","VARNAME_3":"NA","NL_NAME_3":"NA","TYPE_3":"Municipalité","ENGTYPE_3":"Municipality","CC_3":"NA","HASC_3":"NA","name":"Petit-Matane.city"},
"geometry":{"type": "MultiPolygon","coordinates": [[[[-67.4842,48.8553,13.0093],[-67.4379,48.8297,95.998],[-67.4476,48.8287,159.6695],[-67.4339,48.8211,187.6233],[-67.4193,48.8226,216.2759],[-67.4152,48.8244,209.8489],[-67.4055,48.8175,235.2628],[-67.3425,48.8356,279.4136],[-67.3663,48.8497,233.9253],[-67.36,48.8517,218.9866],[-67.4059,48.8771,30.1162],[-67.4034,48.8778,32.3752],[-67.4067,48.8797,2.5283],[-67.4353,48.87,4.9169],[-67.4483,48.8683,3.7534],[-67.4575,48.8619,10.2937],[-67.4842,48.8553,13.0093]]]]}}