{"type": "Feature","bbox": [-53.2738,47.3581,-53.1765,47.4457],"geometry": {"type": "MultiPolygon","coordinates": [[[[-53.2056,47.4371,1.9797],[-53.2738,47.3915,145.2887],[-53.2639,47.3731,138.1174],[-53.2586,47.3701,105.3012],[-53.2447,47.3678,94.2209],[-53.2363,47.3595,132.8053],[-53.2283,47.3581,115.7285],[-53.2287,47.3631,107.121],[-53.2261,47.3649,100.0],[-53.2241,47.3712,150.7611],[-53.2077,47.3858,111.1652],[-53.2032,47.3955,53.8451],[-53.2004,47.3968,55.0505],[-53.2001,47.3987,53.0],[-53.1963,47.3995,54.8408],[-53.192,47.4034,53.3881],[-53.1913,47.4086,59.9555],[-53.1928,47.4101,55.6208],[-53.1765,47.4337,117.4165],[-53.1807,47.4372,16.052],[-53.1868,47.4259,11.5864],[-53.1917,47.4214,3.3049],[-53.1961,47.4225,4.1408],[-53.1911,47.425,0.0],[-53.1882,47.4289,0.0],[-53.1906,47.4337,20.8655],[-53.1944,47.435,3.1789],[-53.1901,47.4408,14.7656],[-53.1901,47.4456,3.0679],[-53.1933,47.4457,1.8902],[-53.2056,47.4371,1.9797]]]]}
,"properties": {"GID_3": "CAN.5.3.4_1","GID_0": "CAN","country": "Canada","GID_1": "CAN.5_1","province": "NewfoundlandandLabrador","NL_NAME_1": "NA","GID_2": "CAN.5.3_1","county": "DivisionNo.1","NL_NAME_2": "NA","city": "Avondale","VARNAME_3": "NA","NL_NAME_3": "NA","TYPE_3": "Town","ENGTYPE_3": "Town","CC_3": "NA","HASC_3": "NA","name": "Avondale.city","area_km2": 30.30999,"hist_schema_id": "Elevation0-9000","hist_area_km2": {"0": 1.21919,"25": 2.66825,"50": 3.58697,"75": 5.4249,"100": 7.73654,"125": 5.29681,"150": 2.49742,"175": 1.5212,"200": 0.20088,"225": 0.11478,"250": 0.04304}}}