{"type": "Feature","bbox": [-81.9572,45.8325,-81.9046,45.8889],"geometry": {"type": "MultiPolygon","coordinates": [[[[-81.9064,45.8822,186.3271],[-81.931,45.882,207.1928],[-81.9307,45.8889,194.5752],[-81.9373,45.8833,205.3759],[-81.9413,45.8843,197.0189],[-81.9469,45.8885,211.9597],[-81.9572,45.8884,200.4977],[-81.9569,45.8327,265.9465],[-81.9318,45.8325,269.5903],[-81.9316,45.8451,267.5722],[-81.9046,45.8452,253.2599],[-81.9048,45.8808,208.9158],[-81.9064,45.8822,186.3271]]]]}
,"properties": {"GID_3": "CAN.9.29.14_1","GID_0": "CAN","country": "Canada","GID_1": "CAN.9_1","province": "Ontario","NL_NAME_1": "NA","GID_2": "CAN.9.29_1","county": "Manitoulin","NL_NAME_2": "NA","city": "Sheguiandah24","VARNAME_3": "NA","NL_NAME_3": "NA","TYPE_3": "RéserveIndienne","ENGTYPE_3": "IndianReserve","CC_3": "NA","HASC_3": "NA","name": "Sheguiandah24.city","area_km2": 20.00667,"hist_schema_id": "Elevation0-9000","hist_area_km2": {"175": 0.04428,"200": 1.78597,"225": 1.50558,"250": 13.31801,"275": 3.35283}}}