{"type":"Feature","properties":{"GID_3":"CAN.11.98.2_1","GID_0":"CAN","country":"Canada","GID_1":"CAN.11_1","province":"Québec","NL_NAME_1":"NA","GID_2":"CAN.11.98_1","county":"Vallée-de-l'Or","NL_NAME_2":"NA","city":"Dubuisson","VARNAME_3":"NA","NL_NAME_3":"NA","TYPE_3":"Municipalité","ENGTYPE_3":"Municipality","CC_3":"NA","HASC_3":"NA","name":"Dubuisson.city"},
"geometry":{"type": "MultiPolygon","coordinates": [[[[-78.1124,48.253,293.0],[-78.1137,48.2294,293.0],[-78.0853,48.2346,293.0],[-78.0695,48.234,293.0],[-78.0568,48.2297,293.0],[-78.0383,48.2294,304.4664],[-78.0389,48.1713,314.9086],[-78.0058,48.1711,305.6658],[-78.0064,47.995,293.5],[-78.0,47.9949,293.5],[-78.0044,47.993,293.5],[-78.0015,47.9933,293.5],[-77.9934,47.9898,293.5],[-77.9862,47.9933,293.5],[-77.9791,48.0062,293.5],[-77.9738,48.0069,293.5],[-77.97,48.0127,293.5],[-77.9523,48.0278,293.5],[-77.9468,48.0302,293.5],[-77.9459,48.0352,293.5],[-77.9424,48.0401,293.5],[-77.9328,48.0432,293.5],[-77.9332,48.0472,293.5],[-77.9152,48.0589,293.5],[-77.9002,48.0586,293.5],[-77.8816,48.0692,309.7926],[-77.8765,48.0795,293.5],[-77.8808,48.0846,293.5],[-77.8784,48.0857,293.5],[-77.889,48.1054,298.1439],[-77.8847,48.1139,303.0504],[-77.8812,48.1149,293.5],[-77.8801,48.1171,293.5],[-77.8814,48.118899999999996,293.5],[-77.8794,48.1208,293.5],[-77.8788,48.133,293.5],[-77.8834,48.1366,293.5],[-77.8833,48.1453,293.5],[-77.8879,48.1455,293.5],[-77.8878,48.1704,293.5],[-77.884,48.1704,293.5],[-77.8849,48.1735,293.5],[-77.8891,48.1787,300.9302],[-77.8941,48.1816,296.8385],[-77.896,48.1861,297.4695],[-77.9124,48.1929,295.8199],[-77.9289,48.1974,298.0878],[-77.944,48.2067,303.8642],[-77.9594,48.2093,305.654],[-77.9671,48.2142,296.7289],[-77.9837,48.2342,294.7001],[-77.9842,48.2369,299.8212],[-77.9766,48.2426,305.6489],[-77.9751,48.246,304.0533],[-77.9784,48.2514,302.2729],[-77.9854,48.2565,298.2758],[-78.0213,48.2572,303.0911],[-78.0376,48.2559,297.3086],[-78.0571,48.2582,293.0],[-78.0608,48.2637,293.0],[-78.0641,48.2653,293.0],[-78.0638,48.2688,293.0],[-78.0722,48.2758,293.0],[-78.0802,48.2768,293.0],[-78.0865,48.2726,293.0],[-78.0877,48.2697,293.0],[-78.0907,48.2688,293.0],[-78.09,48.2666,293.0],[-78.0923,48.2584,293.0],[-78.104,48.2503,293.0],[-78.1124,48.253,293.0]]]]}}