{"type": "Feature","bbox": [-71.6849,45.9065,-71.5419,46.0235],"geometry": {"type": "MultiPolygon","coordinates": [[[[-71.6825,45.9703,436.5822],[-71.6849,45.968,458.8263],[-71.5627,45.9065,566.4023],[-71.5424,45.9273,398.3378],[-71.5531,45.933,424.2529],[-71.5423,45.9439,358.873],[-71.5526,45.9493,467.6591],[-71.5419,45.9607,502.538],[-71.5605,45.97,536.8663],[-71.5495,45.9817,531.9574],[-71.6275,46.0235,444.3399],[-71.6825,45.9703,436.5822]]]]}
,"properties": {"GID_3": "CAN.11.29.13_1","GID_0": "CAN","country": "Canada","GID_1": "CAN.11_1","province": "Québec","NL_NAME_1": "NA","GID_2": "CAN.11.29_1","county": "L'Amiante","NL_NAME_2": "NA","city": "Saint-Fortunat","VARNAME_3": "NA","NL_NAME_3": "NA","TYPE_3": "Municipalité","ENGTYPE_3": "Municipality","CC_3": "NA","HASC_3": "NA","name": "Saint-Fortunat.city","area_km2": 75.44048,"hist_schema_id": "Elevation0-9000","hist_area_km2": {"300": 0.38292,"325": 1.16354,"350": 2.07691,"375": 4.93518,"400": 9.31421,"425": 12.52828,"450": 13.01394,"475": 11.05334,"500": 8.38634,"525": 7.05923,"550": 3.84657,"575": 1.40005,"600": 0.25049,"625": 0.02946}}}