{"type":"Feature","properties":{"GID_3":"CAN.4.9.13_1","GID_0":"CAN","country":"Canada","GID_1":"CAN.4_1","province":"NewBrunswick","NL_NAME_1":"NA","GID_2":"CAN.4.9_1","county":"Queens","NL_NAME_2":"NA","city":"Waterborough","VARNAME_3":"NA","NL_NAME_3":"NA","TYPE_3":"Parish","ENGTYPE_3":"Parish","CC_3":"NA","HASC_3":"NA","name":"Waterborough.city"},
"geometry":{"type": "MultiPolygon","coordinates": [[[[-65.5695,46.2848,99.5278],[-65.6018,46.2566,113.9712],[-65.6852,46.19,35.6794],[-65.7053,46.1831,43.961],[-65.7305,46.1678,34.4715],[-65.7418,46.1662,27.9997],[-65.7462,46.1638,27.583],[-65.7529,46.1562,54.892],[-65.76,46.1537,51.0047],[-65.7636,46.1478,23.1098],[-65.773,46.1442,35.8409],[-65.789,46.141,23.3292],[-65.7906,46.1357,16.0833],[-65.7993,46.1335,24.1866],[-65.8123,46.1187,11.5872],[-65.823,46.1155,6.1593],[-65.8538,46.1015,2.2663],[-65.8666,46.1004,0.0],[-65.8845,46.0892,4.6269],[-65.8896,46.0831,0.0],[-65.8922,46.0834,0.0],[-65.8999,46.0789,0.0],[-65.9102,46.0762,0.0],[-65.9172,46.0721,0.0],[-65.924,46.0733,0.0],[-65.9281,46.0704,0.0],[-65.9474,46.0672,0.0],[-65.9624,46.0571,0.0],[-65.9825,46.0477,0.0],[-65.9939,46.0467,0.0],[-65.999,46.0404,0.0],[-65.9974,46.0334,0.0],[-66.0038,46.0318,0.0],[-66.0096,46.0282,0.0],[-66.0105,46.0202,0.0],[-66.0138,46.0178,0.0],[-66.0153,46.0105,0.3994],[-66.0076,45.9987,0.0],[-66.0294,45.9842,0.0],[-66.0343,45.9793,0.0],[-66.0405,45.9645,0.0],[-66.0388,45.9623,0.0],[-66.0394,45.9596,0.0],[-66.0278,45.9515,0.0],[-66.0383,45.9422,0.0],[-66.0385,45.9347,0.0],[-66.0346,45.925,0.0],[-66.048,45.9217,0.0],[-66.0526,45.9096,0.0],[-66.0548,45.9073,0.0],[-66.0518,45.8894,0.0],[-66.0391,45.8884,0.0],[-66.0204,45.8816,0.0],[-66.0021,45.8832,12.0166],[-65.978,45.8799,58.2218],[-65.9659,45.8747,83.8157],[-65.9512,45.882,62.9439],[-65.9575,45.884,63.295],[-65.95,45.8913,38.2631],[-65.941,45.8873,28.0585],[-65.7891,46.018,83.5169],[-65.4914,46.2702,115.5623],[-65.5695,46.2848,99.5278]]]]}}