{"type":"Feature","properties":{"GID_3":"CAN.12.14.55_1","GID_0":"CAN","country":"Canada","GID_1":"CAN.12_1","province":"Saskatchewan","NL_NAME_1":"NA","GID_2":"CAN.12.14_1","county":"DivisionNo.5","NL_NAME_2":"NA","city":"SilverwoodNo.123","VARNAME_3":"NA","NL_NAME_3":"NA","TYPE_3":"RuralMunicipality","ENGTYPE_3":"RuralMunicipality","CC_3":"NA","HASC_3":"NA","name":"Silverwood_No.123.city"},
"geometry":{"type": "MultiPolygon","coordinates": [[[[-102.0064,50.0603,623.8524],[-102.0071,50.2339,591.7864],[-102.0055,50.2803,590.633],[-102.0069,50.3092,597.2158],[-102.4184,50.3095,627.0552],[-102.4169,50.244,614.8041],[-102.4188,50.2219,611.2653],[-102.4161,50.2219,611.2653],[-102.4152,50.1786,623.8675],[-102.416,50.0475,668.1377],[-102.2977,50.0473,664.2531],[-102.2909,50.0458,664.1249],[-102.2909,50.0474,663.9537],[-102.2339,50.0476,664.3219],[-102.0064,50.0467,627.7802],[-102.0064,50.0603,623.8524]],
[[-102.245,50.186,621.4098],[-102.2562,50.1851,621.4197],[-102.2573,50.1928,619.6312],[-102.2463,50.1929,619.5184],[-102.245,50.186,621.4098]]]]}}