{"type": "Feature","bbox": [-108.0149,49.7088,-107.9915,49.7193],"geometry": {"type": "MultiPolygon","coordinates": [[[[-107.9917,49.7088,832.0219],[-107.9915,49.7193,853.3073],[-108.0147,49.7192,857.1763],[-108.0149,49.7089,827.0748],[-107.9917,49.7088,832.0219]]]]}
,"properties": {"GID_3": "CAN.12.13.1_1","GID_0": "CAN","country": "Canada","GID_1": "CAN.12_1","province": "Saskatchewan","NL_NAME_1": "NA","GID_2": "CAN.12.13_1","county": "DivisionNo.4","NL_NAME_2": "NA","city": "Admiral","VARNAME_3": "NA","NL_NAME_3": "NA","TYPE_3": "Village","ENGTYPE_3": "Village","CC_3": "NA","HASC_3": "NA","name": "Admiral.city","area_km2": 1.96044,"hist_schema_id": "Elevation0-9000","hist_area_km2": {"825": 0.534706,"850": 1.288653,"875": 0.137081}}}