{"type":"Feature","properties":{"GID_3":"CAN.11.95.14_1","GID_0":"CAN","country":"Canada","GID_1":"CAN.11_1","province":"Québec","NL_NAME_1":"NA","GID_2":"CAN.11.95_1","county":"Témiscamingue","NL_NAME_2":"NA","city":"Moffet","VARNAME_3":"NA","NL_NAME_3":"NA","TYPE_3":"Municipalité","ENGTYPE_3":"Municipality","CC_3":"NA","HASC_3":"NA","name":"Moffet.city"},
"geometry":{"type": "MultiPolygon","coordinates": [[[[-79.0661,47.4979,261.0],[-79.0651,47.4719,292.0887],[-78.933,47.4705,309.2601],[-78.9321,47.4626,296.5463],[-78.8217,47.4624,314.5],[-78.8198,47.5638,307.6421],[-78.8047,47.5642,265.0602],[-78.7368,47.5966,261.0],[-78.7368,47.603,261.0],[-78.7436,47.611,261.0],[-78.7408,47.6122,261.0],[-78.7286,47.6284,261.0],[-78.7426,47.6451,261.0],[-78.7587,47.6497,284.0483],[-78.7345,47.6673,261.0],[-78.7373,47.6695,261.0],[-78.7349,47.6707,261.0],[-78.7217,47.6706,261.0],[-78.7224,47.6737,264.4558],[-78.7047,47.6981,269.6316],[-78.7033,47.7025,284.3152],[-78.9766,47.703,344.0393],[-78.9762,47.5492,261.0],[-78.9794,47.5473,261.0],[-78.9756,47.5441,261.0],[-78.9766,47.5406,261.0],[-78.9819,47.5335,261.0],[-78.9891,47.5162,261.0],[-79.0012,47.5167,261.0],[-79.0239,47.5097,261.0],[-79.0326,47.5005,282.3839],[-79.0403,47.4893,263.2124],[-79.0621,47.4954,261.0],[-79.0661,47.4979,261.0]]]]}}