{"type":"Feature","properties":{"GID_3":"CAN.5.11.20_1","GID_0":"CAN","country":"Canada","GID_1":"CAN.5_1","province":"NewfoundlandandLabrador","NL_NAME_1":"NA","GID_2":"CAN.5.11_1","county":"DivisionNo.9","NL_NAME_2":"NA","city":"Hawke'sBay","VARNAME_3":"NA","NL_NAME_3":"NA","TYPE_3":"Town","ENGTYPE_3":"Town","CC_3":"NA","HASC_3":"NA","name":"Hawke's_Bay.city"},
"geometry":{"type": "MultiPolygon","coordinates": [[[[-57.1986,50.6584,34.4654],[-57.2008,50.6542,32.0793],[-57.2084,50.6537,34.8739],[-57.2358,50.6367,52.3757],[-57.2714,50.6233,0.0],[-57.2639,50.6197,7.5976],[-57.2646,50.6185,6.4432],[-57.2748,50.62,6.4335],[-57.2879,50.6249,1.5593],[-57.291,50.6225,0.3783],[-57.2741,50.6091,1.2823],[-57.2674,50.6076,2.1289],[-57.261,50.6111,4.3911],[-57.2615,50.6158,7.1514],[-57.2458,50.6133,0.0],[-57.2341,50.618899999999996,10.574],[-57.2201,50.6215,0.0],[-57.2109,50.6258,10.2807],[-57.2002,50.625,0.0],[-57.1897,50.6268,0.0],[-57.1742,50.6337,0.5135],[-57.1572,50.6314,2.8526],[-57.1559,50.6284,1.3722],[-57.1582,50.6263,6.3186],[-57.1586,50.6216,3.1142],[-57.1684,50.6161,0.1062],[-57.1664,50.615,3.0862],[-57.1698,50.6112,4.5588],[-57.173,50.6101,6.8844],[-57.1787,50.6005,0.5897],[-57.1812,50.6005,0.5897],[-57.1844,50.6038,0.4048],[-57.1899,50.6023,8.1493],[-57.1893,50.604,0.0],[-57.1906,50.6048,3.2245],[-57.1933,50.6042,3.2245],[-57.1939,50.6015,9.4616],[-57.1961,50.601,4.2703],[-57.2,50.6028,0.0],[-57.2024,50.6017,0.0],[-57.2029,50.598,0.0],[-57.2058,50.5943,6.2957],[-57.2094,50.5928,1.6714],[-57.2124,50.595,2.4791],[-57.2189,50.5942,2.3414],[-57.2269,50.5968,5.1644],[-57.2375,50.5976,4.2654],[-57.238,50.596,13.9552],[-57.2321,50.5863,41.0434],[-57.235,50.5832,42.129],[-57.2336,50.5809,47.8574],[-57.2254,50.5776,35.7166],[-57.1837,50.5784,43.2245],[-57.1429,50.5735,32.2643],[-57.1275,50.6494,41.448],[-57.1986,50.6584,34.4654]]]]}}