{"type": "Feature","bbox": [-74.661,47.7615,-74.5123,47.8612],"geometry": {"type": "MultiPolygon","coordinates": [[[[-74.6591,47.7618,545.0085],[-74.5875,47.7617,497.8962],[-74.5123,47.7615,519.3871],[-74.661,47.8612,475.0296],[-74.6591,47.7618,545.0085]]]]}
,"properties": {"GID_3": "CAN.11.58.9_1","GID_0": "CAN","country": "Canada","GID_1": "CAN.11_1","province": "Québec","NL_NAME_1": "NA","GID_2": "CAN.11.58_1","county": "LeHaut-Saint-Maurice","NL_NAME_2": "NA","city": "Lac-Pellerin","VARNAME_3": "NA","NL_NAME_3": "NA","TYPE_3": "NonOrganisé","ENGTYPE_3": "Unorganized","CC_3": "NA","HASC_3": "NA","name": "Lac-Pellerin.city","area_km2": 60.50605,"hist_schema_id": "Elevation0-9000","hist_area_km2": {"425": 1.48034,"450": 9.85495,"475": 11.10917,"500": 10.09935,"525": 9.52988,"550": 8.46175,"575": 6.78011,"600": 2.9056,"625": 0.28489}}}