{"type":"Feature","properties":{"featurecla":"Lake","scalerank":4,"name":"Cree Lake","name_abb":"Cree L.","name_alt":null,"note":null,"delta":null,"dam_name":null,"year":-99,"admin":null,"min_zoom":4.0,"min_label":5.0},
"geometry":{"type": "Polygon","coordinates": [[[-106.17169090816445,57.439680269401862,487.0634],[-106.18199365261407,57.450866106232866,521.228],[-106.1827295629319,57.456459024648353,519.2324],[-106.168452902766,57.465878676716557,527.3534],[-106.14284322370555,57.470588502750672,496.2408],[-106.11855818321719,57.470588502750672,508.4449],[-106.10766671051331,57.4661730408437,488.0449],[-106.11046316972107,57.454692839885553,501.4775],[-106.11738072670866,57.449983013851465,486.4199],[-106.12606446845905,57.447628100834407,489.177],[-106.13430666401874,57.442329546546034,494.8279],[-106.13533693846369,57.437914084639061,489.173],[-106.13371793576447,57.4261395195538,486.3496],[-106.13430666401874,57.421724057646827,498.8818],[-106.13842776179858,57.417602959866969,486.5142],[-106.14755304973966,57.414659318595653,497.2367],[-106.1516741475195,57.411715677324338,504.1224],[-106.15402906053656,57.395231286204961,486.6027],[-106.13033274830246,57.393170737315046,489.084],[-106.08588376510558,57.401118568747592,490.7959],[-106.09618650955518,57.419663508756884,492.8443],[-106.09294850415674,57.431732437969288,496.4087],[-106.08441194446992,57.442623910673177,486.956],[-106.0797021184358,57.459402665919669,497.5057],[-106.08367603415209,57.479419426564618,504.3321],[-106.09412596066527,57.481774339581676,486.3342],[-106.10958007733967,57.478830698310361,486.407],[-106.12812501734896,57.482951796090191,488.3398],[-106.12856656353966,57.498258730701053,483.0],[-106.06660291477846,57.53475988246538,483.0],[-106.04570306175211,57.552127365966157,489.1531],[-106.06719164303271,57.551538637711872,483.8104],[-106.12812501734896,57.538292251990953,483.0],[-106.15093823720167,57.537409159609552,498.6237],[-106.16580362562182,57.540941529135154,502.1165],[-106.17698946245282,57.5497724529491,485.821],[-106.18891120960166,57.566256844068477,483.0],[-106.05011852365908,57.637198598707187,483.0],[-106.04231787429009,57.647206979029676,487.1211],[-106.05247343667614,57.655154810462221,491.4287],[-106.06925219192263,57.655449174589364,485.8535],[-106.08235139557999,57.651033712682391,484.3369],[-106.09603932749162,57.64838443553819,504.3323],[-106.11384835718309,57.655154810462221,483.0],[-106.1107575338482,57.656332266970765,483.0],[-106.11046316972107,57.662808277767652,485.4201],[-106.11193499035673,57.6707561092002,490.6765],[-106.11384835718309,57.675465935234314,489.0334],[-106.12003000385285,57.677820848251372,496.9948],[-106.14858332418463,57.682236310158345,486.5302],[-106.18361265531328,57.694010875243606,483.5122],[-106.20230477738615,57.697248880642064,485.3797],[-106.22379335866677,57.696071424133521,488.4666],[-106.26780079567294,57.680470125395544,487.7453],[-106.27898663250394,57.682236310158345,487.4763],[-106.27928099663109,57.690478505718033,483.0],[-106.27221625757993,57.70019252191338,483.0],[-106.26677052122798,57.71108399461724,486.557],[-106.27206907551636,57.723447287956787,491.4013],[-106.29709002632255,57.7228585597025,499.1003],[-106.333885542214,57.71020090223584,499.9601],[-106.36700150651632,57.691361598099434,498.8683],[-106.39864565018297,57.651916805063792,502.9951],[-106.43838480734576,57.641319696487045,499.8474],[-106.59057106107282,57.621008571714952,498.682],[-106.60381744679374,57.617770566316494,513.6512],[-106.63089894648986,57.603052359959918,483.0],[-106.65665580761389,57.59569325678163,505.348],[-106.69668932890379,57.566256844068477,484.3358],[-106.71140753526038,57.5600751973987,483.0],[-106.74408195337199,57.5506555453305,502.0618],[-106.75821143147431,57.544473898660726,491.8537],[-106.81428779769288,57.496492545938253,490.8967],[-106.85932550914404,57.482068703708819,483.0],[-106.87757608502621,57.462935035445241,499.0168],[-106.90892586456572,57.421724057646827,503.867],[-106.93482990775331,57.404945302400307,490.827],[-106.94998966030059,57.399352383984819,485.585],[-106.95676003522462,57.404650938273193,483.7574],[-106.95352202982617,57.413776226214253,483.0],[-106.93953973378741,57.428200068443715,485.9168],[-106.93630172838897,57.438797177020462,483.0],[-106.94130591855021,57.452632290995638,484.3199],[-106.95366921188973,57.458225209411154,489.4054],[-106.9839887169843,57.462640671318127,483.6638],[-106.9942914614339,57.468527953860757,483.0],[-107.01548567858738,57.485306709107249,494.3091],[-107.02564124097343,57.490016535141365,501.9957],[-107.05169246622458,57.487072893870049,485.1407],[-107.07965705830209,57.475298328784788,496.2736],[-107.09172598751449,57.462346307190984,486.1864],[-107.07038458829744,57.456459024648353,483.0],[-107.0365327136773,57.452926655122781,495.9059],[-107.01857650192227,57.448216829088665,489.9834],[-107.00518293413778,57.442329546546034,488.5239],[-106.99414427937035,57.433498622732088,484.3734],[-106.99237809460755,57.429083160825115,483.0],[-107.00518293413778,57.415542410977054,486.2245],[-107.00959839604475,57.412598769705738,483.0],[-107.02387505621064,57.407594579544508,483.0],[-107.02946797462614,57.404650938273193,483.0],[-107.03241161589746,57.399646748111934,507.2831],[-107.03358907240599,57.38934400366233,503.7375],[-107.03623834955017,57.384045449373957,501.4714],[-107.04492209130055,57.380513079848384,491.2762],[-107.10644419387107,57.369032878890238,494.4877],[-107.15001008468656,57.348721754118174,498.1654],[-107.17650285612841,57.34666120522823,483.0],[-107.15162908738579,57.331059906490253,503.5477],[-107.11556948181216,57.327527536964681,499.0381],[-107.04919037114396,57.3322373629988,495.7002],[-107.02519969478273,57.327527536964681,483.0],[-106.99591046413313,57.315752971879419,483.0],[-106.97869016269593,57.300446037268557,491.4004],[-106.99090627397189,57.284550374403466,483.0],[-107.00562448032848,57.281901097259265,483.0],[-107.03726862399513,57.285727830911981,483.0],[-107.05242837654241,57.284550374403466,483.0],[-107.06390857750054,57.278663091860835,483.0],[-107.0722979551238,57.272187081063919,489.6219],[-107.08186478925558,57.266888526775546,483.0],[-107.11247865847727,57.261295608360058,483.0],[-107.12749122896099,57.253642141054627,483.0],[-107.13514469626641,57.246283037876339,517.9136],[-107.12807995721525,57.24304503247788,543.4783],[-107.09614144942147,57.242750668350766,499.7176],[-107.08098169687419,57.240984483587965,509.4222],[-107.0667050367083,57.236569021680992,483.0],[-107.08657461528969,57.225971913104246,483.0],[-107.09393371846798,57.223028271832931,483.0],[-107.06243675686488,57.214197348018985,492.4552],[-107.01224767318894,57.227738097867046,496.5468],[-106.92320252473161,57.264533613758516,491.1909],[-106.92320252473161,57.271009624555404,486.5078],[-106.94925374998276,57.266005434394174,483.0],[-106.96205858951299,57.265416706139888,483.0],[-106.97044796713624,57.271009624555404,483.0],[-106.96779868999205,57.27571945058952,495.0675],[-106.95249175538122,57.294264390598812,483.0],[-106.94645729077502,57.298091124251528,501.657],[-106.92467434536727,57.3016234937771,510.7564],[-106.90274421789596,57.311043145845304,496.5841],[-106.88302182137814,57.324289531566222,483.0],[-106.86800925089442,57.3398908303042,483.0],[-106.8547628651735,57.327821901091824,483.0],[-106.84166366151614,57.32576135220188,483.0],[-106.8288588219859,57.331648634744539,483.0],[-106.81649552864639,57.343128835702657,483.0],[-106.81266879499367,57.354020308406518,494.8827],[-106.81620116451924,57.364617416983265,486.3874],[-106.8181145313456,57.376391982068526,526.4698],[-106.81001951784948,57.390815824297988,483.0],[-106.70448997827278,57.397586199222019,483.0],[-106.68991895397976,57.395231286204961,492.1868],[-106.67623102206814,57.38757781889953,483.0],[-106.69860269573014,57.355492129042204,521.4039],[-106.70964135049758,57.34666120522823,486.1333],[-106.77278245576733,57.328116265218938,511.8642],[-106.77866973830996,57.318990977277878,504.8292],[-106.777639463865,57.309865689336789,504.3049],[-106.76866135798748,57.30574459155693,483.0],[-106.71832509224797,57.303095314412758,484.4615],[-106.70345970382782,57.30574459155693,483.0],[-106.69168513874256,57.311043145845304,483.0],[-106.68682813064488,57.316341700133677,483.0],[-106.68359012524643,57.323112075057708,495.6921],[-106.67623102206814,57.3322373629988,485.3522],[-106.65798044618597,57.345483748719715,506.1611],[-106.63590313665109,57.354020308406518,483.0],[-106.61073500378134,57.358730134440634,483.0],[-106.52610531723099,57.365794873491808,488.6769],[-106.50402800769611,57.36255686809335,498.4245],[-106.51168147500154,57.34666120522823,494.8531],[-106.55774946089764,57.324289531566222,492.6815],[-106.5648141999488,57.315458607752277,483.4857],[-106.53228696390075,57.311926238226704,483.0],[-106.51153429293797,57.31663606426082,490.965],[-106.44353617957056,57.352842851898004,491.1019],[-106.3653825038171,57.36432305285615,485.557],[-106.32299406951013,57.390815824297988,483.822],[-106.29620693394115,57.399941112239077,485.112],[-106.26824234186364,57.402001661128992,483.0],[-106.24410448343885,57.394348193823561,484.9193],[-106.26029451043109,57.389049639535187,483.0],[-106.27766199393186,57.379629987466984,493.2787],[-106.28855346663573,57.366972330000323,483.0],[-106.28516827917372,57.352842851898004,489.6544],[-106.2245292689846,57.381101808102642,484.2326],[-106.20304068770398,57.396703106840619,502.3448],[-106.21010542675513,57.415542410977054,495.2029],[-106.18611475039391,57.420252237011169,493.4855],[-106.17419300324508,57.424667698918142,483.0],[-106.16904163102028,57.432026802096431,498.9494],[-106.17169090816445,57.439680269401862,487.0634]],
[[-106.4885738910217,57.519747311981661,483.0],[-106.49887663547131,57.512388208803372,483.0],[-106.52536940691316,57.503557284989427,483.0],[-106.55083190391005,57.488250350378564,483.0],[-106.56187055867748,57.477653241801846,483.0],[-106.56628602058446,57.4661730408437,483.0],[-106.57526412646197,57.457930845284011,484.9219],[-106.59572243329762,57.457636481156868,491.1935],[-106.63531440839684,57.462640671318127,483.0],[-106.66592827761853,57.458813937665411,487.3076],[-106.75129387448672,57.43526480749486,483.0],[-106.75129387448672,57.449099921470065,483.0],[-106.74349322511773,57.462640671318127,483.0],[-106.7298052932061,57.476770149420446,503.3386],[-106.67461201936891,57.516214942456088,501.1252],[-106.65768608205885,57.521807860871576,483.0],[-106.6414960550666,57.51798112721886,484.9573],[-106.64561715284644,57.512682572930515,483.0],[-106.65091570713481,57.502674192608026,483.0],[-106.65518398697823,57.497375638319653,483.0],[-106.63781650347745,57.493548904666937,514.7463],[-106.62457011775653,57.498847458955311,486.5158],[-106.612206824417,57.506795290387856,493.0573],[-106.59734143599685,57.510916388167715,484.7405],[-106.49151753229302,57.53475988246538,483.0],[-106.48445279324186,57.535054246592523,483.0],[-106.4885738910217,57.519747311981661,483.0]]]}}