{"type":"Feature","properties":{"featurecla":"Lake","scalerank":6,"name":"Lac Île-à-la-Crosse","name_abb":"L. Île-à-la-Crosse","name_alt":null,"note":null,"delta":null,"dam_name":null,"year":-99,"admin":null,"min_zoom":5.0,"min_label":6.5},
"geometry":{"type": "Polygon","coordinates": [[[-107.90770334792347,55.443597123322007,420.3907],[-107.91771172824595,55.436826748397976,420.1866],[-107.93684539650951,55.440947846177806,420.1576],[-107.94523477413277,55.448306949356095,421.864],[-107.97467118684594,55.485985557628965,426.0419],[-107.98983093939322,55.495110845570053,428.0948],[-108.05356077291722,55.509240323672373,418.0],[-108.04016720513273,55.495699573824311,418.0],[-108.01323288750018,55.455371688407268,422.6194],[-107.9808528335157,55.422108542041371,427.7006],[-107.86178254409094,55.352344243911176,422.993],[-107.837350321539,55.324968380087938,418.0],[-107.81129909628785,55.251082984177884,453.5617],[-107.79349006659639,55.215170560667815,428.595],[-107.77891904230337,55.199274897802724,428.7983],[-107.77273739563361,55.203101631455411,443.5832],[-107.77170712118864,55.2454900657624,447.5302],[-107.77523949071423,55.267567375297261,435.5573],[-107.78377605040104,55.282579945780981,443.7851],[-107.79510906929562,55.297298152137557,429.9669],[-107.80644208819018,55.31760927690965,429.9886],[-107.82690039502583,55.396793227108049,430.7865],[-107.81468428374987,55.40945088457471,420.7344],[-107.78701405579949,55.414455074735969,418.0],[-107.75698891483206,55.412983254100311,428.4038],[-107.73814961069563,55.406801607430538,434.9465],[-107.74153479815764,55.422402906168514,418.0],[-107.75154317848013,55.432705650618118,419.3496],[-107.76331774356539,55.44212530268635,427.4889],[-107.77170712118864,55.455371688407268,430.0443],[-107.74977699371733,55.454782960153011,425.6063],[-107.74035734164913,55.464202612221214,418.0],[-107.73137923577161,55.495699573824311,418.0],[-107.71386457020728,55.520720524630491,435.2008],[-107.70694701321968,55.534555638605696,446.1238],[-107.70415055401193,55.553983670996359,418.0],[-107.70415055401193,55.588424273870771,418.0],[-107.70518082845689,55.59666646943046,418.0],[-107.71150965719022,55.616094501821152,435.0782],[-107.70606392083829,55.631695800559129,420.8676],[-107.67942396733287,55.666136403433541,418.0],[-107.66985713320109,55.681737702171517,435.3015],[-107.66485294303985,55.715000848537386,434.5784],[-107.67044586145535,55.744437261250567,434.745],[-107.67912960320574,55.772401853328063,418.0],[-107.68354506511271,55.800955173659844,427.2874],[-107.69002107590961,55.815084651762163,423.3372],[-107.71813285005068,55.834218320025713,418.0],[-107.72446167878401,55.848936526382317,428.6475],[-107.72446167878401,55.907220623554366,427.4882],[-107.73005459719951,55.914579726732683,423.345],[-107.73932706720416,55.923705014673743,430.2978],[-107.74801080895455,55.929003568962116,418.0],[-107.75183754260726,55.924588107055143,418.0],[-107.75522273006928,55.913107906097,418.0],[-107.76317056150182,55.907514987681509,453.7187],[-107.77229584944291,55.904571346410194,441.4633],[-107.7792134064305,55.900450248630335,436.7872],[-107.78922178675298,55.882199672748186,447.7822],[-107.78745560199019,55.870130743535782,443.8356],[-107.77170712118864,55.845698520983859,418.0],[-107.76773320547237,55.827447945101682,443.2905],[-107.76788038753594,55.789180608574583,427.1712],[-107.76552547451888,55.770046940311005,426.7604],[-107.76302337943827,55.761216016497059,418.0],[-107.75949100991268,55.752385092683113,418.0],[-107.75478118387858,55.745320353631968,425.2815],[-107.74845235514525,55.742671076487767,423.3696],[-107.74241789053904,55.740904891724995,418.0],[-107.73888552101347,55.736783793945136,418.0],[-107.73844397482277,55.731190875529649,418.0],[-107.74153479815764,55.725892321241275,418.0],[-107.74830517308168,55.72294867996996,425.4785],[-107.75404527356075,55.725303592987018,422.3971],[-107.75949100991268,55.728541598385448,433.1038],[-107.76552547451888,55.729130326639705,428.4829],[-107.79098797151578,55.716472669173044,418.0],[-107.79378443072352,55.70528683234204,418.0],[-107.77818313198554,55.697927729163752,423.0239],[-107.74845235514525,55.694984087892436,418.0],[-107.73888552101347,55.689391169476949,430.0428],[-107.7430066187933,55.676733512010287,428.5403],[-107.75860791753129,55.654067474221137,437.3198],[-107.76552547451888,55.61933250721961,428.3785],[-107.78245141182896,55.615505773566895,443.3925],[-107.80349844691887,55.6266916103979,436.1696],[-107.85604244361187,55.671729321849028,434.3772],[-107.89666469315604,55.694395359638179,433.5154],[-107.91638708967386,55.7085248377405,430.958],[-107.93051656777618,55.728835962512591,428.38],[-107.93964185571727,55.738844342835051,453.6921],[-107.94744250508626,55.739727435216452,418.0],[-107.9497974181033,55.730896511402506,447.941],[-107.9455291382599,55.7205937669529,444.5309],[-107.93875876333587,55.712057207266071,426.4375],[-107.92050818745371,55.700282642180809,440.086],[-107.86928882933279,55.640526724373075,426.5264],[-107.84573969916227,55.618743778965353,428.5173],[-107.84058832693746,55.616094501821152,436.1502],[-107.83367076994986,55.581948263073883,432.2107],[-107.83072712867855,55.575177888149852,427.4051],[-107.79923016707546,55.543680926546756,436.382],[-107.77170712118864,55.509240323672373,428.0928],[-107.78465914278244,55.496582666205711,431.8912],[-107.80055480564755,55.497760122714226,421.2514],[-107.81762792502118,55.500998128112684,418.0],[-107.83440668026769,55.495699573824311,426.3702],[-107.83102149280568,55.49216720429871,420.7887],[-107.83013840042429,55.490401019535938,421.6541],[-107.82940249010646,55.48804610651888,421.1263],[-107.82690039502583,55.482747552230506,421.9372],[-107.84676997360722,55.491872840171595,420.6763],[-107.88224085092659,55.518071247486318,420.4904],[-107.90961671474983,55.526902171300264,424.7868],[-107.92683701618704,55.543386562419641,426.8317],[-107.93684539650951,55.550156937343672,429.3088],[-107.97864510256221,55.559870953539019,434.1955],[-108.05370795498078,55.5951946487948,418.0],[-108.08755982960093,55.62257051261804,449.3399],[-108.13112572041642,55.64347036564439,435.3362],[-108.14908193217144,55.66024912089091,418.0],[-108.15261430169703,55.649357648187021,424.998],[-108.1583544021761,55.641409816754475,436.0827],[-108.16630223360865,55.635816898338987,433.4748],[-108.17704652424895,55.632873257067672,434.4138],[-108.17704652424895,55.6266916103979,418.0],[-107.90902798649557,55.480098275086334,421.9008],[-107.9032878860165,55.47215044365376,427.0996],[-107.90387661427077,55.456843509042926,423.0844],[-107.90770334792347,55.443597123322007,420.3907]]]}}