{"type":"Feature","properties":{"featurecla":"Lake","scalerank":5,"name":"Black Lake","name_abb":"BL.k L.","name_alt":null,"note":null,"delta":null,"dam_name":null,"year":-99,"admin":null,"min_zoom":4.7,"min_label":6.0},
"geometry":{"type": "Polygon","coordinates": [[[-105.08592882523929,59.148464027401189,300.3101],[-105.01233779345638,59.173190614080255,276.7261],[-104.9837844731246,59.192618646470947,276.0],[-104.9489023240595,59.203804483301951,276.6027],[-104.9084272565789,59.230297254743789,291.5839],[-104.91637508801145,59.245898553481766,279.5398],[-104.94007140024556,59.256790026185655,303.3599],[-104.96847753851375,59.263266036982543,282.0743],[-105.02352363028739,59.268564591270916,285.1985],[-105.08916683063774,59.28298843350035,287.9301],[-105.12081097430439,59.285637710644551,289.7986],[-105.12699262097416,59.292996813822839,318.3123],[-105.14745092780981,59.28475461826315,286.8161],[-105.16879232702686,59.290641900805781,318.7537],[-105.18910345179894,59.300944645255385,290.6127],[-105.20647093529972,59.306831927798015,324.024],[-105.22648769594467,59.3047713789081,315.5122],[-105.2625473015183,59.295057362712754,284.5435],[-105.28153378771829,59.292996813822839,281.2244],[-105.29904845328262,59.287698259534466,298.2657],[-105.33231159964851,59.2638547652368,276.0],[-105.34364461854307,59.258261846821313,292.5319],[-105.36012900966244,59.255023841422855,336.9526],[-105.37985140618026,59.246781645863166,361.084],[-105.4275383947756,59.21705086902287,292.9865],[-105.48390912512131,59.196739744250777,362.9629],[-105.53851367070423,59.15523440232522,297.6249],[-105.5735430018329,59.139633103587244,311.5846],[-105.68304645712588,59.114317788653921,330.2198],[-105.75192766287469,59.078111001016708,313.7681],[-105.77503524685453,59.073401174982621,334.2652],[-105.79461046130879,59.064864615295789,366.6935],[-105.80638502639405,59.0454365829051,351.6433],[-105.81536313227157,59.022770545115975,294.6282],[-105.82654896910257,59.005108697488055,287.9027],[-105.86540503388396,58.979204654300474,298.2549],[-105.88144787881264,58.963308991435383,289.5552],[-105.88792388960952,58.939465497137718,276.0],[-105.87585496039713,58.92033182887414,280.1068],[-105.84730164006535,58.910323448551679,290.689],[-105.81344976544521,58.907085443153221,284.8701],[-105.7854851733677,58.908262899661736,276.0],[-105.76929514637547,58.910912176805937,280.4198],[-105.75869803779872,58.915033274585767,284.4389],[-105.75030866017548,58.921509285382683,278.9308],[-105.74088900810726,58.932400758086544,276.0],[-105.73838691302664,58.941526046027633,276.0],[-105.74177210048866,58.951828790477236,276.0],[-105.74810092922199,58.960070986036925,288.4685],[-105.75413539382818,58.963308991435383,288.2809],[-105.75693185303594,58.9730230076307,279.8622],[-105.74810092922199,58.995100317165594,278.894],[-105.73485454350106,59.018355083209,285.4828],[-105.72411025286075,59.032484561311321,287.7271],[-105.70394631015223,59.0472027676679,276.0],[-105.6812802723631,59.0601547892617,276.0],[-105.6567008677476,59.069574441329905,276.0],[-105.60548150962669,59.078699729270994,305.7805],[-105.58575911310886,59.091946114991913,300.5975],[-105.56736135516314,59.10754741372989,276.0],[-105.54528404562826,59.120499435323694,276.0],[-105.51923282037711,59.127858538501982,276.0],[-105.31877084980044,59.148464027401189,279.9352],[-105.14082773494935,59.137866918824443,283.6142],[-105.08592882523929,59.148464027401189,300.3101]]]}}