{"type": "Feature","bbox": [-61.948,47.3797,-61.5913,47.5982],"geometry": {"type": "MultiPolygon","coordinates": [[[[-61.8586,47.3883,36.673],[-61.8516,47.3899,0.0],[-61.8477,47.3946,2.8939],[-61.8424,47.3973,0.0],[-61.8396,47.4021,0.0],[-61.8419,47.4057,0.0],[-61.8436,47.4057,0.0],[-61.8447,47.4046,0.0],[-61.8438,47.401,0.1653],[-61.8454,47.4001,-0.1104],[-61.8466,47.3962,3.1448],[-61.8545,47.3979,0.0],[-61.8543,47.3996,0.0],[-61.8652,47.3976,-0.1099],[-61.8694,47.3984,-0.0095],[-61.8702,47.3998,0.0],[-61.8638,47.4054,0.0],[-61.8666,47.4073,0.0],[-61.8658,47.4093,0.0],[-61.8694,47.4107,0.7983],[-61.8648,47.4197,0.0],[-61.8573,47.4235,0.0],[-61.8447,47.4241,0.0],[-61.841,47.4313,0.0],[-61.8331,47.4338,0.0],[-61.827,47.4419,0.0],[-61.8185,47.4452,0.0],[-61.8055,47.4548,-0.1112],[-61.8008,47.4554,0.0],[-61.7885,47.4662,0.1077],[-61.7799,47.4699,0.0],[-61.7728,47.4772,-0.0606],[-61.7451,47.4942,0.0],[-61.7403,47.5011,0.3223],[-61.7305,47.5068,0.0],[-61.7268,47.5119,0.0],[-61.7203,47.5168,0.0],[-61.7135,47.5187,0.0],[-61.7043,47.5251,0.0],[-61.6983,47.5259,0.0],[-61.7002,47.5315,0.0],[-61.6944,47.5368,0.0],[-61.6799,47.5426,-0.2813],[-61.6759,47.5461,1.0154],[-61.6644,47.5506,1.0949],[-61.6463,47.5615,0.0],[-61.6186,47.5729,-0.0376],[-61.6057,47.5815,0.0],[-61.5969,47.5901,0.0],[-61.5913,47.5921,0.0],[-61.5938,47.5945,-0.2224],[-61.593,47.5974,0.1374],[-61.5948,47.5982,0.2053],[-61.5972,47.5971,0.0],[-61.6169,47.5832,-0.1556],[-61.6844,47.5426,0.1248],[-61.7052,47.5323,0.0],[-61.7126,47.5315,11.9032],[-61.7122,47.5299,12.4407],[-61.7166,47.5245,1.0758],[-61.7588,47.4901,0.8012],[-61.7816,47.474,2.5655],[-61.8086,47.4576,4.1304],[-61.8411,47.4393,1.027],[-61.8663,47.4273,0.0],[-61.8896,47.4202,0.3677],[-61.8977,47.4223,0.0],[-61.9063,47.4165,1.6635],[-61.9196,47.4135,9.4626],[-61.9249,47.4087,10.7099],[-61.9352,47.4055,0.0],[-61.9344,47.4043,6.0009],[-61.9374,47.3995,1.8712],[-61.948,47.3921,1.412],[-61.9283,47.3881,77.8888],[-61.9104,47.3797,69.0576],[-61.9089,47.3797,63.5916],[-61.9062,47.3844,105.8628],[-61.9015,47.3859,92.9942],[-61.8935,47.3847,75.9524],[-61.8896,47.3865,58.8457],[-61.8875,47.3819,38.7856],[-61.8815,47.3825,37.882],[-61.8806,47.3846,29.6395],[-61.8755,47.3835,35.5006],[-61.8705,47.3844,42.4514],[-61.8662,47.3876,33.2307],[-61.8631,47.3865,37.7712],[-61.8586,47.3883,36.673]]],
[[[-61.7464,47.4885,0.0],[-61.7442,47.4897,0.0],[-61.7444,47.491,0.0],[-61.7475,47.4903,-0.0288],[-61.7464,47.4885,0.0]]]]}
,"properties": {"GID_3": "CAN.11.65.2_1","GID_0": "CAN","country": "Canada","GID_1": "CAN.11_1","province": "Québec","NL_NAME_1": "NA","GID_2": "CAN.11.65_1","county": "LesÎles-de-la-Madeleine","NL_NAME_2": "NA","city": "Fatima","VARNAME_3": "NA","NL_NAME_3": "NA","TYPE_3": "Municipalité","ENGTYPE_3": "Municipality","CC_3": "NA","HASC_3": "NA","name": "Fatima.city","area_km2": 35.11864,"hist_schema_id": "Elevation0-9000","hist_area_km2": {"0": 22.17335,"25": 8.15106,"50": 2.05252,"75": 1.30622,"100": 0.86128,"125": 0.50243,"150": 0.07178}}}