{"type": "Feature","bbox": [-67.7452,48.354,-67.516,48.4921],"geometry": {"type": "MultiPolygon","coordinates": [[[[-67.5351,48.4737,367.7318],[-67.5581,48.49,446.6186],[-67.5683,48.4921,419.0993],[-67.5873,48.4789,642.9283],[-67.603,48.4891,461.2457],[-67.623,48.4753,476.5213],[-67.6394,48.4864,391.9941],[-67.7452,48.4165,671.011],[-67.6487,48.354,346.2375],[-67.516,48.4442,239.4839],[-67.5301,48.4534,310.7636],[-67.5183,48.462,306.0301],[-67.5351,48.4737,367.7318]]]]}
,"properties": {"GID_3": "CAN.11.40.22_1","GID_0": "CAN","country": "Canada","GID_1": "CAN.11_1","province": "Québec","NL_NAME_1": "NA","GID_2": "CAN.11.40_1","county": "LaMatapédia","NL_NAME_2": "NA","city": "Sainte-Irène","VARNAME_3": "NA","NL_NAME_3": "NA","TYPE_3": "MunicipalitéDeParoisse","ENGTYPE_3": "ParishMunicipality","CC_3": "NA","HASC_3": "NA","name": "Sainte-Irène.city","area_km2": 138.2382,"hist_schema_id": "Elevation0-9000","hist_area_km2": {"250": 4.1379,"275": 10.541,"300": 11.2857,"325": 16.2257,"350": 16.7282,"375": 18.9917,"400": 14.0961,"425": 10.0148,"450": 7.4261,"475": 6.667,"500": 5.3027,"525": 4.8244,"550": 4.0508,"575": 2.7286,"600": 1.6033,"625": 1.3502,"650": 1.4628,"675": 0.5905,"700": 0.2108}}}