{"type":"Feature","properties":{"GID_3":"CAN.9.48.1_1","GID_0":"CAN","country":"Canada","GID_1":"CAN.9_1","province":"Ontario","NL_NAME_1":"NA","GID_2":"CAN.9.48_1","county":"ThunderBay","NL_NAME_2":"NA","city":"Aroland83","VARNAME_3":"NA","NL_NAME_3":"NA","TYPE_3":"RéserveIndienne","ENGTYPE_3":"IndianReserve","CC_3":"NA","HASC_3":"NA","name":"Aroland83.city"},
"geometry":{"type": "MultiPolygon","coordinates": [[[[-86.9721,50.2198,329.3698],[-86.9626,50.2169,326.8952],[-86.9558,50.2189,336.6509],[-86.9496,50.2269,344.7705],[-86.9498,50.2309,346.0779],[-86.9568,50.2345,347.3646],[-86.9643,50.2358,334.0],[-86.9739,50.2336,343.5471],[-86.9777,50.2264,340.0317],[-86.9754,50.222,335.7763],[-86.9721,50.2198,329.3698]]]]}}