{"type": "Feature","bbox": [-106.4257,51.097,-106.0039,51.3594],"geometry": {"type": "MultiPolygon","coordinates": [[[[-106.0039,51.3594,623.664],[-106.4256,51.359,586.2917],[-106.4257,51.2714,593.3829],[-106.421,51.2713,591.4626],[-106.4227,51.097,575.1494],[-106.0044,51.0977,631.7543],[-106.0039,51.3594,623.664]]]]}
,"properties": {"GID_3": "CAN.12.2.59_1","GID_0": "CAN","country": "Canada","GID_1": "CAN.12_1","province": "Saskatchewan","NL_NAME_1": "NA","GID_2": "CAN.12.2_1","county": "DivisionNo.11","NL_NAME_2": "NA","city": "WillnerNo.253","VARNAME_3": "NA","NL_NAME_3": "NA","TYPE_3": "RuralMunicipality","ENGTYPE_3": "RuralMunicipality","CC_3": "NA","HASC_3": "NA","name": "Willner_No.253.city","area_km2": 850.4813,"hist_schema_id": "Elevation0-9000","hist_area_km2": {"575": 182.3927,"600": 310.7789,"625": 339.6008,"650": 17.709}}}