{"type":"Feature","properties":{"GID_3":"CAN.12.18.29_1","GID_0":"CAN","country":"Canada","GID_1":"CAN.12_1","province":"Saskatchewan","NL_NAME_1":"NA","GID_2":"CAN.12.18_1","county":"DivisionNo.9","NL_NAME_2":"NA","city":"Lintlaw","VARNAME_3":"NA","NL_NAME_3":"NA","TYPE_3":"Village","ENGTYPE_3":"Village","CC_3":"NA","HASC_3":"NA","name":"Lintlaw.city"},
"geometry":{"type": "MultiPolygon","coordinates": [[[[-103.2408,52.0734,610.8004],[-103.2444,52.0735,609.8455],[-103.2444,52.0711,612.8245],[-103.2557,52.0713,611.3647],[-103.2556,52.0641,609.8257],[-103.247,52.0641,612.2095],[-103.247,52.0627,611.4811],[-103.2446,52.0616,613.1954],[-103.2395,52.0616,612.7285],[-103.2383,52.0678,615.3254],[-103.2341,52.0678,614.2615],[-103.2343,52.0711,611.6959],[-103.2407,52.0711,613.8732],[-103.2408,52.0734,610.8004]]]]}}