{"type": "Feature","bbox": [-117.9413,70.6312,-117.5691,70.8359],"geometry": {"type": "MultiPolygon","coordinates": [[[[-117.7438,70.6625,52.911],[-117.7464,70.6661,12.4187],[-117.75,70.6667,5.9035],[-117.7578,70.6641,32.4112],[-117.7599,70.6589,32.5902],[-117.7547,70.6578,6.1345],[-117.7521,70.6542,0.0],[-117.7422,70.6536,31.8191],[-117.7411,70.6505,0.0],[-117.7318,70.6474,34.4006],[-117.7307,70.6443,0.0],[-117.7255,70.6432,53.9076],[-117.7245,70.6401,20.4928],[-117.7193,70.6391,42.4876],[-117.7141,70.6318,0.0],[-117.7104,70.6312,0.0],[-117.7078,70.6349,53.0792],[-117.7005,70.6359,0.0],[-117.7005,70.6391,0.0],[-117.7057,70.6401,6.7311],[-117.7068,70.6432,12.2442],[-117.712,70.6443,21.6435],[-117.7047,70.6474,0.0],[-117.7099,70.6484,12.0835],[-117.7109,70.6516,0.0],[-117.7161,70.6526,5.9454],[-117.7172,70.6557,0.0],[-117.7266,70.6589,28.1219],[-117.7292,70.6625,3.155],[-117.7438,70.6625,52.911]]],
[[[-117.6682,70.638,7.3189],[-117.6668,70.6376,10.5116],[-117.5691,70.8006,196.5647],[-117.8944,70.8359,131.6163],[-117.9413,70.7771,0.0],[-117.9354,70.7771,11.0803],[-117.9208,70.7708,0.0],[-117.9125,70.7708,6.3485],[-117.9021,70.7667,0.0],[-117.8938,70.7667,5.1374],[-117.8833,70.7625,0.0],[-117.875,70.7625,10.5308],[-117.8542,70.7542,0.0],[-117.8458,70.7542,1.6265],[-117.8354,70.75,0.9456],[-117.8271,70.75,4.2798],[-117.8245,70.7464,2.7585],[-117.8167,70.7438,1.7199],[-117.7963,70.7412,0.3149],[-117.7963,70.738,0.0],[-117.8016,70.737,2.9919],[-117.8026,70.7338,39.5802],[-117.8161,70.7286,0.0],[-117.8146,70.7271,0.0],[-117.8047,70.7266,76.5472],[-117.8021,70.7229,0.0],[-117.7922,70.7234,0.0],[-117.7911,70.7266,10.1191],[-117.7859,70.7276,0.0],[-117.7833,70.7312,0.0],[-117.7729,70.7333,0.0],[-117.7667,70.7312,3.0967],[-117.7588,70.7338,0.0],[-117.7578,70.737,0.0],[-117.7542,70.7375,0.0],[-117.7521,70.7354,0.0],[-117.7526,70.7318,22.5688],[-117.7578,70.7297,0.0],[-117.7521,70.7271,0.0],[-117.7422,70.7266,2.7296],[-117.7411,70.7214,0.0],[-117.7333,70.7188,0.0],[-117.725,70.7188,0.0],[-117.7208,70.7167,0.0],[-117.7,70.7167,0.0],[-117.6958,70.7146,0.0],[-117.688,70.7141,39.014],[-117.687,70.7089,8.5638],[-117.6854,70.7083,0.0],[-117.6646,70.7104,0.0],[-117.6505,70.7057,76.4152],[-117.6557,70.7037,42.8705],[-117.6589,70.6984,34.6216],[-117.6641,70.6974,3.5109],[-117.6651,70.6943,40.3218],[-117.6703,70.6932,7.81],[-117.6713,70.6901,48.361],[-117.6813,70.6875,94.8208],[-117.6911,70.687,52.5891],[-117.6922,70.6818,99.951],[-117.6995,70.6807,0.0],[-117.6943,70.6787,0.0],[-117.6932,70.6755,0.0],[-117.6818,70.6713,15.7325],[-117.687,70.6703,1.7139],[-117.6901,70.6651,104.7896],[-117.6953,70.6641,40.3627],[-117.6963,70.6609,41.3128],[-117.7016,70.6599,99.8213],[-117.7042,70.6563,10.6276],[-117.7037,70.6526,1.8684],[-117.6896,70.6479,0.0],[-117.6813,70.6479,0.0],[-117.6693,70.6432,18.5004],[-117.6745,70.6401,0.0],[-117.6682,70.638,7.3189]]]]}
,"properties": {"GID_3": "CAN.6.2.6_1","GID_0": "CAN","country": "Canada","GID_1": "CAN.6_1","province": "NorthwestTerritories","NL_NAME_1": "NA","GID_2": "CAN.6.2_1","county": "Inuvik","NL_NAME_2": "NA","city": "Holman","VARNAME_3": "NA","NL_NAME_3": "NA","TYPE_3": "Hamlet","ENGTYPE_3": "Hamlet","CC_3": "NA","HASC_3": "NA","name": "Holman.city","area_km2": 131.3432,"hist_schema_id": "Elevation0-9000","hist_area_km2": {"0": 7.4366,"25": 19.66,"50": 24.6158,"75": 19.9445,"100": 21.3508,"125": 16.0393,"150": 9.4834,"175": 8.4046,"200": 4.3104,"225": 0.0977}}}