{"type":"Feature","properties":{"GID_3":"CAN.2.27.10_1","GID_0":"CAN","country":"Canada","GID_1":"CAN.2_1","province":"BritishColumbia","NL_NAME_1":"NA","GID_2":"CAN.2.27_1","county":"SunshineCoast","NL_NAME_2":"NA","city":"SunshineCoastF","VARNAME_3":"NA","NL_NAME_3":"NA","TYPE_3":"RegionalDistrictElectoralArea","ENGTYPE_3":"RegionalDistrictElectoralArea","CC_3":"NA","HASC_3":"NA","name":"Sunshine_Coast_F.city"},
"geometry":{"type": "MultiPolygon","coordinates": [[[[-123.4541,49.3481,0.0],[-123.4575,49.3497,0.0],[-123.4653,49.3484,2.2323],[-123.4573,49.3465,0.0],[-123.4541,49.3481,0.0]]],
[[[-123.458,49.369,5.0513],[-123.4565,49.3703,0.0],[-123.4589,49.3717,6.4295],[-123.4671,49.3691,3.815],[-123.4699,49.3633,0.0],[-123.4681,49.361,3.7438],[-123.4705,49.3587,0.0],[-123.4693,49.3566,2.1367],[-123.4603,49.3573,10.7311],[-123.4602,49.3631,19.8511],[-123.454,49.3654,0.0],[-123.458,49.369,5.0513]]],
[[[-123.4736,49.3711,5.3815],[-123.4769,49.3719,34.3596],[-123.479,49.3699,0.0],[-123.4743,49.3678,3.7863],[-123.4719,49.3683,5.1989],[-123.4736,49.3711,5.3815]]],
[[[-123.4725,49.3728,0.0],[-123.4717,49.3714,0.0],[-123.4697,49.3719,0.0],[-123.4711,49.3731,2.7202],[-123.4725,49.3728,0.0]]],
[[[-123.4856,49.3622,0.0],[-123.4897,49.3642,0.0],[-123.4921,49.3621,12.9012],[-123.4858,49.3581,0.0],[-123.4843,49.359,5.8671],[-123.4856,49.3622,0.0]]],
[[[-123.4808,49.3651,1.4527],[-123.4839,49.3671,0.0],[-123.4864,49.3661,0.0],[-123.4828,49.3642,10.7553],[-123.4808,49.3651,1.4527]]],
[[[-123.4758,49.3858,0.0],[-123.4772,49.3861,4.1154],[-123.4783,49.3847,0.0],[-123.4775,49.3847,0.0],[-123.4758,49.3858,0.0]]],
[[[-123.4775,49.4029,0.0],[-123.4782,49.4009,0.0],[-123.4755,49.402,0.0],[-123.4758,49.4029,0.0],[-123.4775,49.4029,0.0]]],
[[[-123.4789,49.4669,0.0],[-123.4814,49.4692,0.0],[-123.4823,49.4691,0.0],[-123.4803,49.4664,0.0],[-123.4789,49.4669,0.0]]],
[[[-123.4818,49.4748,0.0],[-123.4829,49.4761,0.0],[-123.4835,49.4742,0.0],[-123.4824,49.4734,0.0],[-123.4818,49.4748,0.0]]],
[[[-123.4843,49.4975,0.0],[-123.4865,49.4993,0.0],[-123.4899,49.4994,0.0],[-123.4869,49.4989,0.0],[-123.4856,49.4968,0.0],[-123.4843,49.4975,0.0]]],
[[[-123.4767,49.4989,0.0],[-123.4789,49.5,0.0],[-123.4775,49.5014,0.0],[-123.4797,49.5,0.0],[-123.4778,49.4975,0.0],[-123.4767,49.4989,0.0]]],
[[[-123.4803,49.5006,0.0],[-123.4797,49.5022,0.0],[-123.4836,49.5019,0.0],[-123.48,49.5,0.0],[-123.4803,49.5006,0.0]]],
[[[-123.4905,49.513,0.0],[-123.4901,49.5143,0.0],[-123.4916,49.5142,0.0],[-123.4924,49.5115,0.0],[-123.4915,49.5115,0.0],[-123.4905,49.513,0.0]]],
[[[-123.4617,49.3731,5.5025],[-123.4625,49.3728,5.5025],[-123.4638,49.3724,0.0],[-123.4617,49.3717,0.0],[-123.4617,49.3731,5.5025]]],
[[[-123.4523,49.4104,9.8569],[-123.4648,49.4104,11.9317],[-123.4669,49.4076,14.8372],[-123.4724,49.4053,0.0],[-123.4727,49.4014,0.0],[-123.4924,49.3903,14.0902],[-123.4968,49.3846,0.0],[-123.4889,49.3847,6.3169],[-123.472,49.393,22.2527],[-123.4652,49.3918,0.0],[-123.4609,49.393,18.0353],[-123.4544,49.3908,20.1051],[-123.4486,49.3937,14.67],[-123.4396,49.3904,0.0],[-123.4326,49.3954,0.0],[-123.4303,49.4032,3.2876],[-123.4523,49.4104,9.8569]]],
[[[-123.4759,49.4686,0.0],[-123.4782,49.469,0.0],[-123.4784,49.4676,0.0],[-123.4745,49.468,0.0],[-123.4759,49.4686,0.0]]],
[[[-123.4744,49.4769,0.0],[-123.4745,49.4742,0.0],[-123.472,49.4783,0.0],[-123.4744,49.4785,0.0],[-123.4744,49.4769,0.0]]],
[[[-123.4528,49.3703,0.0],[-123.45,49.3719,0.0],[-123.4533,49.3719,0.0],[-123.4542,49.3711,0.0],[-123.4528,49.3703,0.0]]],
[[[-123.4476,49.3772,0.0],[-123.4514,49.3781,2.1988],[-123.4528,49.3774,2.1988],[-123.4521,49.3761,3.0835],[-123.4476,49.3772,0.0]]],
[[[-123.4483,49.4306,2.8752],[-123.4467,49.4294,0.0],[-123.4425,49.4319,0.0],[-123.4436,49.4325,0.0],[-123.4483,49.4306,2.8752]]],
[[[-123.3688,49.5286,37.6414],[-123.3764,49.5317,22.8217],[-123.3804,49.5352,22.3907],[-123.3895,49.5319,0.0],[-123.3953,49.5276,10.2518],[-123.4084,49.5262,21.6685],[-123.4256,49.5271,0.0],[-123.4343,49.5222,39.8733],[-123.4459,49.5105,0.0],[-123.4456,49.5061,17.3869],[-123.4506,49.5021,56.736],[-123.4494,49.4989,0.0],[-123.4454,49.4966,0.0],[-123.4436,49.4931,0.0],[-123.4433,49.4856,0.0],[-123.4479,49.4828,0.0],[-123.4517,49.4772,0.0],[-123.4593,49.4725,22.6772],[-123.4559,49.4639,9.246],[-123.4472,49.4617,0.0],[-123.4472,49.4581,4.2751],[-123.45,49.4572,0.0],[-123.4486,49.4544,28.3313],[-123.4422,49.4514,7.0167],[-123.4394,49.4483,0.0],[-123.4476,49.4386,2.344],[-123.4471,49.4343,1.1823],[-123.4373,49.4341,9.1341],[-123.4285,49.441,5.7796],[-123.4244,49.4469,0.0],[-123.4225,49.4554,10.4743],[-123.4197,49.4598,0.0],[-123.4165,49.4609,11.5081],[-123.4102,49.4677,66.9807],[-123.4035,49.471,10.8163],[-123.4007,49.4708,8.0213],[-123.3992,49.4671,25.5448],[-123.4055,49.4616,48.0961],[-123.4068,49.4567,14.2539],[-123.3978,49.4528,6.0923],[-123.3905,49.4553,1.5876999999999999],[-123.3896,49.4613,78.7668],[-123.3879,49.4634,7.0878],[-123.3897,49.4652,64.9834],[-123.3889,49.4717,0.0],[-123.3797,49.4797,12.5144],[-123.3753,49.4792,14.8513],[-123.3731,49.4764,0.0],[-123.3783,49.4692,2.1392],[-123.3753,49.4664,0.0],[-123.3822,49.4614,0.0],[-123.3829,49.4572,0.5492],[-123.3753,49.4535,0.0],[-123.3713,49.4582,10.3513],[-123.3636,49.4619,4.3774],[-123.3625,49.4703,0.0],[-123.3578,49.4753,0.0],[-123.3461,49.4768,39.0771],[-123.3528,49.4697,10.3536],[-123.3572,49.4672,0.0],[-123.3586,49.458,31.1013],[-123.3618,49.4555,4.7951],[-123.364,49.45,3.9633],[-123.3708,49.4456,19.4175],[-123.375,49.4403,17.5096],[-123.373,49.4334,46.2136],[-123.3693,49.4308,3.4514],[-123.3619,49.4312,4.2423],[-123.3543,49.4372,8.6014],[-123.3365,49.4429,9.7332],[-123.3283,49.4539,40.473],[-123.3248,49.4536,0.0],[-123.3276,49.4488,6.185],[-123.3249,49.4466,0.0],[-123.321,49.4456,42.9895],[-123.3153,49.4486,0.0],[-123.3144,49.4617,16.2585],[-123.3164,49.4722,0.0],[-123.325,49.4817,4.9308],[-123.3344,49.4872,12.3981],[-123.3348,49.4899,3.0195],[-123.3308,49.4914,2.8984],[-123.3297,49.4967,11.1589],[-123.3413,49.5011,14.8702],[-123.3497,49.5131,17.3783],[-123.3572,49.519,17.4963],[-123.3576,49.5206,12.0957],[-123.3553,49.5226,3.8076],[-123.356,49.5289,3.0513],[-123.3619,49.5311,10.6268],[-123.3664,49.5284,31.1062],[-123.3688,49.5286,37.6414]]],
[[[-123.4508,49.5167,0.0],[-123.4519,49.5192,2.564],[-123.4567,49.5178,49.8497],[-123.4583,49.5169,0.0],[-123.455,49.5161,108.5541],[-123.4575,49.5142,110.2615],[-123.4658,49.5119,12.4584],[-123.4678,49.5094,2.201],[-123.4578,49.51,21.6667],[-123.4556,49.5092,39.6298],[-123.4569,49.5064,13.227],[-123.455,49.5058,5.1975],[-123.4556,49.5097,39.6298],[-123.4511,49.5122,0.0],[-123.4528,49.5169,30.4572],[-123.4517,49.5156,30.4572],[-123.4508,49.5167,0.0]]],
[[[-123.4678,49.5119,0.0],[-123.4664,49.5117,12.4584],[-123.4639,49.5139,0.0],[-123.4658,49.5133,0.0],[-123.4678,49.5119,0.0]]],
[[[-123.3089,49.5525,0.0],[-123.3153,49.5577,0.0],[-123.3231,49.5579,0.0],[-123.3248,49.5532,2.9978],[-123.3213,49.5505,79.535],[-123.3209,49.5454,0.0],[-123.3247,49.5419,4.9357],[-123.3274,49.5331,66.2487],[-123.3239,49.5233,0.0],[-123.3214,49.5208,18.5758],[-123.3105,49.5136,0.0],[-123.3056,49.5131,1.8623],[-123.3027,49.5104,0.0],[-123.2975,49.5181,15.3529],[-123.2933,49.5189,43.4696],[-123.2899,49.5221,31.0013],[-123.2859,49.5201,3.3488],[-123.2831,49.5239,0.0],[-123.285,49.5256,0.0],[-123.2912,49.5261,0.9659],[-123.2936,49.5294,67.9267],[-123.2908,49.5381,16.081],[-123.2942,49.5475,0.0],[-123.3016,49.5481,45.8519],[-123.3089,49.5525,0.0]]],
[[[-123.346,49.6607,1225.8112],[-123.3514,49.6658,1022.8606],[-123.3511,49.6629,1174.4401],[-123.3566,49.6574,1036.751],[-123.3745,49.6496,1346.9424],[-123.3906,49.6497,1134.855],[-123.4288,49.6551,629.9536],[-123.4429,49.6555,1085.1482],[-123.454,49.6505,1286.4751],[-123.4568,49.6477,1252.9724],[-123.4573,49.6458,1249.6788],[-123.4516,49.6404,1172.9747],[-123.4499,49.636,1050.6008],[-123.4495,49.6316,1112.0698],[-123.4529,49.6234,1080.0421],[-123.4573,49.6191,935.491],[-123.468,49.6163,1218.9028],[-123.4801,49.6159,1279.9894],[-123.5029,49.6206,1070.3724],[-123.5194,49.6255,1363.0237],[-123.5309,49.6328,1155.6523],[-123.5379,49.6348,1041.4911],[-123.5459,49.6324,1287.4618],[-123.5642,49.6306,1316.092],[-123.5724,49.624,1164.1455],[-123.567,49.6186,989.7957],[-123.5664,49.616,1091.5959],[-123.5678,49.6143,1119.9062],[-123.5783,49.611,1136.5142],[-123.5737,49.6055,1523.9728],[-123.5748,49.6002,1525.8978],[-123.5681,49.5943,1213.3945],[-123.5732,49.5888,1353.4633],[-123.5709,49.5855,1181.7015],[-123.571,49.5821,1106.4624],[-123.577,49.5784,1169.6678],[-123.5863,49.5791,1036.6096],[-123.5935,49.5676,1315.6066],[-123.5945,49.5551,1055.0408],[-123.5903,49.5502,1026.3157],[-123.5892,49.5432,1173.0015],[-123.5931,49.5319,1170.7416],[-123.5991,49.5209,1149.1953],[-123.5981,49.4912,883.2202],[-123.628,49.4906,817.3266],[-123.6275,49.4762,635.0389],[-123.5651,49.476,832.8488],[-123.5651,49.4615,1111.9536],[-123.5719,49.4615,913.7677],[-123.5719,49.4561,819.8907],[-123.5286,49.4561,890.7609],[-123.5275,49.4254,314.7563],[-123.518,49.4253,238.525],[-123.5179,49.418,180.5368],[-123.5134,49.418,174.9937],[-123.5133,49.4145,164.8198],[-123.5096,49.4146,149.7579],[-123.5098,49.4124,144.8464],[-123.5068,49.4124,134.1408],[-123.5066,49.41,102.6108],[-123.5023,49.41,80.2285],[-123.5013,49.4078,60.391],[-123.5013,49.411,84.8336],[-123.4961,49.4108,12.4413],[-123.4916,49.4131,1.5555],[-123.4901,49.4147,1.9998],[-123.484,49.4156,7.8951],[-123.4806,49.4189,24.2285],[-123.4789,49.4284,9.6458],[-123.474,49.4306,6.2912],[-123.4725,49.4388,28.7554],[-123.4673,49.4431,0.0],[-123.4674,49.4489,0.0],[-123.472,49.4532,32.5197],[-123.4727,49.4563,3.009],[-123.4814,49.4668,0.0],[-123.486,49.4682,0.0],[-123.4858,49.4698,0.0],[-123.4806,49.4704,0.0],[-123.4806,49.4723,0.0],[-123.486,49.4738,0.0],[-123.486,49.4771,0.0],[-123.483,49.4789,1.4337],[-123.4816,49.4824,26.0092],[-123.4713,49.4837,0.0],[-123.4699,49.4853,42.1236],[-123.4833,49.4925,2.5134],[-123.4898,49.4984,2.2713],[-123.4961,49.5008,5.2969],[-123.4956,49.5034,3.8245],[-123.4934,49.5042,0.0],[-123.4943,49.5108,0.0],[-123.4926,49.5133,1.8924],[-123.4926,49.5183,10.0686],[-123.4855,49.5186,0.0],[-123.4838,49.5209,1.784],[-123.4806,49.521,0.701],[-123.4772,49.528,2.8286],[-123.4681,49.5314,19.0999],[-123.462,49.5319,3.1195],[-123.4592,49.5303,0.0],[-123.4561,49.5322,0.0],[-123.4566,49.5339,21.588],[-123.4485,49.5388,39.5876],[-123.428,49.5426,30.8969],[-123.4129,49.5508,58.0662],[-123.4011,49.553,18.869],[-123.3956,49.557,0.0],[-123.3962,49.5591,5.0427],[-123.3949,49.5596,2.2994],[-123.3803,49.5616,8.15],[-123.3771,49.5592,63.3555],[-123.3642,49.5554,0.0],[-123.3551,49.5544,30.9657],[-123.3507,49.5558,42.5119],[-123.3497,49.5575,16.2842],[-123.351,49.5639,68.4842],[-123.3469,49.5679,55.3039],[-123.334,49.5707,37.5894],[-123.3307,49.5775,78.1494],[-123.3244,49.5798,13.4681],[-123.3155,49.5803,0.0],[-123.3088,49.5837,0.0],[-123.2863,49.582,0.0],[-123.2767,49.5833,30.6842],[-123.2769,49.5907,349.24],[-123.2818,49.5903,390.0096],[-123.2874,49.5947,679.1083],[-123.294,49.6101,1216.5616],[-123.2998,49.6171,1261.0927],[-123.3215,49.6337,1193.3591],[-123.3289,49.6417,1142.1866],[-123.3361,49.6539,1133.2126],[-123.346,49.6607,1225.8112]],
[[-123.4936,49.4136,10.6667],[-123.4926,49.4136,10.6667],[-123.4915,49.4136,1.5555],[-123.4937,49.4126,10.6667],[-123.4936,49.4136,10.6667]]],
[[[-123.2766,49.5756,0.0],[-123.2744,49.5756,6.9988],[-123.2736,49.5767,0.0],[-123.2762,49.5764,6.9988],[-123.2766,49.5756,0.0]]],
[[[-123.2826,49.5781,13.9209],[-123.2816,49.5788,0.0],[-123.2832,49.5794,9.4122],[-123.2878,49.5779,7.9248],[-123.2874,49.5771,7.9248],[-123.2826,49.5781,13.9209]]]]}}