{"type": "Feature","bbox": [-124.0558,48.3133,-123.2246,48.5775],"geometry": {"type": "MultiPolygon","coordinates": [[[[-123.6233,48.3306,0.0],[-123.6267,48.3344,3.0897],[-123.6294,48.3322,0.0],[-123.6247,48.3297,0.0],[-123.6233,48.3306,0.0]]],
[[[-123.7081,48.3339,0.0],[-123.7083,48.3319,0.0],[-123.7061,48.3328,0.0],[-123.7061,48.3333,0.0],[-123.7081,48.3339,0.0]]],
[[[-123.6228,48.3361,7.6209],[-123.5978,48.3666,68.7946],[-123.6098,48.3708,88.0021],[-123.5969,48.3871,220.9169],[-123.6052,48.3902,182.3313],[-123.6106,48.3842,252.2767],[-123.6256,48.3901,95.9413],[-123.6229,48.3853,138.6745],[-123.6254,48.3846,107.1103],[-123.6267,48.3867,85.6197],[-123.6346,48.3879,1.9656],[-123.6353,48.3842,8.8195],[-123.6386,48.3822,0.0],[-123.6347,48.3786,2.4194],[-123.6381,48.3694,0.0],[-123.6348,48.3672,17.0318],[-123.6355,48.3633,21.5914],[-123.6399,48.365,16.4455],[-123.6456,48.3642,6.3986],[-123.6481,48.3658,0.0],[-123.6517,48.3639,14.0633],[-123.6517,48.3659,0.0],[-123.6564,48.3686,5.9313],[-123.6625,48.3642,0.0],[-123.6772,48.3678,4.8981],[-123.6817,48.3703,27.5229],[-123.6817,48.3756,3.5713],[-123.6856,48.3772,0.0],[-123.6911,48.3744,3.0153],[-123.7014,48.375,8.618],[-123.7097,48.3706,0.3924],[-123.7147,48.3653,9.6202],[-123.7169,48.3656,0.0],[-123.7164,48.3628,0.0],[-123.7119,48.3642,6.8355],[-123.7047,48.3622,8.5749],[-123.7036,48.3592,14.1726],[-123.7103,48.3567,6.4221],[-123.7131,48.3539,0.8499],[-123.7158,48.3538,0.0],[-123.7152,48.3514,0.0],[-123.7181,48.3471,1.9439],[-123.7167,48.3472,1.9439],[-123.7142,48.3431,2.8753],[-123.7108,48.3422,15.7442],[-123.7153,48.3392,0.0],[-123.7144,48.3383,0.0],[-123.7106,48.3397,18.3554],[-123.7078,48.3361,2.0878],[-123.7044,48.3392,18.594],[-123.6906,48.3353,0.0],[-123.6858,48.3356,38.7798],[-123.6814,48.33,0.0],[-123.6778,48.3303,4.6078],[-123.6742,48.3272,4.3352],[-123.6714,48.3269,0.0],[-123.6725,48.3231,0.0],[-123.6714,48.3219,0.0],[-123.6694,48.3228,7.6709],[-123.6675,48.3197,0.0],[-123.6553,48.3169,0.0],[-123.6533,48.3158,2.4454],[-123.6547,48.3147,2.9989],[-123.6536,48.3133,0.0],[-123.6481,48.3136,0.0],[-123.6419,48.3167,1.4318],[-123.6381,48.3164,1.3878],[-123.635,48.3242,10.7489],[-123.6292,48.3253,0.0],[-123.6303,48.3269,6.4092],[-123.6342,48.3275,0.0],[-123.6314,48.3344,5.4184],[-123.6228,48.3361,7.6209]]],
[[[-123.6456,48.3726,0.0],[-123.649,48.3731,0.0],[-123.6494,48.3725,0.0],[-123.6467,48.3718,0.0],[-123.6456,48.3726,0.0]]],
[[[-123.2272,48.4273,1.8414],[-123.229,48.4301,0.0],[-123.239,48.4281,4.143],[-123.2445,48.4299,5.8795],[-123.2504,48.4248,0.0],[-123.2454,48.4234,1.6746],[-123.2424,48.4194,0.3427],[-123.23779999999999,48.4194,0.5572],[-123.2356,48.4232,0.0],[-123.2314,48.4236,0.0],[-123.2278,48.422,0.0],[-123.2254,48.423,5.8349],[-123.2246,48.4252,0.9736],[-123.2272,48.4273,1.8414]]],
[[[-123.2392,48.4317,0.0],[-123.2372,48.431399999999996,0.0],[-123.2389,48.4339,0.0],[-123.24,48.4333,0.617],[-123.2392,48.4317,0.0]]],
[[[-123.2552,48.4304,0.0],[-123.2532,48.4308,0.0],[-123.2521,48.4345,0.864],[-123.2579,48.4385,0.0],[-123.2583,48.4336,0.0],[-123.2552,48.4304,0.0]]],
[[[-123.232,48.4344,0.0],[-123.2334,48.4355,0.0],[-123.2372,48.4353,2.4472],[-123.2366,48.4333,0.0],[-123.232,48.4344,0.0]]],
[[[-123.2428,48.4403,0.0],[-123.2425,48.4425,0.0],[-123.2486,48.441,1.8624],[-123.2512,48.4369,2.5093],[-123.2509,48.4331,0.0],[-123.2467,48.431399999999996,0.4031],[-123.2402,48.4349,0.0],[-123.2433,48.4388,0.0],[-123.2428,48.4403,0.0]]],
[[[-123.2553,48.4391,3.3154],[-123.2564,48.4383,0.6084],[-123.2539,48.4372,6.194],[-123.2518,48.4393,1.866],[-123.2526,48.4404,1.866],[-123.2553,48.4391,3.3154]]],
[[[-123.2564,48.4397,0.0],[-123.2519,48.4425,0.9374],[-123.2544,48.4431,0.0],[-123.2575,48.4406,1.4519],[-123.2564,48.4397,0.0]]],
[[[-123.7789,48.3683,0.0],[-123.7767,48.368899999999996,20.6772],[-123.7798,48.3744,89.7186],[-123.7561,48.381,188.5158],[-123.7637,48.3929,170.7184],[-123.7479,48.3976,69.5269],[-123.7476,48.4016,58.1282],[-123.7389,48.3994,53.6453],[-123.7299,48.4021,115.7309],[-123.73,48.4125,270.6431],[-123.719,48.4126,73.3214],[-123.7192,48.4285,199.375],[-123.7247,48.4274,267.6827],[-123.7247,48.431,225.4389],[-123.7278,48.4311,282.0577],[-123.7277,48.4385,257.7956],[-123.7292,48.4386,292.6384],[-123.7292,48.4421,182.7363],[-123.7419,48.4428,195.0515],[-123.742,48.439,216.9143],[-123.7476,48.4391,328.6662],[-123.7477,48.4364,277.1335],[-123.7502,48.4363,297.4621],[-123.7502,48.4344,298.4051],[-123.7461,48.4344,280.0859],[-123.7463,48.4225,239.7816],[-123.7449,48.4225,229.7999],[-123.7449,48.4201,244.5486],[-123.8377,48.389,131.552],[-123.8662,48.3898,67.6104],[-123.8659,48.403,124.2805],[-123.8899,48.4027,119.258],[-123.9127,48.4053,161.9773],[-123.9127,48.4025,127.4512],[-123.9236,48.4026,129.8586],[-123.9237,48.4044,168.519],[-123.9367,48.4046,248.96],[-123.9363,48.4065,285.2121],[-123.9401,48.4067,280.0556],[-123.95,48.4056,204.2023],[-123.95,48.4042,155.6867],[-123.9714,48.4044,192.2816],[-123.9716,48.408,169.1154],[-123.9819,48.4078,129.214],[-123.9818,48.4169,248.9323],[-124.0037,48.417,114.5264],[-124.0036,48.4191,124.6875],[-124.0153,48.419,80.6977],[-124.0151,48.4301,178.6687],[-124.0518,48.4306,40.6654],[-124.0519,48.4267,17.3091],[-124.0558,48.4215,4.9953],[-124.0465,48.4195,1.2514],[-124.0423,48.4211,12.912],[-124.0375,48.4205,47.7007],[-124.0308,48.4168,0.0],[-124.0223,48.416,6.5903],[-124.0115,48.4107,10.7767],[-123.9936,48.4067,5.3537],[-123.9886,48.4017,0.0],[-123.9861,48.3975,28.2104],[-123.9864,48.3947,0.0],[-123.9825,48.3956,13.9964],[-123.975,48.3922,2.9916],[-123.9722,48.3947,9.0114],[-123.9672,48.3936,0.0],[-123.9567,48.3961,18.5421],[-123.9489,48.3953,4.1],[-123.9414,48.3853,0.0],[-123.9214,48.3764,0.0],[-123.9153,48.3769,0.0],[-123.9103,48.3797,16.7988],[-123.9056,48.3789,7.452],[-123.9025,48.3811,24.5338],[-123.8911,48.3825,34.6404],[-123.8633,48.3792,1.8694],[-123.8494,48.3731,0.5732],[-123.8361,48.37,0.0],[-123.8301,48.3627,0.0],[-123.822,48.3564,0.0],[-123.7961,48.3644,3.3442],[-123.7853,48.3641,7.4521],[-123.7789,48.3683,0.0]]],
[[[-123.5804,48.4259,181.3937],[-123.5748,48.426,164.6488],[-123.5616,48.4447,209.2722],[-123.5629,48.4451,281.5877],[-123.5583,48.4557,104.4245],[-123.5622,48.4585,97.9106],[-123.5725,48.4597,120.9852],[-123.5734,48.4628,131.1534],[-123.5714,48.4637,129.2754],[-123.5645,48.4605,113.6525],[-123.5494,48.4624,92.3643],[-123.5482,48.4711,91.4153],[-123.5511,48.4905,0.0],[-123.5522,48.4893,0.0],[-123.5531,48.4903,0.0],[-123.552,48.4967,0.0],[-123.5534,48.4993,0.0],[-123.5511,48.5066,2.1233],[-123.5482,48.5083,26.303],[-123.5488,48.5123,26.2128],[-123.5432,48.5156,5.6731],[-123.5425,48.5189,14.3596],[-123.543,48.5223,0.0],[-123.5453,48.5236,7.227],[-123.5447,48.5277,0.0],[-123.5546,48.536,0.0],[-123.5795,48.5358,443.8513],[-123.5794,48.5318,458.1161],[-123.5813,48.5318,472.49],[-123.5812,48.5247,396.5801],[-123.5864,48.5251,485.9943],[-123.5866,48.5212,493.769],[-123.6088,48.5217,537.4526],[-123.609,48.529,505.8591],[-123.617,48.5291,523.6727],[-123.6172,48.5256,491.7334],[-123.6404,48.5259,588.2681],[-123.6413,48.5148,529.174],[-123.6357,48.5146,475.9389],[-123.6362,48.5007,508.1674],[-123.7501,48.5007,233.0756],[-123.7498,48.4967,308.3373],[-123.7485,48.4968,409.2331],[-123.7484,48.494,374.777],[-123.7455,48.4932,360.0196],[-123.7457,48.4887,242.0744],[-123.7442,48.4877,235.8279],[-123.7488,48.4876,313.7564],[-123.7487,48.4798,292.7925],[-123.7517,48.4798,278.9358],[-123.7516,48.4739,238.797],[-123.7388,48.4741,287.8232],[-123.7378,48.4563,115.6557],[-123.7343,48.454,125.1402],[-123.7275,48.4429,152.7492],[-123.7151,48.4364,60.7655],[-123.7136,48.4332,79.876],[-123.7148,48.4281,99.0134],[-123.6452,48.4289,411.7097],[-123.6451,48.425,353.3317],[-123.5804,48.4259,181.3937]]],
[[[-123.5459,48.4838,58.1852],[-123.5446,48.487,135.6994],[-123.5477,48.4871,60.4389],[-123.5486,48.4848,17.5102],[-123.5459,48.4838,58.1852]]],
[[[-123.4578,48.5531,90.675],[-123.4583,48.5582,57.7473],[-123.4642,48.5574,56.0135],[-123.4759,48.5626,3.3097],[-123.4755,48.5745,0.0],[-123.4859,48.5775,0.0],[-123.4922,48.5728,4.7431],[-123.4922,48.5706,14.9589],[-123.497,48.5634,4.9625],[-123.5042,48.5585,55.0345],[-123.4938,48.5581,217.3007],[-123.4936,48.5504,160.3927],[-123.489,48.5505,159.4831],[-123.4891,48.544,257.1547],[-123.4707,48.5441,167.0047],[-123.4708,48.5465,166.6556],[-123.4752,48.5487,165.2353],[-123.4722,48.5511,244.9374],[-123.4717,48.5572,91.4387],[-123.4604,48.551,118.1163],[-123.4577,48.551,115.7984],[-123.4578,48.5531,90.675]]]]}
,"properties": {"GID_3": "CAN.2.3.4_1","GID_0": "CAN","country": "Canada","GID_1": "CAN.2_1","province": "BritishColumbia","NL_NAME_1": "NA","GID_2": "CAN.2.3_1","county": "Capital","NL_NAME_2": "NA","city": "CapitalH(Part1)","VARNAME_3": "NA","NL_NAME_3": "NA","TYPE_3": "RegionalDistrictElectoralArea","ENGTYPE_3": "RegionalDistrictElectoralArea","CC_3": "NA","HASC_3": "NA","name": "Capital_H(Part1).city","area_km2": 237.6887,"hist_schema_id": "Elevation0-9000","hist_area_km2": {"0": 6.7142,"25": 9.3358,"50": 14.4901,"75": 18.839,"100": 18.9209,"125": 13.8381,"150": 13.1735,"175": 11.5381,"200": 10.0858,"225": 8.5509,"250": 7.6355,"275": 7.1708,"300": 6.5515,"325": 7.0293,"350": 8.2244,"375": 9.9117,"400": 10.5719,"425": 10.9651,"450": 11.6946,"475": 10.1187,"500": 9.4293,"525": 6.1405,"550": 3.4708,"575": 2.1077,"600": 0.8994,"625": 0.1968,"650": 0.0843}}}