{"type":"Feature","properties":{"featurecla":"River","scalerank":12,"rivernum":20354,"dissolve":"20354River","name":"null272","name_alt":null,"note":"ID is link back to CEC data","name_full":null,"min_zoom":7.0,"strokeweig":0.15,"uident":1704101,"min_label":8.0},
"geometry":{"type": "LineString","coordinates": [[-92.0040583975204,52.324286199994027,372.8658],[-91.945423957416224,52.365261134889863,382.1503],[-91.9117732412704,52.403631903119027,384.4928],[-91.885080532937067,52.426703192181527,375.6107],[-91.853138801166224,52.441188869264863,365.7484],[-91.784291144916224,52.464789129681527,369.7748],[-91.7157283193954,52.483221746869027,346.3168],[-91.571278449603724,52.506130275514863,351.0253],[-91.536691861062067,52.5186628275982,351.9845],[-91.495920376687067,52.536200262494027,356.0048],[-91.4691462881454,52.541286525514863,358.9903],[-91.4396052725204,52.559637762494027,357.0511],[-91.457264777728724,52.580877996869027,341.0]]}}