{"type":"Feature","properties":{"featurecla":"River","scalerank":10,"rivernum":20168,"dissolve":"20168River","name":"Wabigoon2","name_alt":null,"note":"ID is link back to CEC data","name_full":"Wabigoon River","min_zoom":6.0,"strokeweig":0.2,"uident":1771901,"min_label":7.0},
"geometry":{"type": "LineString","coordinates": [[-93.215565558978724,49.850897528119027,357.6805],[-93.181752082416224,49.845160223431527,360.1261],[-93.129465298562067,49.846014715619027,348.728],[-93.089955207416224,49.852118231244027,361.0376],[-93.0211482412704,49.869452215619027,348.1959],[-92.984445767312067,49.8721784525982,374.2613],[-92.963612433978724,49.870143947389863,366.051],[-92.9378962881454,49.8577741557232,369.1952],[-92.922922329812067,49.844020900514863,383.7266],[-92.862131314187067,49.802272853639863,363.8257],[-92.846018032937067,49.776190496869027,366.5]]}}