{"type":"Feature","properties":{"featurecla":"River","scalerank":11,"rivernum":20205,"dissolve":"20205River","name":"Wenasaga1","name_alt":null,"note":"ID is link back to CEC data","name_full":"Wenasaga River","min_zoom":6.7,"strokeweig":0.2,"uident":1749401,"min_label":7.7},
"geometry":{"type": "LineString","coordinates": [[-93.181223111062067,50.654486395306527,360.4355],[-93.1752009756454,50.740912176556527,372.9521],[-93.1581111318954,50.764349676556527,382.8669],[-93.130360480853724,50.791042384889863,372.2745],[-93.023671027728724,50.840114650514863,382.9947],[-92.9581599600204,50.8660749369732,391.0521],[-92.8522029287704,50.894598699994027,402.6715],[-92.7980037100204,50.905340887494027,415.4367],[-92.743641730853724,50.9195417338482,416.1013],[-92.6144099600204,50.974554754681527,400.2932],[-92.578358527728724,50.994167384889863,416.4069],[-92.519764777728724,51.030096746869027,418.3673],[-92.471424933978724,51.0648054057232,417.8098]]}}