{"type":"Feature","properties":{"featurecla":"River","scalerank":11,"rivernum":20441,"dissolve":"20441River","name":"Asheweig1","name_alt":null,"note":"ID is link back to CEC data","name_full":"Asheweig River","min_zoom":6.7,"strokeweig":0.2,"uident":1659401,"min_label":7.7},
"geometry":{"type": "LineString","coordinates": [[-87.4039607412704,54.259792384889863,106.8387],[-87.445912238666224,54.232855535931527,107.1181],[-87.470204230853724,54.210964259889863,107.6725],[-87.482533332416224,54.190497137494027,108.5116],[-87.4874568350204,54.135768947389863,110.7534],[-87.481027798562067,54.077419338014863,115.9731],[-87.493723111062067,54.046698309369027,120.1983],[-87.514719204812067,54.026475327598192,122.9134],[-87.553049282937067,54.013251043744027,125.3798],[-87.6114802725204,54.003607489056527,128.0114],[-87.6669001943954,54.000840561973192,129.7979],[-87.7135310537704,53.994492905723192,129.4213],[-87.7518611318954,53.977850653119027,131.3727],[-87.828846808978724,53.928819077598192,132.1302],[-87.888742642312067,53.852403061973192,143.6192],[-87.910023566791224,53.814968166139863,151.6267],[-87.919260220437067,53.792792059369027,156.6212],[-87.9491267568954,53.750189520306527,174.3083],[-88.032093879291224,53.655096746869027,186.5818],[-88.055653449603724,53.626166082806527,200.7885],[-88.0792537100204,53.595567124473192,186.7096],[-88.094349738666224,53.568304754681527,184.8214],[-88.111887173562067,53.554754949994027,180.5]]}}