{"type":"Feature","properties":{"featurecla":"Lake Centerline","scalerank":8,"rivernum":649,"dissolve":"649Lake Centerline","name":"English4","name_alt":null,"note":null,"min_zoom":7.0,"strokeweig":0.2,"name_en":"English","min_label":8.0},
"geometry":{"type": "LineString","coordinates": [[-94.462646484375,50.261590887494116,316.5],[-94.420166015625,50.26373932499412,335.646],[-94.399755859374991,50.25763580936912,324.6322],[-94.384765625,50.23541901249412,316.5],[-94.374072265624989,50.20697662968162,316.5],[-94.349291992187489,50.19281647343162,332.21],[-94.306396484375,50.189569403119116,321.9699],[-94.108496093749991,50.185077215619117,321.6062]]}}