{"type":"Feature","properties":{"featurecla":"River","scalerank":11,"rivernum":20350,"dissolve":"20350River","name":"Poplar","name_alt":null,"note":"ID is link back to CEC data","name_full":"Poplar River","min_zoom":6.7,"strokeweig":0.15,"uident":1707601,"min_label":7.7},
"geometry":{"type": "LineString","coordinates": [[-94.9327693350204,52.361029364056527,338.6003],[-94.903146939187067,52.3655866557232,338.8439],[-94.8836970693954,52.377508856244027,344.2477],[-94.858631965228724,52.401434637494027,342.2401],[-94.842030402728724,52.408270574994027,346.9354],[-94.808583137103724,52.408270574994027,353.0474],[-94.775135871478724,52.384344793744027,356.8201],[-94.738880988666224,52.384344793744027,351.6547],[-94.7220759756454,52.387762762494027,353.0048],[-94.702626105853724,52.386053778119027,360.9999],[-94.680409308978724,52.372381903119027,362.429],[-94.627512173562067,52.372341213014863,363.3216],[-94.607980923562067,52.360378322389863,354.8171],[-94.5941462881454,52.355251369264863,356.9911],[-94.566273566791224,52.360296942181527,355.8943],[-94.543934699603724,52.372137762494027,353.7549]]}}