{"type":"Feature","properties":{"featurecla":"River","scalerank":10,"rivernum":20353,"dissolve":"20353River","name":"Attawapiskat","name_alt":null,"note":"ID is link back to CEC data","name_full":"Attawapiskat River","min_zoom":6.0,"strokeweig":0.2,"uident":1700601,"min_label":7.0},
"geometry":{"type": "LineString","coordinates": [[-87.501942512103724,52.130926824994027,238.7482],[-87.384836392312067,52.145331121869027,253.0888],[-87.332386848041224,52.141140041139863,247.4547],[-87.2582087881454,52.1246198588482,228.3934],[-87.242258267312067,52.1089948588482,222.8173],[-87.232492642312067,52.0799421244732,212.0],[-87.218820767312067,52.072943426556527,217.6083],[-87.180002407937067,52.077337957806527,221.2724],[-87.151600715228724,52.094020900514863,222.2971],[-87.1258845693954,52.112250067181527,222.924],[-87.092355923562067,52.120184637494027,216.1685],[-87.017445441791224,52.122341213014863,227.5187],[-86.961008267312067,52.143500067181527,221.0238],[-86.913400845437067,52.156195379681527,218.5875],[-86.877023892312067,52.162298895306527,215.1948],[-86.848459439187067,52.178778387494027,216.8231],[-86.8280330068954,52.197088934369027,218.0897],[-86.805653449603724,52.200140692181527,220.7226],[-86.7596736318954,52.178737697389863,209.3437],[-86.732289191791224,52.173041082806527,205.0735],[-86.698841926166224,52.174017645306527,203.314],[-86.604359504291224,52.1771100932232,193.7512],[-86.535227017312067,52.175604559369027,188.6111],[-86.513295051166224,52.169989324994027,188.2983],[-86.435292121478724,52.176703192181527,182.5248],[-86.412831183978724,52.1812604838482,182.684],[-86.389759894916224,52.194362697389863,179.0],[-86.362863736062067,52.268744207806527,181.1379],[-86.300607876687067,52.328640041139863,181.8641],[-86.288197394916224,52.345404364056527,185.2755],[-86.261301236062067,52.373724676556527,183.7332],[-86.217396613666224,52.403347072389863,183.9648],[-86.134348111062067,52.435329494264863,182.017],[-86.104562954812067,52.4617780619732,181.0421],[-86.088449673562067,52.490423895306527,176.4469],[-86.086252407937067,52.5228132182232,175.2082],[-86.092396613666224,52.553737697389863,176.2167],[-86.089466926166224,52.5945905619732,173.1404],[-86.070301887103724,52.626532293744027,177.1133],[-86.013742642312067,52.672796942181527,164.2094],[-85.994252082416224,52.706366278119027,160.3241],[-85.9669490225204,52.732977606244027,157.3727],[-85.947865363666224,52.763251043744027,156.7444],[-85.939930793353724,52.793727931764863,155.5147],[-85.941883918353724,52.841660874473192,155.2171],[-85.925770637103724,52.868516343223192,151.4801],[-85.910227017312067,52.888617254681527,149.4974],[-85.899728970437067,52.914007879681527,148.0759],[-85.905140754291224,52.953436590619027,147.853],[-85.899281379291224,52.994330145306527,143.9173],[-85.8514705068954,53.023708400514863,137.8584],[-85.816477017312067,53.036444403119027,133.7357],[-85.779367642312067,53.040391343223192,132.0908],[-85.722238736062067,53.043809311973192,129.1406],[-85.664540168353724,53.055853582806527,126.8387],[-85.623117642312067,53.075018621869027,122.7522],[-85.555978970437067,53.129421291139863,120.3515],[-85.520375129291224,53.145371811973192,117.7128],[-85.468088345437067,53.157416082806527,117.8609],[-85.433827277728724,53.159735418744027,117.4899],[-85.388498501687067,53.156561590619027,117.1867],[-85.332142707416224,53.149603582806527,115.9219],[-85.268015103249567,53.135362046348192,103.9161],[-85.2232966787704,53.127061265098192,113.1143],[-85.206613736062067,53.123073634889863,113.0316],[-85.167225715228724,53.118231512494027,111.3355],[-85.075306769916224,53.097845770306527,108.7033],[-84.968454556374567,53.087184963014863,119.6071],[-84.940785285541224,53.079169012494027,106.4682]]}}