{"type":"Feature","properties":{"featurecla":"River","scalerank":12,"rivernum":20162,"dissolve":"20162River","name":"null239","name_alt":null,"note":"ID is link back to CEC data","name_full":null,"min_zoom":7.0,"strokeweig":0.2,"uident":1773101,"min_label":8.0},
"geometry":{"type": "LineString","coordinates": [[-93.215565558978724,49.850897528119027,357.6805],[-93.223703579812067,49.842556056764863,347.1848],[-93.229481574603724,49.825710353639863,365.5767],[-93.222727017312067,49.800238348431527,372.1424],[-93.2152400381454,49.790065822389863,381.8937],[-93.215646939187067,49.779852606244027,385.5379],[-93.210804816791224,49.7679304057232,379.3094],[-93.1981501943954,49.761013088014863,367.0991],[-93.1791072256454,49.741725978639863,361.0]]}}