{"type":"Feature","properties":{"featurecla":"Lake Centerline","scalerank":12,"rivernum":20395,"dissolve":"20395Lake Centerline","name":"Fishbasket1","name_alt":null,"note":"ID is link back to CEC data","name_full":"Fishbasket River","min_zoom":7.0,"strokeweig":0.2,"uident":1685301,"min_label":8.0},
"geometry":{"type": "LineString","coordinates": [[-87.506174282937067,52.868190822389863,196.0],[-87.470285611062067,52.895778713014863,208.4624],[-87.4535212881454,52.942653713014863,202.2489],[-87.409982876687067,53.002997137494027,209.8989],[-87.3529353506454,53.013047593223192,204.2489],[-87.324330207416224,53.028428452598192,196.0]]}}