{"type":"Feature","properties":{"featurecla":"River","scalerank":8,"rivernum":649,"dissolve":"649River","name":"English13","name_alt":null,"note":null,"min_zoom":7.0,"strokeweig":0.2,"name_en":"English","min_label":8.0},
"geometry":{"type": "LineString","coordinates": [[-93.148193359375,50.630145574994117,354.5],[-93.182910156249989,50.651874090619117,368.7595],[-93.208300781249989,50.62921784061912,368.3737],[-93.242602539062489,50.62079498905662,377.3727],[-93.277929687499991,50.62433502811912,373.7811],[-93.306445312499989,50.63751862186912,369.14],[-93.322680664062489,50.65509674686912,371.8968],[-93.333349609374991,50.66205475468162,363.7302],[-93.350830078125,50.66486237186912,355.5543],[-93.385302734374989,50.662469793744116,372.1836],[-93.400634765625,50.658563543744116,359.3745],[-93.416308593749989,50.651874090619117,352.9843],[-93.407275390624989,50.64020416874412,372.9317],[-93.401416015624989,50.62970612186912,355.8888],[-93.392626953124989,50.61994049686912,358.5497],[-93.374682617187489,50.610223699994116,345.0],[-93.378466796874989,50.60309479374412,364.152],[-93.384448242187489,50.59784577030662,347.5193],[-93.402026367187489,50.58917877811912,375.5161],[-93.429443359375,50.59662506718162,373.822],[-93.647558593749991,50.57269928593162,340.2652],[-93.683520507812489,50.55414459843162,349.836],[-93.734716796874991,50.542010809369117,329.0],[-93.74677734375,50.53705475468162,363.7187],[-93.758886718749991,50.52521393436912,359.5255],[-93.768237304687489,50.51056549686912,327.5],[-93.77197265625,50.49725983280662,347.1334],[-93.779541015625,50.49323151249412,327.5],[-93.812792968749989,50.484149481244117,329.9038],[-93.820361328124989,50.47650787968162,325.0],[-93.82373046875,50.46015045780662,361.6461],[-93.832690429687489,50.448260809369117,320.5],[-93.845751953124989,50.439325262494116,320.5],[-93.861328125,50.432147528119117,332.861],[-93.837207031249989,50.41998932499412,328.4479],[-93.8291015625,50.40656159061912,351.9859],[-93.837988281249991,50.395624090619116,347.3622],[-93.889990234374991,50.387811590619116,320.0],[-93.90234375,50.37885162968162,320.0],[-93.912207031249991,50.365838934369116,320.0],[-93.930224609374989,50.35016510624412,327.4271]]}}