{"type":"Feature","properties":{"featurecla":"River","scalerank":8,"rivernum":649,"dissolve":"649River","name":"English9","name_alt":null,"note":null,"min_zoom":7.0,"strokeweig":0.2,"name_en":"English","min_label":8.0},
"geometry":{"type": "LineString","coordinates": [[-91.150073242187489,49.184588934369117,460.5],[-91.127197265625,49.19818756718162,459.5],[-91.102343749999989,49.20795319218162,459.5],[-91.087255859374991,49.211200262494117,459.5],[-91.000903320312489,49.21246979374412,466.7819],[-90.984179687499989,49.216913153119116,462.4052],[-90.971850585937489,49.22785065311912,463.4177],[-90.949072265624991,49.253436590619117,459.9493],[-90.923828125,49.269549871869117,455.4832],[-90.921240234374991,49.27570221561912,465.3575],[-90.921142578125,49.29096100468162,458.285],[-90.945654296874991,49.291131903119116,466.104],[-90.964282226562489,49.29511139530662,467.8995],[-90.976367187499989,49.30805084843162,472.5253],[-90.970874023437489,49.32099030155662,471.5542],[-90.974169921874989,49.355585028119116,451.0028],[-90.9658203125,49.362665106244116,452.343],[-90.947363281249991,49.36579010624412,464.7793],[-90.93505859375,49.374383856244116,448.5852],[-90.926855468749991,49.387567449994116,453.7198],[-90.917773437499989,49.41168854374412,456.701],[-90.915209960937489,49.41327545780662,453.8494],[-90.9140625,49.41547272343162,443.8848],[-90.914892578124991,49.42475006718162,449.7586],[-90.9208984375,49.43329498905662,449.5144],[-90.93017578125,49.44013092655662,465.1583],[-90.934326171875,49.44855377811912,440.0],[-90.924853515624989,49.462274481244116,440.0],[-90.922167968749989,49.46967194218162,440.0],[-90.926513671875,49.476581121869117,449.9234],[-90.9326171875,49.482294012494116,455.8429],[-90.935400390624991,49.48615143436912,450.1691],[-90.931323242187489,49.495379949994117,448.1787],[-90.925537109375,49.50067780155662,454.131],[-90.911181640624989,49.51007721561912,440.0],[-90.902441406249991,49.52728912968162,469.106],[-90.909912109375,49.541864324994116,471.1759],[-90.935400390624991,49.561883856244116,459.3525],[-90.946215820312489,49.57672760624412,453.7404],[-90.962646484375,49.61176178593162,444.0],[-90.972949218749989,49.627069403119116,470.402],[-90.984130859375,49.66034577030662,446.9138],[-90.967456054687489,49.69196198124412,433.0],[-90.937109374999991,49.71759674686912,433.0],[-90.907470703125,49.73261139530662,433.0],[-90.91650390625,49.74140045780662,450.2697],[-90.926123046874991,49.74811432499412,434.0],[-90.936865234374991,49.752313543744116,434.0],[-90.949072265624991,49.75372955936912,456.2654]]}}