{"type":"Feature","properties":{"featurecla":"River","scalerank":12,"rivernum":20119,"dissolve":"20119River","name":"null227","name_alt":null,"note":"ID is link back to CEC data","name_full":null,"min_zoom":7.0,"strokeweig":0.2,"uident":1792101,"min_label":8.0},
"geometry":{"type": "LineString","coordinates": [[-93.9481501943954,49.2015241557232,335.0],[-93.956125454812067,49.196600653119027,347.8216],[-93.961496548562067,49.179714259889863,361.4124],[-93.9618220693954,49.161200262494027,342.6464],[-93.9728083975204,49.1275495463482,354.2704],[-93.985951301166224,49.114203192181527,356.3984],[-93.990345832416224,49.094794012494027,327.9096],[-94.018869595437067,49.095770574994027,320.0],[-94.064442512103724,49.097723699994027,320.0],[-94.093739387103724,49.109442449994027,320.0],[-94.115223762103724,49.119452215619027,320.0]]}}