{"type":"Feature","properties":{"featurecla":"River","scalerank":10,"rivernum":20459,"dissolve":"20459River","name":"Fawn","name_alt":null,"note":"ID is link back to CEC data","name_full":"Fawn River","min_zoom":6.0,"strokeweig":0.2,"uident":1655201,"min_label":7.0},
"geometry":{"type": "LineString","coordinates": [[-88.351063605853724,55.378729559369027,78.6436],[-88.3495173818954,55.349391994264863,49.7516],[-88.3348689443954,55.323553778119027,79.097],[-88.344227668353724,55.304714259889863,80.7118],[-88.347482876687067,55.287461655723192,80.7242],[-88.341542121478724,55.277167059369027,81.2253],[-88.320546027728724,55.268500067181527,80.9349],[-88.305775519916224,55.256415106244027,81.6824],[-88.303049282937067,55.239203192181527,81.8473],[-88.2940974600204,55.227118231244027,83.149],[-88.273264126687067,55.215033270306527,84.1514],[-88.255360480853724,55.211493231244027,84.2968],[-88.222482876687067,55.197577215619027,87.2719],[-88.2018123037704,55.178493556764863,88.2929],[-88.1847224600204,55.133734442181527,88.838],[-88.146473762103724,55.088934637494027,93.4199],[-88.0814509756454,55.052354233848192,99.4901],[-88.0248103506454,55.043402410931527,100.7709],[-87.977284308978724,55.030951239056527,102.5887],[-87.897531704812067,54.994248765098192,104.8192],[-87.8417048818954,54.957709051556527,103.3147],[-87.821400519916224,54.938666082806527,101.9127],[-87.812814907937067,54.929999090619027,95.9444],[-87.798573371478724,54.907538153119027,104.3125],[-87.799549933978724,54.871405340619027,104.0],[-87.814768032937067,54.857855535931527,105.7058],[-87.859934048562067,54.837713934369027,107.3507],[-87.881337043353724,54.819037176556527,109.0078],[-87.9471736318954,54.675563869264863,119.8172],[-87.9596248037704,54.654974676556527,122.2302],[-87.989369269916224,54.641546942181527,126.515],[-88.0338435537704,54.640204168744027,129.2941],[-88.0812068350204,54.640570379681527,135.4577],[-88.1227107412704,54.637396551556527,136.4478],[-88.158436652728724,54.620469468223192,134.8513],[-88.1617732412704,54.598171291139863,134.9951],[-88.159291144916224,54.570664780723192,130.1046],[-88.168568488666224,54.553656317181527,132.0886],[-88.192372199603724,54.545233465619027,134.6703],[-88.245432095437067,54.542100327598192,139.3436],[-88.281117316791224,54.521755275514863,147.1531],[-88.370432095437067,54.458685614056527,161.0491],[-88.435658332416224,54.416123765098192,144.3098],[-88.544789191791224,54.368516343223192,138.8075],[-88.588937954812067,54.355007228639863,140.3094],[-88.635935025124567,54.355088608848192,137.4408],[-88.685780402728724,54.368841864056527,140.7655],[-88.7208552725204,54.370672918744027,140.4525],[-88.785511848041224,54.363877671348192,140.4987],[-88.8207087881454,54.357001043744027,141.8303],[-88.882435676166224,54.321071681764863,150.8891],[-88.940907355853724,54.293565171348192,155.3665],[-88.999582486062067,54.274725653119027,152.4099],[-89.116566535541224,54.255641994264863,153.4732],[-89.1515193350204,54.241888739056527,150.307],[-89.174672004291224,54.219509181764863,156.0163],[-89.203846808978724,54.202337957806527,162.4385],[-89.238758918353724,54.197088934369027,161.6739],[-89.288156704812067,54.172796942181527,163.0721],[-89.360585090228724,54.121161199994027,169.555],[-89.3949275381454,54.085028387494027,176.5435],[-89.412342902728724,54.069606838014863,186.4142],[-89.435129361062067,54.042059637494027,193.5892],[-89.460926887103724,54.019598699994027,199.9918],[-89.501210090228724,53.995428778119027,197.0],[-89.506825324603724,53.980047918744027,202.8243],[-89.524240689187067,53.974717515098192,204.1224],[-89.555653449603724,53.952256577598192,207.0086],[-89.5553279287704,53.938584702598192,203.0],[-89.523060676166224,53.916530666139863,209.4865],[-89.545765754291224,53.882106838014863,210.1111],[-89.530751105853724,53.858587957806527,211.3544],[-89.5360408193954,53.830837306764863,204.5],[-89.589344855853724,53.784857489056527,219.1124]]}}