{"type":"Feature","properties":{"featurecla":"River","scalerank":11,"rivernum":20512,"dissolve":"20512River","name":"Opinnagau1","name_alt":null,"note":"ID is link back to CEC data","name_full":"Opinnagau River","min_zoom":6.7,"strokeweig":0.2,"uident":1633001,"min_label":7.7},
"geometry":{"type": "LineString","coordinates": [[-84.042225715228724,53.950873114056527,114.0],[-83.973947720437067,53.971869207806527,119.5329],[-83.9042048818954,53.970404364056527,108.7141],[-83.889475064187067,53.971380926556527,105.623],[-83.7745662100204,54.002142645306527,101.5359],[-83.680043098041239,54.032009181764863,102.6603],[-83.618723111062067,54.053045965619027,94.8379],[-83.593861457416239,54.063828843223192,93.5166],[-83.566232876687067,54.072821356244027,89.9381],[-83.525705532937067,54.070827541139863,88.2547],[-83.493763801166239,54.048610744264863,84.7763],[-83.471669074603739,54.038926499473192,86.3355],[-83.425119595437067,54.038194077598192,85.8561],[-83.412587043353739,54.044501043744027,84.4041],[-83.396962043353739,54.071234442181527,77.1737],[-83.373158332416239,54.094102280723192,75.8975],[-83.3475642568954,54.108262436973192,74.8579],[-83.309396939187067,54.109727280723192,74.9085],[-83.265858527728739,54.107489324994027,71.7318],[-83.231556769916239,54.121161199994027,63.3499],[-83.1698298818954,54.160956121869027,55.0407],[-83.135243293353739,54.176336981244027,48.3373],[-83.071034308978739,54.193467515098192,43.5096],[-82.949330207416239,54.202337957806527,36.6552],[-82.8214412100204,54.193630275514863,27.0283],[-82.7657771475204,54.211127020306527,22.1138],[-82.714466926166239,54.237494207806527,19.2439],[-82.653187629291239,54.252875067181527,16.1462],[-82.5743708975204,54.248399155723192,12.7284],[-82.529123501687067,54.238836981244027,10.4058],[-82.430897590228739,54.228216864056527,2.6575]]}}