{"type":"Feature","properties":{"featurecla":"River","scalerank":11,"rivernum":20557,"dissolve":"20557River","name":"Sutton1","name_alt":null,"note":"ID is link back to CEC data","name_full":"Sutton River","min_zoom":6.7,"strokeweig":0.2,"uident":1623301,"min_label":7.7},
"geometry":{"type": "LineString","coordinates": [[-83.736643032937067,55.224554754681527,3.7271],[-83.779611782937067,55.209540106244027,7.0947],[-83.8451228506454,55.176865952598192,10.7985],[-83.893137173562067,55.134222723431527,18.5068],[-84.027455207416224,55.050645249473192,30.9778],[-84.104359504291224,55.012722072389863,35.2941],[-84.178456183978724,54.995225327598192,45.6749],[-84.218251105853724,54.988348699994027,43.7258],[-84.257069465228724,54.965847072389863,41.8138],[-84.319569465228724,54.944403387494027,45.6142],[-84.348215298562067,54.930039780723192,47.6332],[-84.371408657937067,54.912054754681527,50.3899],[-84.3780818350204,54.881374416139863,56.9198],[-84.3934626943954,54.852809963014863,64.1562],[-84.416330532937067,54.836493231244027,67.8751],[-84.440663215228724,54.832220770306527,73.8551],[-84.485096808978724,54.834051824994027,71.7695],[-84.503407355853724,54.831325588014863,72.4178],[-84.545521613666224,54.802028713014863,78.3667],[-84.5707087881454,54.789333400514863,83.9177],[-84.625803189187067,54.777655340619027,92.9868],[-84.650990363666224,54.764960028119027,100.9947],[-84.6549373037704,54.756455796348192,100.7931],[-84.639515754291224,54.735215561973192,103.6252],[-84.633046027728724,54.714382228639863,108.841],[-84.6339412100204,54.679999090619027,110.9527],[-84.660267707416224,54.631130275514863,132.2961],[-84.6920466787704,54.585964259889863,136.3587],[-84.690256314187067,54.549872137494027,140.6607],[-84.736154751687067,54.482855535931527,118.3368],[-84.741037564187067,54.465847072389863,139.0653],[-84.7347712881454,54.441514390098192,138.7973],[-84.715199348041224,54.421901759889863,152.056]]}}