{"type":"Feature","properties":{"featurecla":"River","scalerank":12,"rivernum":20267,"dissolve":"20267River","name":"null258","name_alt":null,"note":"ID is link back to CEC data","name_full":null,"min_zoom":7.0,"strokeweig":0.2,"uident":1732901,"min_label":8.0},
"geometry":{"type": "LineString","coordinates": [[-93.699777798562067,51.464178778119027,408.6144],[-93.741566535541224,51.4666608744732,404.9279],[-93.758127407937067,51.456610418744027,404.082],[-93.766468879291224,51.446559963014863,405.9442],[-93.758900519916224,51.424383856244027,402.1434],[-93.770497199603724,51.397284246869027,400.8279],[-93.7845759756454,51.378729559369027,424.8015],[-93.816965298562067,51.344671942181527,388.6912]]}}