{"type":"Feature","properties":{"featurecla":"River","scalerank":7,"rivernum":378,"dissolve":"378River","name":"Severn8","name_alt":null,"note":null,"min_zoom":6.0,"strokeweig":0.25,"name_en":"Severn","min_label":7.0},
"geometry":{"type": "LineString","coordinates": [[-90.753027343749991,53.95429108280662,222.6662],[-90.739306640624989,53.97858307499412,228.6691],[-90.702978515624991,54.00971100468162,221.0],[-90.695166015624991,54.02655670780662,225.2339],[-90.691577148437489,54.048944403119116,223.1767],[-90.681567382812489,54.07062409061912,221.0],[-90.666601562499991,54.089715887494116,220.0],[-90.648046874999991,54.10468170780662,221.5519],[-90.624804687499989,54.11456940311912,223.713],[-90.576757812499991,54.12775299686912,221.0123],[-90.537207031249991,54.15485260624412,222.1948],[-90.405029296875,54.191913153119117,208.9391],[-90.383959960937489,54.194110418744117,211.8978],[-90.37353515625,54.19721100468162,201.5],[-90.363378906249991,54.20490143436912,216.76],[-90.355639648437489,54.214960028119116,210.6813],[-90.352587890624989,54.225116278119117,203.5392],[-90.347265624999991,54.23139069218162,201.5659],[-90.311621093749991,54.24249909061912,206.6224],[-90.24755859375,54.27289459843162,192.2827],[-90.187304687499989,54.282586981244116,186.2149],[-90.178149414062489,54.286883856244117,185.1525],[-90.160742187499991,54.299920965619116,188.1122],[-90.149951171874989,54.30621979374412,187.5651],[-90.140307617187489,54.310174871869116,192.7176],[-90.11669921875,54.31024811405662,185.8419],[-90.091357421874989,54.30512116093162,189.0397],[-90.0673828125,54.30341217655662,185.3839],[-90.0478515625,54.31391022343162,179.5528],[-90.028369140624989,54.329706121869116,179.5976],[-90.00546875,54.33808014530662,172.0749],[-89.9072265625,54.355487371869117,182.2631],[-89.770361328124991,54.39960358280662,165.0102],[-89.758642578124991,54.39984772343162,167.729],[-89.733081054687489,54.39752838749412,167.0562],[-89.721972656249989,54.39960358280662,159.5497],[-89.710986328124989,54.40778229374412,163.8057],[-89.690673828125,54.42926666874412,148.1945],[-89.660888671875,54.44025299686912,148.971],[-89.623217773437489,54.471551824994116,128.9763],[-89.605883789062489,54.48212311405662,135.8133],[-89.208666992187489,54.54291412968162,139.0436],[-89.120410156249989,54.567401434369117,137.5468],[-89.079516601562489,54.58624909061912,138.517],[-89.026953124999991,54.62641022343162,133.1881],[-89.011767578124989,54.642108465619117,135.4862],[-89.000659179687489,54.66058991093162,135.8634],[-88.996386718749989,54.68378327030662,125.3922],[-89.001635742187489,54.708026434369117,133.9269],[-89.002539062499991,54.718280340619117,132.9621],[-89.000415039062489,54.73102448124412,130.9712],[-88.990966796875,54.74701569218162,128.8869],[-88.988940429687489,54.75641510624412,93.8436],[-88.991381835937489,54.76752350468162,127.1383],[-89.001220703125,54.78717682499412,92.6061],[-89.002539062499991,54.79743073124412,123.8733],[-88.998779296875,54.805780340619116,122.9067],[-88.985107421875,54.823260809369117,120.2273],[-88.982104492187489,54.834979559369117,102.5549],[-88.983740234374991,54.84760162968162,87.0],[-88.986254882812489,54.85712311405662,96.9817],[-88.985766601562489,54.865741278119117,115.2399],[-88.978686523437489,54.87592194218162,113.7934],[-88.961181640625,54.89032623905662,97.9767],[-88.956347656249989,54.898797918744116,110.6856],[-88.955371093749989,54.91351959843162,99.4282],[-88.958251953125,54.920770574994116,87.8297],[-88.970751953124989,54.942157293744117,81.3552],[-88.975268554687489,54.95441315311912,90.8245],[-88.975268554687489,54.98175690311912,99.8909],[-88.977880859374991,54.98761627811912,99.1748],[-88.985888671874989,54.995379949994117,93.5369],[-88.988940429687489,55.00287506718162,78.1905],[-88.989550781249989,55.01496002811912,91.3279],[-88.9853515625,55.04596588749412,90.2246],[-88.982104492187489,55.05805084843162,84.3164],[-88.97509765625,55.07514069218162,81.4291],[-88.968066406249989,55.08344147343162,74.624],[-88.885791015624989,55.13190338749412,83.9067],[-88.82763671875,55.15778229374412,86.0388],[-88.766040039062489,55.17487213749412,87.6254],[-88.700927734375,55.18097565311912,90.464],[-88.708349609374991,55.18097565311912,88.3201],[-88.700927734375,55.18097565311912,90.464],[-88.708349609374991,55.18097565311912,88.3201],[-88.609960937499991,55.15131256718162,90.2619],[-88.558276367187489,55.143329168744117,86.8303],[-88.5029296875,55.146844793744116,86.1779],[-88.472094726562489,55.15668366093162,81.5216],[-88.456225585937489,55.16498444218162,81.5371],[-88.447680664062489,55.17413971561912,79.6589],[-88.44775390625,55.179803778119116,65.0797],[-88.453466796874991,55.18891022343162,82.343],[-88.454516601562489,55.19464752811912,82.3524],[-88.454516601562489,55.21857330936912,81.033],[-88.448657226562489,55.23468659061912,80.6993],[-88.447021484375,55.244403387494117,80.8619],[-88.451098632812489,55.248651434369116,80.4647],[-88.457202148437489,55.25226471561912,79.7759],[-88.461230468749989,55.26129791874412,78.9601],[-88.462939453124989,55.272821356244116,51.5],[-88.461962890624989,55.28400299686912,60.3439],[-88.453662109374989,55.29804108280662,73.4309],[-88.344970703125,55.383563543744117,78.3841],[-88.324755859374989,55.39325592655662,60.5038],[-88.3125,55.395624090619116,57.601],[-88.288037109375,55.39752838749412,43.5],[-88.2763671875,55.40009186405662,43.0],[-88.24267578125,55.42365143436912,46.0517],[-88.231372070312489,55.42743561405662,77.8083],[-88.184985351562489,55.43390534061912,41.1409],[-88.139819335937489,55.447870184369116,45.6148],[-88.077392578125,55.49616119999412,75.3082],[-88.029394531249991,55.51080963749412,55.9359],[-88.022143554687489,55.52924225468162,76.5468],[-88.024829101562489,55.551874090619116,70.4039],[-88.029956054687489,55.572040106244117,66.3924],[-88.030126953124991,55.57819244999412,64.4872],[-88.028857421874989,55.58368561405662,68.4226],[-88.028076171875,55.58991119999412,73.889],[-88.029956054687489,55.59870026249412,73.5607],[-88.042578124999991,55.627557684369116,72.7596],[-88.043627929687489,55.63629791874412,70.7605],[-88.05126953125,55.65534088749412,71.9633],[-88.084570312499991,55.686542059369117,67.739],[-88.09140625,55.70856354374412,65.0592],[-88.084228515625,55.729608465619116,52.1039],[-88.068603515625,55.74030182499412,23.3847],[-88.0498046875,55.74799225468162,19.25],[-88.033056640624991,55.76007721561912,15.375],[-88.014331054687489,55.77948639530662,41.7137],[-87.970068359374991,55.81268952030662,12.0],[-87.926074218749989,55.83746979374412,9.5],[-87.886035156249989,55.866229559369117,21.9705],[-87.868579101562489,55.883319403119117,27.8444],[-87.85888671875,55.88947174686912,24.1235],[-87.83544921875,55.892938543744116,22.7714],[-87.82421875,55.89667389530662,18.9292],[-87.811816406249989,55.90485260624412,19.6541],[-87.789794921875,55.92829010624412,7.4212],[-87.756274414062489,55.95294830936912,12.9994],[-87.718554687499989,55.96967194218162,17.3037],[-87.677905273437489,55.979266668744117,5.5386],[-87.635546874999989,55.982294012494116,0.2053],[-87.623583984374989,55.98822662968162,0.0],[-87.589892578124989,56.016131903119117,8.2785],[-87.570654296874991,56.02448151249412,5.6971],[-87.48828125,56.01703522343162,2.8951]]}}