{"type":"Feature","properties":{"featurecla":"River","scalerank":7,"rivernum":378,"dissolve":"378River","name":"Severn6","name_alt":null,"note":null,"min_zoom":6.0,"strokeweig":0.2,"name_en":"Severn","min_label":7.0},
"geometry":{"type": "LineString","coordinates": [[-92.552294921874989,53.09735748905662,277.4997],[-92.552294921874989,53.09735748905662,277.4997],[-92.552294921874989,53.09735748905662,277.4997],[-92.552294921874989,53.09735748905662,277.4997],[-92.552294921874989,53.09735748905662,277.4997],[-92.442480468749991,53.14227936405662,273.0],[-92.4326171875,53.14484284061912,273.0],[-92.418872070312489,53.145770574994117,273.0],[-92.40673828125,53.148944403119117,273.0],[-92.398291015624991,53.156610418744116,276.1517],[-92.390722656249991,53.16583893436912,273.7761],[-92.380957031249991,53.173700262494116,267.5],[-92.371923828124991,53.17645905155662,280.1852],[-92.3369140625,53.17987702030662,286.9078],[-92.329638671874989,53.18414948124412,271.9586],[-92.32578125,53.19403717655662,281.3118],[-92.323168945312489,53.20563385624412,266.8439],[-92.319506835937489,53.21466705936912,290.7486],[-92.293701171875,53.23993561405662,270.5529],[-92.264892578125,53.26178619999412,276.0739],[-92.246997070312489,53.265643621869117,282.4734],[-92.120947265624991,53.27106354374412,296.8746],[-92.099780273437489,53.27545807499412,273.9573],[-92.090625,53.280877996869116,272.7992],[-92.078417968749989,53.29401276249412,279.8472],[-92.069677734374991,53.29657623905662,281.1436],[-92.039892578124991,53.300311590619117,290.4399],[-92.031542968749989,53.30280182499412,290.2025],[-91.999267578125,53.31964752811912,292.6713],[-91.981054687499991,53.32282135624412,292.0342],[-91.956469726562489,53.31708405155662,266.0]]}}