{"type": "Feature","bbox": [-80.1348,42.9727,-80.0587,43.0256],"geometry": {"type": "MultiPolygon","coordinates": [[[[-80.0587,43.0057,207.3154],[-80.1127,43.0256,217.0974],[-80.1348,42.9926,215.352],[-80.0808,42.9727,221.3586],[-80.0587,43.0057,207.3154]]]]}
,"properties": {"GID_3": "CAN.9.2.3_1","GID_0": "CAN","country": "Canada","GID_1": "CAN.9_1","province": "Ontario","NL_NAME_1": "NA","GID_2": "CAN.9.2_1","county": "Brant","NL_NAME_2": "NA","city": "NewCredit(Part)40A","VARNAME_3": "NA","NL_NAME_3": "NA","TYPE_3": "RéserveIndienne","ENGTYPE_3": "IndianReserve","CC_3": "NA","HASC_3": "NA","name": "New_Credit(Part)40_A.city","area_km2": 20.08095,"hist_schema_id": "Elevation0-9000","hist_area_km2": {"200": 11.38141,"225": 8.69954}}}