{"type": "Feature","bbox": [-70.0982,47.067,-69.3045,47.9306],"geometry": {"type": "MultiPolygon","coordinates": [[[[-69.8832,47.231,230.3879],[-69.6253,47.067,388.7704],[-69.392,47.2984,269.5343],[-69.5885,47.4313,359.2454],[-69.4473,47.5307,381.3884],[-69.3045,47.6263,243.1948],[-69.4394,47.7178,272.8432],[-69.4937,47.6658,215.7421],[-69.5369,47.6957,137.423],[-69.5365,47.7001,124.638],[-69.5416,47.7032,134.8689],[-69.5423,47.7062,126.0127],[-69.5313,47.7163,138.4734],[-69.5187,47.7319,141.1188],[-69.5337,47.7265,136.0362],[-69.5519,47.7298,113.467],[-69.5746,47.737,125.1261],[-69.5884,47.7359,131.0499],[-69.5932,47.7321,127.6686],[-69.6009,47.7325,124.8757],[-69.6042,47.7349,115.8686],[-69.6255,47.7164,103.4426],[-69.6405,47.7127,105.8046],[-69.662,47.7273,0.2077],[-69.6661,47.7263,2.2215],[-69.6725,47.7285,3.3466],[-69.6739,47.7276,3.3466],[-69.6768,47.7251,-0.0657],[-69.6768,47.7232,3.635],[-69.697,47.7093,0.0],[-69.701,47.7052,1.5849],[-69.7024,47.7006,1.943],[-69.7095,47.6971,0.29],[-69.7183,47.6864,1.3841],[-69.7262,47.6807,0.3126],[-69.7299,47.6753,1.3342],[-69.7397,47.6704,2.1982],[-69.7423,47.6709,5.3517],[-69.743,47.6745,3.0381],[-69.7455,47.6731,23.9305],[-69.7471,47.6687,0.0],[-69.7442,47.6679,0.0],[-69.7445,47.662,0.0],[-69.7474,47.6548,0.0],[-69.7658,47.639,0.0],[-69.7699,47.6305,1.4201],[-69.7787,47.6205,2.271],[-69.7883,47.6134,2.4767],[-69.7899,47.6146,0.0],[-69.7963,47.6119,0.3162],[-69.7998,47.6078,0.0],[-69.8054,47.6079,0.3828],[-69.8115,47.6,0.0],[-69.825,47.59,1.1972],[-69.8558,47.5816,0.0],[-69.8565,47.579,0.385],[-69.8615,47.5766,0.0],[-69.8681,47.5676,1.394],[-69.8775,47.5592,4.8454],[-69.8844,47.5443,1.6334],[-69.9004,47.5281,1.4519],[-69.9086,47.5236,1.5334],[-69.92,47.5223,0.3854],[-69.9263,47.5248,0.0],[-69.9313,47.5288,0.0],[-69.9324,47.5344,0.0],[-69.9408,47.5302,0.3879],[-69.9416,47.5285,0.0],[-69.9398,47.5272,0.0],[-69.9441,47.5182,1.0245],[-69.9512,47.5149,4.7132],[-69.9733,47.4948,8.3036],[-69.979,47.4933,3.5706],[-69.9839,47.4942,1.5467],[-69.9891,47.4969,1.5484],[-69.9879,47.5016,3.6475],[-69.9892,47.5021,0.0],[-69.9958,47.4995,2.1302],[-70.0036,47.4938,0.0],[-70.0097,47.4927,0.0],[-70.0233,47.4861,2.4676],[-70.0239,47.4848,0.7761],[-70.0194,47.4858,4.6387],[-70.0178,47.4822,0.0],[-70.0273,47.4757,1.7594],[-70.0342,47.4664,4.9272],[-70.025,47.4655,3.2043],[-70.0231,47.4611,1.593],[-70.025,47.4566,2.1301],[-70.0311,47.4474,0.6095],[-70.0439,47.4377,3.9214],[-70.0578,47.4308,0.6219],[-70.0611,47.4272,0.0],[-70.0597,47.4247,1.0967],[-70.0394,47.4286,0.4151],[-70.0255,47.4266,1.177],[-70.029,47.4255,0.0],[-70.0406,47.4261,0.3568],[-70.045,47.4241,0.0],[-70.0461,47.4219,0.0],[-70.0421,47.4105,2.1333],[-70.0422,47.4052,2.1512],[-70.0436,47.3952,2.5312],[-70.0469,47.3886,0.9211],[-70.0602,47.3714,2.8283],[-70.0831,47.3547,1.0568],[-70.0858,47.3497,1.3354],[-70.0982,47.341,0.0],[-70.0792,47.3288,29.1794],[-70.0811,47.3277,27.7587],[-70.0711,47.3227,34.4686],[-70.0031,47.2787,245.8099],[-69.9744,47.2914,224.2801],[-69.8832,47.231,230.3879]]],
[[[-70.0312,47.4261,0.3338],[-70.0328,47.4275,1.4631],[-70.0345,47.4269,0.9516],[-70.0326,47.4266,0.6799],[-70.0312,47.4261,0.3338]]],
[[[-69.8853,47.5795,8.194],[-69.8892,47.5741,0.0],[-69.8885,47.5729,0.0],[-69.8793,47.5844,0.0],[-69.8816,47.5839,0.0],[-69.8853,47.5795,8.194]]],
[[[-69.8731,47.595,2.1694],[-69.8722,47.5939,2.1694],[-69.8698,47.5972,0.0],[-69.8706,47.5975,0.0],[-69.8731,47.595,2.1694]]],
[[[-69.8845,47.5965,5.3916],[-69.8791,47.6034,0.7457],[-69.8797,47.6044,0.0],[-69.8862,47.5965,0.0],[-69.8845,47.5965,5.3916]]],
[[[-69.8684,47.5981,8.4388],[-69.8687,47.597,0.0],[-69.8669,47.597,0.0],[-69.8653,47.6007,0.0],[-69.8669,47.6003,7.2824],[-69.8684,47.5981,8.4388]]],
[[[-69.8003,47.6147,0.0],[-69.7983,47.6131,0.0],[-69.7961,47.6167,0.3585],[-69.7978,47.6164,6.1894],[-69.8003,47.6147,0.0]]],
[[[-69.8675,47.6173,21.9817],[-69.8682,47.6159,1.7909],[-69.8669,47.6154,0.0],[-69.8637,47.6176,18.7382],[-69.8592,47.6245,0.0],[-69.8636,47.6224,0.0],[-69.8675,47.6173,21.9817]]],
[[[-69.7625,47.6984,0.0],[-69.7609,47.6982,0.0],[-69.7571,47.702,2.0693],[-69.7461,47.7159,0.0],[-69.7275,47.7336,1.9665],[-69.7249,47.7407,0.0],[-69.734,47.7296,3.4082],[-69.753,47.7116,0.5657],[-69.7541,47.7083,3.4396],[-69.7625,47.6984,0.0]]],
[[[-69.7078,47.7386,3.0342],[-69.7062,47.741,0.0],[-69.709,47.7397,10.5781],[-69.7098,47.7425,0.8879],[-69.7188,47.735,10.8788],[-69.7185,47.7314,3.1295],[-69.7121,47.7334,0.0],[-69.7078,47.7386,3.0342]]],
[[[-69.7,47.7441,7.6457],[-69.6915,47.7474,13.2092],[-69.6961,47.7498,4.5825],[-69.7006,47.7461,28.6287],[-69.7,47.7441,7.6457]]],
[[[-69.6843,47.8753,0.0],[-69.6879,47.8759,2.8344],[-69.6935,47.8716,2.8293],[-69.6871,47.872,0.0],[-69.6854,47.8703,0.0],[-69.6804,47.8722,3.3443],[-69.6843,47.8753,0.0]]],
[[[-69.6747,47.9292,1.1754],[-69.6761,47.9281,2.3471],[-69.6731,47.9278,1.2059],[-69.6725,47.9306,0.0862],[-69.6729,47.9306,0.0862],[-69.6747,47.9292,1.1754]]],
[[[-69.7201,47.732,0.6385],[-69.7203,47.7372,0.0],[-69.7292,47.7281,1.581],[-69.7244,47.7287,0.0],[-69.7201,47.732,0.6385]]],
[[[-69.8066,47.7578,1.8174],[-69.8061,47.7564,0.5961],[-69.8015,47.7622,0.4525],[-69.8048,47.7603,2.6871],[-69.8066,47.7578,1.8174]]],
[[[-69.7984,47.7663,1.524],[-69.799,47.7651,0.6756],[-69.7972,47.7656,0.0],[-69.7967,47.7684,0.4544],[-69.7984,47.7677,0.9855],[-69.7984,47.7663,1.524]]],
[[[-69.7018,47.8768,0.2103],[-69.7042,47.8754,9.2771],[-69.6967,47.8896,1.6767],[-69.6863,47.9028,0.5559],[-69.7239,47.8723,0.0193],[-69.7499,47.8331,18.2856],[-69.7611,47.8218,4.8329],[-69.7756,47.8031,0.5294],[-69.7768,47.7996,0.8632],[-69.7745,47.798,0.1696],[-69.7677,47.804,0.0],[-69.7677,47.8071,14.286],[-69.7641,47.8093,0.0],[-69.7641,47.8108,4.7411],[-69.7413,47.8301,0.0],[-69.7351,47.8414,0.0],[-69.726,47.8498,0.5026],[-69.7263,47.8547,0.8307],[-69.7176,47.8583,0.0],[-69.7138,47.8639,13.173],[-69.7128,47.8608,0.3306],[-69.7099,47.8603,0.0],[-69.7044,47.8675,9.0967],[-69.7018,47.8768,0.2103]]]]}
,"properties": {"GID_2": "CAN.11.28_1","GID_0": "CAN","country": "Canada","GID_1": "CAN.11_1","province": "Québec","NL_NAME_1": "NA","county": "Kamouraska","VARNAME_2": "NA","NL_NAME_2": "NA","TYPE_2": "RegionalCountyMunicipality","ENGTYPE_2": "RegionalCountyMunicipality","CC_2": "14","HASC_2": "CA.QC.KA","name": "Kamouraska.county","area_km2": 2267.849,"hist_schema_id": "Elevation0-9000","hist_area_km2": {"0": 112.884,"25": 113.424,"50": 39.112,"75": 28.898,"100": 69.602,"125": 109.018,"150": 106.325,"175": 132.301,"200": 135.382,"225": 96.124,"250": 75.222,"275": 69.233,"300": 96.576,"325": 123.407,"350": 124.046,"375": 118.201,"400": 103.019,"425": 97.794,"450": 99.835,"475": 92.777,"500": 84.004,"525": 72.668,"550": 66.098,"575": 44.798,"600": 25.17,"625": 17.032,"650": 11.587,"675": 2.692,"700": 0.619}}}