{"type": "Feature","bbox": [-53.2725,47.6433,-53.2591,47.6498],"geometry": {"type": "MultiPolygon","coordinates": [[[[-53.2652,47.6498,120.097],[-53.2725,47.6472,100.4299],[-53.269,47.6433,162.7583],[-53.2591,47.6464,110.7523],[-53.2652,47.6498,120.097]]]]}
,"properties": {"GID_3": "CAN.5.3.33_1","GID_0": "CAN","country": "Canada","GID_1": "CAN.5_1","province": "NewfoundlandandLabrador","NL_NAME_1": "NA","GID_2": "CAN.5.3_1","county": "DivisionNo.1","NL_NAME_2": "NA","city": "DivisionNo.1,Subd.J","VARNAME_3": "NA","NL_NAME_3": "NA","TYPE_3": "SubdivisionofUnorganized","ENGTYPE_3": "SubdivisionofUnorganized","CC_3": "NA","HASC_3": "NA","name": "Division_No.1,Subd.J.city","area_km2": 0.385666,"hist_schema_id": "Elevation0-9000","hist_area_km2": {"125": 0.1571195,"150": 0.1714084,"175": 0.057138}}}