{"type": "Feature","bbox": [-111.7911,52.4298,-111.7782,52.4403],"geometry": {"type": "MultiPolygon","coordinates": [[[[-111.7859,52.4403,715.4894],[-111.7911,52.4396,714.0453],[-111.7909,52.4344,715.4487],[-111.7879,52.4348,715.4751],[-111.7782,52.4298,716.0825],[-111.7789,52.4396,713.8595],[-111.7859,52.4403,715.4894]]]]}
,"properties": {"GID_3": "CAN.1.17.1_1","GID_0": "CAN","country": "Canada","GID_1": "CAN.1_1","province": "Alberta","NL_NAME_1": "NA","GID_2": "CAN.1.17_1","county": "DivisionNo.7","NL_NAME_2": "NA","city": "Alliance","VARNAME_3": "NA","NL_NAME_3": "NA","TYPE_3": "Village","ENGTYPE_3": "Village","CC_3": "NA","HASC_3": "NA","name": "Alliance.city","area_km2": 0.659218,"hist_schema_id": "Elevation0-9000","hist_area_km2": {"725": 0.659218}}}