{"type":"Feature","properties":{"featurecla":"Lake Centerline","scalerank":11,"rivernum":23269,"dissolve":"23269Lake Centerline","name":"null1355","name_alt":null,"note":null,"name_full":null,"min_zoom":6.7,"strokeweig":0.2,"uident":0,"min_label":7.7},
"geometry":{"type": "LineString","coordinates": [[-90.8585505850204,48.226874090619027,460.5648],[-90.878895637103724,48.232489324994027,447.045],[-90.910145637103724,48.228583074994027,447.046],[-90.937489387103724,48.220770574994027,435.0],[-90.964833137103724,48.212958074994027,435.8291],[-91.003244595437067,48.195379949994027,457.4146],[-91.034535285541224,48.183172918744027,435.0]]}}