{"type": "Feature","bbox": [-97.8746,54.5859,-97.7741,54.6456],"geometry": {"type": "MultiPolygon","coordinates": [[[[-97.8017,54.6405,206.5],[-97.7883,54.6432,206.5],[-97.7909,54.6454,206.5],[-97.8,54.6456,223.3322],[-97.8098,54.6392,206.5],[-97.8126,54.6395,206.5],[-97.8156,54.6442,206.5],[-97.8182,54.6429,206.5],[-97.8191,54.6376,221.0945],[-97.8243,54.6358,215.8571],[-97.8299,54.6275,223.2742],[-97.8347,54.625,218.293],[-97.844,54.6241,210.494],[-97.8551,54.6133,209.6583],[-97.8716,54.6022,211.9509],[-97.8746,54.5975,215.0177],[-97.8699,54.5924,206.7917],[-97.8624,54.5893,206.5],[-97.8527,54.5905,206.5],[-97.8257,54.589,219.7805],[-97.8193,54.5859,206.5],[-97.7986,54.5903,213.5894],[-97.7939,54.5873,206.5],[-97.7774,54.5963,206.5],[-97.7741,54.604,208.3518],[-97.7831,54.6093,206.5],[-97.7802,54.6168,206.5],[-97.7843,54.6232,210.2896],[-97.7937,54.626,208.7172],[-97.7932,54.6306,206.5],[-97.8012,54.6314,206.795],[-97.8037,54.6352,206.5],[-97.8017,54.6405,206.5]]]]}
,"properties": {"GID_3": "CAN.3.14.1_1","GID_0": "CAN","country": "Canada","GID_1": "CAN.3_1","province": "Manitoba","NL_NAME_1": "NA","GID_2": "CAN.3.14_1","county": "DivisionNo.22","NL_NAME_2": "NA","city": "CrossLake19","VARNAME_3": "NA","NL_NAME_3": "NA","TYPE_3": "RéserveIndienne","ENGTYPE_3": "IndianReserve","CC_3": "NA","HASC_3": "NA","name": "Cross_Lake19.city","area_km2": 24.18992,"hist_schema_id": "Elevation0-9000","hist_area_km2": {"200": 11.53064,"225": 12.65927}}}