{"type":"Feature","properties":{"GID_3":"CAN.1.12.9_1","GID_0":"CAN","country":"Canada","GID_1":"CAN.1_1","province":"Alberta","NL_NAME_1":"NA","GID_2":"CAN.1.12_1","county":"DivisionNo.2","NL_NAME_2":"NA","city":"Lethbridge","VARNAME_3":"NA","NL_NAME_3":"NA","TYPE_3":"Cité","ENGTYPE_3":"City","CC_3":"NA","HASC_3":"NA","name":"Lethbridge.city"},
"geometry":{"type": "MultiPolygon","coordinates": [[[[-112.9313,49.6546,840.0],[-112.9357,49.6484,842.4048],[-112.9324,49.6435,840.7203],[-112.9358,49.643,843.0358],[-112.9294,49.6384,842.8597],[-112.9334,49.6326,925.8511],[-112.9323,49.6304,885.536],[-112.9227,49.6299,840.9694],[-112.9185,49.6258,839.6346],[-112.9132,49.6254,835.8503],[-112.9097,49.628,839.4382],[-112.9006,49.6288,922.6357],[-112.8911,49.6359,918.1709],[-112.8609,49.6348,831.873],[-112.8571,49.6376,829.7562],[-112.8518,49.6467,836.5432],[-112.8491,49.6476,847.452],[-112.8422,49.6464,833.4071],[-112.8354,49.6427,828.7797],[-112.8313,49.6431,831.3202],[-112.8282,49.6458,827.5228],[-112.8261,49.6531,827.1219],[-112.8025,49.6535,906.4907],[-112.8023,49.6475,914.5864],[-112.7804,49.6476,911.4092],[-112.7803,49.6397,911.9066],[-112.7569,49.6397,911.9349],[-112.7567,49.6835,908.9875],[-112.768,49.6835,910.7332],[-112.768,49.6793,912.7167],[-112.7746,49.6836,912.1201],[-112.7784,49.6837,913.3085],[-112.7781,49.757,904.7378],[-112.8516,49.7559,816.9797],[-112.8629,49.7573,896.5312],[-112.8675,49.7536,900.5648],[-112.8683,49.7476,899.844],[-112.8714,49.7446,881.3904],[-112.8811,49.7412,905.5646],[-112.8799,49.7379,907.0353],[-112.8684,49.7324,846.4188],[-112.8666,49.7298,836.0057],[-112.8797,49.713,858.5795],[-112.8896,49.7158,912.1973],[-112.892,49.7133,920.8326],[-112.8946,49.717,921.1246],[-112.9145,49.7223,934.8006],[-112.9146,49.7133,936.0754],[-112.9262,49.7133,939.9151],[-112.92529999999999,49.6547,923.928],[-112.9313,49.6546,840.0]]]]}}