{"type":"Feature","properties":{"GID_3":"CAN.12.7.5_1","GID_0":"CAN","country":"Canada","GID_1":"CAN.12_1","province":"Saskatchewan","NL_NAME_1":"NA","GID_2":"CAN.12.7_1","county":"DivisionNo.16","NL_NAME_2":"NA","city":"BigShell","VARNAME_3":"NA","NL_NAME_3":"NA","TYPE_3":"ResortVillage","ENGTYPE_3":"ResortVillage","CC_3":"NA","HASC_3":"NA","name":"Big_Shell.city"},
"geometry":{"type": "MultiPolygon","coordinates": [[[[-107.1303,53.2068,590.9183],[-107.1296,53.2022,592.1087],[-107.132,53.1953,589.7935],[-107.1458,53.1955,581.6245],[-107.1425,53.1929,589.4377],[-107.1277,53.1924,592.8027],[-107.1281,53.1994,594.1341],[-107.1234,53.1994,594.0502],[-107.1234,53.2068,596.7552],[-107.1303,53.2068,590.9183]]]]}}