{"type": "Feature","bbox": [-103.7154,50.7466,-103.6932,50.763],"geometry": {"type": "MultiPolygon","coordinates": [[[[-103.7091,50.7611,488.4711],[-103.7081,50.763,493.4276],[-103.7105,50.7606,488.4711],[-103.7147,50.7614,516.2286],[-103.7154,50.7629,519.4282],[-103.7153,50.7538,478.4195],[-103.7112,50.7538,478.4554],[-103.7111,50.75,478.4045],[-103.7048,50.75,478.4227],[-103.7049,50.7466,478.4053],[-103.6932,50.7468,480.7271],[-103.6935,50.7575,568.4636],[-103.6969,50.7576,553.8603],[-103.6973,50.7611,571.8204],[-103.7091,50.7611,488.4711]],
[[-103.7087,50.7584,485.1843],[-103.7097,50.7579,485.1843],[-103.7081,50.7572,485.1843],[-103.7106,50.7559,480.7599],[-103.7148,50.7592,482.0494],[-103.7147,50.761,516.2286],[-103.7075,50.7591,490.7232],[-103.7087,50.7584,485.1843]]]]}
,"properties": {"GID_3": "CAN.12.15.43_1","GID_0": "CAN","country": "Canada","GID_1": "CAN.12_1","province": "Saskatchewan","NL_NAME_1": "NA","GID_2": "CAN.12.15_1","county": "DivisionNo.6","NL_NAME_2": "NA","city": "Lebret","VARNAME_3": "NA","NL_NAME_3": "NA","TYPE_3": "Village","ENGTYPE_3": "Village","CC_3": "NA","HASC_3": "NA","name": "Lebret.city","area_km2": 1.931552,"hist_schema_id": "Elevation0-9000","hist_area_km2": {"475": 1.341406,"500": 0.281666,"525": 0.080475,"550": 0.12071,"575": 0.107295}}}