{"type": "Feature","bbox": [-107.9436,59.0905,-107.8567,59.1522],"geometry": {"type": "MultiPolygon","coordinates": [[[[-107.8567,59.1023,324.0518],[-107.8991,59.1522,283.3666],[-107.9436,59.1427,284.6723],[-107.9017,59.0905,314.6209],[-107.8567,59.1023,324.0518]]]]}
,"properties": {"GID_3": "CAN.12.9.24_1","GID_0": "CAN","country": "Canada","GID_1": "CAN.12_1","province": "Saskatchewan","NL_NAME_1": "NA","GID_2": "CAN.12.9_1","county": "DivisionNo.18","NL_NAME_2": "NA","city": "FondduLac231","VARNAME_3": "NA","NL_NAME_3": "NA","TYPE_3": "RéserveIndienne","ENGTYPE_3": "IndianReserve","CC_3": "NA","HASC_3": "NA","name": "Fonddu_Lac231.city","area_km2": 17.32306,"hist_schema_id": "Elevation0-9000","hist_area_km2": {"225": 0.28275,"250": 1.70766,"275": 1.54461,"300": 7.50666,"325": 6.27049,"350": 0.01089}}}