{"type":"Feature","properties":{"featurecla":"Lake Centerline","scalerank":12,"rivernum":20215,"dissolve":"20215Lake Centerline","name":"St. Mary","name_alt":null,"note":"ID is link back to CEC data","name_full":"St. Mary River","min_zoom":7.0,"strokeweig":0.2,"uident":1777901,"min_label":8.0},
"geometry":{"type": "LineString","coordinates": [[-113.10069739491622,49.365423895306527,1052.6133],[-113.14842688710372,49.334051824994027,1101.9193],[-113.21678626210372,49.296942449994027,1118.2111],[-113.23631751210372,49.283270574994027,1118.7043],[-113.26008053293705,49.265814520306527,1117.7007]]}}