{"type":"Feature","properties":{"featurecla":"River","scalerank":12,"rivernum":20215,"dissolve":"20215River","name":"St. Mary","name_alt":null,"note":"ID is link back to CEC data","name_full":"St. Mary River","min_zoom":7.0,"strokeweig":0.15,"uident":1777901,"min_label":8.0},
"geometry":{"type": "LineString","coordinates": [[-113.26008053293705,49.265814520306527,1117.7007],[-113.26695716054122,49.234686590619027,1107.0496],[-113.26032467356205,49.220160223431527,1121.5267],[-113.2135310537704,49.194118556764863,1125.9745],[-113.19322669179122,49.161078192181527,1141.6528],[-113.19078528554122,49.143988348431527,1165.9399],[-113.18809973866622,49.118719793744027,1183.7148],[-113.21471106679122,49.073187567181527,1186.9109],[-113.2735896475204,49.0399030619732,1270.6575],[-113.31187903554122,49.030096746869027,1289.2095],[-113.3246150381454,49.0189069682232,1317.0789]]}}