{"type": "Feature","bbox": [-118.6839,49.0797,-118.6728,49.1084],"geometry": {"type": "MultiPolygon","coordinates": [[[[-118.6728,49.0798,934.8159],[-118.673,49.1084,779.1401],[-118.6839,49.1083,887.2901],[-118.6836,49.0797,744.0671],[-118.6728,49.0798,934.8159]]]]}
,"properties": {"GID_3": "CAN.2.16.3_1","GID_0": "CAN","country": "Canada","GID_1": "CAN.2_1","province": "BritishColumbia","NL_NAME_1": "NA","GID_2": "CAN.2.16_1","county": "KootenayBoundary","NL_NAME_2": "NA","city": "Greenwood","VARNAME_3": "NA","NL_NAME_3": "NA","TYPE_3": "Cité","ENGTYPE_3": "City","CC_3": "NA","HASC_3": "NA","name": "Greenwood.city","area_km2": 2.401868,"hist_schema_id": "Elevation0-9000","hist_area_km2": {"750": 1.443848,"775": 0.277681,"800": 0.138844,"825": 0.166599,"850": 0.138843,"875": 0.111081,"900": 0.097197,"925": 0.027775}}}