{"type":"Feature","properties":{"GID_3":"CAN.11.9.11_1","GID_0":"CAN","country":"Canada","GID_1":"CAN.11_1","province":"Québec","NL_NAME_1":"NA","GID_2":"CAN.11.9_1","county":"Beauce-Sartigan","NL_NAME_2":"NA","city":"Saint-Georges","VARNAME_3":"NA","NL_NAME_3":"NA","TYPE_3":"Ville","ENGTYPE_3":"Ville","CC_3":"NA","HASC_3":"NA","name":"Saint-Georges.city"},
"geometry":{"type": "MultiPolygon","coordinates": [[[[-70.6553,46.0886,204.7508],[-70.635,46.0925,234.8652],[-70.6288,46.0921,215.8607],[-70.6138,46.1027,291.4461],[-70.6166,46.1026,284.7321],[-70.6402,46.1195,287.4556],[-70.6341,46.1241,276.8259],[-70.6756,46.1529,237.7373],[-70.6857,46.1464,242.8805],[-70.687,46.148,240.4082],[-70.7128,46.1311,191.1481],[-70.7078,46.1295,176.879],[-70.7039,46.1307,160.453],[-70.6963,46.1283,160.767],[-70.6889,46.1209,170.7417],[-70.6906,46.1192,178.3818],[-70.6868,46.1193,176.4389],[-70.697,46.1124,219.1826],[-70.6848,46.104,253.3761],[-70.6939,46.0978,279.3091],[-70.6906,46.0957,281.6127],[-70.6858,46.0871,298.4214],[-70.6656,46.1006,185.6647],[-70.6553,46.0886,204.7508]]]]}}