{"type":"Feature","properties":{"GID_3":"CAN.2.8.2_1","GID_0":"CAN","country":"Canada","GID_1":"CAN.2_1","province":"BritishColumbia","NL_NAME_1":"NA","GID_2":"CAN.2.8_1","county":"Columbia-Shuswap","NL_NAME_2":"NA","city":"Columbia-ShuswapA","VARNAME_3":"NA","NL_NAME_3":"NA","TYPE_3":"RegionalDistrictElectoralArea","ENGTYPE_3":"RegionalDistrictElectoralArea","CC_3":"NA","HASC_3":"NA","name":"Columbia-Shuswap_A.city"},
"geometry":{"type": "MultiPolygon","coordinates": [[[[-118.226,52.3803,2636.167],[-118.2399,52.3749,2508.5654],[-118.2451,52.3658,2346.1599],[-118.2478,52.3571,2302.0503],[-118.254,52.3479,2439.7444],[-118.2727,52.346,2344.2451],[-118.2894,52.3388,2530.0815],[-118.2946,52.3421,2427.2002],[-118.3027,52.3525,2240.8984],[-118.3042,52.3606,2215.116],[-118.3166,52.3676,2197.844],[-118.3294,52.3685,2572.8699],[-118.3531,52.3659,2602.7417],[-118.3585,52.3626,2668.4426],[-118.3661,52.3545,2341.9429],[-118.3733,52.3503,2307.3813],[-118.3792,52.3497,2304.9214],[-118.3854,52.3391,2353.6553],[-118.3944,52.3346,2393.6787],[-118.4105,52.3372,2159.4995],[-118.4251,52.3358,2377.8186],[-118.4394,52.3243,2641.5203],[-118.4554,52.3244,2595.7673],[-118.4651,52.3174,2652.4395],[-118.492,52.3121,2289.0972],[-118.4924,52.3075,2542.8606],[-118.4879,52.2987,2007.4243],[-118.5003,52.2812,1496.3308],[-118.5394,52.2724,744.0],[-118.548,52.2689,744.0],[-118.5453,52.2659,744.0],[-118.5331,52.2604,744.0],[-118.5173,52.2483,744.0],[-118.4955,52.2356,744.0],[-118.4907,52.2309,849.2678],[-118.4769,52.2249,744.0],[-118.475,52.2127,744.0],[-118.4764,52.2032,744.0],[-118.4629,52.1854,744.0],[-118.4621,52.1823,744.0],[-118.4486,52.1694,744.0],[-118.4539,52.1616,744.0],[-118.4538,52.1414,744.0],[-118.4441,52.1353,744.0],[-118.4388,52.1053,744.0],[-118.437,52.0901,814.8545],[-118.4381,52.0742,1068.0854],[-118.4447,52.066,1460.4081],[-118.4534,52.0623,1833.2402],[-118.394,52.028,2490.3716],[-118.3893,52.0197,2426.5784],[-118.3881,52.0122,2486.8162],[-118.4001,51.9999,2549.5576],[-118.3945,52.0,2485.1594],[-118.3889,51.9785,2505.1665],[-118.3713,51.9749,2253.8701],[-118.3645,51.9785,2213.4575],[-118.3574,51.9789,2332.1226],[-118.3536,51.9906,2050.259],[-118.3433,51.9917,2087.5464],[-118.3274,51.9912,2295.2878],[-118.3078,51.9867,2354.6233],[-118.2937,51.9861,2374.9756],[-118.2826,51.9814,2374.7607],[-118.2756,51.9723,2508.958],[-118.2722,51.9634,2777.9656],[-118.2585,51.9629,2836.2874],[-118.2309,51.972,2787.1287],[-118.2157,51.974,2426.0298],[-118.2085,51.9702,2382.978],[-118.2043,51.9656,2274.0779],[-118.1926,51.9625,2436.9502],[-118.1918,51.9503,2409.5684],[-118.185,51.9418,2401.28],[-118.1716,51.9361,2321.1665],[-118.1656,51.9168,2035.3077],[-118.169,51.9155,2172.1665],[-118.1718,51.9121,2254.312],[-118.1724,51.9062,2095.2144],[-118.1536,51.8971,2668.7798],[-118.1401,51.897,2924.1782],[-118.123,51.8933,2682.3149],[-118.1215,51.8881,2889.344],[-118.1463,51.8625,2759.4875],[-118.1374,51.8545,2423.374],[-118.1489,51.8266,2612.9321],[-118.1562,51.8205,2598.3611],[-118.1742,51.8113,2461.8032],[-118.1738,51.8021,2270.1975],[-118.1877,51.7906,2370.885],[-118.1827,51.7862,2155.2344],[-118.1587,51.7791,2253.1006],[-118.1329,51.7808,2322.9951],[-118.1283,51.7782,2366.6086],[-118.125,51.7706,2049.4067],[-118.1248,51.7636,2202.6445],[-118.1194,51.7445,2412.8892],[-118.1237,51.7232,2237.7258],[-118.1189,51.7163,2669.1179],[-118.1103,51.7095,2437.8643],[-118.093,51.7038,2410.793],[-118.0768,51.7196,2199.0745],[-118.0732,51.725,2354.2485],[-118.0564,51.723,2295.4902],[-118.023,51.7248,2448.0671],[-118.0177,51.728,2373.7134],[-118.0206,51.7356,2541.6021],[-118.0135,51.7393,2582.6187],[-118.0141,51.7425,2663.5054],[-118.0122,51.7442,2595.4189],[-118.0,51.7437,2260.3086],[-117.9803,51.739,2100.3853],[-117.9735,51.7323,1831.134],[-117.9571,51.7252,2294.7849],[-117.9396,51.723,2412.459],[-117.9255,51.7233,2540.6306],[-117.9143,51.7253,2636.6582],[-117.907,51.7234,2961.6499],[-117.9175,51.7204,2859.4541],[-117.9267,51.714,2731.302],[-117.922,51.7093,2556.8115],[-117.9218,51.7013,2765.0007],[-117.933,51.6956,2736.4253],[-117.9397,51.6832,2623.1101],[-117.9371,51.6693,2420.9033],[-117.9296,51.665,2602.0088],[-117.9314,51.6623,2647.2407],[-117.9322,51.6553,2521.0645],[-117.94,51.648,2635.6953],[-117.9505,51.6475,2670.0708],[-117.9726,51.6392,2520.4268],[-117.975,51.6336,2241.3093],[-117.9747,51.6287,1973.6732],[-117.9855,51.6075,2094.9175],[-117.981,51.6002,2364.9246],[-117.9803,51.5926,2412.9465],[-117.9891,51.5801,2475.1455],[-117.9878,51.577,2371.0232],[-117.9804,51.5746,2434.0881],[-117.9534,51.545,2297.333],[-117.9407,51.5426,2617.4324],[-117.9385,51.531,2308.3962],[-117.9472,51.5252,2138.011],[-117.959,51.5103,2415.0552],[-117.9763,51.5099,2760.7346],[-117.9877,51.5,2662.9287],[-117.9799,51.4857,2688.6357],[-117.97,51.4773,2276.8186],[-117.9292,51.452,2912.717],[-117.922,51.4533,3094.2063],[-117.911,51.4267,2476.2041],[-117.8912,51.4262,2599.9355],[-117.8644,51.402,2325.6101],[-117.858,51.3906,2192.8032],[-117.8343,51.3878,2563.5239],[-117.8377,51.3843,2328.2075],[-117.8389,51.3718,1878.073],[-117.8279,51.3639,2112.5947],[-117.8031,51.3566,2675.9136],[-117.8041,51.3454,2300.9954],[-117.7925,51.3418,2362.9353],[-117.7678,51.3421,2565.6055],[-117.7674,51.3302,2383.2349],[-117.7537,51.3205,2201.8066],[-117.7298,51.3151,2288.8315],[-117.7451,51.3028,2030.8766],[-117.7404,51.2943,2023.7837],[-117.7454,51.2877,1829.6617],[-117.7354,51.2789,1855.2157],[-117.7283,51.2802,1738.353],[-117.7214,51.2748,1760.3329],[-117.7381,51.2622,2055.8401],[-117.7522,51.2565,2499.4067],[-117.755,51.2531,2475.925],[-117.7469,51.2467,2126.248],[-117.7277,51.2419,2294.2354],[-117.7266,51.2348,2237.9712],[-117.7226,51.235,2190.1223],[-117.7191,51.2281,2142.2],[-117.7129,51.2045,1116.2603],[-117.7109,51.1961,1691.3127],[-117.711,51.1883,2262.5635],[-117.7069,51.1827,2281.7471],[-117.6941,51.1813,2391.3508],[-117.6725,51.1711,2623.5195],[-117.6703,51.1684,2373.6509],[-117.6707,51.1558,2333.3489],[-117.6794,51.1484,2501.4863],[-117.6809,51.1451,2460.2441],[-117.6807,51.1401,2441.4729],[-117.6784,51.1355,2445.8232],[-117.6691,51.1303,2688.8984],[-117.6692,51.128,2626.1221],[-117.6721,51.1272,2672.1484],[-117.6788,51.1103,2550.1021],[-117.6849,51.1074,2423.1616],[-117.6995,51.096,2510.8875],[-117.701,51.0918,2499.2886],[-117.7148,51.0863,2656.6387],[-117.7147,51.0823,2688.1206],[-117.7109,51.0764,2871.0703],[-117.6906,51.0766,2468.1445],[-117.6848,51.0782,2589.2764],[-117.6709,51.0738,2673.8093],[-117.6579,51.0735,2698.4585],[-117.648,51.0699,2758.7261],[-117.6444,51.0705,2737.2192],[-117.6403,51.0741,2830.2041],[-117.6339,51.0738,2415.605],[-117.5435,51.0914,2745.8687],[-117.5412,51.0892,2454.2046],[-117.5398,51.0837,2636.8833],[-117.5346,51.0797,2646.3232],[-117.5286,51.0782,2621.6748],[-117.5251,51.0751,2571.7769],[-117.5216,51.0685,2327.4512],[-117.5169,51.0658,2337.7463],[-117.5104,51.0655,2464.0688],[-117.5044,51.0609,2575.157],[-117.4889,51.0616,2399.3135],[-117.4827,51.0581,2656.3066],[-117.4782,51.0579,2753.6643],[-117.4715,51.0636,2719.7852],[-117.4701,51.0679,2736.1899],[-117.4617,51.0685,2727.1045],[-117.4529,51.075,2706.2676],[-117.4529,51.0782,2750.4624],[-117.4584,51.0908,2618.6621],[-117.4635,51.0938,2947.5789],[-117.4684,51.0945,3089.4126],[-117.4697,51.0985,2924.7412],[-117.4578,51.1052,2673.2817],[-117.4516,51.1069,2682.3149],[-117.4369,51.1057,2835.1829],[-117.4048,51.1115,2979.9551],[-117.3807,51.1042,2879.7031],[-117.375,51.093,2959.915],[-117.3757,51.0905,3076.2351],[-117.3805,51.0881,3068.1914],[-117.3849,51.0812,3172.9033],[-117.3844,51.0751,2829.1882],[-117.3728,51.0639,2707.98],[-117.3722,51.06,2634.4878],[-117.3499,51.0544,3088.7803],[-117.3523,51.0499,3069.9924],[-117.3497,51.0435,2763.7935],[-117.3506,51.0417,2761.9639],[-117.3437,51.0368,2896.5972],[-117.3322,51.0383,3073.8193],[-117.3288,51.0356,2965.3228],[-117.326,51.0355,2925.3418],[-117.317,51.0377,3132.9067],[-117.3071,51.0511,2455.0376],[-117.2827,51.0547,1709.8936],[-117.2681,51.0537,1415.7805],[-117.2421,51.0565,1892.0997],[-117.2297,51.0584,2239.2837],[-117.2166,51.065,2509.4255],[-117.2098,51.0649,2596.6812],[-117.2052,51.0625,2581.0261],[-117.2073,51.0575,2422.6909],[-117.2051,51.0539,2270.752],[-117.1973,51.0536,2187.1699],[-117.1791,51.044,2165.1309],[-117.1692,51.0431,2441.7388],[-117.1667,51.0353,2371.9888],[-117.1715,51.0273,2655.1372],[-117.1701,51.0252,2763.25],[-117.1536,51.024,2662.2021],[-117.1439,51.0269,2676.2131],[-117.1369,51.0214,2540.5454],[-117.136,51.0171,2492.4514],[-117.1437,51.0048,2523.053],[-117.16,50.9974,2575.6807],[-117.1608,50.995,2595.6301],[-117.1706,50.9926,2565.7141],[-117.1675,50.9855,2452.6858],[-117.1673,50.9804,2483.988],[-117.1603,50.975,2636.4614],[-117.1484,50.9719,2518.0828],[-117.1366,50.976,2651.1956],[-117.1271,50.9769,2602.1267],[-117.1153,50.9727,2554.5317],[-117.1147,50.9714,2606.4209],[-117.1165,50.9691,2685.7222],[-117.1134,50.9668,2821.6965],[-117.0996,50.9702,2876.4221],[-117.088,50.9683,2891.949],[-117.0707,50.9711,2932.6118],[-117.0688,50.9676,2717.6064],[-117.0626,50.9645,2847.0317],[-117.0537,50.9654,2472.9124],[-117.0368,50.9575,2796.9473],[-117.037,50.9553,2738.3679],[-117.0417,50.9543,2740.0869],[-117.0447,50.9469,2613.0876],[-117.052,50.9443,2632.1064],[-117.0517,50.9403,2584.5833],[-117.072,50.9197,2599.6741],[-117.0719,50.9176,2593.0801],[-117.068,50.9159,2462.0845],[-117.0687,50.9135,2495.0381],[-117.0663,50.9094,2569.7188],[-117.0702,50.9064,2546.7271],[-117.0679,50.9035,2439.3721],[-117.0738,50.8983,2313.98],[-117.0786,50.898,2449.6919],[-117.0778,50.8955,2410.4749],[-117.0723,50.8914,2492.0713],[-117.0726,50.8891,2530.0166],[-117.074,50.8858,2606.7905],[-117.0783,50.8825,2577.4856],[-117.0816,50.8696,2616.8091],[-117.0861,50.8643,2565.5056],[-117.0844,50.861,2556.332],[-117.081,50.8594,2633.3926],[-117.0779,50.8553,2557.8237],[-117.0665,50.853,2425.1616],[-117.0474,50.8587,2721.459],[-117.0432,50.8563,2560.8379],[-117.0483,50.8467,2749.2163],[-117.0494,50.8385,2678.7605],[-117.0471,50.8353,2669.4907],[-117.0517,50.8298,2741.1367],[-117.0417,50.8218,2701.0776],[-117.0391,50.815,2824.3052],[-117.0279,50.8151,2519.7913],[-117.0163,50.8199,2168.1235],[-117.0129,50.8195,2168.1235],[-117.0042,50.8137,2406.1575],[-116.9901,50.8093,2713.7136],[-116.9811,50.8108,2794.2109],[-116.9645,50.8104,2859.2954],[-116.9587,50.8087,2840.9719],[-116.9542,50.8032,2797.8464],[-116.9325,50.797,2817.4321],[-116.9295,50.7921,2846.3176],[-116.9296,50.7893,3001.4092],[-116.9273,50.7872,3003.3445],[-116.9283,50.7843,2943.3613],[-116.9219,50.7801,2933.1077],[-116.921,50.7739,2947.3279],[-116.9156,50.7709,2948.2822],[-116.9059,50.7723,3086.2017],[-116.8971,50.7697,3103.0408],[-116.8909,50.7715,2992.1208],[-116.8888,50.7689,2926.168],[-116.8794,50.7705,2902.2251],[-116.871,50.7613,2747.2554],[-116.8601,50.7571,2224.1982],[-116.8461,50.761,1971.1462],[-116.8311,50.7612,2499.2371],[-116.8272,50.7594,2434.127],[-116.8286,50.7499,2765.5615],[-116.8219,50.7486,2584.8289],[-116.815,50.7432,2657.22],[-116.8193,50.7359,2862.6206],[-116.8082,50.7274,3126.0903],[-116.8008,50.7303,2977.082],[-116.7943,50.7299,3001.4099],[-116.7816,50.7354,2648.479],[-116.7818,50.7379,2694.8762],[-116.7874,50.7403,2755.2615],[-116.7886,50.7464,3089.3611],[-116.7835,50.7499,2715.4941],[-116.7777,50.75,2752.0964],[-116.7739,50.752,2677.1687],[-116.7708,50.7676,2640.1309],[-116.7588,50.771,2551.3394],[-116.7443,50.7721,2487.8042],[-116.7447,50.7802,2540.3101],[-116.7486,50.785,2435.2773],[-116.7486,50.7917,2395.4675],[-116.7472,50.797,2422.2883],[-116.7392,50.8035,2408.4817],[-116.7371,50.8073,2500.429],[-116.7385,50.8094,2515.0762],[-116.7369,50.8141,2623.6682],[-116.7452,50.8171,2489.6694],[-116.7524,50.8318,2442.0347],[-116.763,50.8409,2512.9302],[-116.7649,50.8466,2662.3728],[-116.7595,50.8492,2652.5293],[-116.749,50.8478,2764.2712],[-116.7461,50.8488,2766.6218],[-116.7437,50.8527,2719.3027],[-116.7364,50.8523,2751.8779],[-116.723,50.8549,2857.2502],[-116.7241,50.8645,2611.3853],[-116.7275,50.8674,2696.062],[-116.7285,50.872,2777.1514],[-116.7335,50.8763,2824.645],[-116.7271,50.8811,2815.0576],[-116.7132,50.8809,2834.2537],[-116.7081,50.8866,2792.6553],[-116.7015,50.8869,2802.3525],[-116.6972,50.8905,2721.353],[-116.6926,50.8911,2722.3564],[-116.6866,50.8893,2698.6675],[-116.6724,50.8906,2482.2129],[-116.6407,50.9093,1977.6062],[-116.6365,50.9125,1784.1394],[-116.6326,50.9194,1548.8914],[-116.6292,50.9215,1468.6901],[-116.5357,50.9217,970.5861],[-116.5354,50.936,994.4244],[-116.5,50.936,960.3411],[-116.4977,50.9398,1056.3296],[-116.4926,50.9391,1078.8988],[-116.4882,50.9415,1103.77],[-116.4644,50.9395,1575.3992],[-116.463,50.9373,1510.9091],[-116.4424,50.9359,1040.0404],[-116.4423,50.9503,794.3503],[-116.3174,50.9506,2262.6685],[-116.3245,50.9636,2240.5107],[-116.3362,50.9767,2244.384],[-116.3461,50.9801,2548.8442],[-116.3645,50.9923,2304.3501],[-116.3802,51.0001,2279.791],[-116.3801,51.0079,2278.1758],[-116.3841,51.0125,2111.5596],[-116.4034,51.0205,2225.4617],[-116.4072,51.0282,2111.2537],[-116.4186,51.0328,2330.8938],[-116.4185,51.0367,2080.6938],[-116.4066,51.0432,1555.9526],[-116.3913,51.0555,1292.6047],[-116.3844,51.055,1287.283],[-116.3795,51.058,1297.809],[-116.3382,51.065,1347.7334],[-116.3135,51.0974,2096.6519],[-116.3038,51.1044,2055.3228],[-116.2883,51.1102,2282.2288],[-116.2602,51.127,2785.1968],[-116.2628,51.1295,2768.1282],[-116.2554,51.1408,2357.637],[-116.2611,51.1459,2191.2168],[-116.2734,51.1499,2822.998],[-116.2815,51.1496,2908.0637],[-116.2834,51.1514,2861.166],[-116.2883,51.1572,2915.77],[-116.2907,51.1737,2835.2368],[-116.2968,51.1799,2832.8137],[-116.3151,51.1823,2392.2529],[-116.3315,51.1804,2526.3711],[-116.3385,51.185,2454.5444],[-116.3429,51.192,2513.3511],[-116.3435,51.1993,2696.5063],[-116.3457,51.2028,2833.3394],[-116.346,51.2075,2864.2134],[-116.3347,51.2082,2809.625],[-116.3267,51.2144,2217.1704],[-116.3007,51.2085,2139.0435],[-116.2858,51.2112,2338.3677],[-116.2631,51.2216,1995.9087],[-116.2644,51.2248,2001.7228],[-116.2628,51.2264,2023.8447],[-116.262,51.2429,2413.7668],[-116.2964,51.2616,2516.0359],[-116.2901,51.2908,2598.5361],[-116.3007,51.3023,2507.427],[-116.3052,51.3254,3128.9712],[-116.2826,51.3315,3131.2683],[-116.2867,51.3345,3313.1169],[-116.2877,51.3421,2906.5242],[-116.29,51.3431,3123.5613],[-116.2773,51.3547,2977.2825],[-116.2799,51.3596,3247.585],[-116.2777,51.3617,3120.0366],[-116.2934,51.3648,3034.4111],[-116.3002,51.3709,3109.5859],[-116.3027,51.3713,3274.7166],[-116.3115,51.385,3342.0383],[-116.2983,51.392,2805.3076],[-116.2919,51.3972,2977.3979],[-116.2937,51.4016,2985.8838],[-116.2925,51.4036,3082.2146],[-116.2825,51.4068,2775.8589],[-116.2879,51.4187,2324.5115],[-116.2933,51.4256,2407.7996],[-116.2943,51.4299,2377.9707],[-116.2855,51.4353,1937.0153],[-116.2881,51.4485,1691.467],[-116.2844,51.4494,1666.7976],[-116.2841,51.4565,1718.0092],[-116.2925,51.4618,1793.558],[-116.3087,51.4628,2193.1016],[-116.3151,51.4656,2433.269],[-116.3223,51.4625,2424.1211],[-116.338,51.4643,2629.6372],[-116.3466,51.4695,2631.4922],[-116.3606,51.4709,2670.6892],[-116.3679,51.4786,2576.1799],[-116.369,51.483,2764.583],[-116.3798,51.4883,2745.6523],[-116.3939,51.5057,2707.6343],[-116.3963,51.5126,2832.1016],[-116.3935,51.518,2857.3223],[-116.3954,51.5255,2903.8933],[-116.3879,51.5274,2746.9355],[-116.3821,51.531,2813.0537],[-116.3909,51.5456,2786.7991],[-116.4014,51.5465,2801.738],[-116.422,51.5551,2815.5994],[-116.4287,51.5542,2805.0474],[-116.429,51.5565,2824.5349],[-116.4374,51.5583,2922.4626],[-116.4406,51.5571,2935.8081],[-116.4648,51.5658,3138.3398],[-116.465,51.5682,3070.6851],[-116.4688,51.5699,3083.9302],[-116.4687,51.5731,2983.8201],[-116.4733,51.5827,2636.2551],[-116.466,51.5941,2396.3979],[-116.469,51.6017,2495.3066],[-116.4764,51.6077,2642.6372],[-116.491,51.6123,3045.771],[-116.489,51.6167,3039.3381],[-116.4996,51.6234,2862.6157],[-116.4999,51.6277,2763.8408],[-116.5135,51.6276,2729.3811],[-116.5299,51.6317,2661.5288],[-116.5365,51.6387,2739.0625],[-116.5459,51.6382,2860.2292],[-116.5701,51.6471,2921.8594],[-116.5706,51.6529,3017.3647],[-116.5804,51.6531,2933.7212],[-116.595,51.6618,2932.252],[-116.597,51.6646,3097.1797],[-116.5962,51.6665,3094.334],[-116.5901,51.6681,2845.4053],[-116.5875,51.673,2838.7832],[-116.5914,51.6777,2915.6245],[-116.587,51.6825,2754.9021],[-116.5867,51.6855,2850.6277],[-116.5814,51.6875,2827.5669],[-116.5836,51.6924,2699.0896],[-116.5895,51.6942,2818.7576],[-116.5812,51.6973,2850.5393],[-116.5847,51.7013,2785.9438],[-116.5876,51.7093,3016.3623],[-116.5854,51.7128,2838.175],[-116.5882,51.7159,2658.0503],[-116.5945,51.7175,2746.7839],[-116.5985,51.7239,2748.498],[-116.6065,51.7255,2907.8494],[-116.6105,51.724,2946.166],[-116.6171,51.7252,2995.3962],[-116.6312,51.7314,2854.8447],[-116.6336,51.7355,2917.8835],[-116.6294,51.7372,2766.6748],[-116.6281,51.7449,2703.3538],[-116.6403,51.7511,2344.8223],[-116.6503,51.7537,2642.415],[-116.6512,51.7561,2844.1211],[-116.6496,51.7628,2848.8271],[-116.651,51.7668,2835.394],[-116.6469,51.7766,2841.5664],[-116.6444,51.7784,2739.342],[-116.6458,51.7827,2706.145],[-116.6432,51.7867,2938.6182],[-116.6552,51.7945,2747.3745],[-116.656,51.7969,2611.2202],[-116.6543,51.8013,2666.1423],[-116.6591,51.8052,2770.5017],[-116.6671,51.8045,2837.3655],[-116.6668,51.8061,2878.5295],[-116.6796,51.813,3166.8318],[-116.6924,51.8063,2514.3386],[-116.6945,51.8036,2428.3687],[-116.7036,51.8015,2517.8506],[-116.7068,51.8024,2525.4963],[-116.7155,51.7987,2404.4004],[-116.7251,51.8048,2291.8682],[-116.7442,51.8066,1771.2073],[-116.749,51.8051,1674.2234],[-116.7545,51.7999,1534.3469],[-116.7596,51.7875,1770.5703],[-116.7654,51.7846,1975.3494],[-116.7729,51.7748,2381.7573],[-116.7822,51.7689,2616.2986],[-116.7851,51.764,2792.9604],[-116.7915,51.764,2947.3958],[-116.7961,51.7581,2903.2505],[-116.8064,51.7505,2785.2126],[-116.8068,51.7471,2910.8093],[-116.8099,51.7451,2808.2354],[-116.8112,51.7406,2874.3018],[-116.8193,51.7386,2995.6729],[-116.8186,51.7356,2868.9512],[-116.808,51.7279,2852.5962],[-116.798,51.7236,3042.1655],[-116.7998,51.7213,2937.4241],[-116.8001,51.7169,2924.5374],[-116.807,51.7131,2874.5054],[-116.8088,51.7104,2839.9004],[-116.8097,51.7053,3061.4365],[-116.8193,51.7069,3093.9355],[-116.8204,51.7048,3057.6924],[-116.8366,51.7033,2863.281],[-116.8386,51.7048,2959.1748],[-116.8491,51.7054,2800.6992],[-116.8536,51.7083,2877.5547],[-116.8608,51.7078,3060.2866],[-116.8703,51.7044,3094.9932],[-116.8765,51.7057,3007.6082],[-116.8782,51.7042,2975.7605],[-116.896,51.7027,3025.332],[-116.9206,51.7098,3242.9907],[-116.917,51.7136,3138.3872],[-116.926,51.7175,3231.3208],[-116.93,51.7215,3166.7266],[-116.9264,51.7237,3126.2568],[-116.9265,51.7291,2928.2295],[-116.9325,51.7295,2946.8169],[-116.9436,51.7339,3031.0757],[-116.9445,51.7417,3099.4282],[-116.9543,51.7432,3109.0352],[-116.9557,51.7461,3073.3442],[-116.959,51.7478,2948.1855],[-116.9606,51.752,3007.4199],[-116.9764,51.7602,2993.3706],[-116.9728,51.7613,2863.8596],[-116.972,51.763,2830.1973],[-116.9737,51.7695,2807.2661],[-116.9632,51.7743,2822.2256],[-116.9661,51.7829,2755.5962],[-116.9649,51.7858,2731.1543],[-116.9661,51.7877,2748.0208],[-116.9612,51.7909,2745.6904],[-116.9684,51.7983,2334.9907],[-116.989,51.8111,2667.9775],[-116.9842,51.8203,2727.6443],[-116.9882,51.8229,2744.6279],[-116.9863,51.8268,2812.1646],[-116.9812,51.8284,2951.3372],[-116.9789,51.8336,3014.6367],[-116.9798,51.8356,3083.2224],[-116.9811,51.8367,3083.2224],[-117.0057,51.8361,2980.7993],[-117.0194,51.8429,2730.8926],[-117.0335,51.8564,2801.0129],[-117.0343,51.8598,2888.1011],[-117.0306,51.8645,2705.719],[-117.0309,51.868899999999996,2404.4114],[-117.0233,51.88,2302.6807],[-117.0144,51.8849,2748.1641],[-117.0108,51.8897,2857.4536],[-117.0195,51.8914,2872.0991],[-117.0313,51.8989,2763.6406],[-117.0329,51.9015,2655.584],[-117.0467,51.9102,2717.1572],[-117.0523,51.9156,2707.3142],[-117.0593,51.9173,2765.1543],[-117.0777,51.9292,2943.583],[-117.0862,51.9369,3027.675],[-117.0976,51.9397,3235.8809],[-117.0968,51.9433,3290.2234],[-117.1021,51.9502,3265.1738],[-117.1009,51.953,3202.2776],[-117.1032,51.9565,3323.7742],[-117.1202,51.9557,2988.5852],[-117.1333,51.9683,2974.2222],[-117.1449,51.9727,3106.7468],[-117.1636,51.9726,2983.5593],[-117.1887,51.9766,3068.0359],[-117.196,51.9791,3263.635],[-117.1972,51.9801,3263.635],[-117.197,51.9877,3163.6187],[-117.2017,51.9929,3107.1145],[-117.2164,51.9973,3167.6658],[-117.2261,52.0086,2822.4153],[-117.2336,52.0118,3005.0308],[-117.232,52.0165,3076.1697],[-117.2227,52.0174,3006.7319],[-117.2168,52.0222,2792.3066],[-117.2147,52.0285,2969.7249],[-117.227,52.0361,2764.051],[-117.232,52.0411,2764.9797],[-117.2403,52.0363,2467.5513],[-117.2503,52.0351,2189.2563],[-117.2521,52.0386,2053.1873],[-117.2706,52.0489,2360.01],[-117.2684,52.0558,2651.4375],[-117.2945,52.0651,2780.4958],[-117.2971,52.0689,2696.8098],[-117.3051,52.0743,2789.2415],[-117.3021,52.0775,2621.2104],[-117.2962,52.0792,2302.2148],[-117.292,52.0854,2199.1262],[-117.2986,52.0943,2294.4136],[-117.3173,52.194,3382.146],[-117.3272,52.1899,3372.9749],[-117.334,52.1486,2875.5652],[-117.3813,52.1377,2949.9536],[-117.5002,52.1443,2966.1304],[-117.5099,52.1578,3253.5786],[-117.5231,52.1582,3214.4543],[-117.6113,52.1443,3009.2463],[-117.6293,52.1748,2430.3101],[-117.6635,52.1979,2932.7654],[-117.7432,52.194,2952.5796],[-117.7413,52.203,3025.7869],[-117.8183,52.2264,2945.4873],[-117.8222,52.2464,2850.6455],[-117.8396,52.2741,2816.2876],[-117.7961,52.2925,2904.1846],[-117.778,52.3189,2856.2905],[-117.7529,52.3164,2421.4985],[-117.723,52.3556,1382.4838],[-117.7048,52.3575,1337.7231],[-117.7058,52.3653,1333.0315],[-117.7298,52.3823,2349.9429],[-117.7665,52.4177,2328.2092],[-117.8397,52.4211,2410.7764],[-117.8869,52.4261,2447.7842],[-117.9668,52.4697,2490.7671],[-117.988,52.5002,2596.5903],[-118.0035,52.4926,2622.1313],[-118.0133,52.4839,2535.4915],[-118.0218,52.4723,2868.8848],[-118.0185,52.4593,2868.0144],[-118.0211,52.4555,2610.853],[-118.0421,52.459,2670.4822],[-118.0507,52.4571,2600.1602],[-118.0529,52.4496,2892.9985],[-118.0304,52.4381,2818.9832],[-118.0407,52.4185,2878.2717],[-118.0442,52.3985,2831.7822],[-118.138,52.4075,2874.3291],[-118.142,52.4024,2677.3071],[-118.164,52.3937,2401.0581],[-118.1821,52.3828,1843.0343],[-118.1789,52.3795,1785.9318],[-118.1783,52.3754,1781.8954],[-118.1801,52.3726,1801.9122],[-118.2007,52.3727,2125.2783],[-118.2128,52.3703,2548.8213],[-118.226,52.3803,2636.167]],
[[-116.9719,51.3176,830.1178],[-116.9715,51.3153,802.7155],[-116.9541,51.3147,982.5322],[-116.9538,51.3068,912.5645],[-116.9405,51.3066,976.546],[-116.9405,51.2888,902.9993],[-116.9344,51.2887,915.7868],[-116.9344,51.2815,905.7092],[-116.9403,51.2815,843.6979],[-116.9408,51.2748,782.8162],[-116.9386,51.2696,783.561],[-116.9697,51.2802,781.9136],[-116.9819,51.2879,898.4678],[-116.9943,51.3102,814.2276],[-116.9877,51.3106,784.6754],[-116.9877,51.322,782.16],[-116.9748,51.3222,852.0603],[-116.9719,51.3176,830.1178]]]]}}