{"type": "Feature","bbox": [-101.2878,53.8039,-101.2639,53.8215],"geometry": {"type": "MultiPolygon","coordinates": [[[[-101.2639,53.8173,261.7429],[-101.2648,53.8209,260.1073],[-101.2807,53.8215,259.804],[-101.2791,53.8133,259.4516],[-101.2746,53.8131,259.9303],[-101.2835,53.8059,259.7077],[-101.2878,53.8057,259.5903],[-101.2874,53.8039,259.7279],[-101.2769,53.806,260.289],[-101.2752,53.809,260.3036],[-101.2639,53.8173,261.7429]]]]}
,"properties": {"GID_3": "CAN.3.13.12_1","GID_0": "CAN","country": "Canada","GID_1": "CAN.3_1","province": "Manitoba","NL_NAME_1": "NA","GID_2": "CAN.3.13_1","county": "DivisionNo.21","NL_NAME_2": "NA","city": "OpaskwayakCreeNation21C","VARNAME_3": "NA","NL_NAME_3": "NA","TYPE_3": "RéserveIndienne","ENGTYPE_3": "IndianReserve","CC_3": "NA","HASC_3": "NA","name": "Opaskwayak_Cree_Nation21_C.city","area_km2": 1.2017014,"hist_schema_id": "Elevation0-9000","hist_area_km2": {"250": 1.1015639,"275": 0.1001376}}}