{"type":"Feature","properties":{"GID_3":"CAN.1.6.7_1","GID_0":"CAN","country":"Canada","GID_1":"CAN.1_1","province":"Alberta","NL_NAME_1":"NA","GID_2":"CAN.1.6_1","county":"DivisionNo.15","NL_NAME_2":"NA","city":"ImprovementDistrictNo.12","VARNAME_3":"NA","NL_NAME_3":"NA","TYPE_3":"ImprovementDistrict","ENGTYPE_3":"ImprovementDistrict","CC_3":"NA","HASC_3":"NA","name":"Improvement_District_No.12.city"},
"geometry":{"type": "MultiPolygon","coordinates": [[[[-119.4061,53.3681,2741.8337],[-119.3907,53.3608,2719.6028],[-119.3559,53.3401,2045.551],[-119.3469,53.3263,1635.6859],[-119.356,53.3123,2153.7195],[-119.3297,53.2966,2450.9814],[-119.3405,53.2871,2300.6638],[-119.3253,53.2696,2429.8057],[-119.3005,53.2562,2412.5889],[-119.3015,53.2498,2023.092],[-119.2914,53.25,1973.8082],[-119.2881,53.24,1628.6412],[-119.2515,53.199,2122.2478],[-119.2532,53.1848,2509.803],[-119.2571,53.1766,3020.8081],[-119.2428,53.1786,2628.3389],[-119.2327,53.1818,2636.1372],[-119.2332,53.1935,2706.0698],[-119.219,53.194,2665.7876],[-119.1961,53.1855,2479.0337],[-119.1756,53.1846,2649.7493],[-119.146,53.1912,2858.8452],[-119.1415,53.1817,2321.957],[-119.1195,53.1618,1747.8221],[-119.0885,53.1655,2186.9514],[-119.0686,53.1575,2600.6875],[-119.0469,53.1449,2384.458],[-119.048,53.1268,3130.0579],[-119.0246,53.1267,2508.1953],[-119.0251,53.1346,2440.8789],[-118.9999,53.1486,2440.4189],[-119.0288,53.1642,2338.5288],[-119.0199,53.1702,2227.7983],[-119.0086,53.1861,2518.8757],[-118.9994,53.1928,2732.5527],[-118.9994,53.2127,2314.4338],[-119.0183,53.2194,2261.2891],[-119.0262,53.2264,2241.2007],[-119.0238,53.2319,2030.0514],[-118.9752,53.2416,2470.9871],[-118.9653,53.2368,2567.1726],[-118.9558,53.2365,2633.7488],[-118.9475,53.2389,2345.5312],[-118.9234,53.2252,2274.1802],[-118.916,53.2118,2360.845],[-118.9094,53.2097,2386.7664],[-118.8796,53.2059,2446.9331],[-118.8621,53.1909,2606.0625],[-118.8478,53.1859,2567.9124],[-118.8315,53.183,2569.0339],[-118.8234,53.1729,2488.6362],[-118.8173,53.1718,2409.064],[-118.8058,53.1652,2496.7224],[-118.7954,53.1631,2479.6067],[-118.7865,53.1592,2469.1047],[-118.7793,53.1509,2447.8552],[-118.7805,53.1476,2583.5093],[-118.784,53.1449,2359.396],[-118.7725,53.133,1977.0299],[-118.7323,53.1192,2219.9966],[-118.7295,53.1155,2424.9634],[-118.7368,53.1065,2236.7671],[-118.7488,53.0972,2403.8633],[-118.7487,53.0883,2325.8132],[-118.7544,53.0828,2214.6116],[-118.7698,53.0745,1927.5708],[-118.7591,53.0658,1872.0692],[-118.7762,53.0453,2616.1216],[-118.7589,53.038,2367.106],[-118.7564,53.0438,2074.3979],[-118.7461,53.0523,2187.4678],[-118.7264,53.0602,2383.4895],[-118.7103,53.0522,2190.7451],[-118.7006,53.0444,2563.1516],[-118.6959,53.0328,2516.2],[-118.6857,53.035,2250.3242],[-118.6797,53.0413,2359.1377],[-118.6688,53.0425,2425.012],[-118.6553,53.0348,2182.7039],[-118.6498,53.0251,2267.1077],[-118.6526,53.0184,2012.6073],[-118.6408,52.9993,2046.4683],[-118.649,53.0003,2240.593],[-118.6493,52.9915,2264.918],[-118.6698,52.9834,2374.3301],[-118.6712,52.9783,2529.9421],[-118.6611,52.9726,2402.354],[-118.6602,52.9639,2377.0342],[-118.6513,52.9555,2446.6804],[-118.6385,52.9519,2274.665],[-118.6134,52.936,2415.1191],[-118.621,52.9163,2496.4248],[-118.6203,52.9137,2571.0156],[-118.6067,52.904,2299.6929],[-118.6143,52.9001,2362.8997],[-118.6138,52.8837,2295.6812],[-118.6081,52.8795,2330.6833],[-118.5965,52.881,2345.2207],[-118.5988,52.9349,1920.1039],[-118.3413,52.9361,1935.3345],[-118.3427,53.0224,2458.2334],[-117.8675,53.0213,1926.8057],[-117.8779,52.7533,1662.868],[-118.1609,52.7554,2187.1499],[-118.1609,52.841,1937.1021],[-118.4011,52.8405,2186.0935],[-118.3996,52.8245,2425.0693],[-118.413,52.806,2594.239],[-118.4224,52.7758,2538.3511],[-118.3428,52.7386,2129.0784],[-118.3433,52.7089,2737.8022],[-118.2901,52.6777,2971.7773],[-118.301,52.6541,3049.1199],[-118.3545,52.6337,2878.2661],[-118.3525,52.6106,2445.9468],[-118.3336,52.6062,2710.7251],[-118.3326,52.5802,2366.1924],[-118.2728,52.566,2507.8616],[-118.2891,52.5385,2319.491],[-118.2355,52.4902,1944.5671],[-118.1934,52.4778,2467.0752],[-118.2553,52.4495,2371.5081],[-118.2513,52.4398,2470.593],[-118.2427,52.4325,2170.8638],[-118.2398,52.427,2035.2915],[-118.2399,52.4176,2366.0974],[-118.2444,52.408,2443.896],[-118.2408,52.4029,2549.9185],[-118.2339,52.4029,2344.2734],[-118.2209,52.3976,2071.5737],[-118.2203,52.3851,2367.5361],[-118.226,52.3803,2636.167],[-118.2193,52.3742,2549.1836],[-118.2128,52.3703,2548.8213],[-118.2007,52.3727,2125.2783],[-118.1801,52.3726,1801.9122],[-118.1783,52.3754,1781.8954],[-118.1789,52.3795,1785.9318],[-118.1821,52.3828,1843.0343],[-118.164,52.3937,2401.0581],[-118.142,52.4024,2677.3071],[-118.138,52.4075,2874.3291],[-118.0442,52.3985,2831.7822],[-118.0407,52.4185,2878.2717],[-118.0304,52.4381,2818.9832],[-118.0529,52.4496,2892.9985],[-118.0507,52.4571,2600.1602],[-118.0421,52.459,2670.4822],[-118.0211,52.4555,2610.853],[-118.0185,52.4593,2868.0144],[-118.0218,52.4723,2868.8848],[-118.0133,52.4839,2535.4915],[-118.0035,52.4926,2622.1313],[-117.988,52.5002,2596.5903],[-117.9668,52.4697,2490.7671],[-117.8869,52.4261,2447.7842],[-117.8397,52.4211,2410.7764],[-117.7665,52.4177,2328.2092],[-117.7298,52.3823,2349.9429],[-117.7058,52.3653,1333.0315],[-117.7048,52.3575,1337.7231],[-117.723,52.3556,1382.4838],[-117.7529,52.3164,2421.4985],[-117.778,52.3189,2856.2905],[-117.7961,52.2925,2904.1846],[-117.8396,52.2741,2816.2876],[-117.8222,52.2464,2850.6455],[-117.8183,52.2264,2945.4873],[-117.7413,52.203,3025.7869],[-117.7432,52.194,2952.5796],[-117.6635,52.1979,2932.7654],[-117.6293,52.1748,2430.3101],[-117.6113,52.1443,3009.2463],[-117.5231,52.1582,3214.4543],[-117.5099,52.1578,3253.5786],[-117.5002,52.1443,2966.1304],[-117.3813,52.1377,2949.9536],[-117.334,52.1486,2875.5652],[-117.3272,52.1899,3372.9749],[-117.3173,52.194,3382.146],[-117.2848,52.1633,2784.5093],[-117.1973,52.181,3303.9661],[-117.1951,52.1994,2808.833],[-117.1712,52.207,2213.9734],[-117.1354,52.2229,2856.9634],[-117.1992,52.2636,2899.53],[-117.1915,52.2695,2671.6479],[-117.1562,52.2638,2718.5715],[-117.1203,52.2441,2367.4417],[-117.1063,52.2467,2121.9138],[-117.0727,52.2299,2635.1587],[-117.0735,52.2215,2766.6062],[-117.0378,52.2046,2839.5107],[-117.0241,52.2118,2612.5364],[-117.0338,52.2425,2924.571],[-117.0843,52.2491,2600.4131],[-117.0909,52.2589,2286.4607],[-117.1004,52.2638,2017.3802],[-117.0814,52.2726,1928.5596],[-117.0789,52.2773,1960.712],[-117.0628,52.2863,1908.9116],[-117.048,52.3021,1907.7104],[-117.0374,52.3174,1923.8397],[-117.0232,52.354,1884.0044],[-117.0238,52.3616,1863.5786],[-117.0195,52.3715,1797.5818],[-117.0079,52.3822,1768.4583],[-116.9966,52.3889,1728.8348],[-116.9651,52.4172,1710.8594],[-116.9564,52.4234,1711.5039],[-116.9464,52.4277,1698.5453],[-116.9331,52.4463,1735.048],[-116.9238,52.4511,1678.9119],[-116.9147,52.452,1725.8535],[-116.91,52.4564,1724.5706],[-116.9035,52.4684,1633.3079],[-116.8802,52.4826,1609.308],[-116.8762,52.487,1615.624],[-116.8826,52.5063,1599.2769],[-116.8925,52.5194,1585.8777],[-116.9013,52.524,1582.3252],[-116.9017,52.5293,1582.6023],[-116.9057,52.5357,1582.401],[-116.8959,52.5501,1577.8668],[-116.8931,52.5511,1577.6089],[-116.8851,52.5608,1583.2964],[-116.8886,52.5678,1572.0123],[-116.8757,52.5773,1585.8588],[-116.8707,52.5784,1568.0594],[-116.8644,52.5831,1565.291],[-116.8658,52.5894,1574.6283],[-116.8515,52.6056,1558.5803],[-116.8521,52.6128,1553.8234],[-116.83,52.6169,1553.4697],[-116.8238,52.6212,1554.5547],[-116.8255,52.6252,1569.438],[-116.8233,52.6356,1562.5685],[-116.8156,52.6451,1566.5527],[-116.8189,52.6491,1571.1013],[-116.8159,52.6517,1567.8638],[-116.8162,52.6549,1567.8378],[-116.8253,52.6602,1593.2758],[-116.8216,52.6621,1572.0786],[-116.8156,52.6622,1535.8544],[-116.8134,52.667,1579.5022],[-116.8073,52.6678,1534.8247],[-116.8029,52.6721,1557.1844],[-116.8144,52.6929,1500.845],[-116.8147,52.7019,1529.5094],[-116.8204,52.7072,1511.2349],[-116.8186,52.7174,1496.7131],[-116.8344,52.7118,1531.2865],[-116.849,52.7045,1504.5341],[-116.8546,52.694,1553.7145],[-116.8681,52.686,1544.7566],[-116.8755,52.6678,1586.6118],[-116.9007,52.6526,1594.8561],[-116.9678,52.6957,2508.6548],[-116.9814,52.7151,2860.9749],[-117.004,52.7155,2507.3567],[-117.0357,52.7201,2690.1228],[-117.0804,52.7165,2660.97],[-117.1272,52.744,2554.3315],[-117.1503,52.7688,2444.2388],[-117.1968,52.7918,2574.8142],[-117.1928,52.811,2514.4817],[-117.2299,52.8204,2636.75],[-117.2478,52.8353,2571.0591],[-117.2666,52.8369,2467.1772],[-117.2767,52.8458,2290.1294],[-117.3636,52.8859,2192.4316],[-117.3911,52.8906,2654.7588],[-117.4183,52.9055,2611.4526],[-117.4205,52.9274,2339.8059],[-117.4235,52.9303,2224.938],[-117.4359,52.9315,2375.9116],[-117.4624,52.9472,2417.325],[-117.4783,52.9495,2435.7263],[-117.4914,52.954,2482.5276],[-117.507,52.95,2633.6475],[-117.5457,52.9703,2464.4993],[-117.5476,52.9835,2454.6919],[-117.553,52.9914,2394.6174],[-117.5396,53.0146,2525.0908],[-117.5207,53.0112,2659.7209],[-117.4895,53.0386,2465.1858],[-117.5953,53.0672,2191.3586],[-117.6061,53.0742,2090.5056],[-117.6111,53.089,2015.5491],[-117.6503,53.1162,2213.7981],[-117.6722,53.1258,2167.1902],[-117.6858,53.1575,1929.2565],[-117.699,53.1832,1956.2722],[-117.7124,53.1878,1979.8547],[-117.7198,53.1831,1881.1018],[-117.7443,53.1795,2238.533],[-117.7535,53.1864,2029.8831],[-117.7881,53.2008,2142.6348],[-117.8073,53.2247,1267.8429],[-117.8664,53.2301,988.5195],[-117.8771,53.2395,1088.1238],[-117.8888,53.2559,1378.7999],[-117.8865,53.2726,1666.3992],[-117.9068,53.2903,1653.9139],[-117.932,53.298,2117.2598],[-117.9588,53.3302,2111.4041],[-118.0078,53.352,2259.9543],[-118.0494,53.3641,2130.7224],[-118.0611,53.3585,2037.4058],[-118.068,53.3585,2025.6783],[-118.0774,53.3682,2039.8306],[-118.092,53.3686,2109.2432],[-118.1132,53.3581,1706.0179],[-118.1507,53.3461,2216.0186],[-118.164,53.3373,2186.0872],[-118.1814,53.3365,2186.4832],[-118.1951,53.3296,2065.7524],[-118.2078,53.3254,2392.6338],[-118.2339,53.34,2197.3335],[-118.2399,53.3519,2223.7141],[-118.2195,53.3568,2101.5708],[-118.2151,53.3704,1889.8534],[-118.2061,53.3743,2156.2205],[-118.2124,53.3833,2301.5818],[-118.2284,53.3921,2251.8071],[-118.2401,53.3915,2017.5618],[-118.2677,53.4079,2064.0813],[-118.2929,53.4177,1962.9064],[-118.2934,53.4472,1388.8525],[-118.2971,53.4461,1389.0837],[-118.3011,53.4371,1423.5684],[-118.3075,53.4346,1419.4174],[-118.3111,53.4299,1452.2034],[-118.3176,53.4268,1445.6564],[-118.3459,53.4489,1579.915],[-118.3601,53.457,2040.1766],[-118.3947,53.4506,1912.1987],[-118.4115,53.4444,2373.5178],[-118.4219,53.4474,2116.7573],[-118.4446,53.4583,2263.6543],[-118.4567,53.4593,2440.7324],[-118.4755,53.449,2198.8687],[-118.4995,53.456,2443.8972],[-118.4983,53.4624,2456.1389],[-118.5188,53.4615,2577.3042],[-118.5247,53.4712,2551.4236],[-118.581,53.435,2414.6387],[-118.6673,53.4686,2171.4529],[-118.6839,53.4616,2418.8772],[-118.6972,53.4683,2386.8481],[-118.6932,53.4788,2141.0815],[-118.719,53.4749,2089.939],[-118.7234,53.4647,2180.8535],[-118.739,53.4556,2631.4524],[-118.7503,53.46,2326.7095],[-118.7625,53.4499,2494.3057],[-118.7511,53.4334,2397.4431],[-118.7525,53.4261,2237.4976],[-118.7742,53.4355,2168.4277],[-118.7771,53.4254,2312.6743],[-118.7917,53.4162,2612.6411],[-118.8162,53.4321,2523.1892],[-118.8575,53.4456,2603.6641],[-118.8752,53.4422,2501.2864],[-118.8833,53.4435,2477.0562],[-118.9471,53.4731,2275.334],[-118.9645,53.4795,2405.4529],[-118.9848,53.4817,2357.3079],[-118.9989,53.4802,2348.9834],[-119.0002,53.4745,2386.8511],[-119.011,53.47,2379.5271],[-119.02,53.4709,2356.6646],[-119.0138,53.4615,2091.2104],[-119.001,53.4569,1967.2599],[-118.9991,53.444,2126.1484],[-119.0097,53.4417,2164.4912],[-119.01,53.4313,2184.1575],[-119.0188,53.425,2711.4282],[-119.0417,53.4207,2436.7053],[-119.0495,53.4253,2337.0542],[-119.053,53.4379,2305.4758],[-119.0677,53.4425,2491.9438],[-119.0893,53.4417,2480.1987],[-119.1027,53.4462,2449.2859],[-119.1389,53.4359,2188.6201],[-119.1551,53.4362,2459.7134],[-119.1657,53.4432,2219.7949],[-119.17,53.4488,1989.6753],[-119.1945,53.4548,1566.0947],[-119.2146,53.4619,1497.688],[-119.2371,53.4741,1369.7913],[-119.2745,53.4769,2037.9795],[-119.2799,53.4697,2487.1697],[-119.3113,53.4726,2467.939],[-119.3356,53.4726,2471.9448],[-119.3516,53.468,2317.4407],[-119.3605,53.4628,2335.1226],[-119.4052,53.476,2306.4502],[-119.4103,53.4684,2279.5396],[-119.4159,53.4641,2325.9033],[-119.4383,53.4724,2177.0815],[-119.4548,53.4766,2382.8015],[-119.4703,53.4751,2513.8379],[-119.473,53.4692,2592.0562],[-119.4695,53.4638,2616.866],[-119.4785,53.4553,2656.9819],[-119.5003,53.4529,2660.7495],[-119.4996,53.4499,2675.2139],[-119.5076,53.4469,2795.9783],[-119.509,53.4415,2729.343],[-119.518,53.4376,2801.2605],[-119.5364,53.4373,2756.1082],[-119.5414,53.4331,2830.198],[-119.5241,53.4229,2611.2095],[-119.4991,53.4152,2844.4934],[-119.4785,53.4054,2743.261],[-119.4729,53.4054,2770.5342],[-119.432,53.3951,3127.0244],[-119.4247,53.3908,3156.6006],[-119.4061,53.3681,2741.8337]]]]}}