{"type":"Feature","properties":{"GID_3":"CAN.9.30.12_1","GID_0":"CAN","country":"Canada","GID_1":"CAN.9_1","province":"Ontario","NL_NAME_1":"NA","GID_2":"CAN.9.30_1","county":"Middlesex","NL_NAME_2":"NA","city":"ThamesCentre","VARNAME_3":"NA","NL_NAME_3":"NA","TYPE_3":"Township","ENGTYPE_3":"Township","CC_3":"NA","HASC_3":"NA","name":"Thames_Centre.city"},
"geometry":{"type": "MultiPolygon","coordinates": [[[[-81.0809,42.8852,260.5775],[-80.8988,42.9127,269.8335],[-80.9228,43.0009,279.9339],[-80.9338,42.9994,270.9985],[-80.9435,43.0067,265.2789],[-80.9495,42.9979,262.0],[-80.9662,42.9895,268.1895],[-80.9715,42.9899,274.7888],[-80.9728,42.9846,264.5183],[-80.976,42.9834,262.7185],[-80.9815,42.9845,265.2548],[-80.9878,42.9897,265.1442],[-80.9931,42.9911,264.2519],[-81.0234,43.0505,286.347],[-81.0376,43.0461,280.8185],[-81.1322,43.2315,327.3549],[-81.2421,43.1982,312.0666],[-81.1789,43.0745,266.6307],[-81.1891,43.0727,262.5],[-81.1905,43.0704,262.5],[-81.1765,43.0567,262.5],[-81.1667,43.0532,262.5],[-81.1667,43.0506,262.5],[-81.1507,43.0547,279.2844],[-81.1477,43.0486,276.3551],[-81.1319,43.0533,277.768],[-81.1267,43.043,274.231],[-81.1358,43.0406,272.6676],[-81.1267,43.0236,278.7731],[-81.1287,43.0229,276.2658],[-81.1286,43.0182,278.9036],[-81.127,43.0188,278.6557],[-81.1201,43.0057,268.6688],[-81.1142,43.0039,270.7412],[-81.1139,43.0022,269.7698],[-81.1245,42.9991,271.5428],[-81.1214,42.993,267.8098],[-81.1278,42.991,266.4918],[-81.1318,42.983,256.1141],[-81.1304,42.9778,244.3904],[-81.126,42.9803,247.5527],[-81.1237,42.9774,262.5292],[-81.12,42.976,258.8953],[-81.1111,42.9351,274.3381],[-81.1074,42.9355,274.9464],[-81.1064,42.9299,274.0658],[-81.117,42.9288,272.1604],[-81.1158,42.9228,283.6179],[-81.1272,42.9216,271.2757],[-81.1197,42.8908,263.493],[-81.1046,42.8923,263.9462],[-81.1038,42.8894,265.0001],[-81.0819,42.8913,263.7642],[-81.0809,42.8852,260.5775]]]]}}