{"type":"Feature","properties":{"GID_3":"CAN.9.51.4_1","GID_0":"CAN","country":"Canada","GID_1":"CAN.9_1","province":"Ontario","NL_NAME_1":"NA","GID_2":"CAN.9.51_1","county":"Waterloo","NL_NAME_2":"NA","city":"Waterloo","VARNAME_3":"NA","NL_NAME_3":"NA","TYPE_3":"Cité","ENGTYPE_3":"City","CC_3":"NA","HASC_3":"NA","name":"Waterloo.city"},
"geometry":{"type": "MultiPolygon","coordinates": [[[[-80.4788,43.5032,307.8213],[-80.4851,43.502,325.3378],[-80.4895,43.5056,304.0],[-80.4893,43.51,310.053],[-80.4841,43.5109,312.5635],[-80.4788,43.5153,309.0816],[-80.4668,43.5151,324.4432],[-80.4645,43.5171,326.5021],[-80.4771,43.5327,316.9683],[-80.6261,43.4798,383.3637],[-80.5741,43.4327,377.4573],[-80.5477,43.4411,370.4839],[-80.5452,43.4441,358.0367],[-80.5411,43.4435,362.3029],[-80.5425,43.4457,354.6984],[-80.539,43.4473,347.3773],[-80.541,43.4493,348.3287],[-80.5263,43.453,343.0491],[-80.5271,43.4539,347.5027],[-80.5004,43.4632,343.2658],[-80.5017,43.4644,344.7961],[-80.4984,43.4662,343.8244],[-80.5008,43.4685,339.8331],[-80.4957,43.4705,344.5885],[-80.4963,43.4732,341.4654],[-80.4937,43.4741,325.2026],[-80.4985,43.4809,324.2106],[-80.4843,43.4851,325.4945],[-80.481,43.4896,316.1643],[-80.481,43.5,314.4788],[-80.4774,43.501,313.4643],[-80.4788,43.5032,307.8213]]]]}}