{"type": "Feature","id": "99?","bbox": [-61.5098,47.18553,-60.1385,47.80288],"geometry": {"type": "MultiPolygon","coordinates": [[[[-60.15811,47.1857,26.116],[-60.14936,47.19033,17.1333],[-60.14436,47.19607,0.0],[-60.1385,47.2082,49.1623],[-60.13882,47.21601,1.0556],[-60.14184,47.22313,31.0122],[-60.14639,47.22285,0.0],[-60.15722,47.21003,0.0],[-60.16364,47.20547,0.0],[-60.16474,47.20295,0.0],[-60.16698,47.19986,0.7822],[-60.1678,47.19371,0.0],[-60.16942,47.19013,1.6807],[-60.16723,47.18553,0.0],[-60.15811,47.1857,26.116]]],
[[[-61.42374,47.79666,10.4205],[-61.42813,47.79999,0.0],[-61.45755,47.80288,0.0],[-61.50666,47.78929,0.0],[-61.5098,47.78417,0.0],[-61.50801,47.78054,24.1778],[-61.48331,47.77704,0.0],[-61.46312,47.79096,9.0075],[-61.4462,47.79348,0.0],[-61.43855,47.79544,8.543],[-61.42862,47.7947,0.0],[-61.42374,47.79666,10.4205]]]]}
,"properties": {"ISO3166-1-Alpha-3": "CAN","country": "Canada","name": null,"area_km2": 13.3389,"hist_schema_id": "Elevation0-9000","hist_area_km2": {"0": 5.11841,"25": 4.19544,"50": 1.70576,"75": 1.33968,"100": 0.84994,"125": 0.12967}}}