{"type": "Feature","bbox": [-73.706,45.8327,-73.6183,45.8885],"geometry": {"type": "MultiPolygon","coordinates": [[[[-73.6866,45.8826,60.8359],[-73.6721,45.8714,58.1561],[-73.6746,45.8706,58.2714],[-73.6729,45.8691,57.4398],[-73.6729,45.8664,55.934],[-73.6765,45.8675,58.0671],[-73.6792,45.8654,57.1317],[-73.6814,45.8671,58.1264],[-73.6919,45.8634,58.758],[-73.7042,45.8634,60.3985],[-73.706,45.8569,60.7315],[-73.6738,45.8327,56.5461],[-73.6731,45.8361,56.3989],[-73.6566,45.8394,55.0068],[-73.6414,45.8481,53.8469],[-73.6325,45.84,54.7123],[-73.6272,45.8414,54.9383],[-73.6256,45.8578,50.9993],[-73.6301,45.8571,51.6134],[-73.6478,45.8613,53.9121],[-73.6499,45.8648,53.7523],[-73.6496,45.8756,56.683],[-73.6446,45.8762,56.1103],[-73.6448,45.8727,55.7223],[-73.6417,45.8725,55.6787],[-73.6426,45.8757,56.1229],[-73.639,45.8741,55.4866],[-73.6345,45.8748,55.3229],[-73.628,45.8733,54.1104],[-73.6183,45.8767,53.6505],[-73.6354,45.8885,55.8238],[-73.6394,45.8834,55.5944],[-73.6653,45.8831,57.979],[-73.6698,45.8864,59.4285],[-73.6866,45.8826,60.8359]]]]}
,"properties": {"GID_3": "CAN.11.81.9_1","GID_0": "CAN","country": "Canada","GID_1": "CAN.11_1","province": "Québec","NL_NAME_1": "NA","GID_2": "CAN.11.81_1","county": "Montcalm","NL_NAME_2": "NA","city": "Saint-Roch-Ouest","VARNAME_3": "NA","NL_NAME_3": "NA","TYPE_3": "Municipalité","ENGTYPE_3": "Municipality","CC_3": "NA","HASC_3": "NA","name": "Saint-Roch-Ouest.city","area_km2": 21.02592,"hist_schema_id": "Elevation0-9000","hist_area_km2": {"50": 20.71573,"75": 0.31019}}}