{"type": "Feature","bbox": [-121.3661,60.3846,-121.0223,60.4678],"geometry": {"type": "MultiPolygon","coordinates": [[[[-121.2109,60.4678,491.0],[-121.2298,60.4678,491.0],[-121.3661,60.3941,491.0],[-121.0223,60.3846,526.7347],[-121.0416,60.4669,524.8776],[-121.2109,60.4678,491.0]]]]}
,"properties": {"GID_3": "CAN.6.1.19_1","GID_0": "CAN","country": "Canada","GID_1": "CAN.6_1","province": "NorthwestTerritories","NL_NAME_1": "NA","GID_2": "CAN.6.1_1","county": "FortSmith","NL_NAME_2": "NA","city": "TroutLake","VARNAME_3": "NA","NL_NAME_3": "NA","TYPE_3": "Settlement","ENGTYPE_3": "Settlement","CC_3": "NA","HASC_3": "NA","name": "Trout_Lake.city","area_km2": 128.49723,"hist_schema_id": "Elevation0-9000","hist_area_km2": {"500": 56.7999,"525": 57.16043,"550": 9.75025,"575": 2.82789,"600": 1.31979,"625": 0.47137,"650": 0.1676}}}