{"type": "Feature","bbox": [-123.8568,51.4748,-123.8344,51.4883],"geometry": {"type": "MultiPolygon","coordinates": [[[[-123.8558,51.4817,1210.877],[-123.8442,51.4817,1210.9406],[-123.8435,51.4748,1233.0815],[-123.8344,51.4749,1252.403],[-123.8366,51.4883,1426.0693],[-123.8568,51.4875,1505.3492],[-123.8558,51.4817,1210.877]]]]}
,"properties": {"GID_3": "CAN.2.4.77_1","GID_0": "CAN","country": "Canada","GID_1": "CAN.2_1","province": "BritishColumbia","NL_NAME_1": "NA","GID_2": "CAN.2.4_1","county": "Cariboo","NL_NAME_2": "NA","city": "Tanakut4","VARNAME_3": "NA","NL_NAME_3": "NA","TYPE_3": "RéserveIndienne","ENGTYPE_3": "IndianReserve","CC_3": "NA","HASC_3": "NA","name": "Tanakut4.city","area_km2": 1.465618,"hist_schema_id": "Elevation0-9000","hist_area_km2": {"1200": 0.369727,"1225": 0.316905,"1250": 0.145252,"1275": 0.092423,"1300": 0.079219,"1325": 0.09242,"1350": 0.039609,"1375": 0.105622,"1400": 0.039607,"1425": 0.079215,"1450": 0.039607,"1475": 0.013202,"1500": 0.052809}}}