{"type": "Feature","bbox": [-106.6652,52.6124,-106.6452,52.6311],"geometry": {"type": "MultiPolygon","coordinates": [[[[-106.6482,52.6299,543.4686],[-106.6473,52.6311,541.9062],[-106.6526,52.6311,541.4556],[-106.6526,52.6296,542.6614],[-106.6549,52.6296,546.3766],[-106.655,52.6253,547.4171],[-106.6652,52.625,541.1405],[-106.6643,52.6124,544.3767],[-106.6464,52.6127,539.5424],[-106.6452,52.621,544.3344],[-106.6466,52.6211,546.4718],[-106.6469,52.6257,544.2598],[-106.6514,52.6255,545.0717],[-106.6495,52.6281,543.575],[-106.6526,52.6281,543.7297],[-106.6482,52.6299,543.4686]]]]}
,"properties": {"GID_3": "CAN.12.6.70_1","GID_0": "CAN","country": "Canada","GID_1": "CAN.12_1","province": "Saskatchewan","NL_NAME_1": "NA","GID_2": "CAN.12.6_1","county": "DivisionNo.15","NL_NAME_2": "NA","city": "Waldheim","VARNAME_3": "NA","NL_NAME_3": "NA","TYPE_3": "Town","ENGTYPE_3": "Town","CC_3": "NA","HASC_3": "NA","name": "Waldheim.city","area_km2": 1.956519,"hist_schema_id": "Elevation0-9000","hist_area_km2": {"550": 1.956519}}}