{"type": "Feature","bbox": [-105.0663,50.0082,-105.0505,50.0183],"geometry": {"type": "MultiPolygon","coordinates": [[[[-105.0661,50.0183,599.0953],[-105.0663,50.0106,602.438],[-105.0567,50.0106,601.6548],[-105.0542,50.0082,600.9182],[-105.0543,50.0112,599.7281],[-105.0505,50.0112,598.2596],[-105.0505,50.0182,594.5925],[-105.0661,50.0183,599.0953]]]]}
,"properties": {"GID_3": "CAN.12.11.1_1","GID_0": "CAN","country": "Canada","GID_1": "CAN.12_1","province": "Saskatchewan","NL_NAME_1": "NA","GID_2": "CAN.12.11_1","county": "DivisionNo.2","NL_NAME_2": "NA","city": "Avonlea","VARNAME_3": "NA","NL_NAME_3": "NA","TYPE_3": "Village","ENGTYPE_3": "Village","CC_3": "NA","HASC_3": "NA","name": "Avonlea.city","area_km2": 0.8447183,"hist_schema_id": "Elevation0-9000","hist_area_km2": {"600": 0.8447183}}}