{"type":"Feature","properties":{"GID_3":"CAN.5.4.21_1","GID_0":"CAN","country":"Canada","GID_1":"CAN.5_1","province":"NewfoundlandandLabrador","NL_NAME_1":"NA","GID_2":"CAN.5.4_1","county":"DivisionNo.2","NL_NAME_2":"NA","city":"Lamaline","VARNAME_3":"NA","NL_NAME_3":"NA","TYPE_3":"Town","ENGTYPE_3":"Town","CC_3":"NA","HASC_3":"NA","name":"Lamaline.city"},
"geometry":{"type": "MultiPolygon","coordinates": [[[[-55.8256,46.8411,0.0],[-55.8275,46.8408,0.0],[-55.8264,46.8389,0.0],[-55.8231,46.8392,1.209],[-55.8233,46.8406,0.0],[-55.8256,46.8411,0.0]]],
[[[-55.8175,46.8539,0.0],[-55.8194,46.8533,0.0],[-55.8197,46.8513,1.1637],[-55.8244,46.8508,0.0],[-55.8258,46.8433,0.0],[-55.8231,46.8422,0.726],[-55.8153,46.8472,8.46],[-55.8147,46.8497,0.2491],[-55.8175,46.8539,0.0]]],
[[[-55.7031,46.9171,91.6072],[-55.7008,46.9205,87.0239],[-55.6671,46.9207,52.0962],[-55.7122,46.9683,128.5776],[-55.8834,46.8829,0.2281],[-55.8769,46.8825,2.2557],[-55.8706,46.8797,0.1845],[-55.867,46.8818,-0.5],[-55.8642,46.8764,0.0966],[-55.8616,46.8779,0.1983],[-55.8601,46.8748,0.0237],[-55.8569,46.8764,0.4326],[-55.8478,46.8742,0.7235],[-55.8478,46.8775,3.8109],[-55.8442,46.8781,1.0],[-55.8414,46.8747,1.6315],[-55.8439,46.8722,0.7343],[-55.8411,46.8722,1.2912],[-55.8406,46.87,0.0],[-55.8378,46.8691,2.2135],[-55.8335,46.8635,0.0339],[-55.8264,46.8608,0.3626],[-55.8097,46.8606,0.6888],[-55.8069,46.8551,1.9135],[-55.8083,46.8536,0.1339],[-55.8069,46.8506,10.4425],[-55.8086,46.8453,0.0],[-55.8022,46.8419,0.0],[-55.7961,46.8464,0.0],[-55.7968,46.8484,6.9481],[-55.7931,46.8522,0.0],[-55.8008,46.8567,0.0],[-55.805,46.8551,1.9135],[-55.8103,46.8633,0.0467],[-55.8061,46.8669,0.1423],[-55.8001,46.868899999999996,0.6497],[-55.7953,46.8685,0.0],[-55.7931,46.8669,1.6969],[-55.7967,46.8644,0.1242],[-55.7925,46.8616,0.0],[-55.7867,46.8653,1.658],[-55.7783,46.8676,3.1102],[-55.7771,46.8697,4.1399],[-55.7733,46.87,0.1553],[-55.7756,46.8708,1.0725],[-55.7756,46.8747,3.875],[-55.7531,46.8767,8.5685],[-55.7363,46.8763,17.5329],[-55.7276,46.8829,22.6561],[-55.7031,46.9171,91.6072]]]]}}