{"type":"Feature","properties":{"GID_3":"CAN.11.71.5_1","GID_0":"CAN","country":"Canada","GID_1":"CAN.11_1","province":"Québec","NL_NAME_1":"NA","GID_2":"CAN.11.71_1","county":"Lotbinière","NL_NAME_2":"NA","city":"Notre-Dame-du-Sacré-Coeur-d'Isso","VARNAME_3":"NA","NL_NAME_3":"NA","TYPE_3":"MunicipalitéDeParoisse","ENGTYPE_3":"ParishMunicipality","CC_3":"NA","HASC_3":"NA","name":"Notre-Dame-du-Sacré-Coeur-d'Isso.city"},
"geometry":{"type": "MultiPolygon","coordinates": [[[[-71.602,46.5485,119.9265],[-71.591,46.5512,122.5562],[-71.5968,46.5555,127.8058],[-71.5927,46.5554,128.7031],[-71.5784,46.5598,127.0693],[-71.562,46.5614,140.4977],[-71.5758,46.5722,128.3244],[-71.5612,46.5754,129.3398],[-71.5819,46.5902,115.5058],[-71.5761,46.5919,111.8068],[-71.5707,46.5881,115.0869],[-71.5611,46.5921,117.5656],[-71.5828,46.6071,91.8863],[-71.5887,46.6048,100.8477],[-71.5945,46.6081,93.8486],[-71.5973,46.6067,89.3579],[-71.6158,46.6195,82.7192],[-71.6472,46.6124,97.6438],[-71.6318,46.6017,97.8839],[-71.6508,46.5976,93.8664],[-71.6641,46.5973,100.5669],[-71.6427,46.5821,93.423],[-71.6468,46.5812,96.4844],[-71.6512,46.5844,96.5531],[-71.6739,46.5846,90.7925],[-71.66,46.5729,91.4967],[-71.7241,46.5747,78.7355],[-71.7206,46.5719,89.8061],[-71.7503,46.5527,88.1326],[-71.7303,46.5383,86.2382],[-71.7177,46.5445,91.6661],[-71.7106,46.5549,79.6998],[-71.7009,46.5576,89.3221],[-71.6944,46.553,106.4677],[-71.6034,46.5496,129.033],[-71.602,46.5485,119.9265]]]]}}