{"type": "Feature","bbox": [-107.433,51.8015,-107.4214,51.8127],"geometry": {"type": "MultiPolygon","coordinates": [[[[-107.4214,51.8042,552.9255],[-107.4214,51.8126,551.1959],[-107.433,51.8127,553.0136],[-107.433,51.8015,555.9786],[-107.4214,51.8015,552.4643],[-107.4214,51.8042,552.9255]]]]}
,"properties": {"GID_3": "CAN.12.3.37_1","GID_0": "CAN","country": "Canada","GID_1": "CAN.12_1","province": "Saskatchewan","NL_NAME_1": "NA","GID_2": "CAN.12.3_1","county": "DivisionNo.12","NL_NAME_2": "NA","city": "Tessier","VARNAME_3": "NA","NL_NAME_3": "NA","TYPE_3": "Village","ENGTYPE_3": "Village","CC_3": "NA","HASC_3": "NA","name": "Tessier.city","area_km2": 1.1012033,"hist_schema_id": "Elevation0-9000","hist_area_km2": {"550": 1.1012033}}}