{"type": "Feature","bbox": [-80.1441,43.4765,-79.5395,43.9898],"geometry": {"type": "MultiPolygon","coordinates": [[[[-79.8048,43.5932,211.1423],[-79.8083,43.5901,212.3188],[-79.6974,43.5083,169.2207],[-79.6816,43.5228,161.795],[-79.6184,43.4765,73.5],[-79.6011,43.497,73.5],[-79.5969,43.5088,73.5],[-79.5971,43.526,73.5],[-79.5786,43.5469,73.5],[-79.5415,43.5735,73.5],[-79.5395,43.5771,73.5],[-79.5439,43.5814,80.5327],[-79.5447,43.5853,85.8887],[-79.5482,43.587,83.5867],[-79.5465,43.5889,82.0707],[-79.5494,43.5905,82.8841],[-79.5489,43.5952,98.4305],[-79.5537,43.5958,102.1208],[-79.5537,43.5985,103.1496],[-79.5557,43.5997,103.3781],[-79.5566,43.6029,95.559],[-79.5674,43.6095,106.5111],[-79.5642,43.6128,105.6244],[-79.5685,43.6146,115.951],[-79.5657,43.624,117.3816],[-79.5637,43.6248,117.3816],[-79.564,43.628,119.0804],[-79.5751,43.6254,121.0803],[-79.5852,43.6287,129.7075],[-79.5853,43.6372,136.4396],[-79.5887,43.6428,137.5376],[-79.5927,43.6446,144.1389],[-79.5984,43.6431,147.5383],[-79.6072,43.6447,150.4629],[-79.6088,43.6464,143.6777],[-79.5886,43.6648,156.7747],[-79.626,43.729,166.1944],[-79.6409,43.7517,174.5412],[-79.6433,43.758,181.6041],[-79.6968,43.8497,226.9184],[-79.7755,43.9898,322.9139],[-79.9597,43.9499,417.6345],[-79.9664,43.9468,430.5768],[-79.9825,43.9449,424.6486],[-80.0633,43.9267,440.0145],[-80.0667,43.924,445.6371],[-80.0613,43.9203,437.9361],[-80.0693,43.9141,428.7652],[-80.0827,43.9214,409.3037],[-80.087,43.9173,414.2327],[-80.0831,43.9148,407.1037],[-80.0933,43.9048,450.567],[-80.0975,43.9076,449.3275],[-80.1441,43.8649,480.3642],[-79.7881,43.6004,207.5957],[-79.7974,43.5983,212.9743],[-79.8048,43.5932,211.1423]]]]}
,"properties": {"GID_2": "CAN.9.38_1","GID_0": "CAN","country": "Canada","GID_1": "CAN.9_1","province": "Ontario","NL_NAME_1": "NA","county": "Peel","VARNAME_2": "NA","NL_NAME_2": "NA","TYPE_2": "RegionalMunicipality","ENGTYPE_2": "RegionalMunicipality","CC_2": "21","HASC_2": "CA.ON.PL","name": "Peel.county","area_km2": 1257.0906,"hist_schema_id": "Elevation0-9000","hist_area_km2": {"75": 16.8915,"100": 39.4155,"125": 29.9064,"150": 55.7958,"175": 142.4948,"200": 131.4652,"225": 98.5076,"250": 142.6965,"275": 159.4001,"300": 121.7778,"325": 38.7231,"350": 28.6068,"375": 25.3126,"400": 60.5024,"425": 61.7045,"450": 86.245,"475": 17.3852,"500": 0.2597}}}