{"type":"Feature","properties":{"GID_3":"CAN.8.1.3_1","GID_0":"CAN","country":"Canada","GID_1":"CAN.8_1","province":"Nunavut","NL_NAME_1":"NA","GID_2":"CAN.8.1_1","county":"Baffin","NL_NAME_2":"NA","city":"CapeDorset","VARNAME_3":"NA","NL_NAME_3":"NA","TYPE_3":"Hamlet","ENGTYPE_3":"Hamlet","CC_3":"NA","HASC_3":"NA","name":"Cape_Dorset.city"},
"geometry":{"type": "MultiPolygon","coordinates": [[[[-76.5238,64.2375,26.2551],[-76.5375,64.2375,9.6878],[-76.5542,64.2292,8.552],[-76.5583,64.2333,0.0],[-76.5646,64.2312,27.0878],[-76.5687,64.2333,0.0],[-76.5764,64.2294,37.9002],[-76.5668,64.23,32.801],[-76.5559,64.2104,158.3892],[-76.5117,64.2161,108.3829],[-76.5238,64.2375,26.2551]]]]}}