{"type":"Feature","properties":{"GID_3":"CAN.2.9.28_1","GID_0":"CAN","country":"Canada","GID_1":"CAN.2_1","province":"BritishColumbia","NL_NAME_1":"NA","GID_2":"CAN.2.9_1","county":"Comox-Strathcona","NL_NAME_2":"NA","city":"Sayward","VARNAME_3":"NA","NL_NAME_3":"NA","TYPE_3":"Village","ENGTYPE_3":"Village","CC_3":"NA","HASC_3":"NA","name":"Sayward.city"},
"geometry":{"type": "MultiPolygon","coordinates": [[[[-125.9417,50.3899,80.3811],[-125.9467,50.3897,8.3964],[-125.9428,50.385,10.4221],[-125.9439,50.3819,1.0],[-125.9461,50.3817,1.5179],[-125.9467,50.3858,0.5],[-125.9533,50.3853,0.5],[-125.9567,50.3867,0.9067],[-125.9561,50.3894,1.9094],[-125.9589,50.39,4.1321],[-125.9589,50.3944,0.0],[-125.9625,50.397,36.3852],[-125.9622,50.3865,21.3584],[-125.9659,50.3863,78.2711],[-125.9654,50.378,73.1377],[-125.962,50.3781,43.1824],[-125.9619,50.3722,89.3222],[-125.9575,50.3721,25.5319],[-125.9574,50.3685,146.0898],[-125.9515,50.3685,52.2151],[-125.9514,50.3575,389.5656],[-125.9264,50.3576,26.549],[-125.9261,50.3595,21.6534],[-125.9322,50.3631,22.8317],[-125.9337,50.3707,13.447],[-125.9426,50.3745,1.5],[-125.9442,50.3772,1.3725],[-125.941,50.3841,49.2514],[-125.9431,50.3879,106.7464],[-125.9417,50.3899,80.3811]]]]}}