{"type":"Feature","properties":{"GID_3":"CAN.1.8.41_1","GID_0":"CAN","country":"Canada","GID_1":"CAN.1_1","province":"Alberta","NL_NAME_1":"NA","GID_2":"CAN.1.8_1","county":"DivisionNo.17","NL_NAME_2":"NA","city":"UtikoomakLake155","VARNAME_3":"NA","NL_NAME_3":"NA","TYPE_3":"RéserveIndienne","ENGTYPE_3":"IndianReserve","CC_3":"NA","HASC_3":"NA","name":"Utikoomak_Lake155.city"},
"geometry":{"type": "MultiPolygon","coordinates": [[[[-115.5686,55.8981,639.0],[-115.5678,55.9006,639.0],[-115.5744,55.9118,639.0],[-115.569,55.9236,639.0],[-115.5595,55.9242,639.0],[-115.5406,55.941,639.0],[-115.5318,55.9446,639.0],[-115.5244,55.9449,639.0],[-115.5164,55.9396,639.0],[-115.5135,55.9394,639.0],[-115.5162,55.9459,640.6167],[-115.5154,55.9586,655.5677],[-115.6186,55.9593,680.6532],[-115.6208,55.9155,658.8823],[-115.6617,55.9139,639.5],[-115.654,55.9089,639.7518],[-115.6526,55.9059,639.8092],[-115.6562,55.9034,649.3813],[-115.6619,55.9028,642.3503],[-115.6616,55.8813,668.5287],[-115.6007,55.8816,639.0],[-115.6009,55.8844,639.0],[-115.5945,55.8905,639.0],[-115.5842,55.8935,639.0],[-115.5735,55.8941,639.0],[-115.5686,55.8981,639.0]]]]}}