{"type": "Feature","bbox": [-65.8517,46.2568,-64.5106,47.0562],"geometry": {"type": "MultiPolygon","coordinates": [[[[-64.5817,46.2782,4.1273],[-64.5744,46.2785,1.1185],[-64.5739,46.2799,0.3345],[-64.5711,46.2803,0.0],[-64.5697,46.2839,0.4236],[-64.5643,46.2855,0.0],[-64.5564,46.295,0.0517],[-64.5497,46.2945,0.2387],[-64.5417,46.2985,0.0],[-64.5312,46.3004,0.0707],[-64.5327,46.2992,-0.0901],[-64.5313,46.2987,0.0],[-64.5293,46.3004,0.0156],[-64.529,46.2985,0.0],[-64.5334,46.2943,0.0],[-64.5343,46.2895,0.0],[-64.521,46.3096,0.8201],[-64.5167,46.3131,0.1893],[-64.5119,46.3131,0.0],[-64.5106,46.3144,0.0],[-64.5125,46.3224,0.6784],[-64.5271,46.3358,0.0],[-64.5283,46.3394,12.8929],[-64.5261,46.3411,0.0],[-64.5356,46.3497,1.1809],[-64.5325,46.3522,0.789],[-64.5345,46.3554,2.4703],[-64.545,46.3597,1.8909],[-64.5489,46.3636,5.3281],[-64.5561,46.3667,0.8053],[-64.5614,46.3678,2.2245],[-64.5665,46.3653,9.5473],[-64.5686,46.3636,8.9594],[-64.5694,46.36,6.4676],[-64.5761,46.3558,0.0],[-64.5722,46.3522,15.5277],[-64.574,46.3408,0.0],[-64.5719,46.3377,0.249],[-64.5667,46.3347,0.775],[-64.5689,46.3314,0.0],[-64.5642,46.3288,5.921],[-64.5672,46.3264,5.1804],[-64.5707,46.3297,0.0],[-64.5753,46.3283,9.7305],[-64.5731,46.3317,0.0967],[-64.5881,46.3314,1.936],[-64.6003,46.3342,0.0],[-64.6093,46.3337,7.7531],[-64.6156,46.3363,0.0],[-64.6212,46.3266,2.0762],[-64.625,46.3268,0.0],[-64.6257,46.3244,0.6052],[-64.6306,46.3228,0.962],[-64.6319,46.3208,1.4952],[-64.6389,46.3226,0.1837],[-64.6531,46.3225,0.0726],[-64.6526,46.3169,0.3696],[-64.6502,46.3133,2.5251],[-64.651,46.3093,3.6162],[-64.654,46.3123,0.0],[-64.662,46.3131,2.167],[-64.6574,46.3154,0.1328],[-64.6603,46.3192,0.9435],[-64.6597,46.3217,0.2522],[-64.6631,46.3206,0.1663],[-64.6688,46.3231,0.4607],[-64.6801,46.3213,0.0],[-64.6831,46.3153,1.9957],[-64.6904,46.314,0.0719],[-64.6926,46.3151,4.5761],[-64.7011,46.3139,2.7978],[-64.6992,46.3156,3.0658],[-64.7007,46.3167,3.9764],[-64.7103,46.3161,3.5894],[-64.71,46.3175,3.2199],[-64.7061,46.3169,1.6241],[-64.7067,46.3189,0.9379],[-64.7033,46.3205,2.0877],[-64.6942,46.3206,0.0],[-64.6816,46.3271,3.465],[-64.6738,46.3252,0.0],[-64.6654,46.3279,0.6449],[-64.6593,46.3256,0.3945],[-64.6514,46.3286,0.7978],[-64.6427,46.3288,8.652],[-64.6337,46.3268,0.0],[-64.6289,46.3319,0.2227],[-64.6247,46.3319,0.2376],[-64.6225,46.3339,0.0282],[-64.6247,46.3373,2.5437],[-64.6308,46.3389,0.0],[-64.6311,46.3403,0.0],[-64.6228,46.3372,0.6578],[-64.6163,46.3406,2.9482],[-64.6142,46.3401,0.0],[-64.6135,46.3455,3.5694],[-64.6107,46.3485,0.0],[-64.6126,46.35,3.3417],[-64.6128,46.3531,0.3317],[-64.6208,46.355,3.1356],[-64.6131,46.355,0.0],[-64.6169,46.3672,2.9356],[-64.6114,46.3803,0.0],[-64.6126,46.384,0.1266],[-64.6109,46.389,1.2724],[-64.6133,46.3894,1.9142],[-64.615,46.3868,0.0192],[-64.6208,46.3879,4.6561],[-64.6161,46.3891,0.0],[-64.6119,46.3961,0.0],[-64.6145,46.3992,0.482],[-64.6161,46.4078,0.0],[-64.6205,46.4118,3.0721],[-64.6177,46.4154,0.1849],[-64.616,46.4153,0.0],[-64.6164,46.4166,0.2415],[-64.6208,46.4219,1.0941],[-64.6303,46.4394,0.0],[-64.6358,46.4429,0.9594],[-64.6356,46.4469,0.8552],[-64.6407,46.447,3.0521],[-64.6516,46.458,2.9481],[-64.6634,46.4651,4.2422],[-64.6695,46.4666,5.5721],[-64.6868,46.4519,5.2095],[-64.6904,46.4526,0.0],[-64.6898,46.4471,4.041],[-64.6943,46.4462,0.8217],[-64.6948,46.4426,0.0],[-64.6976,46.4426,0.0],[-64.6976,46.4392,0.0],[-64.7008,46.4339,0.0],[-64.7039,46.4363,0.5966],[-64.7083,46.4358,2.8624],[-64.7117,46.4378,0.3953],[-64.7169,46.4331,7.0754],[-64.7196,46.4288,1.7112],[-64.7182,46.427,7.1426],[-64.7217,46.4244,3.3202],[-64.7201,46.4296,1.7112],[-64.7213,46.4315,8.6358],[-64.7131,46.4397,0.6152],[-64.7078,46.4383,0.0],[-64.7029,46.4403,0.0],[-64.6961,46.45,0.0],[-64.6956,46.4533,5.3188],[-64.6914,46.4544,0.1152],[-64.6902,46.4593,0.0],[-64.6929,46.462,3.9846],[-64.7042,46.4664,1.4444],[-64.7088,46.4708,0.0],[-64.7149,46.4713,1.2912],[-64.7132,46.4681,0.0],[-64.7164,46.4579,9.319],[-64.7206,46.4585,13.6095],[-64.7247,46.4622,0.0],[-64.7276,46.4621,0.0],[-64.7357,46.4565,0.0],[-64.7372,46.4519,10.1412],[-64.7399,46.454,0.0],[-64.745,46.4533,6.8165],[-64.7492,46.4475,0.9185],[-64.761,46.4442,2.8645],[-64.7631,46.4392,0.0],[-64.7775,46.4347,9.0839],[-64.7797,46.4364,0.0],[-64.7857,46.4293,0.0],[-64.7981,46.4244,1.0102],[-64.8041,46.4198,5.2411],[-64.809,46.4197,2.4911],[-64.8129,46.4161,0.9358],[-64.8134,46.4119,2.3299],[-64.8192,46.4106,0.0],[-64.8182,46.406,0.0],[-64.8228,46.4067,0.7059],[-64.8322,46.4003,12.0964],[-64.8508,46.3969,5.4077],[-64.8506,46.3994,3.0564],[-64.8475,46.3984,0.0],[-64.8364,46.4028,4.6897],[-64.8269,46.4117,2.2287],[-64.8206,46.4119,1.0132],[-64.8192,46.4172,1.9627],[-64.8156,46.4158,0.75],[-64.8142,46.4175,0.3207],[-64.815,46.4206,0.0],[-64.8175,46.4219,0.0],[-64.8134,46.4235,0.0],[-64.8093,46.423,0.0],[-64.8038,46.4256,6.0261],[-64.8016,46.4288,5.0979],[-64.7914,46.4326,7.347],[-64.7876,46.4374,0.8715],[-64.793,46.4393,0.6388],[-64.7916,46.4408,8.3616],[-64.771,46.4398,0.5248],[-64.769,46.4415,1.1837],[-64.7709,46.4443,1.2906],[-64.7686,46.4444,0.5152],[-64.7656,46.4493,1.3187],[-64.7604,46.4472,15.1806],[-64.7529,46.449,5.9022],[-64.7519,46.4535,0.0],[-64.7547,46.4579,4.6532],[-64.7478,46.4552,0.0],[-64.7378,46.457,0.0],[-64.735,46.4596,0.0],[-64.7353,46.4612,2.0907],[-64.7218,46.4688,5.9417],[-64.7148,46.4762,5.0784],[-64.7112,46.4747,0.0],[-64.7096,46.4763,1.4636],[-64.703,46.4762,3.3049],[-64.7008,46.4746,0.0],[-64.6947,46.4792,8.0615],[-64.6943,46.4809,0.0],[-64.6969,46.4817,4.2403],[-64.7164,46.4837,9.2075],[-64.7189,46.4883,0.0],[-64.7183,46.493899999999996,4.3752],[-64.7152,46.4864,0.0],[-64.7093,46.4845,1.2817],[-64.7081,46.4864,4.261],[-64.7042,46.4833,1.4166],[-64.6983,46.4844,4.6571],[-64.6947,46.4825,1.41],[-64.6732,46.4878,0.0353],[-64.672,46.4913,1.8086],[-64.6769,46.4956,0.6641],[-64.6782,46.5039,1.5506],[-64.6806,46.5074,1.8459],[-64.6801,46.5103,2.7557],[-64.6842,46.515,2.7564],[-64.6832,46.5187,0.0],[-64.6922,46.5261,0.0],[-64.6919,46.5286,0.0],[-64.6878,46.5285,0.1051],[-64.6831,46.5225,-0.0064],[-64.6734,46.52,0.3057],[-64.6669,46.511,-0.1011],[-64.6638,46.51,-0.0053],[-64.6621,46.5113,-0.0187],[-64.6536,46.5069,0.0],[-64.6406,46.4958,0.2093],[-64.6303,46.482,0.0],[-64.629,46.4814,0.0],[-64.6303,46.4844,0.1171],[-64.6275,46.4847,0.077],[-64.6242,46.4769,0.0],[-64.6206,46.4776,-0.0548],[-64.6182,46.4754,0.1404],[-64.6169,46.4683,0.0],[-64.6181,46.4631,0.0893],[-64.6111,46.4657,0.0475],[-64.6105,46.464,0.0274],[-64.6153,46.4608,0.0943],[-64.623,46.4592,0.0],[-64.614,46.4589,0.3074],[-64.6081,46.4615,0.3164],[-64.6087,46.4685,1.3394],[-64.6152,46.4799,0.0],[-64.6325,46.4894,0.0],[-64.6536,46.5094,0.0],[-64.6916,46.5321,0.0],[-64.6988,46.538,1.9159],[-64.6992,46.5418,0.6321],[-64.7097,46.5499,1.1569],[-64.7147,46.5577,0.0],[-64.7222,46.5831,1.4737],[-64.7283,46.5838,0.0],[-64.7317,46.58,5.6247],[-64.7373,46.5803,3.4544],[-64.7328,46.5814,0.0],[-64.7311,46.5842,6.7698],[-64.7269,46.5855,3.7223],[-64.7189,46.5825,0.0],[-64.7219,46.5925,0.1065],[-64.7214,46.6036,0.5164],[-64.7083,46.6234,0.0],[-64.7125,46.633,0.0],[-64.7103,46.6386,0.0],[-64.7117,46.6522,1.7819],[-64.7083,46.6608,0.0],[-64.7126,46.6755,0.0],[-64.7178,46.6825,1.266],[-64.7173,46.6869,1.0107],[-64.72,46.6906,0.0],[-64.7423,46.6984,0.4872],[-64.7506,46.7036,0.0],[-64.759,46.7065,0.0],[-64.7643,46.7064,0.0],[-64.7551,46.7012,-0.1976],[-64.7509,46.7011,0.0369],[-64.746,46.6944,-0.1095],[-64.7358,46.6944,0.2549],[-64.7321,46.6928,-0.0103],[-64.7372,46.6922,0.0],[-64.7402,46.6901,0.1822],[-64.7423,46.6914,0.0404],[-64.7422,46.6886,0.0731],[-64.7436,46.6875,0.0731],[-64.7563,46.6831,0.0],[-64.7532,46.6788,2.2424],[-64.7457,46.6778,1.4145],[-64.742,46.675,0.0394],[-64.7449,46.6741,0.0734],[-64.7528,46.6772,0.0777],[-64.7571,46.6756,0.0],[-64.7559,46.672,0.9538],[-64.7527,46.6691,1.7163],[-64.748,46.6692,2.7376],[-64.7462,46.6671,4.1687],[-64.7364,46.6664,0.5646],[-64.7317,46.6594,1.3375],[-64.7328,46.6586,7.647],[-64.7389,46.6629,1.5996],[-64.7433,46.6625,0.3508],[-64.7461,46.6639,0.0],[-64.7489,46.6614,0.0],[-64.7486,46.6558,6.2699],[-64.7509,46.6618,6.1795],[-64.7499,46.667,0.3189],[-64.7573,46.6663,0.0],[-64.7589,46.6631,6.279],[-64.7583,46.6675,4.5501],[-64.76,46.6693,1.2106],[-64.7653,46.6688,0.411],[-64.7672,46.6707,0.0],[-64.7706,46.6692,0.2538],[-64.7744,46.6711,0.0],[-64.775,46.6761,3.5757],[-64.7732,46.6817,0.0],[-64.7663,46.6872,0.0],[-64.7711,46.6893,0.997],[-64.7769,46.6886,3.2674],[-64.785,46.6833,5.2899],[-64.7867,46.685,3.2158],[-64.7947,46.6838,0.802],[-64.7961,46.6809,1.4974],[-64.8056,46.6744,0.0],[-64.8056,46.6692,0.0],[-64.8033,46.665,12.1037],[-64.8056,46.6656,6.337],[-64.8089,46.6756,3.372],[-64.7983,46.6817,0.0],[-64.798,46.6852,0.0],[-64.784,46.6876,4.0816],[-64.7843,46.69,5.0573],[-64.7918,46.6918,2.7729],[-64.8057,46.6885,4.7918],[-64.8084,46.6908,0.0],[-64.817,46.6927,0.0],[-64.8249,46.6923,0.0],[-64.8354,46.6907,0.0],[-64.8357,46.6883,10.4446],[-64.8378,46.6869,1.6655],[-64.8506,46.6842,0.2212],[-64.8506,46.6828,0.6086],[-64.8449,46.6789,1.4064],[-64.846,46.675,0.0],[-64.8503,46.672,3.4008],[-64.8518,46.665,4.7023],[-64.8508,46.6628,4.1239],[-64.8475,46.6628,2.8253],[-64.8581,46.6578,0.7946],[-64.8611,46.6544,0.0],[-64.8628,46.6506,0.0],[-64.8597,46.6461,1.9034],[-64.8633,46.6472,0.0],[-64.8715,46.644,0.0],[-64.8738,46.6415,3.0751],[-64.8794,46.6406,0.7254],[-64.8811,46.6378,0.0],[-64.8784,46.6324,2.9408],[-64.8819,46.6328,5.255],[-64.8817,46.6361,5.0059],[-64.8831,46.6372,0.0],[-64.8858,46.6369,1.4275],[-64.8904,46.6334,1.957],[-64.8936,46.6336,2.2409],[-64.8973,46.6305,0.0],[-64.8958,46.6242,8.9442],[-64.8975,46.6219,1.533],[-64.8994,46.6275,0.0],[-64.9044,46.6289,0.0],[-64.9064,46.6261,0.0],[-64.905,46.6232,10.5196],[-64.9062,46.6209,16.0865],[-64.9167,46.616,0.0],[-64.9134,46.6106,10.0831],[-64.9186,46.6019,1.4113],[-64.9167,46.6014,1.4113],[-64.9124,46.604,4.0561],[-64.9109,46.6003,2.0016],[-64.9126,46.5915,2.5918],[-64.915,46.5886,0.0],[-64.9078,46.5856,11.6437],[-64.9097,46.5847,1.125],[-64.9094,46.5808,1.2035],[-64.9048,46.5823,7.5256],[-64.9061,46.5779,10.9075],[-64.8978,46.5761,4.9068],[-64.9008,46.5747,2.0844],[-64.9014,46.5722,11.432],[-64.8974,46.5712,1.3132],[-64.9015,46.57,17.6441],[-64.9027,46.571,10.6404],[-64.9018,46.5761,0.0],[-64.9097,46.5783,4.8534],[-64.9117,46.5758,1.2579],[-64.9058,46.5694,21.2382],[-64.9108,46.5658,0.0],[-64.9092,46.5617,2.0594],[-64.9119,46.5567,7.507],[-64.9189,46.5525,0.0],[-64.9169,46.5486,0.0],[-64.9092,46.5492,6.3781],[-64.9072,46.5469,1.8045],[-64.9096,46.5424,2.3659],[-64.9113,46.5447,2.2781],[-64.91,46.5478,0.0],[-64.9258,46.5467,6.9682],[-64.9211,46.55,0.0],[-64.9208,46.5547,5.2844],[-64.9136,46.5611,0.0],[-64.9147,46.5661,5.3189],[-64.9078,46.57,0.0],[-64.9161,46.5733,0.6409],[-64.9117,46.5812,0.0],[-64.9117,46.5842,0.0],[-64.916,46.5877,0.0],[-64.9237,46.5892,9.7968],[-64.9225,46.5908,3.1636],[-64.9178,46.5908,0.2804],[-64.9203,46.5981,2.8152],[-64.9243,46.5935,15.4253],[-64.9324,46.5925,5.9251],[-64.9314,46.5897,9.2118],[-64.9351,46.5883,11.3487],[-64.9388,46.5814,6.6024],[-64.9525,46.5808,0.0],[-64.955,46.5775,0.0],[-64.9556,46.5817,0.0],[-64.9789,46.5811,0.0],[-64.9828,46.5724,0.0],[-64.9855,46.5709,0.0],[-64.9848,46.5679,2.799],[-64.9865,46.5688,0.0],[-64.995,46.5628,9.5934],[-65.0065,46.5638,0.0],[-65.0131,46.5601,5.447],[-65.025,46.5571,0.0],[-65.0234,46.5511,3.0275],[-65.0255,46.55,3.623],[-65.0261,46.5544,0.9187],[-65.0297,46.555,2.8808],[-65.0314,46.5518,4.4825],[-65.0347,46.5518,0.7018],[-65.0397,46.5379,7.4555],[-65.0445,46.5357,0.0],[-65.0477,46.5381,0.8769],[-65.0553,46.538,0.0],[-65.0596,46.5289,1.5534],[-65.0636,46.5278,0.0],[-65.0685,46.5233,11.2752],[-65.0756,46.5231,3.7387],[-65.0859,46.5263,0.0],[-65.0886,46.5234,2.762],[-65.0842,46.5172,0.0],[-65.0839,46.5097,4.9529],[-65.0853,46.5162,0.0],[-65.0919,46.5143,0.0],[-65.1012,46.5157,8.0524],[-65.0973,46.5176,6.6941],[-65.09,46.5164,4.4453],[-65.0903,46.5227,2.2791],[-65.0877,46.5271,22.8426],[-65.07,46.5241,2.3094],[-65.0666,46.5278,3.4758],[-65.0608,46.5304,0.0],[-65.0562,46.5402,0.7412],[-65.0512,46.5409,4.5207],[-65.0472,46.5389,3.1561],[-65.04,46.5401,0.0],[-65.0423,46.5483,1.1857],[-65.0384,46.5533,1.8009],[-65.0327,46.5561,1.2461],[-65.0345,46.5592,1.456],[-65.031,46.5591,2.1351],[-65.0301,46.5616,1.0741],[-65.0255,46.5602,0.0],[-65.0144,46.566,0.0],[-65.0158,46.5714,2.865],[-65.0203,46.5714,21.2841],[-65.0239,46.5742,0.0],[-65.031,46.5705,4.2389],[-65.0339,46.5766,0.0],[-65.0397,46.5781,1.5444],[-65.0454,46.5748,9.2505],[-65.0531,46.5753,3.8324],[-65.0542,46.5742,3.8324],[-65.0531,46.57,0.9262],[-65.0564,46.5681,4.2714],[-65.0608,46.57,7.0681],[-65.0656,46.5672,9.7303],[-65.0669,46.57,-0.1654],[-65.0642,46.5686,0.0],[-65.0592,46.5714,0.0],[-65.0561,46.5697,0.0],[-65.0569,46.5736,4.7605],[-65.0531,46.5764,0.0],[-65.0492,46.5764,0.0],[-65.0442,46.58,0.921],[-65.0358,46.58,8.9972],[-65.0289,46.5742,5.0184],[-65.0246,46.5781,2.4749],[-65.0203,46.5733,0.0],[-65.0131,46.5725,11.3131],[-65.0114,46.5691,0.0],[-65.0046,46.5692,4.3871],[-64.9957,46.5653,0.0],[-64.9928,46.5667,8.0703],[-64.9867,46.575,0.1185],[-64.9942,46.5783,2.9639],[-65.0015,46.5862,3.6854],[-64.9984,46.5837,0.0],[-64.99,46.5817,0.0],[-64.9813,46.5873,1.3515],[-64.975,46.5882,3.2096],[-64.9715,46.585,0.0],[-64.9687,46.5848,4.2982],[-64.9644,46.5906,2.6467],[-64.9625,46.5878,5.6051],[-64.9661,46.5858,0.0],[-64.965,46.5844,5.3889],[-64.9593,46.5842,4.1735],[-64.9566,46.5864,3.2386],[-64.9457,46.5843,1.7394],[-64.9417,46.5904,7.1381],[-64.9433,46.5931,3.3769],[-64.939,46.5909,0.0],[-64.9347,46.5947,0.7937],[-64.9248,46.5964,0.0],[-64.9219,46.6047,0.0],[-64.9172,46.6092,1.7278],[-64.9253,46.6176,2.8359],[-64.9225,46.6207,0.0],[-64.9257,46.6206,3.9894],[-64.914,46.6256,0.0],[-64.9183,46.6283,5.3468],[-64.9167,46.6303,6.2018],[-64.9231,46.6353,20.5627],[-64.9333,46.6358,2.6553],[-64.9347,46.6369,2.6553],[-64.9339,46.6378,0.0],[-64.9242,46.6369,0.0],[-64.9126,46.6297,0.0],[-64.9059,46.6341,3.7621],[-64.8997,46.635,0.0],[-64.885,46.6428,2.628],[-64.8699,46.6483,0.0],[-64.8729,46.6497,0.5648],[-64.8751,46.6558,0.0],[-64.8635,46.6607,12.116],[-64.8611,46.6644,11.263],[-64.8617,46.6689,1.3366],[-64.8647,46.6714,0.4581],[-64.8682,46.6695,2.274],[-64.8663,46.6722,2.6178],[-64.8628,46.6728,0.6351],[-64.8631,46.6772,1.8858],[-64.8598,46.6801,0.0],[-64.8621,46.681399999999996,4.4759],[-64.8608,46.6822,0.0],[-64.8611,46.6892,0.1694],[-64.8644,46.6888,1.8673],[-64.8546,46.6952,0.0],[-64.8522,46.6956,0.5399],[-64.8508,46.6939,0.0376],[-64.8492,46.695,0.0376],[-64.8519,46.6985,0.1206],[-64.858,46.7018,5.1234],[-64.8651,46.7019,8.9255],[-64.8708,46.6997,3.6319],[-64.8696,46.7022,0.135],[-64.8717,46.7078,2.4453],[-64.8659,46.7123,0.4818],[-64.8672,46.7148,0.0671],[-64.8702,46.7144,0.0],[-64.8736,46.7111,0.0],[-64.8789,46.7106,0.0],[-64.8813,46.7148,0.5071],[-64.887,46.7133,1.3292],[-64.8904,46.7157,0.0],[-64.893,46.7136,0.5669],[-64.8931,46.7097,0.8427],[-64.8967,46.7069,0.0],[-64.8958,46.7052,5.033],[-64.9031,46.6992,0.8199],[-64.8961,46.7104,2.921],[-64.8965,46.7145,1.9866],[-64.9031,46.7201,2.287],[-64.9109,46.7193,0.5417],[-64.9142,46.7178,0.4205],[-64.9162,46.713,5.9021],[-64.9197,46.7104,8.0842],[-64.9347,46.7077,5.8803],[-64.9428,46.7011,0.0],[-64.9553,46.6972,3.9378],[-64.9544,46.695,4.598],[-64.9558,46.6933,6.4016],[-64.9624,46.69,0.0],[-64.9612,46.6867,5.621],[-64.9635,46.6854,4.187],[-64.9632,46.6828,5.3627],[-64.9666,46.679,2.4598],[-64.965,46.6853,0.4849],[-64.9624,46.6874,0.944],[-64.9634,46.6907,0.9806],[-64.9572,46.6942,0.0],[-64.9567,46.6983,0.0],[-64.9397,46.705,0.0],[-64.9358,46.7091,9.6982],[-64.9204,46.7123,0.4914],[-64.9175,46.7188,1.9475],[-64.9145,46.7216,0.0],[-64.9203,46.7217,1.0446],[-64.913,46.7231,0.1821],[-64.9105,46.7248,0.5646],[-64.9097,46.7276,0.233],[-64.9138,46.7314,0.0],[-64.9144,46.735,0.021],[-64.9118,46.7402,0.0],[-64.9127,46.7444,1.9386],[-64.9094,46.7426,0.0073],[-64.9096,46.7379,1.1957],[-64.9078,46.7344,0.2318],[-64.9011,46.7292,2.7736],[-64.9007,46.7264,0.0],[-64.8952,46.72,1.5791],[-64.8877,46.719,2.2811],[-64.8822,46.7241,7.6539],[-64.8785,46.7236,0.0],[-64.8747,46.7215,1.5802],[-64.8728,46.7181,1.4394],[-64.8679,46.7191,7.3126],[-64.8584,46.7158,2.7874],[-64.8563,46.7085,1.0833],[-64.8504,46.7029,0.1641],[-64.8458,46.7011,0.0],[-64.8408,46.7017,0.0204],[-64.8408,46.7067,0.1367],[-64.8394,46.7079,0.8794],[-64.8239,46.7092,0.0],[-64.8232,46.7157,1.0901],[-64.8153,46.7239,0.0],[-64.8183,46.7281,-0.0123],[-64.8253,46.7297,0.0232],[-64.8314,46.729,0.0],[-64.8349,46.7321,0.0],[-64.8619,46.7397,0.3958],[-64.8689,46.7395,0.2683],[-64.8758,46.7436,0.3327],[-64.8941,46.7463,-0.0518],[-64.9003,46.745,0.25],[-64.9021,46.7475,-0.0295],[-64.8987,46.7487,0.0],[-64.8972,46.7536,-0.0205],[-64.8954,46.7498,0.0],[-64.8869,46.7513,0.0],[-64.8802,46.7602,0.3546],[-64.8791,46.7649,0.0],[-64.8818,46.7704,0.1324],[-64.8866,46.7746,0.1263],[-64.8874,46.7785,0.0],[-64.8967,46.7794,0.0],[-64.9103,46.7689,1.0422],[-64.9155,46.7576,0.8393],[-64.9186,46.7563,0.8681],[-64.9237,46.7581,5.4343],[-64.9269,46.7576,3.8616],[-64.9286,46.7517,9.6924],[-64.9287,46.7554,0.0],[-64.9303,46.7571,0.0],[-64.9353,46.7559,0.0],[-64.9366,46.7528,3.1128],[-64.9416,46.7508,2.7453],[-64.9627,46.7479,1.2712],[-64.9777,46.7407,0.0],[-64.9783,46.7382,11.6826],[-64.9837,46.7339,4.4547],[-64.9832,46.7302,2.1439],[-64.9959,46.728,3.5713],[-64.9988,46.7225,4.15],[-65.0094,46.7183,17.6277],[-65.0131,46.7192,4.3471],[-65.0197,46.7172,0.8876],[-65.0183,46.7197,1.6921],[-65.0056,46.7228,3.4144],[-65.0041,46.7258,4.1826],[-65.0,46.7258,7.7768],[-64.9978,46.7299,1.2183],[-64.9895,46.7311,1.1778],[-64.982,46.7414,2.9418],[-64.9714,46.7483,4.6614],[-64.9696,46.7472,10.1743],[-64.9673,46.7492,6.3537],[-64.9575,46.7506,0.2375],[-64.9569,46.7531,1.622],[-64.9544,46.7511,0.786],[-64.9408,46.7519,14.7781],[-64.9386,46.7536,5.6859],[-64.9394,46.7558,2.3908],[-64.9442,46.7558,4.1752],[-64.9444,46.7572,14.0988],[-64.9419,46.7587,6.2021],[-64.9394,46.7567,2.3908],[-64.9385,46.7582,2.9086],[-64.9264,46.76,0.0],[-64.9258,46.7614,2.5001],[-64.9286,46.7619,5.569],[-64.9262,46.7632,0.0],[-64.9192,46.7606,0.1363],[-64.9172,46.7614,0.043],[-64.915,46.7644,1.9211],[-64.915,46.7714,3.3855],[-64.9077,46.776,0.0006],[-64.909,46.7789,0.4243],[-64.905,46.7783,0.0],[-64.9042,46.7797,0.0],[-64.9131,46.7897,0.0458],[-64.9065,46.7923,0.6273],[-64.9055,46.7957,0.0],[-64.908,46.8003,1.7165],[-64.9061,46.8121,0.0],[-64.9153,46.8117,8.6839],[-64.9124,46.8134,0.0],[-64.9119,46.8172,0.0307],[-64.9094,46.8186,0.0],[-64.9108,46.8211,0.0],[-64.9127,46.8212,0.314],[-64.9097,46.8233,0.0],[-64.9097,46.8266,-0.018],[-64.9135,46.8308,0.0],[-64.919,46.8331,3.236],[-64.9255,46.833,2.0202],[-64.94,46.8286,8.8778],[-64.942,46.8294,0.0],[-64.9477,46.8235,12.7808],[-64.9525,46.822,3.5826],[-64.9563,46.8239,0.0],[-64.96,46.8235,3.4362],[-64.9617,46.8216,3.5436],[-64.96,46.8202,0.0],[-64.9633,46.818,8.0636],[-64.9615,46.8163,12.7655],[-64.9671,46.8162,10.1491],[-64.9696,46.8136,15.9657],[-64.9855,46.8115,3.7747],[-64.9872,46.8098,0.0],[-64.9867,46.8044,13.9614],[-64.9889,46.8089,2.1201],[-64.9944,46.8083,14.9275],[-64.9973,46.8012,1.5709],[-65.0025,46.7993,14.2687],[-65.0058,46.7958,2.1459],[-65.0158,46.7928,0.0],[-65.0178,46.7906,0.0],[-65.0244,46.7903,5.3883],[-65.0,46.8019,0.0],[-64.9956,46.8094,10.738],[-64.9795,46.815,0.0],[-64.9749,46.8151,2.0843],[-64.9733,46.8173,10.0845],[-64.9658,46.8192,1.6415],[-64.9632,46.825,0.0],[-64.9504,46.8247,3.5129],[-64.9439,46.8308,8.6157],[-64.9333,46.8319,0.0],[-64.9323,46.8365,0.0],[-64.9472,46.8375,0.0],[-64.9492,46.8403,0.0],[-64.9456,46.8394,0.5033],[-64.945,46.8406,0.0],[-64.9504,46.8448,4.1457],[-64.9526,46.8405,0.0],[-64.9553,46.8397,2.8868],[-64.9525,46.8372,3.6176],[-64.9547,46.8364,3.4978],[-64.9572,46.8381,6.0552],[-64.9625,46.8344,6.9861],[-64.9633,46.8358,1.6351],[-64.9571,46.8406,0.0],[-64.9733,46.8362,3.0983],[-64.9784,46.838,8.0579],[-64.9884,46.8372,0.0],[-64.9973,46.8394,15.3322],[-64.9906,46.8397,0.0],[-64.9883,46.842,0.0],[-64.9828,46.8399,0.0],[-64.9781,46.8403,0.0],[-64.9767,46.8414,6.2735],[-64.9805,46.8432,8.9939],[-64.9753,46.842,0.0],[-64.9731,46.8436,0.0],[-64.9733,46.8453,1.9637],[-64.965,46.8426,5.068],[-64.9613,46.8438,1.6545],[-64.9672,46.8525,2.1903],[-64.9736,46.8553,6.4525],[-64.9669,46.8542,13.3763],[-64.9631,46.8496,3.3726],[-64.9579,46.8463,0.0],[-64.9465,46.8506,4.3086],[-64.9454,46.8518,0.0],[-64.9481,46.8547,2.066],[-64.9533,46.8553,3.4095],[-64.9489,46.8567,3.7625],[-64.9437,46.8532,0.0],[-64.9403,46.8541,0.0],[-64.938,46.8583,0.0597],[-64.9386,46.8612,0.0717],[-64.9369,46.8622,0.0],[-64.9403,46.8628,0.2484],[-64.9425,46.8656,5.6612],[-64.9349,46.8645,0.0927],[-64.9309,46.8677,0.1356],[-64.9202,46.869,1.2113],[-64.9175,46.8794,0.0538],[-64.9101,46.8819,0.0],[-64.9114,46.8758,0.369],[-64.9147,46.8754,0.0],[-64.9156,46.8738,0.0],[-64.9133,46.8739,0.1287],[-64.9152,46.8725,0.0],[-64.9139,46.8714,0.5859],[-64.9147,46.8523,0.0],[-64.9132,46.8496,0.6674],[-64.9156,46.8456,0.0],[-64.9103,46.8425,0.0],[-64.9128,46.8553,0.1332],[-64.9128,46.8664,0.6709],[-64.9086,46.8764,0.0723],[-64.9011,46.8867,0.0],[-64.9006,46.8936,0.5098],[-64.8933,46.9053,0.0],[-64.89,46.9147,0.0],[-64.8917,46.9161,0.0667],[-64.8964,46.9125,-0.2123],[-64.8975,46.9136,-0.2123],[-64.8947,46.9164,0.0],[-64.9069,46.9228,8.2811],[-64.9053,46.9236,2.6289],[-64.8891,46.9168,0.0],[-64.8866,46.9233,0.0],[-64.8813,46.9291,0.6458],[-64.8688,46.9348,0.0],[-64.8576,46.9448,3.9885],[-64.8497,46.9477,0.4063],[-64.8425,46.9564,0.0],[-64.8317,46.9631,2.0146],[-64.8289,46.9614,0.0],[-64.8128,46.9751,0.0],[-64.8125,46.9814,0.9739],[-64.81,46.9847,0.7341],[-64.8111,46.9897,2.8745],[-64.8092,46.995,0.0],[-64.814,47.0054,0.6662],[-64.8174,47.009,0.0],[-64.8188,47.0143,0.0],[-64.82,47.0156,0.1071],[-64.8214,47.014,0.0],[-64.823,47.0152,0.0598],[-64.8202,47.0166,0.1071],[-64.8207,47.0273,0.0],[-64.8244,47.0347,0.0],[-64.826,47.036,0.0],[-64.8292,47.0345,0.152],[-64.8334,47.0359,-0.6707],[-64.8313,47.0403,-0.0457],[-64.8282,47.0393,-0.0441],[-64.8277,47.0366,0.316],[-64.8266,47.0376,0.1891],[-64.8287,47.0467,0.3131],[-64.8265,47.0562,0.283],[-65.4097,46.7302,86.1557],[-65.4031,46.7206,88.5048],[-65.4152,46.7173,91.1712],[-65.421,46.7243,92.2279],[-65.5855,46.6312,88.2549],[-65.6912,46.518,111.9965],[-65.8517,46.3365,78.634],[-65.4164,46.2568,99.9683],[-65.1213,46.263,86.5896],[-64.5817,46.2782,4.1273]]],
[[[-64.5978,46.3989,0.0],[-64.6008,46.4003,0.3852],[-64.6117,46.4,0.2687],[-64.6111,46.3986,0.0],[-64.6053,46.3994,0.4223],[-64.5997,46.3975,8.7289],[-64.599,46.3885,3.9361],[-64.5958,46.3845,0.0],[-64.5988,46.3774,0.4837],[-64.597,46.3731,7.2622],[-64.5853,46.3681,0.0],[-64.5828,46.3752,0.0],[-64.5844,46.379,0.0],[-64.5941,46.3885,0.9298],[-64.5942,46.3914,0.9046],[-64.5977,46.3949,1.8376],[-64.5961,46.3978,1.6633],[-64.5978,46.3989,0.0]]],
[[[-64.7722,46.7003,0.416],[-64.7785,46.7019,1.1466],[-64.7808,46.7003,1.3335],[-64.785,46.7011,0.0],[-64.7914,46.6989,0.0544],[-64.7936,46.7,-0.0224],[-64.7992,46.6975,-0.0081],[-64.7974,46.6954,0.0],[-64.7893,46.6931,0.0],[-64.7839,46.6922,4.8796],[-64.7791,46.6936,0.2348],[-64.7773,46.692,0.0],[-64.766,46.6914,0.0],[-64.7579,46.694,0.0],[-64.7582,46.6966,0.0161],[-64.7562,46.6985,0.1372],[-64.759,46.701,0.0],[-64.7667,46.6988,0.1752],[-64.7681,46.7005,0.0],[-64.7722,46.7003,0.416]]],
[[[-64.8578,46.6909,0.8171],[-64.8588,46.6896,0.1878],[-64.8534,46.6913,1.0721],[-64.8567,46.692,1.2323],[-64.8578,46.6909,0.8171]]],
[[[-64.7868,46.7105,0.0],[-64.79,46.7114,0.0],[-64.795,46.7089,0.7697],[-64.8008,46.7103,0.8813],[-64.8046,46.7088,0.0],[-64.8051,46.7071,0.8436],[-64.804,46.7054,0.0],[-64.801,46.7071,1.2554],[-64.7814,46.7052,0.0],[-64.7689,46.7069,0.0],[-64.7695,46.7083,0.0],[-64.7766,46.71,0.0],[-64.7787,46.709,0.0],[-64.7868,46.7105,0.0]]],
[[[-64.8475,46.7559,0.0],[-64.8506,46.7603,0.0],[-64.8561,46.7631,0.0],[-64.8564,46.7606,0.0],[-64.8459,46.7498,0.0],[-64.8427,46.7487,0.0],[-64.8291,46.7375,0.0],[-64.8106,46.7275,0.9604],[-64.8085,46.7245,0.0696],[-64.8026,46.7226,0.4741],[-64.7995,46.7154,0.0],[-64.7889,46.7153,0.0],[-64.7986,46.7244,0.0],[-64.8075,46.7272,0.0],[-64.8107,46.7305,0.0],[-64.8217,46.7361,0.0],[-64.8425,46.7534,0.0],[-64.8475,46.7559,0.0]]],
[[[-64.8695,46.7752,0.0],[-64.8751,46.7791,0.0],[-64.8758,46.7783,0.0],[-64.8753,46.7764,0.172],[-64.871,46.7752,0.0],[-64.869,46.7737,0.0],[-64.8697,46.7722,0.0],[-64.8674,46.7714,0.0],[-64.8695,46.7752,0.0]]],
[[[-64.8883,46.805,1.7085],[-64.8942,46.8106,0.0],[-64.9084,46.8314,0.0],[-64.9068,46.8278,0.1943],[-64.9079,46.8242,0.0931],[-64.9027,46.8194,1.0662],[-64.9016,46.8158,0.6121],[-64.9025,46.8135,-0.0004],[-64.8977,46.8126,0.7627],[-64.8972,46.8098,0.0],[-64.8915,46.8057,1.5285],[-64.8847,46.794,-0.2108],[-64.88,46.7908,0.0],[-64.8823,46.7894,0.0],[-64.8722,46.7797,0.0],[-64.8706,46.7797,0.9066],[-64.8706,46.7831,0.0],[-64.8737,46.7879,0.4615],[-64.8883,46.805,1.7085]]]]}
,"properties": {"GID_2": "CAN.4.5_1","GID_0": "CAN","country": "Canada","GID_1": "CAN.4_1","province": "NewBrunswick","NL_NAME_1": "NA","county": "Kent","VARNAME_2": "NA","NL_NAME_2": "NA","TYPE_2": "County","ENGTYPE_2": "County","CC_2": "08","HASC_2": "CA.NB.KE","name": "Kent.county","area_km2": 4562.565,"hist_schema_id": "Elevation0-9000","hist_area_km2": {"0": 299.39,"25": 971.346,"50": 1181.566,"75": 1073.262,"100": 856.264,"125": 180.738}}}