{"type":"Feature","properties":{"featurecla":"River","scalerank":11,"rivernum":20521,"dissolve":"20521River","name":"N. Thompson","name_alt":null,"note":"ID is link back to CEC data","name_full":"North Thompson River","min_zoom":6.7,"strokeweig":0.15,"uident":1688801,"min_label":7.7},
"geometry":{"type": "LineString","coordinates": [[-119.66124426991622,52.689805405723192,1871.1256],[-119.68219967356205,52.675482489056527,1556.231],[-119.67894446522872,52.659125067181527,1480.5232],[-119.66950436106205,52.6412214213482,1249.3843],[-119.5748591787704,52.598822332806527,1339.3912],[-119.5335994131454,52.578314520306527,1120.3384],[-119.53355872304122,52.578314520306527,1120.3384],[-119.53351803293705,52.578192449994027,1120.3384],[-119.51056881418705,52.554999090619027,1127.3145],[-119.46296139231205,52.538845119264863,1043.5657],[-119.43610592356205,52.531276759889863,1175.1062]]}}