{"type":"Feature","properties":{"GID_3":"CAN.9.15.3_1","GID_0":"CAN","country":"Canada","GID_1":"CAN.9_1","province":"Ontario","NL_NAME_1":"NA","GID_2":"CAN.9.15_1","county":"Halton","NL_NAME_2":"NA","city":"Milton","VARNAME_3":"NA","NL_NAME_3":"NA","TYPE_3":"Town","ENGTYPE_3":"Town","CC_3":"NA","HASC_3":"NA","name":"Milton.city"},
"geometry":{"type": "MultiPolygon","coordinates": [[[[-79.811,43.4348,165.237],[-79.7952,43.4493,170.0794],[-79.8025,43.4551,181.2369],[-79.8082,43.4668,180.4626],[-79.8001,43.4742,173.2493],[-79.7982,43.4744,153.2485],[-79.7865,43.4866,185.8805],[-79.7733,43.485,172.3779],[-79.7245,43.528,180.3387],[-79.8083,43.5901,212.3188],[-79.8629,43.5419,207.7447],[-79.8676,43.5451,207.6021],[-79.8691,43.5438,208.7701],[-79.8955,43.5638,217.9346],[-79.9391,43.5247,227.8723],[-80.0856,43.629,363.4165],[-80.1344,43.5855,345.367],[-80.1286,43.5816,348.4631],[-80.145,43.567,351.5319],[-80.1501,43.5706,325.3617],[-80.1604,43.5611,331.8383],[-79.9594,43.4173,271.5525],[-79.8948,43.4766,200.208],[-79.8425,43.4405,177.9624],[-79.8407,43.4409,177.9847],[-79.8193,43.4269,165.9535],[-79.811,43.4348,165.237]]]]}}