{"type":"Feature","properties":{"featurecla":"River","scalerank":11,"rivernum":20347,"dissolve":"20347River","name":"Mistassibi3","name_alt":null,"note":"ID is link back to CEC data","name_full":"Rivire Mistassibi","min_zoom":6.7,"strokeweig":0.2,"uident":1700201,"min_label":7.7},
"geometry":{"type": "LineString","coordinates": [[-72.214466926166239,50.612494207806527,509.2945],[-72.2191462881454,50.583929754681527,489.1153],[-72.202951626687067,50.5027936869732,443.7758],[-72.2023005850204,50.500270900514863,459.5924],[-72.195179816791239,50.469061590619027,416.6738],[-72.217152473041239,50.389349676556527,485.2288],[-72.2049861318954,50.3272565775982,517.5739],[-72.2023005850204,50.294867254681527,441.297],[-72.194813605853739,50.2147077494732,348.9551],[-72.1942439443954,50.107733465619027,480.1864],[-72.1490779287704,50.0049909525982,297.0],[-72.160715298562067,49.9600690775982,503.8847],[-72.177561001687067,49.927923895306527,426.5],[-72.179636196999567,49.914333400514863,492.0511],[-72.1844783193954,49.881903387494027,505.0391],[-72.179310676166239,49.842840887494027,465.9337],[-72.143666144916239,49.819647528119027,467.8086],[-72.121693488666239,49.808661199994027,427.7438],[-72.087473111062067,49.791571356244027,374.697],[-72.077097134499567,49.761175848431527,457.1891],[-72.082102017312067,49.743923244264863,448.8348],[-72.083485480853739,49.711737371869027,373.7558],[-72.065297004291239,49.694281317181527,381.861],[-72.0472712881454,49.663641668744027,265.7659],[-72.041615363666239,49.6212018900982,260.0963],[-72.0340876943954,49.594794012494027,235.8374],[-72.0265193350204,49.575222072389863,337.2841],[-72.000721808978739,49.563788153119027,229.0],[-71.964182095437067,49.5682233744732,249.8649]]}}