{"type":"Feature","properties":{"GID_3":"CAN.9.7.6_1","GID_0":"CAN","country":"Canada","GID_1":"CAN.9_1","province":"Ontario","NL_NAME_1":"NA","GID_2":"CAN.9.7_1","county":"Durham","NL_NAME_2":"NA","city":"Pickering","VARNAME_3":"NA","NL_NAME_3":"NA","TYPE_3":"Cité","ENGTYPE_3":"City","CC_3":"NA","HASC_3":"NA","name":"Pickering.city"},
"geometry":{"type": "MultiPolygon","coordinates": [[[[-79.0085,43.9225,143.4451],[-79.048,44.0108,317.1219],[-79.2201,43.9709,274.6989],[-79.2143,43.953,246.7617],[-79.1519,43.8141,107.7314],[-79.1462,43.8102,110.6445],[-79.1432,43.8107,103.7347],[-79.1381,43.8076,84.9608],[-79.1358,43.8082,89.8565],[-79.1338,43.8062,81.0321],[-79.1336,43.8029,81.8619],[-79.1353,43.8008,86.8007],[-79.1308,43.8018,86.1436],[-79.1254,43.8003,82.3701],[-79.1242,43.7975,79.2905],[-79.1203,43.7963,76.6871],[-79.1209,43.7948,74.8536],[-79.1055,43.7928,73.5],[-79.0827,43.8104,73.5],[-79.0903,43.8147,73.5],[-79.09,43.8209,78.469],[-79.0881,43.8215,80.51],[-79.0842,43.8187,83.3324],[-79.0764,43.817,73.0],[-79.0761,43.8135,73.2373],[-79.0658,43.8087,74.8874],[-79.0468,43.8082,73.5],[-79.0375,43.8118,73.5],[-79.0515,43.8455,86.6507],[-79.0608,43.8422,86.8405],[-79.0666,43.855,87.1586],[-79.0706,43.8543,89.7473],[-79.0788,43.8708,105.5787],[-79.0698,43.876,107.7892],[-79.0775,43.8946,138.0038],[-79.0826,43.8926,142.7034],[-79.087,43.9036,153.4473],[-79.0885,43.9042,151.4558],[-79.0085,43.9225,143.4451]]]]}}