{"type":"Feature","properties":{"GID_3":"CAN.12.16.23_1","GID_0":"CAN","country":"Canada","GID_1":"CAN.12_1","province":"Saskatchewan","NL_NAME_1":"NA","GID_2":"CAN.12.16_1","county":"DivisionNo.7","NL_NAME_2":"NA","city":"EyebrowNo.193","VARNAME_3":"NA","NL_NAME_3":"NA","TYPE_3":"RuralMunicipality","ENGTYPE_3":"RuralMunicipality","CC_3":"NA","HASC_3":"NA","name":"Eyebrow_No.193.city"},
"geometry":{"type": "MultiPolygon","coordinates": [[[[-106.0045,50.7466,613.3989],[-106.004,50.8346,586.0253],[-106.0731,50.8357,600.5698],[-106.42,50.8343,590.1881],[-106.4186,50.6887,610.1498],[-106.4196,50.5723,680.9858],[-106.0039,50.5724,589.9341],[-106.0042,50.7327,616.1927],[-106.0274,50.7327,625.0336],[-106.0276,50.739,622.0723],[-106.0273,50.7466,618.7228],[-106.0045,50.7466,613.3989]],
[[-106.1602,50.8057,630.0858],[-106.1423,50.8053,633.6377],[-106.1422,50.7904,628.9943],[-106.1653,50.7907,624.7127],[-106.1655,50.8056,632.2343],[-106.1602,50.8057,630.0858]]]]}}