{"type": "Feature","bbox": [-72.9549,45.0762,-72.8776,45.151],"geometry": {"type": "MultiPolygon","coordinates": [[[[-72.9549,45.0762,83.8174],[-72.8776,45.0764,118.3925],[-72.878,45.151,111.0313],[-72.8953,45.1497,106.7613],[-72.9537,45.1499,76.7774],[-72.9549,45.0762,83.8174]]]]}
,"properties": {"GID_3": "CAN.11.14.18_1","GID_0": "CAN","country": "Canada","GID_1": "CAN.11_1","province": "Québec","NL_NAME_1": "NA","GID_2": "CAN.11.14_1","county": "Brome-Missisquoi","NL_NAME_2": "NA","city": "StanbridgeEast","VARNAME_3": "NA","NL_NAME_3": "NA","TYPE_3": "Municipalité","ENGTYPE_3": "Municipality","CC_3": "NA","HASC_3": "NA","name": "Stanbridge_East.city","area_km2": 48.82305,"hist_schema_id": "Elevation0-9000","hist_area_km2": {"75": 20.90128,"100": 23.67245,"125": 4.24933}}}