{"type":"Feature","properties":{"GID_3":"CAN.4.3.4_1","GID_0":"CAN","country":"Canada","GID_1":"CAN.4_1","province":"NewBrunswick","NL_NAME_1":"NA","GID_2":"CAN.4.3_1","county":"Charlotte","NL_NAME_2":"NA","city":"Dufferin","VARNAME_3":"NA","NL_NAME_3":"NA","TYPE_3":"Parish","ENGTYPE_3":"Parish","CC_3":"NA","HASC_3":"NA","name":"Dufferin.city"},
"geometry":{"type": "MultiPolygon","coordinates": [[[[-67.2576,45.1896,0.0],[-67.2564,45.1872,0.0],[-67.2464,45.182,0.0],[-67.2419,45.1747,0.0],[-67.2328,45.1714,3.9801],[-67.2297,45.1672,0.0],[-67.2253,45.1671,8.5418],[-67.2278,45.165,0.0],[-67.2193,45.167,0.0],[-67.2171,45.1693,6.1434],[-67.2098,45.1699,0.0],[-67.2066,45.1727,2.2152],[-67.1997,45.1717,1.3875],[-67.1935,45.1683,0.0],[-67.175,45.1661,7.1878],[-67.169,45.1675,6.6912],[-67.1666,45.1697,6.9699],[-67.1639,45.1678,1.141],[-67.1593,45.1709,0.0],[-67.161,45.1727,3.522],[-67.1603,45.175,11.1123],[-67.1653,45.1781,0.0],[-67.1918,45.1845,6.9198],[-67.1958,45.1877,0.0],[-67.2254,45.1861,51.194],[-67.2422,45.1952,51.056],[-67.2438,45.2009,24.6014],[-67.2546,45.1918,17.7014],[-67.2586,45.1917,7.9213],[-67.2576,45.1896,0.0]]]]}}