{"type":"Feature","properties":{"featurecla":"Reservoir","scalerank":4,"name":"Lac St.-Jean","name_abb":"L. St.-Jean","name_alt":null,"note":null,"delta":null,"dam_name":"Isle Maligne Powerhouse Dam","year":1925,"admin":null,"min_zoom":4.0,"min_label":5.0},
"geometry":{"type": "Polygon","coordinates": [[[-71.939792199895479,48.432432343299894,99.0],[-71.80909452744902,48.472465864589793,113.2736],[-71.803501609033518,48.472760228716936,104.6344],[-71.799969239507945,48.470405315699878,99.0],[-71.795995323791658,48.469227859191363,99.0],[-71.789224948867627,48.472465864589793,117.2911],[-71.7884890385498,48.475115141733994,118.6817],[-71.78951931299477,48.483357337293683,103.2783],[-71.789224948867627,48.486300978565,102.9452],[-71.786428489659883,48.491893896980486,102.0202],[-71.78201302775291,48.50484591857429,99.0],[-71.771857465366864,48.522802130329325,109.7471],[-71.774359560447479,48.533693603033186,108.4581],[-71.789224948867627,48.554593456059536,99.0],[-71.770680008858335,48.558714553839394,99.0],[-71.761407538853689,48.562835651619224,109.9651],[-71.7544899818661,48.5681342059076,112.7573],[-71.748749881387027,48.5766707655944,104.1024],[-71.749485791704856,48.580497499247116,107.3722],[-71.761849085044389,48.588739694806804,128.159],[-71.769649734413377,48.591094607823862,106.2937],[-71.777891929973066,48.589034058933947,99.0],[-71.784956669024226,48.58844533067969,99.0],[-71.789224948867627,48.595510069730835,99.0],[-71.785986943469183,48.599042439256408,99.0],[-71.761849085044389,48.615821194502928,127.0887],[-71.7902552233126,48.645257607216081,133.9336],[-71.8070339785591,48.658798357064143,122.3476],[-71.837353483653658,48.667334916750974,122.6517],[-71.85589842366295,48.680875666599036,105.5264],[-71.863699073031938,48.684996764378866,105.2781],[-71.875179273990085,48.686174220887381,103.5297],[-71.9121219719451,48.684996764378866,106.4001],[-71.964960332765244,48.689412226285839,107.107],[-72.0069072208815,48.704130432642415,107.2248],[-72.039287274865984,48.729740111702881,107.3915],[-72.062836405036521,48.767418719975723,105.0154],[-72.066957502816365,48.778604556806727,104.4717],[-72.074610970121782,48.779193285061012,103.649],[-72.084177804253571,48.772717274264096,100.1049],[-72.093891820448917,48.763591986323036,99.3864],[-72.105372021407049,48.755938519017604,110.9266],[-72.117440950619439,48.752994877746289,116.0912],[-72.17395886302873,48.750934328856374,120.9415],[-72.220026848924832,48.741514676788142,117.8837],[-72.245047799731026,48.739454127898227,116.0822],[-72.296708704042629,48.748285051712173,112.9254],[-72.320405016276737,48.748285051712173,113.2471],[-72.330413396599212,48.736510486626912,99.0],[-72.328647211836412,48.711783899947847,99.0],[-72.32349583961161,48.694710780574212,99.0],[-72.30303753277596,48.657620900555628,99.0],[-72.321288108658123,48.658209628809885,99.0],[-72.351313249625562,48.668218009132374,113.508],[-72.3679448228085,48.670572922149404,112.778],[-72.371624374397641,48.664685639606773,118.7746],[-72.361174447884466,48.651439253885854,113.417],[-72.337183771523229,48.629656308478104,99.0],[-72.317019828814722,48.615526830375785,99.0],[-72.2950897013434,48.604929721799039,99.0],[-72.270363114664349,48.597864982747893,99.0],[-72.241368248141882,48.595510069730835,99.0],[-72.219143756543431,48.581674955755659,99.0],[-72.2141395663822,48.551061086533963,99.0],[-72.213109291937243,48.520447217312267,99.0],[-72.203248093678326,48.506612103337062,99.0],[-72.165275121278341,48.472465864589793,99.0],[-72.118176860937268,48.458336386487474,99.0],[-72.121709230462855,48.464518033157248,99.0],[-72.128332423323315,48.480413696022367,99.0],[-72.1318647928489,48.486300978565,99.0],[-72.10375301870782,48.480413696022367,99.0],[-72.028837348352809,48.437730897588267,99.0],[-72.001461484529571,48.431549250918493,99.0],[-71.9707004332443,48.430077430282836,99.0],[-71.939792199895479,48.432432343299894,99.0]]]}}