{"type": "Feature","bbox": [-73.45841673176777,43.751159629524949,-73.078687007767911,45.087278402575606],"geometry": {"type": "Polygon","coordinates": [[[-73.364956121403466,44.208307118960448,27.0],[-73.360687841560051,44.208601483087563,27.0],[-73.358332928542993,44.209778939596106,27.0],[-73.3500907329833,44.218904227537166,27.0],[-73.31388394534612,44.247163183741804,27.0],[-73.288715812476354,44.262175754225524,27.0],[-73.279443342471708,44.273067226929413,27.0],[-73.293131274383327,44.278071417090644,31.5974],[-73.301079105815887,44.292200895192963,45.4344],[-73.2937200026376,44.324580949177459,27.0],[-73.268846233894976,44.381098861586736,48.5506],[-73.275469426755436,44.399938165723142,27.0],[-73.269729326276362,44.42230983938515,27.0],[-73.256777304682572,44.441443507648728,27.0],[-73.2416175521353,44.449980067335531,27.0],[-73.248535109122884,44.4329069479619,40.7508],[-73.2402929135632,44.424370388275094,27.0],[-73.227635256096534,44.424370388275094,27.0],[-73.221159245299646,44.432318219707639,27.0],[-73.224250068634518,44.47912211592157,27.0],[-73.227929620223662,44.490896681006831,63.5902],[-73.238379546736837,44.498550148312262,60.9068],[-73.25206747864847,44.502082517837835,39.3431],[-73.263842043733732,44.507675436253351,44.8569],[-73.2729673316748,44.536817484839389,39.8095],[-73.283270076124424,44.54358785976342,42.9843],[-73.296810825972472,44.549180778178908,43.82],[-73.3104987578841,44.559777886755654,35.763],[-73.2988713748624,44.563310256281227,27.0],[-73.289746086921312,44.561838435645569,27.0],[-73.280620798980237,44.559483522628511,27.0],[-73.268846233894976,44.559777886755654,27.0],[-73.260604038335288,44.563015892154112,27.0],[-73.246474560232969,44.572141180095173,27.0],[-73.2416175521353,44.573318636603716,27.0],[-73.227929620223662,44.566253897552542,27.0],[-73.213505777994214,44.556539881357196,27.0],[-73.201289666718253,44.556834245484339,27.0],[-73.194372109730651,44.579794647400604,32.1256],[-73.229695804986463,44.589214299468807,27.0],[-73.22940144085932,44.620122532817646,28.3746],[-73.200553756400424,44.689003738566441,98.3906],[-73.1946664738578,44.740517460814488,29.0832],[-73.187013006552363,44.757884944315265,27.0],[-73.173472256704315,44.773486243053242,27.0],[-73.1580181400299,44.788204449409818,27.0],[-73.146537939071763,44.80351138402068,27.0],[-73.145360482563234,44.820584503394315,28.6179],[-73.166554699716713,44.805866297037738,39.8251],[-73.173325074640744,44.798801557986565,45.0037],[-73.182303180518261,44.819701411012915,29.9162],[-73.18348063702679,44.837068894513692,35.4833],[-73.170234251305857,44.887405160253195,33.5622],[-73.16758497416167,44.9080106491524,27.0],[-73.170234251305857,44.927733045670237,27.0],[-73.18348063702679,44.936563969484183,32.153],[-73.2161550551384,44.948632898696587,39.8809],[-73.203791761798868,44.975125670138425,31.8759],[-73.1683208844795,45.001029713326034,27.0],[-73.131672550651615,45.011038093648494,27.0],[-73.138442925575646,44.991315697130688,27.0],[-73.128876091443857,44.9813073168082,27.0],[-73.1123917003245,44.981012952681056,27.0],[-73.098262222222161,44.991021333003545,27.0],[-73.09281648587023,45.002795898088806,27.0],[-73.093405214124488,45.010449365394237,27.0],[-73.096348855395817,45.017808468572525,27.0],[-73.098262222222161,45.028405577149272,27.0],[-73.093405214124488,45.039591413980276,27.0],[-73.084279926183413,45.046656153031421,27.0],[-73.078687007767911,45.054015256209709,30.3196],[-73.095907309205117,45.085217853685691,29.3758],[-73.114746613341538,45.081979848287233,32.314],[-73.13373309954153,45.075798201617459,27.0],[-73.145360482563234,45.087278402575606,34.5774],[-73.158606868284153,45.078153114634517,42.082],[-73.200553756400424,45.032232310801987,39.5678],[-73.225869071333747,44.985134050460914,37.1157],[-73.231756353876378,44.977480583155483,43.2587],[-73.253980845474814,44.965117289815964,34.3646],[-73.269287780085662,44.935092148848526,45.0705],[-73.278413068026751,44.898885361211342,34.5722],[-73.2825341658066,44.867682763735388,27.0],[-73.289893268984883,44.867682763735388,36.137],[-73.297252372163172,44.883578426600479,36.4793],[-73.3104987578841,44.949515991077988,27.0],[-73.308438208994176,44.960701827908991,27.0],[-73.304317111214331,44.971887664739995,31.4779],[-73.305788931849989,44.9804242244268,32.1853],[-73.332723249482541,44.987194599350829,29.9997],[-73.337727439643785,44.995436794910518,27.0],[-73.338316167898043,45.005739539360121,27.0],[-73.337727439643785,45.01486482730121,27.0],[-73.334489434245327,45.025461935877956,27.0],[-73.320065592015879,45.049599794302736,34.4462],[-73.317269132808136,45.059313810498082,37.2853],[-73.321095866460837,45.071088375583372,27.0],[-73.328013423448439,45.079036207015918,37.0347],[-73.33478379837247,45.079919299397318,39.6231],[-73.358921656797264,45.009566273012837,38.6139],[-73.365103303467023,44.998086072054718,33.7857],[-73.359216020924393,44.982779137443856,27.0],[-73.357302654098035,44.97306512124851,27.0],[-73.358332928542993,44.963939833307421,27.0],[-73.3639258469585,44.953637088857818,29.4187],[-73.3699603115647,44.950987811713645,33.7841],[-73.375406047916627,44.950987811713645,33.5898],[-73.378791235378642,44.949515991077988,33.6635],[-73.3824707869678,44.934503420594268,27.0],[-73.384089789667016,44.898002268829941,32.1048],[-73.396011536815848,44.871509497388075,36.3617],[-73.400132634595693,44.852964557378783,46.8172],[-73.400426998722821,44.835008345623748,27.0],[-73.39615871887942,44.82352814466563,27.0],[-73.381882058713529,44.812342307834626,48.4054],[-73.373198316963141,44.802333927512137,35.7578],[-73.373492681090283,44.790264998299733,48.7457],[-73.3862975206205,44.771425694163327,27.0],[-73.392920713480962,44.767598960510611,27.0],[-73.399838270468564,44.768187688764868,27.0],[-73.4066086453926,44.766715868129211,27.0],[-73.412937474125926,44.757884944315265,37.1672],[-73.41661702571507,44.745816015102861,30.819],[-73.413967748570883,44.741989281450145,32.849],[-73.407491737773981,44.73904564017883,34.3414],[-73.395864354752291,44.725799254457911,42.2031],[-73.389977072209646,44.720500700169538,56.239],[-73.3858559744298,44.713435961118392,51.7941],[-73.3862975206205,44.70313321666876,46.3192],[-73.3914488928453,44.696657205871873,47.7918],[-73.398072085705778,44.697540298253273,27.0],[-73.403665004121279,44.702250124287389,27.0],[-73.411465653490268,44.719323243661023,35.1379],[-73.4233874006391,44.721383792550938,27.0],[-73.43545632985149,44.712847232864107,27.0],[-73.440754884139864,44.692536108092042,27.0],[-73.435603511915062,44.665748972523062,27.0],[-73.438694335249949,44.651619494420743,70.7488],[-73.454442816051483,44.641611114098254,48.7214],[-73.448702715572423,44.633074554411422,47.0214],[-73.445464710173965,44.623949266470362,27.0],[-73.444875981919708,44.615118342656416,56.1908],[-73.446936530809623,44.606876147096727,51.1559],[-73.440754884139864,44.606876147096727,39.7811],[-73.44252106890265,44.59362976137578,49.7489],[-73.438105606995677,44.573024272476573,28.5769],[-73.430746503817389,44.553890604213024,28.8056],[-73.423681764766229,44.545354044526192,66.6353],[-73.401751637294922,44.539172397856447,27.0],[-73.39571717268872,44.524454191499842,27.0],[-73.402781911739879,44.508264164507608,146.0155],[-73.420296577304214,44.497078327676604,262.258],[-73.403665004121279,44.473234833378939,27.0],[-73.398660813960035,44.459694083530877,52.4373],[-73.402929093803451,44.446153333682815,113.0013],[-73.409846650791039,44.434378768597554,144.4241],[-73.413084656189483,44.420838018749492,88.3895],[-73.411907199680954,44.407002904774316,27.0],[-73.406019917138323,44.3946396114348,38.4588],[-73.405136824756937,44.411418366681289,27.0],[-73.399543906341435,44.433495676216154,27.0],[-73.390271436336789,44.449685703208416,27.0],[-73.378791235378642,44.449980067335531,27.0],[-73.3768778685523,44.438499866377413,33.4623],[-73.378791235378642,44.384042502858051,45.7862],[-73.376583504425156,44.38051013333245,43.6802],[-73.371873678391054,44.374622850789819,52.5762],[-73.36731103442051,44.366675019357274,66.5691],[-73.359363202987964,44.332234416482862,50.6426],[-73.357302654098035,44.303386732023966,67.3143],[-73.353770284572462,44.28955161804879,70.0374],[-73.347441455839132,44.2777770529635,27.0],[-73.337727439643785,44.264236303115467,85.9114],[-73.406903009519723,44.207424026579048,153.7837],[-73.433395780961575,44.195355097366644,62.6428],[-73.423976128893358,44.161208858619375,77.2741],[-73.45841673176777,44.0602419630132,123.2273],[-73.454442816051483,44.01785352870624,27.0],[-73.4470837128732,44.028156273155844,27.0],[-73.435603511915062,44.035809740461275,27.0],[-73.425006403338315,44.037281561096933,27.0],[-73.420296577304214,44.028450637282987,27.0],[-73.421326851749171,44.01697043632484,39.1074],[-73.426183859846844,43.997248039807033,40.0897],[-73.426036677783287,43.944851225177587,122.6252],[-73.421915580003443,43.926306285168295,104.9031],[-73.412937474125926,43.908055709286145,27.0],[-73.400574180786393,43.892748774675283,54.1985],[-73.394834080307319,43.88244603022568,56.0823],[-73.392479167290276,43.870671465140418,40.2811],[-73.394539716180191,43.858602535928014,31.556],[-73.403959368248408,43.840351960045837,73.0564],[-73.406019917138323,43.828871759087718,210.771],[-73.4014572731678,43.817980286383829,40.3244],[-73.379379963632914,43.800318438755937,40.6587],[-73.371873678391054,43.791193150814848,29.5778],[-73.370254675691825,43.7823622270009,46.3244],[-73.371873678391054,43.751159629524949,65.4516],[-73.3574498361616,43.761462373974553,27.0],[-73.351709735682533,43.777652400966815,27.0],[-73.35347592044532,43.795019884467564,37.7382],[-73.3755532299802,43.827399938452061,29.507],[-73.375406047916627,43.843001237190038,27.0],[-73.369224401246868,43.859485628309415,44.6797],[-73.365103303467023,43.880679845462879,69.2752],[-73.3704018577554,43.900696606107829,38.6511],[-73.394392534116633,43.925717556914037,28.1037],[-73.399838270468564,43.945734317558987,37.9701],[-73.4048424606298,43.9775256432892,27.0],[-73.403370639994137,43.994304398535718,27.0],[-73.392479167290276,44.011083153782209,45.3367],[-73.4052840068205,44.034043555698474,29.9029],[-73.4113184714267,44.05877014237754,49.9692],[-73.406903009519723,44.084674185565149,30.1389],[-73.362601208386408,44.151200478296886,54.1131],[-73.358332928542993,44.161797586873632,64.6185],[-73.358332928542993,44.18917345069687,39.7576],[-73.360393477432922,44.192117091968186,41.2955],[-73.370254675691825,44.199476195146474,27.0],[-73.371873678391054,44.203008564672075,27.0],[-73.369224401246868,44.206540934197648,27.0],[-73.364956121403466,44.208307118960448,27.0]],
[[-73.338021803770914,44.62630417948742,47.8202],[-73.343761904249973,44.6419054782254,42.1293],[-73.3514153715554,44.65544622807343,27.0],[-73.348324548220518,44.667809521412977,27.0],[-73.351562553618962,44.695479749363358,27.0],[-73.344644996631374,44.710492319847077,30.0633],[-73.3514153715554,44.710492319847077,27.0],[-73.339199260279443,44.739634368433087,27.0],[-73.3299267902748,44.748465292247062,27.0],[-73.31388394534612,44.751703297645491,27.0],[-73.298135464544572,44.757001851933865,27.0],[-73.284300350569382,44.766715868129211,44.7009],[-73.272378603420549,44.770248237654783,31.2674],[-73.262075858970945,44.757884944315265,27.0],[-73.261487130716674,44.7452272868486,27.9455],[-73.265166682305818,44.73816254779743,68.8888],[-73.279443342471708,44.726682346839311,30.8098],[-73.283417258187981,44.71902887953388,27.0],[-73.286949627713568,44.697540298253273,27.0],[-73.289893268984883,44.689003738566441,49.5618],[-73.2984298286717,44.680467178879638,51.9496],[-73.307260752485647,44.675462988718408,59.1242],[-73.314472673600378,44.669281342048635,36.1395],[-73.317269132808136,44.658684233471888,28.9584],[-73.311823396456191,44.65632932045483,27.0],[-73.285624989141468,44.663394059506004,44.6224],[-73.276352519136822,44.662216602997461,35.8227],[-73.27075960072132,44.642199842352511,50.6357],[-73.281503891361638,44.624537994724619,65.4021],[-73.298282646608129,44.611585973130815,49.3845],[-73.3104987578841,44.606876147096727,39.3624],[-73.328896515829825,44.613352157893615,27.0],[-73.338021803770914,44.62630417948742,47.8202]]]}
,"properties": {"featurecla": "Lake","scalerank": 3,"name": "Lake Champlain","name_abb": "L. Champlain","name_alt": null,"note": null,"delta": null,"dam_name": null,"year": -99,"admin": null,"min_zoom": 3.0,"min_label": 4.0,"area_km2": 1246.3322,"hist_schema_id": "Elevation0-9000","hist_area_km2": {"25": 1101.0824,"50": 109.4131,"75": 17.5886,"100": 4.9646,"125": 3.4593,"150": 2.7468,"175": 2.5062,"200": 2.0808,"225": 1.397,"250": 0.5163,"275": 0.3644,"300": 0.2126}}}