{"type": "Feature","bbox": [-75.7689,45.4506,-75.5256,45.5751],"geometry": {"type": "MultiPolygon","coordinates": [[[[-75.5256,45.4968,40.0],[-75.5373,45.5751,136.6762],[-75.5436,45.5745,132.8767],[-75.5419,45.5625,122.0448],[-75.5438,45.5622,120.8185],[-75.7231,45.5475,195.5981],[-75.7204,45.5234,108.7482],[-75.764,45.5207,128.7081],[-75.7674,45.5163,118.4256],[-75.763,45.5078,89.7032],[-75.7689,45.507,55.5],[-75.7642,45.5023,55.5],[-75.7621,45.4961,58.0384],[-75.7433,45.479,40.0],[-75.733,45.4731,50.385],[-75.7218,45.46,40.0],[-75.7181,45.4586,40.0],[-75.7067,45.4593,43.0373],[-75.7015,45.4532,58.1863],[-75.6949,45.4506,40.0],[-75.6889,45.4558,40.0],[-75.6776,45.4608,40.0],[-75.6394,45.4659,40.0],[-75.6182,45.4717,40.0],[-75.5756,45.4748,40.0],[-75.5562,45.4845,40.0],[-75.5486,45.4864,40.0],[-75.5256,45.4968,40.0]]]]}
,"properties": {"GID_3": "CAN.11.19.3_1","GID_0": "CAN","country": "Canada","GID_1": "CAN.11_1","province": "Québec","NL_NAME_1": "NA","GID_2": "CAN.11.19_1","county": "Communauté-Urbaine-de-l'Outaouai","NL_NAME_2": "NA","city": "Gatineau","VARNAME_3": "NA","NL_NAME_3": "NA","TYPE_3": "Ville","ENGTYPE_3": "Ville","CC_3": "NA","HASC_3": "NA","name": "Gatineau.city","area_km2": 158.5641,"hist_schema_id": "Elevation0-9000","hist_area_km2": {"25": 0.981,"50": 62.7101,"75": 17.7123,"100": 54.6633,"125": 16.7657,"150": 4.1576,"175": 1.4998,"200": 0.0742}}}