{"type":"Feature","properties":{"featurecla":"River","scalerank":12,"rivernum":20019,"dissolve":"20019River","name":"null208","name_alt":null,"note":"ID is link back to CEC data","name_full":null,"min_zoom":7.0,"strokeweig":0.2,"uident":1834601,"min_label":8.0},
"geometry":{"type": "LineString","coordinates": [[-82.012033657937067,45.737982489056527,264.7459],[-82.0245662100204,45.733913478639863,260.6112],[-82.053578254291239,45.716009832806527,245.625],[-82.096547004291239,45.653998114056527,225.3304],[-82.130686001687067,45.608832098431527,191.4005]]}}