{"type": "Feature","bbox": [-121.0368,51.769,-120.9202,51.7903],"geometry": {"type": "MultiPolygon","coordinates": [[[[-120.9206,51.7702,776.6146],[-120.9202,51.7891,898.418],[-121.0366,51.7903,1022.5567],[-121.0368,51.7697,815.8864],[-120.9206,51.769,776.6146],[-120.9206,51.7702,776.6146]]]]}
,"properties": {"GID_3": "CAN.2.4.28_1","GID_0": "CAN","country": "Canada","GID_1": "CAN.2_1","province": "BritishColumbia","NL_NAME_1": "NA","GID_2": "CAN.2.4_1","county": "Cariboo","NL_NAME_2": "NA","city": "CanimLake1","VARNAME_3": "NA","NL_NAME_3": "NA","TYPE_3": "RéserveIndienne","ENGTYPE_3": "IndianReserve","CC_3": "NA","HASC_3": "NA","name": "Canim_Lake1.city","area_km2": 18.28588,"hist_schema_id": "Elevation0-9000","hist_area_km2": {"775": 5.01145,"800": 3.17468,"825": 1.91525,"850": 1.12812,"875": 1.03625,"900": 0.9706,"925": 0.65581,"950": 0.68204,"975": 0.65581,"1000": 0.77383,"1025": 0.89184,"1050": 0.39346,"1075": 0.41968,"1100": 0.18361,"1125": 0.11804,"1150": 0.11803,"1175": 0.06558,"1200": 0.06557,"1225": 0.02623}}}