{"type":"Feature","properties":{"GID_3":"CAN.11.92.2_1","GID_0":"CAN","country":"Canada","GID_1":"CAN.11_1","province":"Québec","NL_NAME_1":"NA","GID_2":"CAN.11.92_1","county":"Rouville","NL_NAME_2":"NA","city":"Marieville","VARNAME_3":"NA","NL_NAME_3":"NA","TYPE_3":"Ville","ENGTYPE_3":"Ville","CC_3":"NA","HASC_3":"NA","name":"Marieville.city"},
"geometry":{"type": "MultiPolygon","coordinates": [[[[-73.168,45.4902,24.9988],[-73.1715,45.486,27.9326],[-73.1685,45.4804,28.8859],[-73.1706,45.4745,30.2482],[-73.1743,45.4734,34.8153],[-73.1757,45.4714,30.3328],[-73.1874,45.4753,44.0876],[-73.188,45.4736,48.7612],[-73.1854,45.4731,39.1026],[-73.1887,45.4708,39.1594],[-73.1975,45.4721,49.058],[-73.1957,45.4706,36.6726],[-73.1967,45.4644,37.6951],[-73.2004,45.4617,38.7085],[-73.198,45.4605,38.5489],[-73.2041,45.4544,40.5825],[-73.1988,45.4517,40.5486],[-73.2023,45.4443,45.6691],[-73.206,45.444,35.3903],[-73.2014,45.4374,44.6615],[-73.2024,45.4343,46.0279],[-73.2051,45.4333,40.1388],[-73.2022,45.4329,37.7729],[-73.2034,45.4221,40.4953],[-73.2107,45.4213,38.4084],[-73.1967,45.4115,34.9855],[-73.1924,45.4045,35.4219],[-73.1984,45.4033,35.4567],[-73.1994,45.3777,53.7594],[-73.1795,45.3913,39.7304],[-73.1597,45.3777,40.3798],[-73.155,45.3789,41.0112],[-73.1625,45.3927,39.1343],[-73.1226,45.4032,57.825],[-73.1271,45.4131,38.4458],[-73.0998,45.4209,41.9576],[-73.097,45.4406,41.8125],[-73.168,45.4902,24.9988]]]]}}