{"type": "Feature","bbox": [-62.0214,47.2118,-61.6822,47.3573],"geometry": {"type": "MultiPolygon","coordinates": [[[[-61.6847,47.2839,0.0],[-61.6858,47.2873,0.0],[-61.6889,47.2886,43.7982],[-61.6987,47.2844,0.0],[-61.705,47.285,12.4491],[-61.7136,47.2819,1.8204],[-61.7175,47.2775,0.2166],[-61.7134,47.2737,0.5329],[-61.7133,47.2692,0.0],[-61.7061,47.2672,9.096],[-61.7,47.2689,16.6785],[-61.6933,47.2673,8.5226],[-61.6822,47.2769,0.0],[-61.6847,47.2839,0.0]]],
[[[-61.9476,47.3537,1.2459],[-61.95,47.3515,1.3274],[-61.9497,47.3431,1.2851],[-61.9513,47.3387,-1.0315],[-61.961,47.3173,1.7114],[-61.9769,47.2884,0.6972],[-61.9969,47.2646,0.0],[-62.0079,47.2546,1.446],[-62.0133,47.2517,0.0],[-62.0143,47.2471,1.0663],[-62.0209,47.238,8.7787],[-62.0214,47.2358,22.7578],[-62.0189,47.2328,13.8592],[-62.0206,47.2281,0.0],[-62.0181,47.2278,5.7745],[-62.0176,47.2244,0.0],[-62.0086,47.2189,14.4338],[-62.0065,47.2156,4.7293],[-62.004,47.2153,0.0],[-61.9961,47.219,12.5578],[-61.9883,47.2193,12.1835],[-61.9858,47.2173,1.5912],[-61.9819,47.2176,4.3485],[-61.973,47.214,15.6625],[-61.9708,47.2118,0.0],[-61.9638,47.2118,0.0],[-61.9488,47.2129,0.0],[-61.9449,47.2165,0.0],[-61.928,47.2195,0.0],[-61.923,47.2221,1.0796],[-61.9035,47.2229,0.0],[-61.8833,47.2212,0.0],[-61.8841,47.2229,0.0],[-61.8913,47.2243,0.0],[-61.8936,47.2268,0.0131],[-61.9115,47.2299,1.9184],[-61.9063,47.2318,0.3437],[-61.9012,47.2289,0.798],[-61.895,47.2399,1.8168],[-61.8922,47.239,5.1531],[-61.8887,47.2345,1.1268],[-61.8853,47.2346,2.8008],[-61.8605,47.2248,6.0466],[-61.8613,47.2221,0.2154],[-61.8652,47.2204,0.0997],[-61.8744,47.2215,-0.2832],[-61.8831,47.225,0.0],[-61.8839,47.2236,0.0],[-61.8812,47.2209,0.0],[-61.8516,47.2165,0.0],[-61.838,47.2176,0.0],[-61.8236,47.2232,0.0],[-61.8088,47.2326,0.0],[-61.7935,47.2548,0.7618],[-61.7757,47.2697,0.0],[-61.7785,47.2707,0.0],[-61.7877,47.2671,0.0],[-61.7897,47.2621,1.3674],[-61.8022,47.2507,0.0],[-61.8041,47.2446,0.3743],[-61.8252,47.2282,0.2779],[-61.8317,47.2287,0.2138],[-61.8359,47.226,0.3196],[-61.8368,47.2292,2.2867],[-61.8333,47.2316,0.0],[-61.8403,47.234,0.1616],[-61.8324,47.2382,3.4696],[-61.8272,47.2368,0.0],[-61.8294,47.234,0.2979],[-61.8269,47.2352,0.0],[-61.8261,47.2369,0.0],[-61.8296,47.2393,0.0],[-61.8366,47.2371,0.0],[-61.8624,47.2407,0.0],[-61.8663,47.241,0.0],[-61.8691,47.239,2.4933],[-61.8891,47.2457,0.0],[-61.9016,47.2537,0.3278],[-61.9169,47.2715,0.5917],[-61.9299,47.2959,0.0],[-61.9347,47.3119,0.0],[-61.9345,47.3265,0.0],[-61.9281,47.3406,0.0205],[-61.9191,47.3442,1.1711],[-61.9099,47.3505,-0.0305],[-61.8997,47.3519,0.0],[-61.9076,47.3573,8.5489],[-61.9163,47.3554,9.2894],[-61.929,47.35,3.2341],[-61.9355,47.3494,-0.7139],[-61.9412,47.3545,3.8979],[-61.9476,47.3537,1.2459]]]]}
,"properties": {"GID_3": "CAN.11.65.7_1","GID_0": "CAN","country": "Canada","GID_1": "CAN.11_1","province": "Québec","NL_NAME_1": "NA","GID_2": "CAN.11.65_1","county": "LesÎles-de-la-Madeleine","NL_NAME_2": "NA","city": "L'Île-du-Havre-Aubert","VARNAME_3": "NA","NL_NAME_3": "NA","TYPE_3": "Municipalité","ENGTYPE_3": "Municipality","CC_3": "NA","HASC_3": "NA","name": "L'Île-du-Havre-Aubert.city","area_km2": 91.57218,"hist_schema_id": "Elevation0-9000","hist_area_km2": {"0": 58.44927,"25": 17.05764,"50": 7.58644,"75": 4.60658,"100": 2.61993,"125": 1.1084,"150": 0.14391}}}