{"type":"Feature","properties":{"featurecla":"River","scalerank":10,"rivernum":20358,"dissolve":"20358River","name":"Manouane1","name_alt":null,"note":"ID is link back to CEC data","name_full":"Rivire Manouane","min_zoom":6.0,"strokeweig":0.2,"uident":1696101,"min_label":7.0},
"geometry":{"type": "LineString","coordinates": [[-70.510568814187067,50.6102155619732,488.8868],[-70.490305142312067,50.583685614056527,504.3648],[-70.451405402728739,50.549139715619027,507.9205],[-70.423654751687067,50.514105535931527,478.2164],[-70.454416470437067,50.4554304057232,488.8774],[-70.563059048562067,50.388128973431527,478.9367],[-70.600209113666239,50.355983791139863,599.4864],[-70.662709113666239,50.3052839213482,465.7771],[-70.6810603506454,50.2403425150982,485.1859],[-70.694081183978739,50.212184963014863,512.5485],[-70.667225715228739,50.175726629681527,460.1338],[-70.644357876687067,50.1617292338482,471.7643],[-70.662058071999567,50.109890041139863,483.2057],[-70.698801236062067,50.085964259889863,485.0944],[-70.7264705068954,50.0621198588482,401.0175],[-70.721994595437067,50.011989650514863,440.5234],[-70.6981501943954,49.973944403119027,398.5258],[-70.667836066791239,49.950506903119027,433.5077],[-70.650257941791239,49.947211004681527,470.1023],[-70.626535611062067,49.939154364056527,422.0706],[-70.612416144916239,49.922308660931527,413.4068],[-70.635243293353739,49.914333400514863,446.4476],[-70.649403449603739,49.901190496869027,400.8198],[-70.6598201162704,49.8961042338482,447.2283],[-70.670643683978739,49.896511134889863,451.1712],[-70.699574348041239,49.910711981244027,443.9582],[-70.7523494131454,49.928981838014863,512.295],[-70.801584439187067,49.967596746869027,380.9107],[-70.8385310537704,49.988348699994027,353.3517],[-70.872873501687067,49.980292059369027,253.5883],[-70.892648892312067,49.963893947389863,266.8793],[-70.929432746478739,49.933172918744027,611.0205],[-70.949818488666239,49.880438543744027,463.2697],[-70.955148892312067,49.822292384889863,366.9467],[-70.953684048562067,49.7872175150982,265.6945],[-70.971302863666239,49.7635358744732,253.6721],[-70.9969783193954,49.710475978639863,396.7225],[-71.026234504291239,49.651678778119027,342.9248],[-71.047352668353739,49.622259832806527,290.5652],[-71.114125129291239,49.582586981244027,378.5997],[-71.149728970437067,49.555121160931527,354.1754],[-71.173776821999567,49.5164655619732,221.888],[-71.202137824603739,49.486151434369027,386.1009]]}}