{"type": "Feature","bbox": [-66.877,54.8434,-66.7258,54.9523],"geometry": {"type": "MultiPolygon","coordinates": [[[[-66.7285,54.848,480.1526],[-66.7258,54.8819,484.8663],[-66.8607,54.9523,485.397],[-66.877,54.9467,478.3327],[-66.8751,54.9197,474.5],[-66.8699,54.9197,475.7341],[-66.8596,54.914,483.9697],[-66.8615,54.9104,483.9255],[-66.7451,54.847,490.6939],[-66.7436,54.8437,490.072],[-66.7282,54.8434,478.4939],[-66.7285,54.848,480.1526]]]]}
,"properties": {"GID_3": "CAN.11.94.4_1","GID_0": "CAN","country": "Canada","GID_1": "CAN.11_1","province": "Québec","NL_NAME_1": "NA","GID_2": "CAN.11.94_1","county": "Sept-Rivières--Caniapiscau","NL_NAME_2": "NA","city": "Kawawachikamach","VARNAME_3": "NA","NL_NAME_3": "NA","TYPE_3": "TerresRéservées","ENGTYPE_3": "LandReserved","CC_3": "NA","HASC_3": "NA","name": "Kawawachikamach.city","area_km2": 44.87826,"hist_schema_id": "Elevation0-9000","hist_area_km2": {"475": 37.19646,"500": 7.27924,"525": 0.40256}}}