{"type": "Feature","bbox": [-117.7837,59.0324,-117.708,59.0816],"geometry": {"type": "MultiPolygon","coordinates": [[[[-117.73,59.0816,303.6336],[-117.7829,59.0814,323.3743],[-117.7837,59.0536,331.7109],[-117.756,59.0529,330.1841],[-117.755,59.0324,332.2687],[-117.7238,59.0324,328.8842],[-117.7236,59.0356,301.9684],[-117.7172,59.0387,299.0818],[-117.708,59.0399,332.3627],[-117.7093,59.0524,332.1239],[-117.733,59.0524,307.1702],[-117.7352,59.0555,306.1821],[-117.7365,59.0692,297.7958],[-117.7341,59.076,303.3876],[-117.73,59.0816,303.6336]]]]}
,"properties": {"GID_3": "CAN.1.8.40_1","GID_0": "CAN","country": "Canada","GID_1": "CAN.1_1","province": "Alberta","NL_NAME_1": "NA","GID_2": "CAN.1.8_1","county": "DivisionNo.17","NL_NAME_2": "NA","city": "UpperHayRiver212","VARNAME_3": "NA","NL_NAME_3": "NA","TYPE_3": "RéserveIndienne","ENGTYPE_3": "IndianReserve","CC_3": "NA","HASC_3": "NA","name": "Upper_Hay_River212.city","area_km2": 14.17207,"hist_schema_id": "Elevation0-9000","hist_area_km2": {"300": 2.33339,"325": 10.74842,"350": 1.09026}}}