{"type": "Feature","bbox": [-100.25511913488147,59.580296201903337,-98.692339983939434,60.875498361282695],"geometry": {"type": "Polygon","coordinates": [[[-99.971793662517229,59.843457731559056,277.0],[-99.949863535045921,59.847873193466029,277.0],[-99.934409418371516,59.8437520956862,277.0],[-99.887311158030442,59.823735335041249,277.0],[-99.857580381190147,59.805484759159071,284.4021],[-99.8366805281638,59.800480568997841,285.5293],[-99.792084362903353,59.799597476616441,301.2863],[-99.781781618453735,59.801363661379241,283.6983],[-99.770595781622745,59.805190395031957,278.9233],[-99.75926276272817,59.807545308048986,280.5293],[-99.748076925897166,59.805779123286214,277.8893],[-99.739393184146778,59.799008748362183,277.8893],[-99.73836290970182,59.79194400931101,295.5076],[-99.738951637956077,59.785467998514122,277.0],[-99.734388993985547,59.778991987717234,295.8004],[-99.679048538084785,59.766628694377687,284.0436],[-99.541727672777867,59.762801960724971,287.8606],[-99.507875798157727,59.7313049991219,285.5373],[-99.510083529111213,59.707461504824238,277.0],[-99.525832009912762,59.698041852756006,277.0],[-99.5489395938926,59.691860206086261,285.6751],[-99.573077452317392,59.679791276873857,280.8376],[-99.583527378830567,59.666839255280053,277.0],[-99.582202740258467,59.656830874957592,277.0],[-99.575285183270879,59.64741122288936,277.0],[-99.569397900728248,59.6356366578041,293.4083],[-99.567337351838319,59.634459201295584,287.8051],[-99.562774707867774,59.630338103515726,290.043],[-99.558212063897244,59.625333913354496,278.2991],[-99.556298697070886,59.62150717970178,277.5091],[-99.55953670246933,59.61650298954055,277.9632],[-99.572194359935992,59.612087527633577,288.3206],[-99.576757003906536,59.607672065726604,277.0],[-99.588678751055369,59.590304582225826,277.0],[-99.58705974835614,59.583239843174653,277.0],[-99.5699866289825,59.580296201903337,284.4793],[-99.542022036905,59.583239843174653,286.6608],[-99.527156648484848,59.586477848573111,292.1096],[-99.4765260186182,59.606200245090946,289.4242],[-99.466959184486427,59.614442440650635,294.0569],[-99.4662232741686,59.620329723193265,292.5512],[-99.468725369249213,59.627394462244411,300.9905],[-99.473729559410444,59.6356366578041,292.8887],[-99.469019733376342,59.640640847965329,289.3456],[-99.457245168291081,59.650060500033561,293.4761],[-99.4532712525748,59.655359054321934,294.9385],[-99.435462222883331,59.691565841959118,302.2271],[-99.432812945739144,59.700396765773064,312.9356],[-99.433990402247673,59.71011078196841,295.8061],[-99.439141774472475,59.729833178486246,278.3496],[-99.440172048917432,59.741607743571507,308.9652],[-99.433401673993416,59.757503406436626,297.9528],[-99.416917282874039,59.776342710573033,314.0717],[-99.396606158101946,59.79371019407381,288.8838],[-99.378208400156225,59.805779123286214,283.7393],[-99.400432891754662,59.81372695471876,277.0],[-99.428986212086443,59.815787503608675,277.0],[-99.456950804163938,59.811960769955959,277.0],[-99.4774091109996,59.802541117887756,277.0],[-99.491538589101921,59.801658025506356,284.1717],[-99.530394653883292,59.825501519804021,278.1979],[-99.549528322146855,59.83374371536371,279.4842],[-99.542022036905,59.841102818542,290.2726],[-99.560566976914288,59.847578829338914,299.8676],[-99.584557653275525,59.839925362033483,277.0],[-99.602955411221259,59.825795883931164,277.0],[-99.604721595984046,59.8131382264645,277.0],[-99.622972171866209,59.804012938523414,277.0],[-99.642988932511159,59.805190395031957,277.0],[-99.654910679659992,59.81461004710016,291.8156],[-99.648729032990232,59.83050570996528,292.5585],[-99.627534815836754,59.85640975315286,291.1331],[-99.614435612179392,59.868184318238121,289.5644],[-99.597215310742186,59.874660329035009,278.3298],[-99.597215310742186,59.8820194322133,282.91],[-99.6113447888445,59.891144720154387,287.7205],[-99.624591174565424,59.902624921112533,277.0],[-99.611639152971634,59.924113502393141,319.5797],[-99.618851074086365,59.935004975097,310.8127],[-99.637690378222786,59.935004975097,298.7476],[-99.659326141566964,59.922936045884626,277.0],[-99.6652134241096,59.949134453199321,316.9801],[-99.659031777439836,59.965913208445841,293.1218],[-99.624591174565424,60.00506363735434,303.243],[-99.631361549489455,60.02184239260086,286.4095],[-99.619734166467751,60.03185077292332,307.1283],[-99.583674560894124,60.046568979279925,295.2336],[-99.604427231856917,60.060698457382244,277.0],[-99.613699701861563,60.071001201831848,292.6089],[-99.617673617577836,60.084247587552767,300.9583],[-99.612522245353034,60.098082701527943,281.5827],[-99.599570223759244,60.105147440579117,296.1716],[-99.569397900728248,60.114861456774463,288.8744],[-99.576757003906536,60.121631831698494,283.2169],[-99.561744433422817,60.128402206622525,282.0328],[-99.544229767858482,60.13046275551244,279.1682],[-99.507875798157727,60.128990934876782,277.0],[-99.5122912600647,60.136938766309328,295.3047],[-99.518620088798031,60.1431204129791,277.0],[-99.52656792023059,60.147535874886074,277.0],[-99.535840390235236,60.149596423775989,277.0],[-99.530541835946863,60.154600613937248,277.0],[-99.527303830548419,60.159899168225593,285.6104],[-99.525096099594933,60.165197722513966,277.0],[-99.5221524583236,60.170201912675225,277.0],[-99.561744433422817,60.167846999658167,277.0],[-99.5992758596321,60.156661162827163,287.5149],[-99.637543196159228,60.15047951615739,277.0],[-99.679195720148357,60.162548445369794,277.0],[-99.692736469996419,60.17314555394654,279.2764],[-99.696416021585563,60.183153934269,286.7896],[-99.678754173957657,60.237611297788362,299.3868],[-99.670953524588668,60.247619678110851,304.6908],[-99.65564658997782,60.251446411763567,330.8588],[-99.62223626154838,60.248797134619366,287.9262],[-99.606782144873961,60.243792944458136,277.0],[-99.5941244874073,60.235256384771304,298.6398],[-99.577051368033665,60.226131096830244,301.8365],[-99.5364291184895,60.222009999050385,277.0],[-99.518472906734459,60.21406216761784,277.0],[-99.490802678784092,60.209941069837981,335.2717],[-99.449886065112779,60.209057977456581,301.1253],[-99.423687657798069,60.199638325388378,282.2029],[-99.440172048917432,60.170201912675225,288.4237],[-99.432812945739144,60.162548445369794,299.8817],[-99.440172048917432,60.155778070445763,303.3882],[-99.413090549221323,60.1431204129791,323.3241],[-99.343031886963985,60.144592233614759,313.6024],[-99.309327194407416,60.128990934876782,277.0],[-99.318452482348491,60.116922005664378,283.3759],[-99.323015126319035,60.111917815503148,287.6373],[-99.330374229497323,60.107502353596175,287.4334],[-99.31256519980586,60.096316516765171,279.4618],[-99.294461805987268,60.096316516765171,293.7475],[-99.2753281377237,60.100143250417887,293.2281],[-99.254575466760926,60.1013207069264,277.0],[-99.259138110731456,60.091312326603941,310.0644],[-99.261493023748514,60.087485592951225,300.1949],[-99.183339347995059,60.084836315807024,302.8841],[-99.158465579252436,60.087485592951225,285.216],[-99.130353805111355,60.095433424383771,277.0],[-99.117990511771822,60.10544180470626,296.2621],[-99.122405973678809,60.116922005664378,298.5949],[-99.204092018957837,60.159016075844221,277.0],[-99.220429228013643,60.170201912675225,281.8355],[-99.233381249607447,60.183153934269,277.0],[-99.245155814692708,60.198460868879863,277.0],[-99.2581078362865,60.211118526346525,277.0],[-99.275180955660133,60.21730017301627,277.0],[-99.2692936731175,60.232607107627132,277.0],[-99.272384496452389,60.244381672712393,301.8329],[-99.278566143122148,60.2555675095434,282.5261],[-99.281951330584164,60.269108259391459,277.0],[-99.277683050740762,60.280294096222462,280.0611],[-99.267674670418288,60.293246117816238,277.0],[-99.2478050918369,60.313557242588331,281.291],[-99.266055667719058,60.334162731487567,288.6507],[-99.275180955660133,60.341227470538712,284.8174],[-99.291812528843082,60.350058394352658,277.0],[-99.303587093928343,60.350058394352658,277.0],[-99.330374229497323,60.341227470538712,277.0],[-99.38277104412677,60.335340187996081,277.0],[-99.397930796674046,60.327097992436393,283.3203],[-99.403818079216677,60.325037443546478,277.0],[-99.408380723187221,60.325920535927878,277.0],[-99.411177182394965,60.325037443546478,278.8029],[-99.412207456839937,60.317089612113904,277.0],[-99.409999725886436,60.310907965444159,287.5323],[-99.405142717788777,60.308258688299958,277.0],[-99.4002857096911,60.306492503537186,277.0],[-99.397930796674046,60.303254498138728,289.3684],[-99.414268005729852,60.285003922256578,277.0],[-99.451210703684879,60.288830655909265,277.0],[-99.490655496720521,60.299722128613155,277.0],[-99.514940537208886,60.303254498138728,277.0],[-99.530983382137563,60.300016492740269,277.0],[-99.540255852142209,60.304137590520128,277.0],[-99.538489667379423,60.3103192371899,277.0],[-99.521563730069346,60.313557242588331,282.8823],[-99.4877118554492,60.312968514334074,278.189],[-99.472257738774786,60.316500883859646,288.9973],[-99.459452899244567,60.327097992436393,297.8813],[-99.4830020294151,60.353296399751116,277.0],[-99.457686714481767,60.390091915642557,275.8186],[-99.391160421750016,60.450730925831692,292.7215],[-99.407350448742264,60.450436561704578,277.0],[-99.436934043518988,60.444254915034804,277.0],[-99.4532712525748,60.443666186780547,277.0],[-99.44252696193449,60.458090029009981,292.4305],[-99.404406807470949,60.477223697273558,277.6848],[-99.388069598415129,60.488703898231677,284.0],[-99.3723211176136,60.503716468715396,316.3068],[-99.3533346314136,60.5149023055464,307.0725],[-99.331993232196552,60.51902340332623,290.7114],[-99.309327194407416,60.511958664275085,277.0],[-99.324045400763993,60.495474273155708,277.0],[-99.3305214115609,60.486054621087504,299.7232],[-99.330374229497323,60.47810678965493,316.824],[-99.319188392666319,60.4739856918751,293.6296],[-99.302409637419814,60.477223697273558,289.3532],[-99.2632592085113,60.489586990613077,279.157],[-99.242506537548522,60.507837566495226,298.2837],[-99.230437608336132,60.511958664275085,311.1132],[-99.2176327688059,60.510486843639427,306.5878],[-99.206741296102024,60.506365745859569,286.8537],[-99.201589923877222,60.500184099189823,282.7604],[-99.206152567847766,60.492236267757249,280.8934],[-99.1982047364152,60.480461702671988,280.0],[-99.186430171329945,60.472513871239443,298.02],[-99.172447875291184,60.471042050603785,301.0324],[-99.158465579252436,60.47810678965493,280.0],[-99.1655303183036,60.488703898231677,280.0],[-99.160231764015222,60.497240457918508,280.0],[-99.153461389091191,60.505777017605311,281.0547],[-99.155227573853978,60.515491033800657,280.0],[-99.177599247515985,60.546104903022353,279.536],[-99.185841443075674,60.553169642073527,277.0],[-99.198057554351635,60.5575851039805,277.0],[-99.2163081302338,60.561411837633216,277.0],[-99.2330868854803,60.559940016997558,281.0773],[-99.240298806595035,60.549931636675069,289.6824],[-99.2482466380276,60.53491906619135,277.0],[-99.266791578036887,60.528737419521576,277.0],[-99.287691431063237,60.53079796841152,277.0],[-99.302998365674085,60.539334528098323,277.0],[-99.293725895669439,60.55169782143787,277.0],[-99.288868887571766,60.565532935413046,277.0],[-99.282540058838435,60.57848495700685,286.7895],[-99.268263398672545,60.587904609075053,278.8233],[-99.282098512647735,60.593497527490541,277.0],[-99.297846993449284,60.594969348126227,277.0],[-99.330374229497323,60.594086255744827,277.0],[-99.327136224098879,60.604977728448688,277.0],[-99.321690487746949,60.612925559881234,302.068],[-99.315361659013618,60.62028466305955,310.2526],[-99.309327194407416,60.628821222746353,310.9323],[-99.338322060929883,60.644716885611473,277.0],[-99.342295976646156,60.654725265933934,282.4236],[-99.32640031378105,60.66031818434945,305.3649],[-99.265172575337658,60.668266015781995,285.966],[-99.213217306898926,60.68622222753703,305.7442],[-99.18260343767723,60.690048961189746,293.1801],[-99.164352861795066,60.699174249130834,308.6013],[-99.151842386391962,60.7194853739029,283.9281],[-99.141981188133059,60.742445775819192,280.7],[-99.131089715429184,60.759224531065684,277.0],[-99.1190207862168,60.766877998371115,277.0],[-99.106215946686561,60.770999096150945,288.0476],[-99.0767795339734,60.772765280913745,289.539],[-99.01672925203853,60.760990715828484,277.0],[-99.004513140762569,60.755692161540111,289.5711],[-98.993180121868,60.74892178661608,284.1071],[-98.974193635668,60.742445775819192,286.3948],[-98.954176875023052,60.738324678039334,288.4219],[-98.9393114866029,60.738619042166476,294.015],[-98.925182008500585,60.746861237726165,285.5775],[-98.9229742775471,60.755692161540111,291.0319],[-98.923857369928484,60.764228721226914,281.4037],[-98.918853179767254,60.772765280913745,281.4326],[-98.893685046897488,60.781890568854834,283.6366],[-98.795661792562655,60.779535655837776,267.2462],[-98.766666926040173,60.782479297109091,282.3777],[-98.7454727088867,60.791310220923037,296.3733],[-98.72884113570376,60.806322791406757,302.5908],[-98.705586369660352,60.836347932374196,292.0665],[-98.698815994736336,60.842235214916826,300.1072],[-98.69410616870222,60.849888682222229,297.3883],[-98.692339983939434,60.864901252705948,308.1759],[-98.698227266482064,60.871965991757122,270.4701],[-98.712209562520826,60.875498361282695,270.4837],[-98.7282524074495,60.875203997155552,266.8339],[-98.814942642889775,60.842235214916826,279.3659],[-98.8295136671828,60.827517008560221,267.9319],[-98.818475012415348,60.828400100941622,271.2105],[-98.807877903838616,60.827811372687364,266.9002],[-98.7980167055797,60.825456459670306,266.7543],[-98.789038599702181,60.820452269509076,267.1411],[-98.8402579578231,60.802496057754041,276.1574],[-98.868516914027737,60.798374959974211,276.7998],[-98.897658962613775,60.800141144736983,277.7693],[-98.9444628588277,60.8169198999835,279.1623],[-98.960505703756382,60.820452269509076,278.5427],[-99.081342177943938,60.821924090144734,277.0],[-99.2478050918369,60.792782041558695,298.0937],[-99.2478050918369,60.786306030761807,277.0],[-99.240740352785735,60.785422938380407,277.0],[-99.2274939670648,60.781007476473434,277.0],[-99.220429228013643,60.779535655837776,277.0],[-99.2404459886586,60.759813259319941,277.0],[-99.314478566632218,60.7639343570998,277.0],[-99.3365558761671,60.744800688836222,314.0322],[-99.307708191708187,60.736264129149419,295.5685],[-99.2994659961485,60.725078292318415,277.0],[-99.3106518329795,60.715364276123069,277.0],[-99.3403826098198,60.71124317834321,277.0],[-99.351862810777945,60.705944624054865,277.0],[-99.394545609212031,60.66620546689208,277.0],[-99.398666706991875,60.651192896408361,281.588],[-99.393662516830631,60.633825412907584,281.0608],[-99.391749150004273,60.618224114169607,277.0],[-99.4054370819159,60.608215733847146,283.4792],[-99.425601024624427,60.610276282737061,277.0],[-99.44208541574379,60.617341021788206,277.0],[-99.455626165591852,60.616457929406835,277.0],[-99.466959184486427,60.594086255744827,285.8947],[-99.455626165591852,60.587904609075053,277.0],[-99.414415187793423,60.574658223354135,277.0],[-99.4054370819159,60.570831489701419,277.0],[-99.4123546389035,60.5575851039805,277.0],[-99.428986212086443,60.549342908420812,277.0],[-99.44915015479495,60.545810538895211,277.0],[-99.466959184486427,60.546693631276611,283.5589],[-99.475790108300373,60.551109093183584,277.0],[-99.483590757669361,60.558173832234758,295.8521],[-99.491097042911221,60.567299120175846,281.4673],[-99.493746320055408,60.569948397320019,283.0118],[-99.518472906734459,60.584077875422338,277.0],[-99.53363265928175,60.588493337329311,277.0],[-99.548350865638326,60.57760186462545,277.0],[-99.569397900728248,60.546693631276611,291.7294],[-99.550264232464684,60.53992325635258,299.9298],[-99.502724425932925,60.533152881428549,298.7142],[-99.4812358446523,60.525793778250261,282.4102],[-99.492863227674007,60.510486843639427,277.0],[-99.542022036905,60.47810678965493,277.0],[-99.56615989532979,60.502244648079738,290.0665],[-99.576168275652265,60.506954474113854,277.0],[-99.6053103242383,60.506954474113854,292.2129],[-99.617673617577836,60.509015023003769,282.1868],[-99.626651723455353,60.515491033800657,277.0],[-99.630036910917369,60.522261408724688,290.8855],[-99.632391823934427,60.528443055394462,277.0],[-99.638279106477057,60.533152881428549,277.0],[-99.649906489498747,60.535507794445607,277.0],[-99.673602801732855,60.535213430318493,277.0],[-99.686702005390217,60.539334528098323,277.0],[-99.692736469996419,60.545810538895211,277.0],[-99.703922306827408,60.563472386523131,303.6589],[-99.70995677143361,60.567299120175846,283.029],[-99.717315874611913,60.569359669065761,278.77],[-99.738215727638249,60.579662413515365,277.0],[-99.762206403999485,60.596735532889,277.0],[-99.787374536869237,60.607627005592889,277.0],[-99.810923667039773,60.609098826228546,305.7154],[-99.8232869603793,60.594086255744827,297.5648],[-99.788257629250637,60.586432788439396,291.2514],[-99.76721059416073,60.571420217955676,288.766],[-99.753669844312668,60.550520364929326,277.0],[-99.720112333819657,60.47810678965493,294.7233],[-99.703186396509579,60.469570229968127,289.86],[-99.663741603473937,60.462211126789839,313.0827],[-99.645638209655345,60.450730925831692,277.0],[-99.6535860410879,60.440428181382089,277.0],[-99.678459809830528,60.420705784864253,277.0],[-99.686702005390217,60.40951994803325,277.0],[-99.686407641263088,60.394213013422416,300.7386],[-99.659031777439836,60.385087725481327,277.0],[-99.6518198563251,60.371841339760408,277.0],[-99.658295867122,60.353296399751116,278.5505],[-99.672425345224326,60.339755649903054,277.0],[-99.686407641263088,60.335340187996081,277.0],[-99.692883652059976,60.34446547593717,279.4352],[-99.697151931903392,60.358889318166604,287.46],[-99.707160312225867,60.360361138802261,295.8005],[-99.71878769524757,60.353002035623973,277.0],[-99.727618619061516,60.341227470538712,277.0],[-99.711281410005711,60.319738889258105,277.0],[-99.7130475947685,60.30354886226587,277.0],[-99.722172882709572,60.286475742892236,277.0],[-99.727618619061516,60.262337884467428,277.0],[-99.740276276528178,60.243204216203878,277.0],[-99.7664746838429,60.232018379372875,280.6658],[-99.788699175441337,60.219655086033328,299.1318],[-99.788993539568466,60.196694684117062,294.925],[-99.820048954980862,60.17314555394654,278.5],[-99.829321424985508,60.164608994259709,278.5],[-99.831823520066123,60.161076624734136,278.5],[-99.830940427684737,60.156955526954278,278.5],[-99.829910153239766,60.145769690123274,278.5],[-99.83535588959171,60.135761309800813,282.2649],[-99.8586106556351,60.123986744715552,278.5],[-99.864056391987049,60.114861456774463,282.9711],[-99.860524022461462,60.1039699840706,294.2467],[-99.851104370393244,60.100437614545,277.0],[-99.839771351498683,60.098671429782229,277.0],[-99.829910153239766,60.094255967875256,277.0],[-99.8181355881545,60.074827935484564,280.7279],[-99.831823520066123,60.068351924687647,277.0],[-99.8530177372196,60.06364209865356,277.0],[-99.864056391987049,60.049806984678355,277.0],[-99.86832467183045,60.040976060864409,284.6859],[-99.877302777707968,60.0474520716613,277.0],[-99.885839337394785,60.058343544365187,279.6246],[-99.888930160729672,60.063347734526417,292.9286],[-99.898349812797889,60.067468832306275,277.0],[-99.908946921374621,60.065997011670589,277.0],[-99.919985576142054,60.0621702780179,277.0],[-99.9542789969529,60.056871723729529,277.0],[-99.979594311886217,60.0474520716613,277.0],[-100.00314344205675,60.034500050067521,291.2793],[-100.02860593905365,60.013305832914028,284.3322],[-100.03743686286759,60.003886180845825,281.3782],[-100.03935022969395,59.995055257031879,277.0],[-100.01697855603194,59.989167974489249,277.4958],[-100.0077060860273,59.983280691946618,277.0],[-100.0021131676118,59.975627224641187,277.0],[-100.00505680888311,59.9673850290815,277.0],[-100.03037212381643,59.933533154461344,277.0],[-100.04744524319007,59.899092551586961,277.0],[-100.06996409891565,59.872305416017952,277.0],[-100.11117507671408,59.861119579186948,280.1726],[-100.1261876471978,59.861119579186948,282.7751],[-100.13236929386755,59.859059030297033,282.0386],[-100.13855094053733,59.8540548401358,283.9438],[-100.12265527767221,59.845518280448971,277.2914],[-100.11161662290478,59.826678976312564,277.0],[-100.10705397893423,59.806073487413329,277.0],[-100.11117507671408,59.792532737565296,289.9399],[-100.09277731876836,59.79371019407381,286.1679],[-100.07805911241176,59.790177824548238,277.0],[-100.07128873748773,59.781346900734292,277.0],[-100.07702883796681,59.764862509614915,280.6474],[-100.06392963430945,59.753971036911025,277.0],[-100.0654014549451,59.738075374045934,277.0],[-100.07673447383968,59.723945895943615,277.0],[-100.09380759321331,59.7174698851467,277.0],[-100.11662081306602,59.712760059112611,290.0787],[-100.12721792164275,59.714820608002526,305.3272],[-100.13163338354973,59.727478265469188,296.259],[-100.13339956831253,59.737486645791648,296.2556],[-100.13810939434663,59.742490835952907,287.4684],[-100.14473258720709,59.74602320547848,289.23],[-100.15209169038538,59.75191048802111,286.8121],[-100.16887044563188,59.768983607394745,285.73],[-100.19904276866288,59.793415829946667,284.9128],[-100.23157000471093,59.805779123286214,284.88],[-100.25511913488147,59.786351090895522,285.1968],[-100.22156162438846,59.776637074700176,289.7872],[-100.20831523866754,59.768983607394745,284.9561],[-100.20051458929854,59.758680862945141,292.5803],[-100.19860122247219,59.741313379444364,287.9389],[-100.20625468977761,59.733954276266076,285.161],[-100.21611588803653,59.7295388143591,285.1839],[-100.22112007819776,59.720707890545157,288.5376],[-100.21184760819311,59.694509483230433,285.0445],[-100.18829847802257,59.677141999729656,325.1977],[-100.15709588054662,59.667133619407196,299.1333],[-100.08379921289084,59.660657608610308,293.3114],[-100.06510709081797,59.655359054321934,290.5],[-100.04965297414356,59.641818304473873,290.5],[-100.04656215080868,59.632104288278526,290.5],[-100.03890868350325,59.5947200441328,296.8882],[-100.01432927888776,59.601784783183973,305.4827],[-99.953101540444379,59.638580299075414,321.3184],[-99.933084779799415,59.655359054321934,291.5],[-99.953395904571508,59.660657608610308,302.3597],[-99.968555657118785,59.663012521627337,291.2406],[-99.979594311886217,59.66831107591571,302.2777],[-99.987100597128077,59.682734918145172,308.6366],[-99.98445131998389,59.70687277656998,303.5518],[-99.98033022220406,59.724534624197872,292.4362],[-99.974001393470715,59.738075374045934,300.2335],[-99.967819746800956,59.742490835952907,284.6865],[-99.949569170918792,59.750438667385453,279.5367],[-99.943240342185462,59.755148493419568,279.0],[-99.941032611231975,59.7619188683436,285.047],[-99.942504431867633,59.769572335649,290.7068],[-99.945153709011819,59.778108895335833,283.6035],[-99.94603680139322,59.786351090895522,304.0835],[-99.943829070439719,59.790766552802495,290.629],[-99.934998146625773,59.79783129185364,299.962],[-99.933084779799415,59.802541117887756,300.2573],[-99.934262236307944,59.805779123286214,296.8494],[-99.939266426469189,59.805779123286214,293.0173],[-99.940591065041275,59.809311492811787,299.2077],[-99.944564980757562,59.81461004710016,294.1152],[-99.9542789969529,59.817848052498618,283.8965],[-99.974295757597858,59.819908601388533,277.0],[-99.992546333480021,59.824324063295506,277.0],[-99.989013963954434,59.834038079490853,277.0],[-99.971793662517229,59.843457731559056,277.0]],
[[-99.823581324506435,59.9665019367001,279.4045],[-99.813278580056831,59.970917398607071,285.1281],[-99.768240868605687,59.96414702368304,277.0],[-99.7591155806646,59.96090901828461,277.0],[-99.750431838914224,59.946779540182291,277.0],[-99.741306550973135,59.943541534783833,277.0],[-99.719965151756085,59.941480985893918,277.0],[-99.715991236039812,59.935004975097,277.0],[-99.727618619061516,59.909395296036564,277.0],[-99.729531985887874,59.878192698560611,277.0],[-99.737626999383991,59.871127959509437,277.0],[-99.761176129554528,59.874660329035009,277.0],[-99.790170996077,59.891733448408644,277.3115],[-99.808715936086287,59.894677089679959,277.0],[-99.816958131645976,59.878487062687725,277.0],[-99.837710802608754,59.874071600780752,278.8719],[-99.881423875487812,59.873777236653609,277.0],[-99.920427122332754,59.881725068086183,277.0],[-99.926903133129656,59.902624921112533,289.9917],[-99.823581324506435,59.9665019367001,279.4045]]]}
,"properties": {"featurecla": "Lake","scalerank": 8,"name": "Nueltin Lake","name_abb": "Nueltin L.","name_alt": null,"note": null,"delta": null,"dam_name": null,"year": -99,"admin": null,"min_zoom": 6.0,"min_label": 7.0,"area_km2": 2377.558,"hist_schema_id": "Elevation0-9000","hist_area_km2": {"275": 2010.292,"300": 345.679,"325": 20.455,"350": 0.868,"375": 0.263}}}