{"type":"Feature","properties":{"featurecla":"River","scalerank":12,"rivernum":20196,"dissolve":"20196River","name":"Wetetnagami","name_alt":null,"note":"ID is link back to CEC data","name_full":"Rivire Wetetnagami","min_zoom":7.0,"strokeweig":0.15,"uident":1746401,"min_label":8.0},
"geometry":{"type": "LineString","coordinates": [[-76.341867642312067,48.882757879681527,408.7275],[-76.3468318350204,48.866278387494027,432.0455],[-76.360829230853739,48.845729884889863,393.3211],[-76.3841853506454,48.776678778119027,468.8674],[-76.385121223041239,48.730495509889863,449.7961],[-76.3924861318954,48.722845770306527,453.3421],[-76.413563605853739,48.713568426556527,452.7449],[-76.452097134499567,48.715155340619027,465.9742]]}}