{"type":"Feature","properties":{"featurecla":"Lake Centerline","scalerank":7,"rivernum":407,"dissolve":"407Lake Centerline","name":"Bell","name_alt":null,"note":null,"min_zoom":6.0,"strokeweig":0.2,"name_en":"Bell","min_label":7.0},
"geometry":{"type": "LineString","coordinates": [[-75.688330078124991,48.47882721561912,394.0447],[-75.681738281249991,48.48676178593162,391.0997],[-75.66650390625,48.49970123905662,391.0914],[-75.64697265625,48.50849030155662,387.0],[-75.6337890625,48.51325104374412,388.9462]]}}