{"type":"Feature","properties":{"featurecla":"River","scalerank":12,"rivernum":20156,"dissolve":"20156River","name":"Harricana","name_alt":null,"note":"ID is link back to CEC data","name_full":"Rivire Harricana","min_zoom":7.0,"strokeweig":0.2,"uident":1769701,"min_label":8.0},
"geometry":{"type": "LineString","coordinates": [[-78.0555720693954,48.103298244264863,323.4708],[-78.051380988666239,48.121405340619027,313.5175],[-78.0326228506454,48.133002020306527,310.734],[-78.014393683978739,48.1326764994732,309.4937],[-77.979562954812067,48.128119207806527,312.4128],[-77.934315558978739,48.114935614056527,305.5],[-77.918568488666239,48.1129011088482,294.7777],[-77.903391079812067,48.112860418744027,293.5],[-77.876047329812067,48.1255964213482,293.5]]}}