{"type":"Feature","properties":{"GID_3":"CAN.2.21.3_1","GID_0":"CAN","country":"Canada","GID_1":"CAN.2_1","province":"BritishColumbia","NL_NAME_1":"NA","GID_2":"CAN.2.21_1","county":"Okanagan-Similkameen","NL_NAME_2":"NA","city":"BlindCreek6","VARNAME_3":"NA","NL_NAME_3":"NA","TYPE_3":"RéserveIndienne","ENGTYPE_3":"IndianReserve","CC_3":"NA","HASC_3":"NA","name":"Blind_Creek6.city"},
"geometry":{"type": "MultiPolygon","coordinates": [[[[-119.7316,49.1932,568.384],[-119.7375,49.1931,493.2645],[-119.7376,49.1751,413.8604],[-119.7262,49.1749,477.7599],[-119.7264,49.1932,544.3564],[-119.7316,49.1932,568.384]]]]}}