{"type":"Feature","properties":{"GID_3":"CAN.4.10.15_1","GID_0":"CAN","country":"Canada","GID_1":"CAN.4_1","province":"NewBrunswick","NL_NAME_1":"NA","GID_2":"CAN.4.10_1","county":"Restigouche","NL_NAME_2":"NA","city":"Grimmer","VARNAME_3":"NA","NL_NAME_3":"NA","TYPE_3":"Parish","ENGTYPE_3":"Parish","CC_3":"NA","HASC_3":"NA","name":"Grimmer.city"},
"geometry":{"type": "MultiPolygon","coordinates": [[[[-67.3396,47.8696,72.3291],[-67.3439,47.868,68.75],[-67.3459,47.8692,69.0],[-67.3471,47.874,77.2822],[-67.3523,47.874,78.0013],[-67.3519,47.8667,73.6665],[-67.3628,47.8597,85.2118],[-67.3647,47.8562,84.8975],[-67.3582,47.8514,78.2896],[-67.3585,47.847,98.8317],[-67.3754,47.8444,78.8252],[-67.3904,47.8507,147.6256],[-67.3814,47.8544,99.028],[-67.38,47.8567,107.5015],[-67.3817,47.8585,101.3765],[-67.3937,47.8599,106.4619],[-67.3943,47.862,109.006],[-67.3922,47.8665,106.288],[-67.3933,47.8683,115.8882],[-67.3995,47.8675,96.7104],[-67.4017,47.8702,94.625],[-67.4181,47.875,121.9275],[-67.4217,47.8783,112.0973],[-67.4283,47.8778,113.4235],[-67.4383,47.8807,112.3455],[-67.4415,47.8854,114.8676],[-67.4722,47.8944,127.4323],[-67.475,47.8972,132.244],[-67.4809,47.8992,122.4443],[-67.4832,47.9031,130.8768],[-67.5,47.9047,155.6644],[-67.5135,47.9127,143.2231],[-67.5287,47.9129,158.7529],[-67.5377,47.9149,182.0106],[-67.5488,47.9205,132.5328],[-67.5579,47.9189,137.826],[-67.5684,47.9214,150.4606],[-67.5696,47.6006,159.5312],[-67.2405,47.5972,362.1667],[-67.3396,47.8696,72.3291]],
[[-67.3255,47.646,325.3349],[-67.3255,47.6374,305.7888],[-67.3621,47.6368,285.1476],[-67.362,47.6512,278.3144],[-67.3253,47.6511,300.8323],[-67.3255,47.646,325.3349]]]]}}