{"type":"Feature","properties":{"GID_3":"CAN.11.1.17_1","GID_0":"CAN","country":"Canada","GID_1":"CAN.11_1","province":"Québec","NL_NAME_1":"NA","GID_2":"CAN.11.1_1","county":"Abitibi-Ouest","NL_NAME_2":"NA","city":"Poularies","VARNAME_3":"NA","NL_NAME_3":"NA","TYPE_3":"Municipalité","ENGTYPE_3":"Municipality","CC_3":"NA","HASC_3":"NA","name":"Poularies.city"},
"geometry":{"type": "MultiPolygon","coordinates": [[[[-78.9064,48.705,305.0796],[-79.1015,48.7046,295.8238],[-79.102,48.6752,292.0938],[-79.0812,48.6749,279.5377],[-79.0811,48.6462,282.3737],[-79.0462,48.646,276.6198],[-79.0465,48.6169,303.9098],[-79.0057,48.6167,327.9441],[-79.0072,48.5877,356.4962],[-78.927,48.5885,320.2345],[-78.9263,48.6014,314.4933],[-78.8614,48.6018,311.3021],[-78.862,48.6753,317.981],[-78.9061,48.6753,301.0109],[-78.9064,48.705,305.0796]]]]}}