{"type":"Feature","properties":{"featurecla":"River","scalerank":10,"rivernum":20083,"dissolve":"20083River","name":"Chaudire","name_alt":null,"note":"ID is link back to CEC data","name_full":"Rivire Chaudire","min_zoom":6.0,"strokeweig":0.15,"uident":1801001,"min_label":7.0},
"geometry":{"type": "LineString","coordinates": [[-70.881906704812067,45.580593166139863,401.9844],[-70.890207486062067,45.565375067181527,435.2167],[-70.897531704812067,45.535671291139863,393.0],[-70.899240689187067,45.5135358744732,460.4477],[-70.901437954812067,45.472479559369027,459.798],[-70.890248176166239,45.433864650514863,473.4136],[-70.888498501687067,45.402289129681527,449.8112],[-70.903879361062067,45.358832098431527,582.1447],[-70.906320767312067,45.335150457806527,573.2048],[-70.894846157937067,45.291205145306527,688.1346]]}}