{"type":"Feature","properties":{"GID_3":"CAN.10.3.7_1","GID_0":"CAN","country":"Canada","GID_1":"CAN.10_1","province":"PrinceEdwardIsland","NL_NAME_1":"NA","GID_2":"CAN.10.3_1","county":"Queens","NL_NAME_2":"NA","city":"HunterRiver","VARNAME_3":"NA","NL_NAME_3":"NA","TYPE_3":"Community","ENGTYPE_3":"Community","CC_3":"NA","HASC_3":"NA","name":"Hunter_River.city"},
"geometry":{"type": "MultiPolygon","coordinates": [[[[-63.3534,46.3486,75.1768],[-63.3424,46.3438,32.7075],[-63.3307,46.3578,69.4221],[-63.3287,46.3573,65.2363],[-63.3338,46.3754,15.3475],[-63.3346,46.3728,17.5384],[-63.3332,46.3722,18.6785],[-63.3368,46.3697,22.5552],[-63.3596,46.3637,52.3251],[-63.3612,46.3681,65.9905],[-63.3661,46.3617,67.2928],[-63.3672,46.3621,67.3303],[-63.3678,46.3611,68.9302],[-63.3644,46.3597,66.3141],[-63.3694,46.3536,76.1592],[-63.3666,46.3461,47.847],[-63.3534,46.3486,75.1768]]]]}}