{"type": "Feature","bbox": [-103.2534,56.2843,-103.1633,56.3975],"geometry": {"type": "MultiPolygon","coordinates": [[[[-103.2448,56.2952,344.8383],[-103.2421,56.2944,352.0544],[-103.2147,56.3086,359.264],[-103.2156,56.3178,349.6506],[-103.2081,56.3257,337.4169],[-103.2108,56.3297,334.5],[-103.23,56.3359,337.1057],[-103.2346,56.3355,338.8782],[-103.241,56.3291,347.2607],[-103.2534,56.3062,350.4038],[-103.2485,56.3009,377.946],[-103.248,56.2961,357.3761],[-103.2448,56.2952,344.8383]]],
[[[-103.1792,56.3939,336.1481],[-103.1818,56.3906,334.5],[-103.1869,56.3898,334.5],[-103.1887,56.3862,334.5],[-103.1862,56.3838,346.6581],[-103.1953,56.379,334.5],[-103.2098,56.3662,341.3401],[-103.2051,56.3623,343.4201],[-103.2073,56.3613,334.5],[-103.2204,56.367,334.5],[-103.2238,56.3665,334.5],[-103.2258,56.3563,336.4884],[-103.2328,56.3468,335.5605],[-103.2304,56.3434,340.6704],[-103.2224,56.3421,349.3463],[-103.219,56.3376,344.6302],[-103.2101,56.3369,340.2873],[-103.2041,56.3382,343.7257],[-103.2043,56.3316,336.8554],[-103.1969,56.3269,346.8061],[-103.2035,56.3194,334.5],[-103.2025,56.3178,360.8622],[-103.1992,56.3176,358.7121],[-103.1889,56.3251,348.9752],[-103.1865,56.322,353.7011],[-103.205,56.3053,335.8715],[-103.2028,56.3031,339.7264],[-103.1941,56.3036,380.7556],[-103.1946,56.2981,346.556],[-103.1863,56.2984,335.7553],[-103.1794,56.3003,338.6721],[-103.1751,56.304,359.8626],[-103.1698,56.3037,342.9556],[-103.174,56.2997,340.7715],[-103.1891,56.2956,345.9851],[-103.2026,56.2957,340.8652],[-103.2055,56.2931,334.8409],[-103.2119,56.2933,337.3579],[-103.2134,56.2852,339.9365],[-103.1654,56.2843,359.2114],[-103.1647,56.3909,349.77],[-103.1633,56.3975,334.5],[-103.1792,56.3939,336.1481]]]]}
,"properties": {"GID_3": "CAN.12.9.53_1","GID_0": "CAN","country": "Canada","GID_1": "CAN.12_1","province": "Saskatchewan","NL_NAME_1": "NA","GID_2": "CAN.12.9_1","county": "DivisionNo.18","NL_NAME_2": "NA","city": "Southend200","VARNAME_3": "NA","NL_NAME_3": "NA","TYPE_3": "RéserveIndienne","ENGTYPE_3": "IndianReserve","CC_3": "NA","HASC_3": "NA","name": "Southend200.city","area_km2": 37.71549,"hist_schema_id": "Elevation0-9000","hist_area_km2": {"325": 2.99708,"350": 14.63419,"375": 18.66232,"400": 1.42191}}}