{"type":"Feature","properties":{"GID_3":"CAN.12.5.39_1","GID_0":"CAN","country":"Canada","GID_1":"CAN.12_1","province":"Saskatchewan","NL_NAME_1":"NA","GID_2":"CAN.12.5_1","county":"DivisionNo.14","NL_NAME_2":"NA","city":"StarCityNo.428","VARNAME_3":"NA","NL_NAME_3":"NA","TYPE_3":"RuralMunicipality","ENGTYPE_3":"RuralMunicipality","CC_3":"NA","HASC_3":"NA","name":"Star_City_No.428.city"},
"geometry":{"type": "MultiPolygon","coordinates": [[[[-104.616,52.8485,469.2812],[-104.6159,52.6669,522.1923],[-104.1805,52.6675,537.7112],[-104.1813,52.8485,462.868],[-104.193,52.8485,463.0995],[-104.193,52.8564,461.2487],[-104.1812,52.8564,460.6544],[-104.1815,52.9292,439.6142],[-104.6161,52.9292,440.6917],[-104.616,52.8778,455.068],[-104.58,52.8779,458.7135],[-104.5801,52.8633,454.0217],[-104.5679,52.8633,457.599],[-104.568,52.8578,461.6799],[-104.5801,52.8564,457.5329],[-104.5801,52.8342,470.9428],[-104.6044,52.8341,470.2497],[-104.6042,52.8486,461.1847],[-104.616,52.8485,469.2812]],
[[-104.3314,52.8668,470.6806],[-104.326,52.8652,468.0845],[-104.326,52.8596,474.246],[-104.3296,52.8596,480.1777],[-104.3298,52.8562,480.6021],[-104.3336,52.8562,477.5154],[-104.3338,52.8596,480.8939],[-104.3378,52.8597,476.4654],[-104.3378,52.8665,469.4276],[-104.3314,52.8668,470.6806]]]]}}