{"type":"Feature","properties":{"GID_3":"CAN.2.14.12_1","GID_0":"CAN","country":"Canada","GID_1":"CAN.2_1","province":"BritishColumbia","NL_NAME_1":"NA","GID_2":"CAN.2.14_1","county":"GreaterVancouver","NL_NAME_2":"NA","city":"GreaterVancouverA","VARNAME_3":"NA","NL_NAME_3":"NA","TYPE_3":"RegionalDistrictElectoralArea","ENGTYPE_3":"RegionalDistrictElectoralArea","CC_3":"NA","HASC_3":"NA","name":"Greater_Vancouver_A.city"},
"geometry":{"type": "MultiPolygon","coordinates": [[[[-123.2446,49.2473,15.2842],[-123.2475,49.2472,0.0],[-123.2461,49.2447,0.0],[-123.2506,49.2444,0.0],[-123.2432,49.2398,0.0],[-123.2417,49.2403,0.0],[-123.2433,49.2425,0.0],[-123.24,49.2425,0.0],[-123.2401,49.2379,0.0],[-123.2365,49.2363,0.0],[-123.2355,49.2367,0.0],[-123.2369,49.2389,0.0],[-123.2328,49.2394,0.0],[-123.2333,49.2406,0.0],[-123.2446,49.2473,15.2842]]],
[[[-123.2543,49.2513,0.0],[-123.2569,49.2508,0.0],[-123.2567,49.2486,0.0],[-123.2594,49.2492,0.0],[-123.2547,49.2461,0.0],[-123.2525,49.2467,0.0],[-123.2511,49.2492,0.0],[-123.2543,49.2513,0.0]]],
[[[-123.2603,49.2589,0.0],[-123.2622,49.2594,0.0],[-123.2615,49.2567,0.0],[-123.265,49.2576,0.0],[-123.2637,49.2561,0.0],[-123.2668,49.2536,0.0],[-123.2619,49.2504,0.0],[-123.2568,49.2532,0.0],[-123.258,49.2575,0.0],[-123.2603,49.2589,0.0]]],
[[[-123.2106,49.2731,28.5097],[-123.1968,49.274,0.0],[-123.2018,49.2766,0.7426],[-123.2085,49.2755,0.0],[-123.2164,49.2777,0.0],[-123.2424,49.2802,16.8612],[-123.2491,49.2787,34.4681],[-123.2617,49.2714,16.6747],[-123.2652,49.265,1.9042],[-123.2594,49.2604,0.0],[-123.253,49.2516,3.0302],[-123.2305,49.241,18.5635],[-123.23,49.2392,0.0],[-123.2328,49.2364,0.0],[-123.2314,49.2339,0.0],[-123.2237,49.2314,0.0],[-123.2228,49.2342,0.0],[-123.2256,49.2378,0.0],[-123.2216,49.2369,0.4742],[-123.2199,49.2393,44.6778],[-123.2095,49.2355,46.8953],[-123.2068,49.2376,44.9667],[-123.197,49.2349,25.9442],[-123.1969,49.2365,31.9128],[-123.1985,49.2365,42.1192],[-123.1984,49.2385,51.3682],[-123.1969,49.2386,36.1654],[-123.1968,49.2462,80.5791],[-123.2054,49.2493,92.0827],[-123.1968,49.2503,84.4254],[-123.1967,49.2566,78.1268],[-123.203,49.2566,95.2771],[-123.2032,49.2583,81.5028],[-123.2156,49.2585,113.3521],[-123.2151,49.2675,98.1718],[-123.2216,49.2687,100.0968],[-123.2238,49.2752,53.0775],[-123.2106,49.2731,28.5097]]],
[[[-122.6819,49.1803,9.3337],[-122.6751,49.1835,7.1901],[-122.6742,49.198,0.0],[-122.6824,49.1977,0.0],[-122.6985,49.2044,0.0],[-122.7187,49.2098,0.0],[-122.7329,49.2028,5.7196],[-122.7215,49.1832,27.0637],[-122.7146,49.1788,40.8873],[-122.7087,49.1775,16.8378],[-122.6927,49.1777,13.2038],[-122.6819,49.1803,9.3337]],
[[-122.6958,49.1852,0.0],[-122.6981,49.1851,2.0599],[-122.6981,49.1913,2.6761],[-122.6892,49.1915,12.2216],[-122.6889,49.1862,2.1347],[-122.6958,49.1852,0.0]]],
[[[-122.9108,49.2933,0.0],[-122.9091,49.2944,23.9152],[-122.9112,49.2957,92.2287],[-122.9121,49.2933,0.0],[-122.9108,49.2933,0.0]]],
[[[-122.8634,49.4304,0.0],[-122.8626,49.4346,0.0],[-122.8675,49.4427,6.9534],[-122.8733,49.4478,0.0],[-122.875,49.4447,8.7768],[-122.8702,49.4369,37.238],[-122.8708,49.4321,47.5742],[-122.8654,49.432,0.0],[-122.8634,49.4304,0.0]]],
[[[-122.8065,49.5727,1741.4786],[-122.8764,49.5734,914.6309],[-122.9411,49.5718,175.7107],[-122.9317,49.5584,177.9039],[-122.9225,49.5494,215.4769],[-123.1023,49.5487,1334.7261],[-123.1029,49.4823,1066.6117],[-123.2453,49.4814,13.0413],[-123.2438,49.4765,0.0],[-123.2332,49.4772,370.4828],[-123.233,49.4706,380.5972],[-123.2303,49.4704,450.1578],[-123.2288,49.4605,325.1264],[-123.2291,49.4486,352.3738],[-123.2392,49.4488,42.8311],[-123.2392,49.4381,40.7568],[-123.2363,49.4353,14.9287],[-123.2363,49.4309,5.6935],[-123.2333,49.4247,0.0],[-123.2353,49.4214,0.0],[-123.2346,49.4175,12.7968],[-123.2411,49.4125,39.7725],[-123.2433,49.4089,16.9753],[-123.2425,49.4078,19.4106],[-123.1237,49.4062,459.3683],[-122.9705,49.409,302.8849],[-122.8985,49.414,540.4058],[-122.8821,49.4138,69.7132],[-122.8786,49.42,4.457],[-122.8747,49.4225,25.0183],[-122.8739,49.4257,30.7067],[-122.8754,49.4288,37.7051],[-122.8729,49.4331,0.0],[-122.8788,49.4415,0.0],[-122.8762,49.4473,0.0],[-122.8809,49.4506,0.0],[-122.8816,49.4535,80.311],[-122.8874,49.4597,31.1339],[-122.8859,49.4631,6.3853],[-122.8891,49.4665,0.0],[-122.8866,49.4689,0.7115],[-122.8802,49.4661,4.27],[-122.8793,49.4624,0.0],[-122.8741,49.4617,0.0],[-122.8715,49.4578,15.5628],[-122.8629,49.4543,34.5924],[-122.8628,49.4495,0.4934],[-122.856,49.4421,37.674],[-122.8543,49.4372,99.902],[-122.8558,49.4343,0.0],[-122.8542,49.4261,67.593],[-122.8582,49.4224,7.14],[-122.8568,49.4139,0.0],[-122.8602,49.4066,18.059],[-122.8699,49.3994,10.8625],[-122.8714,49.3934,24.7229],[-122.8705,49.39,22.1426],[-122.8668,49.3884,80.8442],[-122.8662,49.3841,8.4116],[-122.8642,49.3819,43.4341],[-122.8336,49.382,1194.808],[-122.8282,49.3791,1135.0493],[-122.8254,49.375,1044.2018],[-122.8321,49.365,1127.3772],[-122.8323,49.3621,1131.0129],[-122.8311,49.3598,1151.8706],[-122.8273,49.3597,1140.4719],[-122.8249,49.3571,1050.2924],[-122.8234,49.3516,983.9686],[-122.638,49.3512,0.7797],[-122.6058,49.3547,0.0],[-122.5774,49.3536,66.6576],[-122.5758,49.3553,85.6896],[-122.5795,49.3565,0.0],[-122.5795,49.3619,0.0],[-122.5345,49.4204,0.0],[-122.5273,49.4563,0.0],[-122.5354,49.4743,0.0],[-122.5588,49.486,0.0],[-122.5777,49.4914,0.0],[-122.597,49.5166,0.0],[-122.5999,49.5264,0.0],[-122.609,49.5372,0.0],[-122.6088,49.5388,0.7276],[-122.6384,49.5372,1182.6481],[-122.6552,49.5381,1423.5623],[-122.6832,49.5527,1290.1071],[-122.6926,49.5683,1384.1405],[-122.6998,49.5732,1450.4668],[-122.7786,49.5746,1370.3213],[-122.8065,49.5727,1741.4786]]],
[[[-123.2635,49.4203,0.0],[-123.2618,49.4219,0.0],[-123.2619,49.4251,90.3499],[-123.268,49.4327,0.0],[-123.272,49.4326,12.387],[-123.2772,49.4276,0.0],[-123.2767,49.4241,0.0],[-123.2717,49.4199,3.3968],[-123.2673,49.4202,13.6736],[-123.2664,49.418,0.9954],[-123.2635,49.4203,0.0]]]]}}