{"type":"Feature","properties":{"GID_3":"CAN.12.9.9_1","GID_0":"CAN","country":"Canada","GID_1":"CAN.12_1","province":"Saskatchewan","NL_NAME_1":"NA","GID_2":"CAN.12.9_1","county":"DivisionNo.18","NL_NAME_2":"NA","city":"ClearwaterRiver","VARNAME_3":"NA","NL_NAME_3":"NA","TYPE_3":"RéserveIndienne","ENGTYPE_3":"IndianReserve","CC_3":"NA","HASC_3":"NA","name":"Clearwater_River.city"},
"geometry":{"type": "MultiPolygon","coordinates": [[[[-109.4497,56.5139,441.0],[-109.4007,56.5143,443.5],[-109.3954,56.5181,443.5],[-109.3948,56.5356,453.2121],[-109.3829,56.5356,451.5822],[-109.3836,56.5498,480.1487],[-109.4783,56.5514,478.6427],[-109.4785,56.5544,484.5073],[-109.4866,56.5549,484.0095],[-109.4865,56.5653,491.4376],[-109.5398,56.5658,487.8585],[-109.5392,56.5562,441.0],[-109.4981,56.5476,451.2026],[-109.4956,56.5428,452.5892],[-109.5001,56.5307,444.5563],[-109.4955,56.5234,445.4504],[-109.4901,56.5203,441.0],[-109.4839,56.5187,441.0],[-109.4538,56.519,441.0],[-109.4497,56.5139,441.0]]]]}}