{"type": "Feature","bbox": [-72.0341,46.6171,-71.8884,46.7214],"geometry": {"type": "MultiPolygon","coordinates": [[[[-71.8884,46.6697,0.0],[-71.9178,46.6913,45.1237],[-71.9206,46.6893,49.8572],[-71.9623,46.7214,109.1118],[-71.9779,46.7087,98.2989],[-71.9754,46.7069,97.6615],[-71.9786,46.7051,96.0333],[-71.9771,46.7038,96.0333],[-71.9807,46.7004,85.8689],[-71.98,46.6992,85.8689],[-71.9847,46.696,84.9437],[-71.9846,46.694,72.1772],[-71.9952,46.6897,62.4141],[-71.9994,46.6936,57.8828],[-72.0123,46.6868,59.3272],[-72.0144,46.6879,61.2488],[-72.0228,46.6838,44.1504],[-72.002,46.6685,35.5826],[-72.019,46.6584,29.8129],[-72.0341,46.6529,37.1308],[-72.0138,46.6361,39.0809],[-72.0121,46.6368,39.0809],[-71.9779,46.6171,0.0],[-71.9365,46.6355,0.0],[-71.9002,46.6574,0.0],[-71.8884,46.6697,0.0]]]]}
,"properties": {"GID_3": "CAN.11.87.2_1","GID_0": "CAN","country": "Canada","GID_1": "CAN.11_1","province": "Québec","NL_NAME_1": "NA","GID_2": "CAN.11.87_1","county": "Portneuf","NL_NAME_2": "NA","city": "Deschambault","VARNAME_3": "NA","NL_NAME_3": "NA","TYPE_3": "Municipalité","ENGTYPE_3": "Municipality","CC_3": "NA","HASC_3": "NA","name": "Deschambault.city","area_km2": 66.43567,"hist_schema_id": "Elevation0-9000","hist_area_km2": {"0": 14.46687,"25": 19.16765,"50": 17.41468,"75": 11.60638,"100": 3.48934,"125": 0.29074}}}