{"type":"Feature","properties":{"GID_3":"CAN.3.16.13_1","GID_0":"CAN","country":"Canada","GID_1":"CAN.3_1","province":"Manitoba","NL_NAME_1":"NA","GID_2":"CAN.3.16_1","county":"DivisionNo.2","NL_NAME_2":"NA","city":"Taché","VARNAME_3":"NA","NL_NAME_3":"NA","TYPE_3":"RuralMunicipality","ENGTYPE_3":"RuralMunicipality","CC_3":"NA","HASC_3":"NA","name":"Taché.city"},
"geometry":{"type": "MultiPolygon","coordinates": [[[[-96.3657,49.7961,269.7448],[-96.9809,49.7975,234.8539],[-96.981,49.6206,238.0251],[-96.7757,49.6194,244.328],[-96.7759,49.7086,243.6],[-96.3672,49.7073,277.3336],[-96.3657,49.7961,269.7448]]]]}}