{"type":"Feature","properties":{"featurecla":"River","scalerank":12,"rivernum":21442,"dissolve":"21442River","name":"Soper1","name_alt":null,"note":"ID is link back to CEC data","name_full":"Soper River","min_zoom":7.0,"strokeweig":0.2,"uident":1330801,"min_label":8.0},
"geometry":{"type": "LineString","coordinates": [[-69.647816535541239,63.248561916139863,388.4435],[-69.677967902728739,63.237331447389863,227.0443],[-69.666981574603739,63.199977931764863,91.1352],[-69.6651912100204,63.194118556764863,95.863],[-69.671945767312067,63.189479884889863,236.4805],[-69.707142707416239,63.164903061973192,392.9303],[-69.707264777728739,63.164862371869027,392.9303],[-69.740834113666239,63.141384181764863,342.0671],[-69.710316535541239,63.059393621869027,102.008],[-69.724436001687067,63.006455796348192,51.9629],[-69.746164517312067,62.990545965619027,220.4578],[-69.809885220437067,62.961493231244027,36.4328],[-69.841867642312067,62.925970770306527,106.1145],[-69.852976040749567,62.919867254681527,143.4685],[-69.886708137103739,62.898504949994027,0.0],[-69.921864387103739,62.875067449994027,0.0],[-69.949208137103739,62.847723699994027,12.8234],[-69.9388728506454,62.801214910931527,29.466]]}}