{"type":"Feature","properties":{"featurecla":"River","scalerank":10,"rivernum":21815,"dissolve":"21815River","name":"Isortoq1","name_alt":null,"note":"ID is link back to CEC data","name_full":"Isortoq River","min_zoom":6.0,"strokeweig":0.2,"uident":1202601,"min_label":7.0},
"geometry":{"type": "LineString","coordinates": [[-73.980580207416239,70.81696198124402,568.8381],[-73.981068488666239,70.81696198124402,568.0714],[-74.026437954812067,70.81354401249402,614.397],[-74.040150519916239,70.80219147343152,677.0867],[-74.080555793353739,70.76825592655652,585.1198],[-74.1295466787704,70.759629624473192,543.9405],[-74.230580207416239,70.74677155155652,562.669],[-74.3771052725204,70.734238999473192,548.0621],[-74.511057095437067,70.74884674686902,474.6418],[-74.548166470437067,70.78497955936902,461.2612],[-74.6451716787704,70.78681061405652,540.8929],[-74.803781704812067,70.74677155155652,456.5527],[-74.872059699603739,70.68744537968152,498.146],[-75.056711392312067,70.63764069218152,473.8312],[-75.136708137103739,70.59808991093152,374.5488],[-75.134266730853739,70.56391022343152,396.9164],[-75.083566861062067,70.49286530155652,370.5779],[-74.939768032937067,70.44281647343152,426.7018],[-74.924631314187067,70.407009181764863,277.0442],[-74.983387824603739,70.377956447389863,222.9217],[-75.132517056374567,70.34210846561902,241.596],[-75.176096157937067,70.30072662968152,266.3142],[-75.302235480853739,70.26459381718152,297.8419],[-75.417225715228739,70.27387116093152,255.0925],[-75.531849738666239,70.246608791139863,268.5861],[-75.650949673562067,70.276963608848192,260.0761],[-75.796742316791239,70.297634181764863,294.1962],[-75.962228970437067,70.28937409061902,129.6628],[-76.008127407937067,70.313096421348192,342.6031],[-76.214426236062067,70.33295319218152,177.3669],[-76.474680142312067,70.255479233848192,206.3176],[-76.7342830068954,70.15717194218152,199.2665],[-76.8946833975204,70.12543366093152,236.3878],[-76.9112849600204,70.11554596561902,215.6069],[-76.952992316791239,70.080430405723192,53.791],[-76.957346157937067,70.01911041874402,15.7959],[-76.955922004291239,69.96796295780652,157.1233],[-76.976307746478739,69.94220612186902,0.0]]}}