{"type":"Feature","properties":{"featurecla":"River","scalerank":12,"rivernum":22108,"dissolve":"22108River","name":"null915","name_alt":null,"note":"ID is link back to CEC data","name_full":null,"min_zoom":7.0,"strokeweig":0.2,"uident":1140301,"min_label":8.0},
"geometry":{"type": "LineString","coordinates": [[-86.299672004291224,75.39569733280652,1.759],[-86.268177863666224,75.38068268436902,6.9868],[-86.284657355853724,75.34186432499402,49.4035],[-86.3204646475204,75.33209869999402,323.366],[-86.353016730853724,75.33649323124402,451.5309],[-86.382435676166224,75.32868073124402,308.8524],[-86.436594204812067,75.31598541874402,326.3991],[-86.471913215228724,75.308946030723192,293.3151],[-86.4977107412704,75.29120514530652,147.688],[-86.481434699603724,75.279567775514863,58.7343],[-86.4461970693954,75.265488999473192,361.1401],[-86.3712458975204,75.23688385624402,482.2635],[-86.2440486318954,75.23590729374402,384.7535],[-86.1100154287704,75.22894928593152,525.5004],[-86.0314021475204,75.20001862186902,199.4336],[-85.9488826162704,75.14606354374402,254.1872],[-86.070546027728724,75.08844635624402,351.9336],[-86.077951626687067,75.08051178593152,453.0182]]}}