{"type":"Feature","properties":{"featurecla":"River","scalerank":12,"rivernum":21507,"dissolve":"21507River","name":"Sylvia Grinnell","name_alt":null,"note":"ID is link back to CEC data","name_full":"Sylvia Grinnell River","min_zoom":7.0,"strokeweig":0.2,"uident":1311901,"min_label":8.0},
"geometry":{"type": "LineString","coordinates": [[-69.305978970437067,64.128933009889863,150.2108],[-69.289377407937067,64.121608791139863,182.4446],[-69.222157355853739,64.09943268436902,188.7405],[-69.1034236318954,64.068223374473192,213.1841],[-68.965158657937067,64.04682037968152,132.6089],[-68.856068488666239,64.042344468223192,160.7765],[-68.817209439187067,64.03864166874402,179.3051],[-68.7770076162704,64.025498765098192,197.8818],[-68.707834439187067,63.990057684369027,183.9281],[-68.678822394916239,63.967596746869027,145.9258],[-68.664784308978739,63.941839910931527,143.4368],[-68.675607876687067,63.910589910931527,191.1118],[-68.673573371478739,63.829901434369027,63.5731],[-68.664784308978739,63.819525457806527,74.6658],[-68.640980598041239,63.806830145306527,33.7602],[-68.6085505850204,63.783962306764863,36.7145],[-68.609730598041239,63.742702541139863,0.0]]}}