{"type":"Feature","properties":{"featurecla":"River","scalerank":11,"rivernum":22143,"dissolve":"22143River","name":"Haakon1","name_alt":null,"note":"ID is link back to CEC data","name_full":"Haakon River","min_zoom":6.7,"strokeweig":0.2,"uident":1118001,"min_label":7.7},
"geometry":{"type": "LineString","coordinates": [[-102.18394934804122,78.58075592655652,112.2873],[-101.9630427725204,78.586778061973192,71.6301],[-101.88560950429122,78.63300202030652,73.3203],[-101.75829016835372,78.674180405723192,51.2359],[-101.71397864491622,78.704453843223192,41.777],[-101.70881100168707,78.752793686973192,39.8076],[-101.57990475168707,78.79657623905652,79.5421],[-101.44896399647872,78.803330796348192,115.7869],[-101.3878474600204,78.80121491093152,58.5216],[-101.29767818918707,78.80036041874402,46.46],[-101.2079158193954,78.82245514530652,0.0]]}}