{"type":"Feature","properties":{"featurecla":"River","scalerank":11,"rivernum":21678,"dissolve":"21678River","name":"null708","name_alt":null,"note":"ID is link back to CEC data","name_full":null,"min_zoom":6.7,"strokeweig":0.2,"uident":1241501,"min_label":7.7},
"geometry":{"type": "LineString","coordinates": [[-64.700306769916239,67.00885651249402,0.0],[-64.711048957416239,66.97370026249402,5.6961],[-64.6979060537704,66.92133209843152,96.8494],[-64.706898566791239,66.89838287968152,133.4069],[-64.683908657937067,66.84638092655652,192.2627],[-64.680165168353739,66.79743073124402,190.3766],[-64.715402798562067,66.767116603639863,195.9025],[-64.748524543353739,66.754177150514863,269.5034],[-64.8644099600204,66.72785065311902,253.8363],[-64.923939582416239,66.72040436405652,345.4387],[-65.026844855853739,66.69110748905652,395.1904],[-65.095692512103739,66.67584869999402,450.2729],[-65.161488410541239,66.64704010624402,375.366],[-65.244740363666239,66.61212799686902,475.0551],[-65.294911262103739,66.581569728639863,350.5586],[-65.3485408193954,66.54498932499402,150.7268],[-65.384877082416239,66.535671291139863,719.3467],[-65.416127082416239,66.530625718223192,825.5076],[-65.461293098041239,66.52570221561902,426.7629],[-65.478993293353739,66.523789780723192,371.6548],[-65.4852595693954,66.52094147343152,413.8155],[-65.488026496478739,66.519639390098192,459.7607],[-65.501942512103739,66.50861237186902,106.3133],[-65.505848762103739,66.49042389530652,47.1702],[-65.488718228249567,66.46185944218152,23.9613],[-65.479969855853739,66.41950104374402,5.8908],[-65.492014126687067,66.38800690311902,0.0]]}}