{"type": "Feature","bbox": [-55.0768,49.2706,-55.0117,49.3529],"geometry": {"type": "MultiPolygon","coordinates": [[[[-55.0522,49.2706,37.953],[-55.0117,49.2817,0.0],[-55.0131,49.2828,55.1835],[-55.0125,49.2856,0.0],[-55.0178,49.2922,0.0],[-55.0219,49.2925,2.2609],[-55.0203,49.295,0.0],[-55.015,49.2958,15.069],[-55.0167,49.3011,0.0],[-55.0213,49.3016,2.5908],[-55.0214,49.2981,2.1925],[-55.0239,49.295,3.2856],[-55.025,49.2975,2.2931],[-55.0233,49.2997,2.5705],[-55.0283,49.3003,4.6875],[-55.0236,49.305,2.7903],[-55.0244,49.3109,0.6345],[-55.0274,49.3134,4.8268],[-55.0269,49.3187,0.0],[-55.0298,49.3186,6.0304],[-55.0329,49.3151,2.0482],[-55.0348,49.3157,0.0],[-55.0343,49.3214,1.8882],[-55.0304,49.3247,0.0],[-55.0333,49.3258,0.0],[-55.0355,49.3237,2.0907],[-55.0373,49.3248,0.0],[-55.0352,49.3308,1.6753],[-55.0301,49.3359,0.0],[-55.0296,49.3407,2.0143],[-55.0313,49.3435,13.882],[-55.0261,49.35,1.2135],[-55.0294,49.3529,10.5544],[-55.0328,49.3512,1.9583],[-55.0363,49.3458,0.4996],[-55.0408,49.343,0.0],[-55.0402,49.3378,0.0],[-55.037,49.3354,11.1524],[-55.0404,49.3284,0.0],[-55.041,49.3195,2.9133],[-55.0425,49.3198,3.2099],[-55.0442,49.3252,2.264],[-55.0524,49.3206,0.3518],[-55.0553,49.3207,0.0],[-55.0566,49.3228,2.0292],[-55.0768,49.3082,0.0],[-55.0751,49.3035,0.0],[-55.0712,49.3006,1.6952],[-55.0714,49.2958,2.2438],[-55.0522,49.2706,37.953]]]]}
,"properties": {"GID_3": "CAN.5.10.27_1","GID_0": "CAN","country": "Canada","GID_1": "CAN.5_1","province": "NewfoundlandandLabrador","NL_NAME_1": "NA","GID_2": "CAN.5.10_1","county": "DivisionNo.8","NL_NAME_2": "NA","city": "Embree","VARNAME_3": "NA","NL_NAME_3": "NA","TYPE_3": "Town","ENGTYPE_3": "Town","CC_3": "NA","HASC_3": "NA","name": "Embree.city","area_km2": 19.01015,"hist_schema_id": "Elevation0-9000","hist_area_km2": {"0": 5.2253,"25": 11.90447,"50": 1.61762,"75": 0.20743,"100": 0.05533}}}