{"type": "Feature","bbox": [-55.4577,49.2943,-55.3721,49.3566],"geometry": {"type": "MultiPolygon","coordinates": [[[[-55.3838,49.3433,0.0],[-55.3834,49.3351,0.0],[-55.3856,49.3311,0.4944],[-55.4053,49.3203,10.6984],[-55.4067,49.3214,0.2782],[-55.3997,49.3303,2.6634],[-55.3984,49.3399,0.0],[-55.3958,49.3432,2.583],[-55.3958,49.3566,2.6238],[-55.4577,49.3305,65.4829],[-55.4515,49.2943,68.6615],[-55.3771,49.2963,50.7132],[-55.3721,49.3432,29.604],[-55.3838,49.3433,0.0]]]]}
,"properties": {"GID_3": "CAN.5.10.48_1","GID_0": "CAN","country": "Canada","GID_1": "CAN.5_1","province": "NewfoundlandandLabrador","NL_NAME_1": "NA","GID_2": "CAN.5.10_1","county": "DivisionNo.8","NL_NAME_2": "NA","city": "PointLeamington","VARNAME_3": "NA","NL_NAME_3": "NA","TYPE_3": "Town","ENGTYPE_3": "Town","CC_3": "NA","HASC_3": "NA","name": "Point_Leamington.city","area_km2": 29.23027,"hist_schema_id": "Elevation0-9000","hist_area_km2": {"0": 1.79621,"25": 8.2919,"50": 12.88058,"75": 3.81463,"100": 0.58061,"125": 0.62214,"150": 0.64977,"175": 0.49767,"200": 0.09676}}}