{"type":"Feature","properties":{"GID_3":"CAN.2.13.7_1","GID_0":"CAN","country":"Canada","GID_1":"CAN.2_1","province":"BritishColumbia","NL_NAME_1":"NA","GID_2":"CAN.2.13_1","county":"FraserValley","NL_NAME_2":"NA","city":"Boothroyd8A","VARNAME_3":"NA","NL_NAME_3":"NA","TYPE_3":"RéserveIndienne","ENGTYPE_3":"IndianReserve","CC_3":"NA","HASC_3":"NA","name":"Boothroyd8_A.city"},
"geometry":{"type": "MultiPolygon","coordinates": [[[[-121.5408,50.0524,305.5648],[-121.5456,50.0525,132.7963],[-121.5353,50.0386,206.4447],[-121.5333,50.0387,257.1302],[-121.5333,50.0441,449.1073],[-121.5368,50.0451,231.5622],[-121.5385,50.0514,273.4925],[-121.5408,50.0524,305.5648]]]]}}