{"type":"Feature","properties":{"GID_3":"CAN.2.10.9_1","GID_0":"CAN","country":"Canada","GID_1":"CAN.2_1","province":"BritishColumbia","NL_NAME_1":"NA","GID_2":"CAN.2.10_1","county":"CowichanValley","NL_NAME_2":"NA","city":"CowichanValleyD","VARNAME_3":"NA","NL_NAME_3":"NA","TYPE_3":"RegionalDistrictElectoralArea","ENGTYPE_3":"RegionalDistrictElectoralArea","CC_3":"NA","HASC_3":"NA","name":"Cowichan_Valley_D.city"},
"geometry":{"type": "MultiPolygon","coordinates": [[[[-123.6479,48.7591,3.7075],[-123.6501,48.7591,4.9918],[-123.65,48.7553,1.9626],[-123.6714,48.7553,33.4393],[-123.6713,48.7514,36.3728],[-123.6434,48.7321,66.929],[-123.6325,48.721,78.5411],[-123.6163,48.7183,57.5319],[-123.56,48.7195,0.0],[-123.5893,48.736,0.0],[-123.6035,48.738,27.5105],[-123.6022,48.7376,9.8415],[-123.6157,48.7375,57.4808],[-123.6166,48.7414,0.0],[-123.629,48.7446,0.0],[-123.6301,48.7443,0.0],[-123.63,48.7406,40.023],[-123.6437,48.7407,63.6409],[-123.6437,48.7454,31.6184],[-123.6381,48.745,4.5226],[-123.6415,48.7466,1.2836],[-123.6366,48.7471,0.0],[-123.6422,48.7525,0.0],[-123.6406,48.7542,0.9122],[-123.6389,48.7511,0.0],[-123.6281,48.7494,1.1076],[-123.625,48.7475,0.0],[-123.6233,48.7483,0.0],[-123.6269,48.7517,0.2449],[-123.6367,48.7528,0.6477],[-123.6379,48.7577,0.4324],[-123.6342,48.7581,0.0],[-123.6327,48.7599,0.4885],[-123.6479,48.7591,3.7075]]],
[[[-123.6243,48.7556,0.0],[-123.6251,48.7559,0.0],[-123.6237,48.7545,0.0],[-123.622,48.7545,0.0],[-123.6229,48.7553,0.0],[-123.6243,48.7556,0.0]]],
[[[-123.6237,48.7581,0.0],[-123.6248,48.7578,0.0],[-123.6209,48.7567,0.0],[-123.6209,48.757,0.0],[-123.6237,48.7581,0.0]]],
[[[-123.6847,48.766,9.9486],[-123.6972,48.766,14.1081],[-123.6833,48.7589,8.0746],[-123.6714,48.7586,19.7011],[-123.6713,48.7626,4.4497],[-123.6841,48.7625,9.2953],[-123.6847,48.766,9.9486]]]]}}