{"type": "Feature","bbox": [-96.2098,50.555,-96.1843,50.5728],"geometry": {"type": "MultiPolygon","coordinates": [[[[-96.2095,50.5715,217.0],[-96.2098,50.555,230.0221],[-96.1905,50.555,232.5512],[-96.1844,50.5627,228.4864],[-96.1843,50.5667,217.8111],[-96.2025,50.5728,217.0],[-96.2095,50.5715,217.0]]]]}
,"properties": {"GID_3": "CAN.3.11.9_1","GID_0": "CAN","country": "Canada","GID_1": "CAN.3_1","province": "Manitoba","NL_NAME_1": "NA","GID_2": "CAN.3.11_1","county": "DivisionNo.1","NL_NAME_2": "NA","city": "Powerview","VARNAME_3": "NA","NL_NAME_3": "NA","TYPE_3": "Village","ENGTYPE_3": "Village","CC_3": "NA","HASC_3": "NA","name": "Powerview.city","area_km2": 2.868744,"hist_schema_id": "Elevation0-9000","hist_area_km2": {"225": 2.841804,"250": 0.02694}}}