{"type": "Feature","bbox": [-72.5476,47.1017,-72.2554,47.4023],"geometry": {"type": "MultiPolygon","coordinates": [[[[-72.5371,47.1837,405.3269],[-72.5188,47.1467,354.9579],[-72.5152,47.1447,335.9],[-72.4423,47.1443,345.9576],[-72.4196,47.1293,304.5804],[-72.3939,47.1287,354.6012],[-72.3715,47.1017,408.8298],[-72.2942,47.1543,355.991],[-72.2916,47.1645,265.3468],[-72.2948,47.1722,235.5],[-72.2952,47.1848,319.0276],[-72.293,47.1924,359.6918],[-72.2812,47.2138,362.4696],[-72.2673,47.2233,275.0994],[-72.2594,47.2326,382.0063],[-72.2554,47.2604,315.2285],[-72.2649,47.2796,294.2659],[-72.2716,47.2794,363.2923],[-72.2807,47.2748,331.0905],[-72.2885,47.2753,334.4144],[-72.3195,47.287,313.4423],[-72.3259,47.2823,320.4379],[-72.3309,47.2823,315.0393],[-72.3329,47.2838,317.6285],[-72.3419,47.2837,319.7238],[-72.4022,47.2941,356.3176],[-72.4269,47.2999,346.1533],[-72.4008,47.3538,357.5865],[-72.4453,47.3867,354.1894],[-72.4404,47.4023,430.7215],[-72.4794,47.3794,391.2346],[-72.4722,47.335,373.4349],[-72.5022,47.3266,343.1869],[-72.5476,47.3097,350.9718],[-72.5472,47.2041,369.8992],[-72.5371,47.1837,405.3269]]]]}
,"properties": {"GID_3": "CAN.11.87.6_1","GID_0": "CAN","country": "Canada","GID_1": "CAN.11_1","province": "Québec","NL_NAME_1": "NA","GID_2": "CAN.11.87_1","county": "Portneuf","NL_NAME_2": "NA","city": "Lac-Lapeyrère","VARNAME_3": "NA","NL_NAME_3": "NA","TYPE_3": "NonOrganisé","ENGTYPE_3": "Unorganized","CC_3": "NA","HASC_3": "NA","name": "Lac-Lapeyrère.city","area_km2": 406.5735,"hist_schema_id": "Elevation0-9000","hist_area_km2": {"225": 0.0577,"250": 1.0095,"275": 2.9982,"300": 26.5931,"325": 90.7246,"350": 117.1158,"375": 89.2516,"400": 49.1983,"425": 21.2758,"450": 5.6139,"475": 2.0873,"500": 0.6045,"525": 0.0432}}}