{"type":"Feature","properties":{"GID_3":"CAN.9.40.6_1","GID_0":"CAN","country":"Canada","GID_1":"CAN.9_1","province":"Ontario","NL_NAME_1":"NA","GID_2":"CAN.9.40_1","county":"Peterborough","NL_NAME_2":"NA","city":"Havelock-Belmont-Methuen","VARNAME_3":"NA","NL_NAME_3":"NA","TYPE_3":"Township","ENGTYPE_3":"Township","CC_3":"NA","HASC_3":"NA","name":"Havelock-Belmont-Methuen.city"},
"geometry":{"type": "MultiPolygon","coordinates": [[[[-77.8874,44.7691,340.1181],[-77.9612,44.7519,336.4922],[-77.9658,44.7481,332.1693],[-77.9923,44.7357,333.109],[-78.016,44.7288,307.1685],[-78.0556,44.7239,307.4264],[-78.0617,44.7269,314.8952],[-78.0691,44.7257,313.3705],[-78.0141,44.6126,263.9392],[-77.9998,44.5652,276.5583],[-77.9565,44.48,237.3358],[-77.9131,44.3894,220.0044],[-77.8612,44.4014,193.3122],[-77.8069,44.4109,195.7987],[-77.7599,44.4275,198.239],[-77.7274,44.4365,197.8105],[-77.7592,44.4944,193.6056],[-77.7991,44.576,223.6775],[-77.8148,44.6019,247.7974],[-77.8283,44.6283,291.1076],[-77.8645,44.7188,308.6662],[-77.8874,44.7691,340.1181]]]]}}