{"type":"Feature","properties":{"GID_3":"CAN.12.1.42_1","GID_0":"CAN","country":"Canada","GID_1":"CAN.12_1","province":"Saskatchewan","NL_NAME_1":"NA","GID_2":"CAN.12.1_1","county":"DivisionNo.10","NL_NAME_2":"NA","city":"Muskowekwan85-29","VARNAME_3":"NA","NL_NAME_3":"NA","TYPE_3":"RéserveIndienne","ENGTYPE_3":"IndianReserve","CC_3":"NA","HASC_3":"NA","name":"Muskowekwan85-29.city"},
"geometry":{"type": "MultiPolygon","coordinates": [[[[-103.9843,51.25,667.9814],[-103.9842,51.2554,669.5405],[-103.9955,51.2554,670.3466],[-103.9958,51.2479,674.3572],[-103.9844,51.2478,666.4923],[-103.9843,51.25,667.9814]]],
[[[-103.996,51.2626,668.5778],[-103.9842,51.2626,670.166],[-103.9842,51.2703,668.4401],[-103.9757,51.2703,670.6037],[-103.9759,51.2782,666.3509],[-103.9876,51.2782,660.9438],[-103.9874,51.2704,668.2054],[-103.9956,51.2704,666.6107],[-103.996,51.2626,668.5778]]]]}}