{"type":"Feature","properties":{"GID_3":"CAN.10.1.17_1","GID_0":"CAN","country":"Canada","GID_1":"CAN.10_1","province":"PrinceEdwardIsland","NL_NAME_1":"NA","GID_2":"CAN.10.1_1","county":"Kings","NL_NAME_2":"NA","city":"Lot54","VARNAME_3":"NA","NL_NAME_3":"NA","TYPE_3":"TownshipandRoyalty","ENGTYPE_3":"TownshipandRoyalty","CC_3":"NA","HASC_3":"NA","name":"Lot54.city"},
"geometry":{"type": "MultiPolygon","coordinates": [[[[-62.6101,46.3389,42.2859],[-62.5684,46.2275,9.601],[-62.5639,46.2272,6.1117],[-62.5639,46.2247,1.3855],[-62.5578,46.2239,4.8156],[-62.5542,46.2256,0.0],[-62.5517,46.2294,0.0],[-62.5547,46.2303,5.859],[-62.5519,46.2317,5.8526],[-62.5503,46.23,0.0],[-62.5525,46.2256,0.0],[-62.5475,46.2247,0.5353],[-62.5394,46.2269,2.4543],[-62.5375,46.2303,2.095],[-62.5383,46.2328,4.717],[-62.5317,46.2317,2.9294],[-62.5264,46.2328,7.0306],[-62.5239,46.2311,5.2576],[-62.53,46.2317,2.9294],[-62.5358,46.2294,8.0942],[-62.5403,46.2253,0.0],[-62.5392,46.2211,1.0836],[-62.5342,46.2214,0.0578],[-62.5322,46.2175,4.2396],[-62.5228,46.2183,4.1634],[-62.5089,46.2092,5.0366],[-62.4903,46.2153,0.0],[-62.5036,46.254,20.9523],[-62.5201,46.2919,20.0389],[-62.5225,46.2942,7.4602],[-62.5224,46.2976,7.7397],[-62.544,46.3522,16.3003],[-62.6101,46.3389,42.2859]]]]}}