{"type":"Feature","properties":{"GID_3":"CAN.12.4.51_1","GID_0":"CAN","country":"Canada","GID_1":"CAN.12_1","province":"Saskatchewan","NL_NAME_1":"NA","GID_2":"CAN.12.4_1","county":"DivisionNo.13","NL_NAME_2":"NA","city":"WinslowNo.319","VARNAME_3":"NA","NL_NAME_3":"NA","TYPE_3":"RuralMunicipality","ENGTYPE_3":"RuralMunicipality","CC_3":"NA","HASC_3":"NA","name":"Winslow_No.319.city"},
"geometry":{"type": "MultiPolygon","coordinates": [[[[-108.5548,51.8813,713.5096],[-108.981,51.8819,657.7016],[-108.9797,51.791,689.4813],[-108.9804,51.6201,678.4968],[-108.5558,51.6198,715.5272],[-108.5563,51.7591,605.1594],[-108.5548,51.8813,713.5096]],
[[-108.8256,51.8028,649.3638],[-108.8258,51.7941,648.2822],[-108.8513,51.7942,652.0103],[-108.8512,51.809,647.8243],[-108.8256,51.809,648.1141],[-108.8256,51.8028,649.3638]],
[[-108.6386,51.781,616.0083],[-108.6504,51.7801,624.4021],[-108.6504,51.7872,616.0367],[-108.6387,51.7874,613.2451],[-108.6386,51.781,616.0083]]]]}}