{"type":"Feature","properties":{"GID_3":"CAN.2.4.23_1","GID_0":"CAN","country":"Canada","GID_1":"CAN.2_1","province":"BritishColumbia","NL_NAME_1":"NA","GID_2":"CAN.2.4_1","county":"Cariboo","NL_NAME_2":"NA","city":"BettyCreek18","VARNAME_3":"NA","NL_NAME_3":"NA","TYPE_3":"RéserveIndienne","ENGTYPE_3":"IndianReserve","CC_3":"NA","HASC_3":"NA","name":"Betty_Creek18.city"},
"geometry":{"type": "MultiPolygon","coordinates": [[[[-125.4037,52.913,1112.7655],[-125.3981,52.913,1113.8505],[-125.3979,52.9279,1121.7057],[-125.4095,52.9276,1122.2817],[-125.4098,52.9129,1124.5632],[-125.4037,52.913,1112.7655]]]]}}