{"type":"Feature","properties":{"GID_3":"CAN.12.2.56_1","GID_0":"CAN","country":"Canada","GID_1":"CAN.12_1","province":"Saskatchewan","NL_NAME_1":"NA","GID_2":"CAN.12.2_1","county":"DivisionNo.11","NL_NAME_2":"NA","city":"Warman","VARNAME_3":"NA","NL_NAME_3":"NA","TYPE_3":"Town","ENGTYPE_3":"Town","CC_3":"NA","HASC_3":"NA","name":"Warman.city"},
"geometry":{"type": "MultiPolygon","coordinates": [[[[-106.568,52.3293,511.9984],[-106.5799,52.3293,514.9724],[-106.5799,52.3257,512.6348],[-106.6039,52.3257,513.6718],[-106.6039,52.3192,513.0817],[-106.5953,52.3185,512.4761],[-106.5953,52.3218,513.7477],[-106.5934,52.3217,513.7477],[-106.5934,52.3185,512.4761],[-106.5871,52.3185,513.723],[-106.5871,52.3168,512.6538],[-106.5989,52.3183,513.2214],[-106.5989,52.311,514.3414],[-106.5872,52.311,511.9891],[-106.5871,52.3041,509.7716],[-106.5759,52.3042,509.7748],[-106.5682,52.3093,508.9024],[-106.5661,52.3125,510.7155],[-106.5628,52.3256,511.2978],[-106.568,52.3255,513.3242],[-106.568,52.3293,511.9984]]]]}}