{"type": "Feature","bbox": [-89.1879,49.7797,-89.0882,49.8378],"geometry": {"type": "MultiPolygon","coordinates": [[[[-89.0964,49.83,258.5],[-89.0953,49.8336,258.5],[-89.0883,49.8373,258.5],[-89.1876,49.8378,297.0714],[-89.1879,49.7797,280.3531],[-89.0972,49.7805,295.011],[-89.0955,49.7828,274.5318],[-89.0974,49.7873,258.5],[-89.096,49.792,258.5],[-89.102,49.7984,258.5],[-89.0882,49.8163,258.5],[-89.0964,49.83,258.5]]]]}
,"properties": {"GID_3": "CAN.9.48.8_1","GID_0": "CAN","country": "Canada","GID_1": "CAN.9_1","province": "Ontario","NL_NAME_1": "NA","GID_2": "CAN.9.48_1","county": "ThunderBay","NL_NAME_2": "NA","city": "GullRiver55","VARNAME_3": "NA","NL_NAME_3": "NA","TYPE_3": "RéserveIndienne","ENGTYPE_3": "IndianReserve","CC_3": "NA","HASC_3": "NA","name": "Gull_River55.city","area_km2": 42.55265,"hist_schema_id": "Elevation0-9000","hist_area_km2": {"250": 3.59817,"275": 14.03874,"300": 14.01259,"325": 8.81026,"350": 2.09289}}}