{"type": "Feature","bbox": [-110.0043,51.3581,-109.6601,51.62],"geometry": {"type": "MultiPolygon","coordinates": [[[[-110.0037,51.3866,710.9894],[-109.9893,51.3871,706.6295],[-109.9891,51.3812,711.3046],[-109.9893,51.3728,700.4344],[-110.0036,51.371,697.8056],[-110.0034,51.3581,693.7877],[-109.6612,51.3587,704.9636],[-109.6601,51.6199,711.724],[-110.0043,51.62,717.8907],[-110.0037,51.3866,710.9894]],
[[-109.7773,51.4781,675.2656],[-109.7774,51.4752,671.2565],[-109.7918,51.4754,682.3373],[-109.7917,51.4825,688.1198],[-109.7829,51.4825,685.3312],[-109.7829,51.485,686.6257],[-109.7774,51.4851,684.6076],[-109.7773,51.4781,675.2656]]]]}
,"properties": {"GID_3": "CAN.12.4.30_1","GID_0": "CAN","country": "Canada","GID_1": "CAN.12_1","province": "Saskatchewan","NL_NAME_1": "NA","GID_2": "CAN.12.4_1","county": "DivisionNo.13","NL_NAME_2": "NA","city": "MiltonNo.292","VARNAME_3": "NA","NL_NAME_3": "NA","TYPE_3": "RuralMunicipality","ENGTYPE_3": "RuralMunicipality","CC_3": "NA","HASC_3": "NA","name": "Milton_No.292.city","area_km2": 688.301,"hist_schema_id": "Elevation0-9000","hist_area_km2": {"650": 15.5234,"675": 222.7184,"700": 353.8746,"725": 77.4868,"750": 14.1493,"775": 4.5485}}}