{"type":"Feature","properties":{"GID_3":"CAN.6.1.11_1","GID_0":"CAN","country":"Canada","GID_1":"CAN.6_1","province":"NorthwestTerritories","NL_NAME_1":"NA","GID_2":"CAN.6.1_1","county":"FortSmith","NL_NAME_2":"NA","city":"JeanMarieRiver","VARNAME_3":"NA","NL_NAME_3":"NA","TYPE_3":"Settlement","ENGTYPE_3":"Settlement","CC_3":"NA","HASC_3":"NA","name":"Jean_Marie_River.city"},
"geometry":{"type": "MultiPolygon","coordinates": [[[[-120.7349,61.5166,187.2481],[-120.6427,61.4695,152.0994],[-120.5636,61.5055,130.4913],[-120.5936,61.521,130.2114],[-120.625,61.5311,129.8745],[-120.6391,61.5404,129.4866],[-120.6637,61.5461,132.9625],[-120.665,61.55,129.7501],[-120.7349,61.5166,187.2481]]]]}}