{"type":"Feature","properties":{"featurecla":"River","scalerank":12,"rivernum":21981,"dissolve":"21981River","name":"Stamp","name_alt":null,"note":"ID is link back to CEC data","name_full":"Stamp River","min_zoom":7.0,"strokeweig":0.2,"uident":2112201,"min_label":8.0},
"geometry":{"type": "LineString","coordinates": [[-124.99205481679122,49.3453229838482,111.0945],[-124.97508704335372,49.3626569682232,104.5826],[-124.95775305897872,49.362860418744027,107.1221],[-124.91991126210372,49.3397077494732,120.1833],[-124.88133704335372,49.312567449994027,75.5769]]}}