{"type": "Feature","bbox": [-70.377,47.4502,-70.3493,47.4806],"geometry": {"type": "MultiPolygon","coordinates": [[[[-70.3742,47.4536,2.0272],[-70.373,47.4503,0.0],[-70.3656,47.4502,0.8681],[-70.3611,47.4536,0.0],[-70.3597,47.4572,2.2329],[-70.3493,47.4623,15.9219],[-70.353,47.4762,259.0807],[-70.3558,47.476,274.3607],[-70.3572,47.4806,348.2806],[-70.3673,47.4802,382.9218],[-70.3669,47.4766,395.1457],[-70.3689,47.4763,366.3819],[-70.3675,47.4701,258.2155],[-70.377,47.4688,253.5765],[-70.3742,47.4536,2.0272]]]]}
,"properties": {"GID_3": "CAN.11.17.7_1","GID_0": "CAN","country": "Canada","GID_1": "CAN.11_1","province": "Québec","NL_NAME_1": "NA","GID_2": "CAN.11.17_1","county": "Charlevoix","NL_NAME_2": "NA","city": "Saint-Joseph-de-la-Rive","VARNAME_3": "NA","NL_NAME_3": "NA","TYPE_3": "Village","ENGTYPE_3": "Village","CC_3": "NA","HASC_3": "NA","name": "Saint-Joseph-de-la-Rive.city","area_km2": 4.400373,"hist_schema_id": "Elevation0-9000","hist_area_km2": {"0": 0.530436,"25": 0.401408,"50": 0.34403,"75": 0.344034,"100": 0.17201,"125": 0.172006,"150": 0.315328,"175": 0.258,"200": 0.300994,"225": 0.343984,"250": 0.315308,"275": 0.214973,"300": 0.157642,"325": 0.128974,"350": 0.171963,"375": 0.1433,"400": 0.085982}}}