{"type":"Feature","properties":{"GID_3":"CAN.2.17.4_1","GID_0":"CAN","country":"Canada","GID_1":"CAN.2_1","province":"BritishColumbia","NL_NAME_1":"NA","GID_2":"CAN.2.17_1","county":"MountWaddington","NL_NAME_2":"NA","city":"Apsagayu1A","VARNAME_3":"NA","NL_NAME_3":"NA","TYPE_3":"RéserveIndienne","ENGTYPE_3":"IndianReserve","CC_3":"NA","HASC_3":"NA","name":"Apsagayu1_A.city"},
"geometry":{"type": "MultiPolygon","coordinates": [[[[-126.4854,50.7358,20.1751],[-126.4823,50.7351,43.147],[-126.4815,50.7376,87.777],[-126.4866,50.7383,32.5241],[-126.4854,50.7358,20.1751]]]]}}