{"type": "Feature","bbox": [-72.0741,45.1605,-72.0297,45.1966],"geometry": {"type": "MultiPolygon","coordinates": [[[[-72.0315,45.1605,170.7326],[-72.0297,45.1966,160.0],[-72.0483,45.1923,167.5716],[-72.0699,45.1838,192.4901],[-72.0732,45.1811,188.9726],[-72.0741,45.1746,207.4064],[-72.0654,45.1684,245.7034],[-72.065,45.1609,227.9132],[-72.0315,45.1605,170.7326]]]]}
,"properties": {"GID_3": "CAN.11.78.2_1","GID_0": "CAN","country": "Canada","GID_1": "CAN.11_1","province": "Québec","NL_NAME_1": "NA","GID_2": "CAN.11.78_1","county": "Memphrémagog","NL_NAME_2": "NA","city": "Ayer'sCliff","VARNAME_3": "NA","NL_NAME_3": "NA","TYPE_3": "Village","ENGTYPE_3": "Village","CC_3": "NA","HASC_3": "NA","name": "Ayer's_Cliff.city","area_km2": 10.387436,"hist_schema_id": "Elevation0-9000","hist_area_km2": {"150": 4.214189,"175": 3.363056,"200": 1.853513,"225": 0.732457,"250": 0.224221}}}