{"type":"Feature","properties":{"featurecla":"River","scalerank":10,"rivernum":23010,"dissolve":"23010River","name":"Souris6","name_alt":null,"note":"ID is link back to CEC data","name_full":"Souris River","min_zoom":6.0,"strokeweig":0.2,"uident":1817501,"min_label":7.0},
"geometry":{"type": "LineString","coordinates": [[-101.96764075429122,49.018093166139863,496.6651],[-101.95152747304122,48.975531317181527,493.6955],[-101.93781490793707,48.949774481244027,494.1079],[-101.92430579335372,48.930243231244027,495.4411],[-101.9117732412704,48.921169338014863,505.278],[-101.88239498606207,48.898138739056527,502.8357],[-101.87486731679122,48.887030340619027,489.9305],[-101.8739314443954,48.878688869264863,489.6877],[-101.87267005116622,48.866400457806527,489.9538],[-101.87140865793707,48.8650983744732,489.4793],[-101.85643469960372,48.8506940775982,496.846],[-101.84459387929122,48.838690496869027,505.6779],[-101.8385310537704,48.8275007182232,489.7877],[-101.80943762929122,48.810126043744027,526.6097],[-101.79474850168707,48.797186590619027,498.9747],[-101.7867732412704,48.772894598431527,486.7168],[-101.76325436106207,48.749823309369027,508.8645],[-101.7455134756454,48.729437567181527,484.9206],[-101.7142634756454,48.687689520306527,485.3647],[-101.68219967356207,48.661810614056527,497.4147],[-101.64606686106207,48.639837957806527,493.4482],[-101.61945553293707,48.606390692181527,484.5],[-101.60435950429122,48.5775007182232,484.5],[-101.5665583975204,48.545192775514863,506.0089],[-101.55308997304122,48.520941473431527,484.5],[-101.55968176991622,48.504950262494027,513.0094],[-101.57892818918707,48.482692775514863,523.0412],[-101.58018958241622,48.481227931764863,500.9229],[-101.5768123037704,48.463446356244027,484.5],[-101.55431067616622,48.453884181764863,522.9138],[-101.54674231679122,48.450710353639863,514.8385],[-101.52424068918707,48.404079494264863,479.7214],[-101.49217688710372,48.370672918744027,521.8165],[-101.44904537668707,48.340277410931527,506.3939],[-101.43846594960372,48.315985418744027,478.5149],[-101.4234919912704,48.2833112650982,480.368],[-101.37433834543707,48.255316473431527,501.9481],[-101.3734431631454,48.254828192181527,501.2974],[-101.3719783193954,48.254828192181527,501.2974],[-101.32420813710372,48.255397853639863,530.5856],[-101.2889705068954,48.254828192181527,523.3783],[-101.26341712147872,48.2447370463482,491.5337],[-101.23753821522872,48.226019598431527,484.3333],[-101.13792884022872,48.1402448588482,467.2471],[-101.10960852772872,48.120876369264863,471.2783],[-101.07770748606207,48.104803778119027,482.146],[-101.0594783193954,48.099432684369027,483.7911],[-101.02086341054122,48.091620184369027,462.9293],[-100.94188391835372,48.079657293744027,490.7004],[-100.88556881418707,48.093573309369027,486.1494],[-100.86847897043707,48.1004499369732,481.6754],[-100.8370662100204,48.1175397807232,475.0367],[-100.81989498606207,48.124335028119027,482.2551],[-100.78058834543707,48.1326764994732,485.6203],[-100.7643123037704,48.1392682963482,482.5987],[-100.75487219960372,48.150824285931527,489.444],[-100.74840247304122,48.164577541139863,479.6166],[-100.7379451162704,48.175848699994027,471.4798],[-100.72276770741622,48.184597072389863,455.2894],[-100.70539303293707,48.191961981244027,457.2721],[-100.6869197256454,48.197821356244027,457.1989],[-100.66808020741622,48.201483465619027,457.4932],[-100.62767493397872,48.203802801556527,463.1239],[-100.6085505850204,48.207302150514863,458.3682],[-100.57184811106207,48.218939520306527,461.3424],[-100.55597897043707,48.226874090619027,452.1808],[-100.54246985585372,48.236761785931527,448.1342],[-100.5082087881454,48.270697332806527,444.1306],[-100.4779353506454,48.305975653119027,442.92],[-100.46007239491622,48.330389715619027,442.732],[-100.43635006418707,48.367946681764863,441.4373],[-100.41535397043707,48.406439520306527,442.0555],[-100.40977942616622,48.419501043744027,442.1342],[-100.40510006418707,48.446600653119027,444.6131],[-100.40583248606207,48.460394598431527,444.6745],[-100.40925045481207,48.473659572389863,443.8258],[-100.41563880116622,48.486599025514863,443.0855],[-100.43537350168707,48.5106061869732,447.1967],[-100.44831295481207,48.5208600932232,444.4521],[-100.49518795481207,48.546942449994027,440.2486],[-100.57917232981207,48.584418035931527,433.8665],[-100.61497962147872,48.596747137494027,436.8703],[-100.65233313710372,48.606960353639863,433.4087],[-100.72223873606207,48.634059963014863,431.5674],[-100.7535701162704,48.651068426556527,431.2377],[-100.80821692616622,48.691473699994027,431.2339],[-100.81822669179122,48.7029889994732,430.9891],[-100.8353572256454,48.742458400514863,435.1758],[-100.86449134022872,48.778265692181527,434.6837],[-100.89073645741622,48.815252996869027,430.3116],[-100.92560787668707,48.8487409525982,430.1817],[-100.9359431631454,48.860378322389863,428.5],[-100.9435115225204,48.8729108744732,430.1343],[-100.9745173818954,48.938299871869027,430.5175],[-100.97606360585372,48.965155340619027,434.1966],[-100.9674373037704,49.0176862650982,444.0165]]}}