{"type": "Feature","bbox": [-72.1822,48.3496,-71.9674,48.5058],"geometry": {"type": "MultiPolygon","coordinates": [[[[-71.9794,48.454,99.0],[-72.0021,48.4588,99.0],[-72.0909,48.5002,99.0],[-72.0905,48.5057,99.0],[-72.133,48.5058,99.0],[-72.175,48.4248,294.5397],[-72.168,48.4232,245.9873],[-72.1552,48.4042,272.705],[-72.1595,48.4041,303.3385],[-72.1619,48.4013,273.6641],[-72.1719,48.401,293.0302],[-72.1762,48.3981,282.6139],[-72.1807,48.3784,300.4131],[-72.1822,48.378,300.4131],[-72.0431,48.3496,316.0327],[-72.0299,48.3771,266.3563],[-72.0061,48.3723,235.0134],[-72.0032,48.3769,243.9776],[-71.9945,48.3826,230.8011],[-71.9754,48.3819,258.7246],[-71.9721,48.3854,179.2143],[-71.9813,48.3983,264.8092],[-71.9775,48.4028,215.9093],[-71.9674,48.4274,99.0],[-71.9794,48.454,99.0]]]]}
,"properties": {"GID_3": "CAN.11.52.1_1","GID_0": "CAN","country": "Canada","GID_1": "CAN.11_1","province": "Québec","NL_NAME_1": "NA","GID_2": "CAN.11.52_1","county": "LeDomaine-du-Roy","NL_NAME_2": "NA","city": "Chambord","VARNAME_3": "NA","NL_NAME_3": "NA","TYPE_3": "Municipalité","ENGTYPE_3": "Municipality","CC_3": "NA","HASC_3": "NA","name": "Chambord.city","area_km2": 181.8532,"hist_schema_id": "Elevation0-9000","hist_area_km2": {"100": 70.4551,"125": 10.5206,"150": 9.2569,"175": 5.389,"200": 6.2203,"225": 10.6131,"250": 21.554,"275": 25.3149,"300": 19.8542,"325": 2.6186,"350": 0.0564}}}