{"type":"Feature","properties":{"GID_3":"CAN.12.3.30_1","GID_0":"CAN","country":"Canada","GID_1":"CAN.12_1","province":"Saskatchewan","NL_NAME_1":"NA","GID_2":"CAN.12.3_1","county":"DivisionNo.12","NL_NAME_2":"NA","city":"RosemountNo.378","VARNAME_3":"NA","NL_NAME_3":"NA","TYPE_3":"RuralMunicipality","ENGTYPE_3":"RuralMunicipality","CC_3":"NA","HASC_3":"NA","name":"Rosemount_No.378.city"},
"geometry":{"type": "MultiPolygon","coordinates": [[[[-108.1454,52.2308,666.9897],[-108.1452,52.3181,682.1373],[-108.1626,52.3181,686.8327],[-108.1631,52.4057,697.8991],[-108.4506,52.4052,686.9083],[-108.4505,52.3176,704.8098],[-108.4318,52.3176,699.9025],[-108.4314,52.1429,641.2171],[-108.3929,52.1433,626.949],[-108.3817,52.1413,625.7126],[-108.3697,52.1443,628.317],[-108.3598,52.1404,625.5],[-108.3535,52.1396,625.5],[-108.344,52.1424,626.0527],[-108.3321,52.142,625.5],[-108.3184,52.1382,631.5367],[-108.3111,52.1333,626.8688],[-108.2993,52.129,625.5],[-108.2801,52.1311,625.5],[-108.257,52.1281,630.5921],[-108.2628,52.1257,630.8552],[-108.2509,52.121,625.5],[-108.1954,52.1186,625.6677],[-108.1887,52.1243,630.8094],[-108.1873,52.119,628.1301],[-108.1771,52.1106,626.9558],[-108.1567,52.1045,626.9714],[-108.145,52.1032,640.4014],[-108.1454,52.2308,666.9897]],
[[-108.2081,52.3767,702.262],[-108.2081,52.3755,702.262],[-108.2108,52.3755,702.262],[-108.2108,52.3693,693.83],[-108.2219,52.3692,689.0123],[-108.2219,52.3765,690.3964],[-108.2081,52.3767,702.262]]]]}}