{"type":"Feature","properties":{"GID_3":"CAN.11.25.18_1","GID_0":"CAN","country":"Canada","GID_1":"CAN.11_1","province":"Québec","NL_NAME_1":"NA","GID_2":"CAN.11.25_1","county":"Drummond","NL_NAME_2":"NA","city":"Saint-Nicéphore","VARNAME_3":"NA","NL_NAME_3":"NA","TYPE_3":"Ville","ENGTYPE_3":"Ville","CC_3":"NA","HASC_3":"NA","name":"Saint-Nicéphore.city"},
"geometry":{"type": "MultiPolygon","coordinates": [[[[-72.5092,45.8325,89.2559],[-72.5143,45.8281,90.8426],[-72.4315,45.7813,121.8494],[-72.3858,45.7528,138.9488],[-72.2995,45.8239,115.7012],[-72.2985,45.8262,118.2804],[-72.2931,45.8294,99.1325],[-72.2745,45.8306,98.9911],[-72.2727,45.8327,106.9642],[-72.2758,45.8356,98.0],[-72.2963,45.8434,99.3375],[-72.3089,45.8445,97.0],[-72.3179,45.8385,97.0],[-72.3197,45.8265,104.0163],[-72.3244,45.8209,99.7053],[-72.3356,45.8151,99.6565],[-72.3428,45.8155,95.5],[-72.3533,45.824,95.5],[-72.3566,45.8322,117.1223],[-72.3558,45.8363,103.3918],[-72.364,45.8445,96.0291],[-72.376,45.8474,94.5],[-72.3892,45.8546,97.7526],[-72.4086,45.86,96.7758],[-72.4236,45.8609,95.3288],[-72.4567,45.8325,101.9495],[-72.4881,45.8506,87.7082],[-72.5092,45.8325,89.2559]]]]}}