{"type":"Feature","properties":{"GID_3":"CAN.2.14.13_1","GID_0":"CAN","country":"Canada","GID_1":"CAN.2_1","province":"BritishColumbia","NL_NAME_1":"NA","GID_2":"CAN.2.14_1","county":"GreaterVancouver","NL_NAME_2":"NA","city":"Katzie1","VARNAME_3":"NA","NL_NAME_3":"NA","TYPE_3":"RéserveIndienne","ENGTYPE_3":"IndianReserve","CC_3":"NA","HASC_3":"NA","name":"Katzie1.city"},
"geometry":{"type": "MultiPolygon","coordinates": [[[[-122.6716,49.2058,8.4872],[-122.6781,49.2057,4.894],[-122.6781,49.2003,0.0],[-122.6668,49.1998,0.6098],[-122.6666,49.2063,2.0785],[-122.6716,49.2058,8.4872]]]]}}