{"type": "Feature","bbox": [-122.9857,55.1282,-122.9807,55.1325],"geometry": {"type": "MultiPolygon","coordinates": [[[[-122.9807,55.1282,690.8827],[-122.9838,55.1324,699.9754],[-122.9857,55.1325,698.189],[-122.984,55.1289,693.9307],[-122.9807,55.1282,690.8827]]]]}
,"properties": {"GID_3": "CAN.2.12.12_1","GID_0": "CAN","country": "Canada","GID_1": "CAN.2_1","province": "BritishColumbia","NL_NAME_1": "NA","GID_2": "CAN.2.12_1","county": "Fraser-FortGeorge","NL_NAME_2": "NA","city": "Parsnip5","VARNAME_3": "NA","NL_NAME_3": "NA","TYPE_3": "RéserveIndienne","ENGTYPE_3": "IndianReserve","CC_3": "NA","HASC_3": "NA","name": "Parsnip5.city","area_km2": 0.06060824,"hist_schema_id": "Elevation0-9000","hist_area_km2": {"675": 0.01212114,"700": 0.0484871}}}