{"type":"Feature","properties":{"GID_3":"CAN.11.51.6_1","GID_0":"CAN","country":"Canada","GID_1":"CAN.11_1","province":"Québec","NL_NAME_1":"NA","GID_2":"CAN.11.51_1","county":"LeCentre-de-la-Mauricie","NL_NAME_2":"NA","city":"Notre-Dame-du-Mont-Carmel","VARNAME_3":"NA","NL_NAME_3":"NA","TYPE_3":"MunicipalitéDeParoisse","ENGTYPE_3":"ParishMunicipality","CC_3":"NA","HASC_3":"NA","name":"Notre-Dame-du-Mont-Carmel.city"},
"geometry":{"type": "MultiPolygon","coordinates": [[[[-72.7005,46.4235,12.9683],[-72.69,46.4191,24.9575],[-72.6794,46.4104,17.3701],[-72.5896,46.4744,65.4194],[-72.6198,46.4956,124.4263],[-72.6037,46.5056,176.4991],[-72.5994,46.5051,146.6123],[-72.5942,46.5068,148.0644],[-72.5356,46.5477,121.8606],[-72.5834,46.5806,134.371],[-72.6565,46.5331,124.9214],[-72.7197,46.4895,113.6752],[-72.7231,46.4919,114.69],[-72.7215,46.4882,112.8464],[-72.7602,46.461,32.2911],[-72.7504,46.4539,32.1887],[-72.7476,46.4539,37.1423],[-72.7436,46.4509,30.7921],[-72.7402,46.4444,54.0275],[-72.7338,46.4397,28.453],[-72.7151,46.4279,12.0],[-72.7005,46.4235,12.9683]]]]}}