{"type":"Feature","properties":{"GID_3":"CAN.11.11.3_1","GID_0":"CAN","country":"Canada","GID_1":"CAN.11_1","province":"Québec","NL_NAME_1":"NA","GID_2":"CAN.11.11_1","county":"Bécancour","NL_NAME_2":"NA","city":"Fortierville","VARNAME_3":"NA","NL_NAME_3":"NA","TYPE_3":"Municipalité","ENGTYPE_3":"Municipality","CC_3":"NA","HASC_3":"NA","name":"Fortierville.city"},
"geometry":{"type": "MultiPolygon","coordinates": [[[[-72.1078,46.4834,37.1114],[-72.052,46.443,89.0912],[-71.9594,46.5063,83.5613],[-71.9949,46.5307,79.4839],[-72.0201,46.5343,57.6273],[-72.0233,46.5333,58.9505],[-72.0142,46.5263,72.2328],[-72.0269,46.5207,61.2595],[-72.0126,46.5095,69.7011],[-72.0201,46.5048,59.2576],[-72.0238,46.5048,61.801],[-72.0253,46.5031,61.2117],[-72.0273,46.5043,68.449],[-72.0278,46.5023,62.8009],[-72.0313,46.5039,65.1618],[-72.0276,46.5005,56.1531],[-72.029,46.4983,59.0648],[-72.0336,46.4995,67.4534],[-72.0373,46.4973,56.2376],[-72.0357,46.4991,60.7878],[-72.0405,46.4991,54.4563],[-72.0414,46.4977,55.6993],[-72.0433,46.4989,61.4977],[-72.0459,46.4972,55.4734],[-72.0481,46.4979,59.1748],[-72.0491,46.4949,54.3218],[-72.0506,46.4957,51.5463],[-72.0495,46.4972,66.8315],[-72.0547,46.4989,72.5184],[-72.0556,46.4978,69.0024],[-72.0535,46.4964,59.1944],[-72.0569,46.4963,58.6621],[-72.0551,46.495,54.744],[-72.0584,46.4947,51.2359],[-72.0566,46.4928,53.715],[-72.06,46.4928,53.7047],[-72.0603,46.4904,55.4577],[-72.0635,46.4909,54.6112],[-72.0647,46.4889,55.9713],[-72.0749,46.4914,41.0916],[-72.0756,46.49,38.9006],[-72.0816,46.489,39.0388],[-72.0811,46.4874,37.2415],[-72.0863,46.4873,34.8256],[-72.0883,46.4898,37.035],[-72.0914,46.4892,42.9949],[-72.0911,46.4871,33.0231],[-72.0926,46.4869,46.5397],[-72.1007,46.4919,53.9677],[-72.1035,46.4892,39.3999],[-72.1055,46.4893,36.3649],[-72.1048,46.4884,34.6588],[-72.1078,46.4834,37.1114]]]]}}