{"type":"Feature","properties":{"GID_3":"CAN.3.20.7_1","GID_0":"CAN","country":"Canada","GID_1":"CAN.3_1","province":"Manitoba","NL_NAME_1":"NA","GID_2":"CAN.3.20_1","county":"DivisionNo.6","NL_NAME_2":"NA","city":"Virden","VARNAME_3":"NA","NL_NAME_3":"NA","TYPE_3":"Town","ENGTYPE_3":"Town","CC_3":"NA","HASC_3":"NA","name":"Virden.city"},
"geometry":{"type": "MultiPolygon","coordinates": [[[[-100.908,49.8799,443.5206],[-100.9309,49.88,441.0651],[-100.9306,49.865,439.5843],[-100.9396,49.866,442.5658],[-100.9433,49.8654,443.5103],[-100.9431,49.8634,442.0759],[-100.9479,49.8652,445.1204],[-100.9538,49.8652,447.9361],[-100.9538,49.8449,448.0237],[-100.9647,49.8449,448.4859],[-100.9647,49.8431,448.5623],[-100.9432,49.8434,440.5141],[-100.9432,49.8395,439.9085],[-100.9345,49.8395,436.7206],[-100.9355,49.8432,442.8587],[-100.9192,49.8427,436.3295],[-100.9191,49.8726,441.3354],[-100.908,49.8725,445.1636],[-100.908,49.8799,443.5206]]]]}}