{"type": "Feature","bbox": [-122.1083,51.8145,-122.0814,51.8265],"geometry": {"type": "MultiPolygon","coordinates": [[[[-122.1075,51.8177,900.4921],[-122.1072,51.8145,922.5441],[-122.0814,51.8147,978.8936],[-122.0816,51.8265,979.6456],[-122.1083,51.8262,910.7273],[-122.1075,51.8177,900.4921]]]]}
,"properties": {"GID_3": "CAN.2.4.70_1","GID_0": "CAN","country": "Canada","GID_1": "CAN.2_1","province": "BritishColumbia","NL_NAME_1": "NA","GID_2": "CAN.2.4_1","county": "Cariboo","NL_NAME_2": "NA","city": "SandyHarry4","VARNAME_3": "NA","NL_NAME_3": "NA","TYPE_3": "RéserveIndienne","ENGTYPE_3": "IndianReserve","CC_3": "NA","HASC_3": "NA","name": "Sandy_Harry4.city","area_km2": 2.385235,"hist_schema_id": "Elevation0-9000","hist_area_km2": {"900": 0.96983,"925": 0.58975,"950": 0.484919,"975": 0.340736}}}