{"type":"Feature","properties":{"GID_3":"CAN.4.7.19_1","GID_0":"CAN","country":"Canada","GID_1":"CAN.4_1","province":"NewBrunswick","NL_NAME_1":"NA","GID_2":"CAN.4.7_1","county":"Madawaska","NL_NAME_2":"NA","city":"Saint-Léonard","VARNAME_3":"NA","NL_NAME_3":"NA","TYPE_3":"Parish","ENGTYPE_3":"Parish","CC_3":"NA","HASC_3":"NA","name":"Saint-Léonard.city"},
"geometry":{"type": "MultiPolygon","coordinates": [[[[-67.9274,47.2074,172.6458],[-67.951,47.1909,129.0],[-67.944,47.1768,129.0],[-67.9389,47.1711,130.1785],[-67.9135,47.1878,240.5936],[-67.8998,47.173,220.2673],[-67.9271,47.1549,128.5],[-67.9099,47.1472,129.8339],[-67.9035,47.1365,128.5],[-67.8909,47.1256,128.5],[-67.8893,47.1106,128.5],[-67.8794,47.102,137.8383],[-67.8684,47.1005,130.0266],[-67.8452,47.0912,128.5],[-67.8267,47.1117,208.8691],[-67.8197,47.109,216.7318],[-67.8201,47.1171,213.8793],[-67.817,47.1157,214.6365],[-67.7849,47.1605,253.6698],[-67.7884,47.1614,262.3227],[-67.7732,47.1808,279.8733],[-67.7714,47.18,274.4911],[-67.7522,47.1855,276.4092],[-67.7591,47.1967,264.0832],[-67.755,47.1981,263.1844],[-67.7619,47.2096,284.7524],[-67.6892,47.2317,261.5442],[-67.6892,47.4494,340.3038],[-67.8495,47.2824,288.8411],[-67.8771,47.2646,254.297],[-67.8805,47.2655,233.1821],[-67.8915,47.2475,237.6273],[-67.8994,47.2495,225.3254],[-67.9149,47.2126,180.3127],[-67.919,47.2137,161.0048],[-67.9299,47.2221,144.1649],[-67.9261,47.2083,168.7496],[-67.9274,47.2074,172.6458]]]]}}