{"type":"Feature","properties":{"GID_3":"CAN.3.10.5_1","GID_0":"CAN","country":"Canada","GID_1":"CAN.3_1","province":"Manitoba","NL_NAME_1":"NA","GID_2":"CAN.3.10_1","county":"DivisionNo.19","NL_NAME_2":"NA","city":"CraneRiver51","VARNAME_3":"NA","NL_NAME_3":"NA","TYPE_3":"RéserveIndienne","ENGTYPE_3":"IndianReserve","CC_3":"NA","HASC_3":"NA","name":"Crane_River51.city"},
"geometry":{"type": "MultiPolygon","coordinates": [[[[-99.2531,51.4741,249.5861],[-99.2045,51.4743,258.6855],[-99.2048,51.5036,249.9206],[-99.1931,51.5039,250.8968],[-99.1928,51.5267,247.9488],[-99.1991,51.5281,249.6751],[-99.2033,51.527,248.8983],[-99.2105,51.5437,247.4316],[-99.2131,51.544,246.5963],[-99.2199,51.5396,249.8359],[-99.2245,51.5412,256.3229],[-99.2227,51.5489,257.6841],[-99.2261,51.5583,246.9625],[-99.2243,51.566,246.0],[-99.2262,51.5684,246.0],[-99.2315,51.565,246.0],[-99.2356,51.5482,259.0276],[-99.2442,51.542,246.0],[-99.2526,51.5267,255.7657],[-99.2585,51.5213,251.3427],[-99.2658,51.5194,246.0],[-99.274,51.4943,247.48],[-99.2734,51.4799,247.0],[-99.2711,51.474,247.0],[-99.2531,51.4741,249.5861]]]]}}