{"type":"Feature","properties":{"featurecla":"River","scalerank":11,"rivernum":21481,"dissolve":"21481River","name":"null625","name_alt":null,"note":"ID is link back to CEC data","name_full":null,"min_zoom":6.7,"strokeweig":0.2,"uident":1325101,"min_label":7.7},
"geometry":{"type": "LineString","coordinates": [[-88.1000056631454,66.030381577598192,256.4903],[-88.070301887103724,66.021592515098192,256.8569],[-88.0235896475204,65.98444244999402,246.1916],[-88.0370173818954,65.95490143436902,255.3908],[-88.0284724600204,65.92816803593152,244.0878],[-87.9740291006454,65.873643296348192,202.906],[-87.887318488666224,65.82269928593152,209.4111],[-87.795155402728724,65.77204010624402,224.2166],[-87.741444465228724,65.74213287968152,175.0247],[-87.688710090228724,65.69843170780652,188.4532],[-87.647572394916224,65.67560455936902,163.4762],[-87.572621223041224,65.66107819218152,151.6856],[-87.421945767312067,65.647569077598192,124.7912],[-87.384877082416224,65.636826890098192,94.7909],[-87.356312629291224,65.61920807499402,82.8647],[-87.358631965228724,65.581081447389863,82.1384],[-87.342640754291224,65.56525299686902,72.783],[-87.220529751687067,65.51032135624402,47.934],[-87.138498501687067,65.486843166139863,22.5661],[-87.093088345437067,65.47894928593152,21.4153]]}}