{"type":"Feature","properties":{"featurecla":"River","scalerank":8,"rivernum":655,"dissolve":"655River","name":"Thlewiaza6","name_alt":null,"note":null,"min_zoom":7.0,"strokeweig":0.25,"name_en":"Thlewiaza","min_label":8.0},
"geometry":{"type": "LineString","coordinates": [[-97.068603515625,60.36810944218162,174.8534],[-97.049560546875,60.367938543744117,185.7675],[-96.874267578125,60.40558502811912,156.5905],[-96.814794921874991,60.44782135624412,149.0],[-96.756201171874991,60.461786199994123,149.0],[-96.72119140625,60.481073309369123,145.7074],[-96.701904296875,60.48541901249412,141.2126],[-96.66064453125,60.48480866093162,149.3558],[-96.640722656249991,60.48663971561912,143.9121],[-96.622802734375,60.49225494999412,137.8428],[-96.609130859375,60.50983307499412,141.6315],[-96.572558593749989,60.53632233280662,133.8763],[-96.564746093749989,60.53937409061912,134.7015],[-96.531982421875,60.53949616093162,133.7264],[-96.518115234374989,60.535663153119117,133.7052],[-96.499853515624991,60.525751043744123,141.5994],[-96.44384765625,60.551385809369123,143.5562],[-96.3876953125,60.551532293744117,131.4854],[-96.330859374999989,60.535272528119123,137.0814],[-96.273291015624991,60.512079168744123,135.2522],[-96.241796874999991,60.50433991093162,136.1226],[-96.173876953124989,60.49799225468162,123.0007],[-96.109619140625,60.47626373905662,110.0],[-96.086596679687489,60.459833074994123,118.8208],[-96.077685546874989,60.46124909061912,112.6089],[-96.069921874999991,60.466815496869117,112.6592],[-96.06103515625,60.47113678593162,109.0],[-96.035986328124991,60.47553131718162,108.5],[-96.013916015625,60.476581121869117,108.0],[-95.998095703124989,60.470575262494123,114.0068],[-95.9921875,60.454120184369117,109.6317],[-96.003710937499989,60.44232819218162,118.0111],[-96.006201171874991,60.43439362186912,102.5239],[-95.928515624999989,60.409198309369117,108.3864],[-95.808837890625,60.39838287968162,112.3156],[-95.749804687499989,60.38068268436912,94.5],[-95.719042968749989,60.37555573124412,94.5],[-95.689868164062489,60.375018621869117,94.5],[-95.674169921874991,60.377069403119123,94.5],[-95.663818359375,60.38239166874412,94.5],[-95.663867187499989,60.39215729374412,95.8347],[-95.66875,60.405877996869123,99.5541],[-95.670214843749989,60.41803619999412,95.9772],[-95.660083007812489,60.423358465619117,88.5],[-95.427294921874989,60.44379303593162,81.1766],[-95.375292968749989,60.47443268436912,71.798],[-95.362402343749991,60.47772858280662,67.2016],[-95.3486328125,60.47870514530662,63.5],[-95.334814453124991,60.47797272343162,69.5453],[-95.32373046875,60.47540924686912,60.0],[-95.298999023437489,60.46686432499412,58.6315],[-95.286425781249989,60.46491119999412,56.0],[-95.213671874999989,60.47296784061912,64.676],[-95.160400390625,60.49506256718162,53.3487],[-94.935351562499989,60.516717840619123,35.1359],[-94.812670898437489,60.50287506718162,16.8545],[-94.800585937499989,60.498407293744123,15.5742]]}}