{"type":"Feature","properties":{"featurecla":"River","scalerank":12,"rivernum":21180,"dissolve":"21180River","name":"Kazan1","name_alt":null,"note":"ID is link back to CEC data","name_full":"Kazan River","min_zoom":7.0,"strokeweig":0.2,"uident":1445101,"min_label":8.0},
"geometry":{"type": "LineString","coordinates": [[-100.6698298818954,61.737168686973192,277.0],[-100.6805720693954,61.707953192181527,280.5],[-100.69005286366622,61.672634181764863,283.5476],[-100.6610408193954,61.522406317181527,293.0],[-100.65221106679122,61.439317124473192,325.76],[-100.6612849600204,61.411078192181527,311.2478],[-100.68028723866622,61.396307684369027,301.5191],[-100.74128170481207,61.374457098431527,302.1596],[-100.85065670481207,61.359157619264863,303.2219],[-100.9276423818954,61.345078843223192,311.4231],[-100.9625544912704,61.320827541139863,308.9703],[-100.98395748606207,61.300726629681527,304.9611],[-100.99010169179122,61.277777410931527,303.0],[-100.96092688710372,61.242295640098192,308.0]]}}