{"type":"Feature","properties":{"featurecla":"River","scalerank":11,"rivernum":21455,"dissolve":"21455River","name":"Meadowbank","name_alt":null,"note":"ID is link back to CEC data","name_full":"Meadowbank River","min_zoom":6.7,"strokeweig":0.2,"uident":1336401,"min_label":7.7},
"geometry":{"type": "LineString","coordinates": [[-97.1285701162704,65.89374420780652,49.6637],[-97.104074673562067,65.883083400514863,86.8285],[-97.0526423818954,65.87689850468152,137.5284],[-96.866444465228724,65.87946198124402,106.8028],[-96.755441861062067,65.86701080936902,104.3201],[-96.670399543353724,65.862901108848192,125.5774],[-96.606068488666224,65.84979889530652,74.9103],[-96.545236782937067,65.82794830936902,74.4726],[-96.428049282937067,65.77887604374402,90.5219],[-96.2657771475204,65.74762604374402,126.73],[-96.1979060537704,65.73956940311902,158.2222],[-96.1383357412704,65.726182358848192,129.4675],[-96.1124568350204,65.715928452598192,108.0795],[-96.082102017312067,65.695420640098192,115.4029],[-96.033680793353724,65.649033921348192,144.2083],[-95.9850154287704,65.59393952030652,132.4664],[-95.898671027728724,65.53217194218152,138.4381],[-95.8937068350204,65.51483795780652,128.0757],[-95.909494595437067,65.49225494999402,170.1341],[-95.937367316791224,65.46259186405652,148.2649],[-95.9376521475204,65.43976471561902,136.2621]]}}