{"type":"Feature","properties":{"featurecla":"River","scalerank":5,"rivernum":161,"dissolve":"161River","name":"Thelon3","name_alt":null,"note":null,"min_zoom":4.7,"strokeweig":0.2,"name_en":"Thelon","min_label":5.7},
"geometry":{"type": "LineString","coordinates": [[-104.7057373046875,63.26972077030662,222.9147],[-104.7159912109375,63.274774481244123,210.5457],[-104.668212890625,63.33502838749412,193.9849],[-104.681396484375,63.35993073124412,201.5864],[-104.67333984375,63.379413153119117,206.7697],[-104.63408203125,63.41132233280662,192.4234],[-104.61801757812499,63.431170965619117,193.2538],[-104.5934326171875,63.47553131718162,212.1491],[-104.575732421875,63.49664948124412,196.6315],[-104.5543701171875,63.511737371869117,185.5],[-104.50766601562499,63.535419012494117,200.5915],[-104.486376953125,63.55158112186912,190.0155],[-104.42802734375,63.62299225468162,189.136],[-104.494140625,63.62189362186912,189.5332],[-104.5243408203125,63.629657293744117,188.1682],[-104.5248291015625,63.650897528119117,157.4567],[-104.516845703125,63.654803778119117,156.8469],[-104.47641601562499,63.664569403119117,156.9502],[-104.43876953125,63.68866608280662,157.6145],[-104.424609375,63.69183991093162,178.7819],[-104.392333984375,63.717792059369117,220.091],[-104.34619140625,63.77033112186912,155.7452],[-104.29648437499999,63.81207916874412,155.3789],[-104.233935546875,63.80292389530662,158.6685],[-104.163330078125,63.81708405155662,155.1951],[-104.1437255859375,63.82538483280662,184.4757],[-104.1246826171875,63.838251043744123,197.6711],[-103.968017578125,63.90766022343162,168.3388],[-103.955078125,63.921502996869123,188.6122],[-103.94418945312499,63.93768952030662,154.5],[-103.873095703125,63.99347565311912,176.6882],[-103.89340820312499,64.010614324994123,163.7343],[-103.89287109375,64.01679108280662,164.7501],[-103.87973632812499,64.020868231244123,179.5558],[-103.862548828125,64.031366278119123,159.4361],[-103.8082763671875,64.082294012494117,149.0],[-103.79541015625,64.088153387494117,155.6633],[-103.6984130859375,64.17511627811912,148.3909],[-103.69174804687499,64.18634674686912,150.741],[-103.6906005859375,64.198749090619117,147.5],[-103.69091796875,64.21222565311912,144.0],[-103.68876953125,64.22687409061912,154.014],[-103.689501953125,64.233758856244123,156.0564],[-103.69189453125,64.24017975468162,156.4892],[-103.689990234375,64.24494049686912,158.0098],[-103.6664306640625,64.24811432499412,156.6147],[-103.6578125,64.25141022343162,156.479],[-103.640380859375,64.26044342655662,141.0],[-103.513427734375,64.29755280155662,153.363],[-103.49638671875,64.308856512494117,153.7071],[-103.12126464843749,64.32440827030662,142.7912],[-103.05949707031249,64.34052155155662,121.4964],[-103.02475585937499,64.335223699994117,120.1509],[-102.96127929687499,64.31500885624412,120.3634],[-102.90087890625,64.30621979374412,122.0624],[-102.77861328124999,64.30219147343162,116.3229],[-102.68596191406249,64.288934637494123,115.7962],[-102.66943359375,64.280633856244123,111.1738],[-102.66203613281249,64.266620184369117,120.0887],[-102.66008300781249,64.21930573124412,113.4678],[-102.65678710937499,64.200311590619123,108.0],[-102.64677734374999,64.18488190311912,107.0],[-102.62614746093749,64.17169830936912,116.4495],[-102.59746093749999,64.16168854374412,118.0807],[-102.5810546875,64.158710028119117,107.7165],[-102.5640625,64.15802643436912,108.3712],[-102.54667968749999,64.16168854374412,117.7886],[-102.51616210937499,64.17548248905662,117.2843],[-102.49887695312499,64.17853424686912,105.0294],[-102.39641113281249,64.17462799686912,104.616],[-102.14194335937499,64.202411199994117,109.8287],[-102.09111328124999,64.233758856244123,114.9746],[-102.06938476562499,64.244501043744123,120.5159],[-102.04545898437499,64.25287506718162,128.5195],[-102.02043457031249,64.25836823124412,117.9923],[-101.94321289062499,64.260370184369123,129.6804],[-101.92431640625,64.26715729374412,117.8398],[-101.88671875,64.29645416874412,97.7704],[-101.86752929687499,64.30792877811912,105.6793],[-101.85141601562499,64.321649481244123,109.1057],[-101.8447265625,64.339862371869117,96.0],[-101.84409179687499,64.36237213749412,105.8428],[-101.84025878906249,64.38178131718162,122.2002],[-101.83024902343749,64.39813873905662,105.0184],[-101.81120605468749,64.411249090619123,106.434]]}}