{"type":"Feature","properties":{"featurecla":"River","scalerank":12,"rivernum":21333,"dissolve":"21333River","name":"null562","name_alt":null,"note":"ID is link back to CEC data","name_full":null,"min_zoom":7.0,"strokeweig":0.2,"uident":1380301,"min_label":8.0},
"geometry":{"type": "LineString","coordinates": [[-94.557443814187067,63.482448634889863,109.3603],[-94.456288215228724,63.505560614056527,102.8523],[-94.3553767568954,63.516180731244027,104.3847],[-94.256418423562067,63.510117905723192,101.2301],[-94.176747199603724,63.479274806764863,100.3281],[-94.066029426166224,63.459173895306527,103.3127],[-93.949696418353724,63.469427801556527,103.0805],[-93.879953579812067,63.487087306764863,78.0994],[-93.746408657937067,63.489447332806527,73.3576]]}}