{"type":"Feature","properties":{"featurecla":"River","scalerank":12,"rivernum":21382,"dissolve":"21382River","name":"null60","name_alt":null,"note":"ID is link back to CEC data","name_full":null,"min_zoom":7.0,"strokeweig":0.2,"uident":1355101,"min_label":8.0},
"geometry":{"type": "LineString","coordinates": [[-92.634144660541224,64.617702541139863,139.6056],[-92.6134333975204,64.614772853639863,127.3811],[-92.589466926166224,64.61261627811902,125.3123],[-92.529855923562067,64.60138580936902,115.9084],[-92.482045051166224,64.59369537968152,109.3342],[-92.450795051166224,64.581081447389863,114.9869],[-92.3817439443954,64.538356838014863,107.8229],[-92.340199348041224,64.50812409061902,107.4925],[-92.290150519916224,64.482936916139863,96.5475],[-92.275990363666224,64.46185944218152,94.6274],[-92.288929816791224,64.45172760624402,107.921],[-92.333811001687067,64.44550202030652,108.507],[-92.342518683978724,64.43695709843152,96.3863],[-92.288563605853724,64.39252350468152,91.53]]}}