{"type":"Feature","properties":{"featurecla":"Lake Centerline","scalerank":5,"rivernum":161,"dissolve":"161Lake Centerline","name":"Thelon6","name_alt":null,"note":null,"min_zoom":4.7,"strokeweig":0.25,"name_en":"Thelon","min_label":5.7},
"geometry":{"type": "LineString","coordinates": [[-97.103271484375,64.76129791874412,74.0],[-97.118994140624991,64.74408600468162,74.0],[-97.1357421875,64.72907135624412,74.0],[-97.157470703125,64.711786199994123,74.0],[-97.182910156249989,64.69928619999412,74.0],[-97.225439453124991,64.697381903119123,74.0],[-97.288427734374991,64.70673248905662,74.0],[-97.354663085937489,64.731219793744117,74.0],[-97.419970703124989,64.75018952030662,74.0],[-97.477880859374991,64.75849030155662,74.0],[-97.619873046875,64.76752350468162,74.0],[-97.686450195312489,64.755731512494123,74.0],[-97.746435546874991,64.740252996869117,74.0],[-97.793310546874991,64.723163153119117,74.0],[-97.83837890625,64.71539948124412,74.0],[-97.862719726562489,64.720331121869123,74.0],[-97.88427734375,64.71784088749412,78.8894],[-97.923510742187489,64.71149323124412,82.1552],[-97.984545898437489,64.70465729374412,77.0],[-98.036962890624991,64.704217840619123,77.0],[-98.101367187499989,64.70905182499412,77.0],[-98.146240234375,64.698016668744117,82.6541],[-98.194750976562489,64.669940496869117,90.403],[-98.233154296875,64.65949127811912,86.5335],[-98.250341796874991,64.66400787968162,95.4599],[-98.292724609375,64.680682684369117,77.0],[-98.35693359375,64.68512604374412,77.0],[-98.400683593749989,64.66449616093162,77.0],[-98.423828125,64.64398834843162,82.7729],[-98.427661132812489,64.56891510624412,77.5],[-98.457812499999989,64.551532293744117,77.5],[-98.488525390625,64.558856512494117,77.5],[-98.539721679687489,64.565204168744117,77.5],[-98.597753906249991,64.56586334843162,77.5],[-98.635302734374989,64.551532293744117,77.5],[-98.679370117187489,64.51850006718162,77.5],[-98.730883789062489,64.499383856244123,77.5],[-98.795751953124991,64.49103424686912,77.5],[-98.877368164062489,64.484491278119123,77.5],[-98.953125,64.460467840619117,77.5],[-99.013964843749989,64.470819403119123,77.5],[-99.053808593749991,64.523456121869117,77.5],[-99.094580078124991,64.55646393436912,77.5],[-99.154345703124989,64.58209869999412,77.5],[-99.215014648437489,64.586297918744123,77.5],[-99.268115234374989,64.569208074994123,77.5],[-99.326757812499991,64.56891510624412,77.5],[-99.383544921875,64.57526276249412,77.5],[-99.533935546875,64.58539459843162,77.5],[-99.709399414062489,64.58502838749412,77.5],[-99.766210937499991,64.59125397343162,80.666],[-99.889086914062489,64.64093659061912,83.936],[-99.931933593749989,64.64789459843162,90.2473],[-100.02861328124999,64.65704987186912,80.5],[-100.115234375,64.644159246869123,91.6771],[-100.14975585937499,64.630975653119123,80.5],[-100.17026367187499,64.61408112186912,91.7765],[-100.19450683593749,64.596210028119117,80.5],[-100.22128906249999,64.57160065311912,80.5],[-100.26774902343749,64.56268952030662,80.5],[-100.3173828125,64.56439850468162,80.5],[-100.35581054687499,64.56891510624412,87.3506],[-100.45891113281249,64.586297918744123,80.5],[-100.58920898437499,64.59992096561912,80.5],[-100.68608398437499,64.60114166874412,80.5],[-100.72006835937499,64.60736725468162,80.5],[-100.74936523437499,64.609881903119117,80.5],[-100.79509277343749,64.604120184369123,100.7801]]}}