{"type":"Feature","properties":{"featurecla":"Lake Centerline","scalerank":11,"rivernum":21143,"dissolve":"21143Lake Centerline","name":"Tha-anne","name_alt":null,"note":"ID is link back to CEC data","name_full":"Tha-anne River","min_zoom":6.7,"strokeweig":0.2,"uident":1450001,"min_label":7.7},
"geometry":{"type": "LineString","coordinates": [[-97.831044074603724,61.663153387494027,185.0],[-97.7897029287704,61.680121160931527,185.0],[-97.751088019916224,61.691473699994027,185.0],[-97.673817512103724,61.700547593223192,185.0],[-97.564768032937067,61.686875718223192,185.0],[-97.5306697256454,61.682399806764863,185.0],[-97.430734829812067,61.661932684369027,185.0],[-97.421620246478724,61.625555731244027,183.0],[-97.3898005850204,61.527899481244027,183.0],[-97.3966365225204,61.493760483848192,183.0],[-97.373890754291224,61.418809311973192,183.0],[-97.317128058978724,61.393825588014863,183.0],[-97.2784724600204,61.341579494264863,183.0],[-97.253488736062067,61.291571356244027,191.5172],[-97.235340949603724,61.257513739056527,186.8793],[-97.1898494131454,61.232489324994027,195.1603],[-97.128529426166224,61.189317124473192,183.0],[-97.1012263662704,61.146185614056527,191.7886],[-97.074045376687067,61.116644598431527,183.0],[-97.080881314187067,61.092311916139863,183.0]]}}