{"type":"Feature","properties":{"featurecla":"River","scalerank":12,"rivernum":21379,"dissolve":"21379River","name":"null578","name_alt":null,"note":"ID is link back to CEC data","name_full":null,"min_zoom":7.0,"strokeweig":0.2,"uident":1361101,"min_label":8.0},
"geometry":{"type": "LineString","coordinates": [[-95.9105525381454,64.463649806764863,88.3677],[-95.9032283193954,64.443223374473192,106.6807],[-95.8981013662704,64.412136134889863,62.7065],[-95.8893123037704,64.394802150514863,59.8367],[-95.851877407937067,64.35871002811902,63.9993],[-95.804554816791224,64.32892487186902,54.2757],[-95.792307095437067,64.28778717655652,79.8197]]}}