{"type":"Feature","properties":{"featurecla":"River","scalerank":12,"rivernum":21485,"dissolve":"21485River","name":"null629","name_alt":null,"note":"ID is link back to CEC data","name_full":null,"min_zoom":7.0,"strokeweig":0.2,"uident":1332401,"min_label":8.0},
"geometry":{"type": "LineString","coordinates": [[-99.987660285541224,65.75165436405652,146.5],[-100.08185787668707,65.68695709843152,170.5816],[-100.1000056631454,65.67243073124402,164.5215],[-100.0819392568954,65.618516343223192,160.0]]}}