{"type":"Feature","properties":{"featurecla":"Lake Centerline","scalerank":8,"rivernum":655,"dissolve":"655Lake Centerline","name":"Thlewiaza1","name_alt":null,"note":null,"min_zoom":7.0,"strokeweig":0.2,"name_en":"Thlewiaza","min_label":8.0},
"geometry":{"type": "LineString","coordinates": [[-98.781494140625,60.77960846561912,279.5681],[-98.809497070312489,60.793231512494117,274.673],[-98.916601562499991,60.790399481244123,279.8829],[-98.98974609375,60.78497955936912,282.0686],[-99.02197265625,60.79559967655662,277.0],[-99.056201171874989,60.80072662968162,282.4971],[-99.090502929687489,60.79559967655662,277.0],[-99.145922851562489,60.776141668744117,279.8729],[-99.191088867187489,60.74982330936912,277.0],[-99.245898437499989,60.70416901249412,277.0],[-99.275561523437489,60.69354889530662,277.0],[-99.319018554687489,60.68817780155662,277.0],[-99.353808593749989,60.669549871869123,287.5009],[-99.36474609375,60.64935944218162,277.0],[-99.363867187499991,60.619891668744117,277.0],[-99.357836914062489,60.585321356244123,277.0],[-99.363818359374989,60.56244537968162,277.0],[-99.38525390625,60.53961823124412,277.0],[-99.412109375,60.51679108280662,277.0],[-99.44921875,60.49396393436912,277.0],[-99.478930664062489,60.472528387494123,277.0],[-99.538330078125,60.422235418744123,277.0],[-99.568041992187489,60.393426824994123,277.0],[-99.587988281249991,60.36200592655662,277.0],[-99.618261718749991,60.327167059369117,277.0],[-99.653662109374991,60.30316803593162,277.0],[-99.682226562499991,60.279169012494123,277.0],[-99.705371093749989,60.23493073124412,277.0],[-99.723388671875,60.19232819218162,277.0],[-99.733081054687489,60.149530340619123,277.0],[-99.732519531249991,60.103290106244117,277.0],[-99.745703124999991,60.073260809369117,277.0],[-99.775927734374989,60.04157135624412,277.0],[-99.812255859375,60.020135809369123,277.0],[-99.853613281249991,60.007342840619117,277.0],[-99.9404296875,59.97077057499412,277.0],[-99.9658203125,59.94415924686912,277.0],[-99.979296874999989,59.91596100468162,277.0],[-99.99560546875,59.887323309369123,290.4924],[-100.01352539062499,59.85883209843162,281.7266],[-100.02299804687499,59.823993231244117,292.7416],[-100.02043457031249,59.78571198124412,277.0],[-100.01352539062499,59.763690496869117,277.0],[-100.00668945312499,59.746844793744117,277.0],[-100.02011718749999,59.725702215619123,282.4385],[-100.04558105468749,59.70795319218162,279.8342],[-100.07524414062499,59.69745514530662,292.004],[-100.10498046875,59.692010809369123,304.8361],[-100.13461914062499,59.69660065311912,293.4313],[-100.17119140624999,59.714862371869117,284.9791],[-100.19345703124999,59.734881903119117,285.1606],[-100.19865722656249,59.741229559369117,287.9389]]}}