{"type":"Feature","properties":{"featurecla":"River","scalerank":10,"rivernum":21370,"dissolve":"21370River","name":"Quoich","name_alt":null,"note":"ID is link back to CEC data","name_full":"Quoich River","min_zoom":6.0,"strokeweig":0.25,"uident":1363001,"min_label":7.0},
"geometry":{"type": "LineString","coordinates": [[-94.203602668353724,64.522324936973192,83.6936],[-94.199940558978724,64.50153229374402,48.4431],[-94.1683650381454,64.473659572389863,26.4712],[-94.109120246478724,64.43695709843152,23.6343],[-94.049631314187067,64.40546295780652,26.5386],[-93.983713345437067,64.33576080936902,33.8719],[-93.980458137103724,64.307969468223192,43.5051],[-93.965158657937067,64.28534577030652,36.9684],[-93.926096157937067,64.255641994264863,27.8158],[-93.847401496478724,64.22394440311902,16.7018],[-93.779530402728724,64.191514390098192,65.395]]}}