{"type":"Feature","properties":{"featurecla":"River","scalerank":11,"rivernum":21560,"dissolve":"21560River","name":"null664","name_alt":null,"note":"ID is link back to CEC data","name_full":null,"min_zoom":6.7,"strokeweig":0.2,"uident":1313801,"min_label":7.7},
"geometry":{"type": "LineString","coordinates": [[-103.44102942616622,66.50043366093152,245.5804],[-103.44587154856207,66.53449127811902,215.8567],[-103.45482337147872,66.59870026249402,209.9606],[-103.4918513662704,66.692897853639863,189.2807],[-103.52806555897872,66.70831940311902,182.3258],[-103.5792537100204,66.716091213014863,184.7308],[-103.59605872304122,66.725612697389863,172.0396],[-103.6105037100204,66.754502671348192,175.2718],[-103.67979895741622,66.78742096561902,187.2231],[-103.7044978506454,66.80707428593152,184.7421],[-103.70807857981207,66.82953522343152,183.4829],[-103.70042884022872,66.857936916139863,183.5353],[-103.71471106679122,66.88507721561902,179.2298],[-103.74644934804122,66.91132233280652,179.5985],[-103.76569576731207,66.96454498905652,163.3587],[-103.7543025381454,66.98261139530652,154.9321],[-103.73729407460372,67.03424713749402,169.9704],[-103.74889075429122,67.09137604374402,155.0041],[-103.79035397043707,67.14325592655652,139.2779],[-103.79857337147872,67.153347072389863,132.1319],[-103.85216223866622,67.24994537968152,129.2579],[-103.8375544912704,67.271755275514863,126.8186],[-103.79759680897872,67.28620026249402,137.0868],[-103.75645911366622,67.29718659061902,135.662],[-103.73029537668707,67.31256744999402,124.908],[-103.7142634756454,67.35541412968152,124.7912],[-103.69953365793707,67.37714264530652,132.1492],[-103.64012610585372,67.41364166874402,83.7347],[-103.60993404856207,67.45538971561902,82.8175],[-103.56554114491622,67.54682037968152,74.5],[-103.47716223866622,67.63190338749402,62.0615],[-103.47350012929122,67.710720119264863,45.9805],[-103.45148678293707,67.72577545780652,44.5826],[-103.4012751943954,67.75275299686902,30.3843],[-103.38658606679122,67.776231186973192,35.6782],[-103.3810115225204,67.79926178593152,27.5364],[-103.3631892568954,67.81415436405652,21.8749],[-103.32819576731207,67.819362697389863,32.7268],[-103.30882727772872,67.816921291139863,26.4839],[-103.27501380116622,67.79938385624402,30.1848],[-103.23761959543707,67.79779694218152,19.1945],[-103.19172115793707,67.81232330936902,21.5794],[-103.15208899647872,67.84393952030652,18.7881],[-103.06688391835372,67.89179108280652,0.0],[-103.0135798818954,67.92121002811902,0.0]]}}