{"type":"Feature","properties":{"featurecla":"Lake Centerline","scalerank":6,"rivernum":265,"dissolve":"265Lake Centerline","name":"Back2","name_alt":null,"note":null,"min_zoom":5.0,"strokeweig":0.25,"name_en":"Back","min_label":6.0},
"geometry":{"type": "LineString","coordinates": [[-98.656494140625,65.92767975468162,126.5],[-98.656787109374989,65.955096746869117,126.5],[-98.656005859375,65.97516510624412,134.8808],[-98.66015625,65.99152252811912,136.2983],[-98.66552734375,66.01837799686912,137.3927],[-98.683276367187489,66.02789948124412,137.9381],[-98.746191406249991,66.022967840619117,125.6752],[-98.765869140625,66.01093170780662,125.6277],[-98.789233398437489,66.00641510624412,132.4837],[-98.814257812499989,66.00910065311912,131.0521],[-98.840502929687489,66.01801178593162,127.5889],[-98.869921874999989,66.04181549686912,148.5415],[-98.896826171874991,66.05939362186912,127.8418],[-98.959716796875,66.080926824994123,145.6455],[-98.9853515625,66.081561590619117,145.1638],[-99.011035156249989,66.08588287968162,130.2975],[-99.051367187499991,66.09894440311912,151.1682],[-99.08056640625,66.09088776249412,129.9721],[-99.105761718749989,66.07013580936912,141.8695],[-99.133544921875,66.05438873905662,143.1815],[-99.157958984375,66.03412506718162,150.6267],[-99.194750976562489,66.02130768436912,144.5],[-99.228442382812489,66.01984284061912,144.5],[-99.265917968749989,66.019647528119123,144.5],[-99.307714843749991,66.01434967655662,144.5],[-99.312255859375,65.99152252811912,144.5],[-99.307910156249989,65.97016022343162,150.1616],[-99.332128906249991,65.96002838749412,152.8457],[-99.355322265624991,65.952411199994117,146.5],[-99.441162109375,65.944940496869123,146.5],[-99.477783203125,65.930292059369123,146.5],[-99.512548828124991,65.907733465619117,146.5],[-99.542333984374991,65.898797918744123,146.5],[-99.567138671875,65.89594147343162,146.5],[-99.587011718749991,65.895526434369117,146.5],[-99.623828124999989,65.89838287968162,146.5],[-99.683032226562489,65.89838287968162,146.5],[-99.722753906249991,65.89057037968162,146.5],[-99.759619140624991,65.875262762494117,146.5],[-99.803881835937489,65.87238190311912,146.5],[-99.85205078125,65.88104889530662,146.5],[-99.901538085937489,65.892206121869123,146.5],[-99.949951171875,65.913690496869123,146.5],[-99.995849609375,65.925311590619117,146.5],[-100.08525390624999,65.92365143436912,146.5],[-100.146484375,65.92035553593162,146.5],[-100.25737304687499,65.90546295780662,146.5],[-100.29301757812499,65.90668366093162,146.5],[-100.33349609375,65.90045807499412,146.5],[-100.37509765624999,65.88287994999412,146.5],[-100.40800781249999,65.87396881718162,146.5],[-100.43779296874999,65.86469147343162,146.5],[-100.47250976562499,65.85907623905662,146.5],[-100.50634765625,65.86322662968162,146.5],[-100.54375,65.87238190311912,146.5],[-100.58781738281249,65.87982819218162,147.9375],[-100.61821289062499,65.88226959843162,146.5],[-100.64885253906249,65.88825104374412,146.5],[-100.68930664062499,65.88556549686912,146.5],[-100.71396484374999,65.86469147343162,146.5],[-100.73740234374999,65.85748932499412,146.5],[-100.76445312499999,65.875848699994123,146.5],[-100.80029296875,65.89057037968162,146.5],[-100.861083984375,65.903827215619117,146.5],[-100.90952148437499,65.907098699994123,166.6031],[-100.93681640624999,65.89777252811912,146.5],[-100.96416015624999,65.892206121869123,146.5],[-101.02373046874999,65.87567780155662,146.5],[-101.05078125,65.87360260624412,146.5],[-101.10649414062499,65.88263580936912,146.5],[-101.12631835937499,65.87396881718162,146.5],[-101.16147460937499,65.86945221561912,146.5],[-101.214111328125,65.877313543744123,146.5],[-101.257080078125,65.88104889530662,146.5],[-101.33220214843749,65.884784246869117,156.2071],[-101.36801757812499,65.89716217655662,146.5],[-101.401123046875,65.913348699994117,146.5],[-101.43417968749999,65.91705963749412,146.5],[-101.46501464843749,65.916034246869117,146.5],[-101.4921875,65.92365143436912,164.0489],[-101.544677734375,65.942254949994123,157.591],[-101.604736328125,65.95343659061912,146.5],[-101.65,65.95636627811912,146.5],[-101.67919921875,65.956805731244117,146.5],[-101.71086425781249,65.95136139530662,153.3597],[-101.73374023437499,65.948504949994117,146.5],[-101.77011718749999,65.94684479374412,146.5],[-101.77019042968749,65.946795965619117,146.5]]}}