{"type":"Feature","properties":{"featurecla":"River","scalerank":12,"rivernum":21484,"dissolve":"21484River","name":"null628","name_alt":null,"note":"ID is link back to CEC data","name_full":null,"min_zoom":7.0,"strokeweig":0.2,"uident":1332001,"min_label":8.0},
"geometry":{"type": "LineString","coordinates": [[-99.219838019916224,65.639756577598192,175.8902],[-99.126820441791224,65.72540924686902,158.0],[-99.082630988666224,65.764756577598192,157.2421],[-99.068674282937067,65.78253815311902,154.0508],[-99.0594783193954,65.80365631718152,155.9317],[-99.071359829812067,65.902370509889863,163.8995],[-99.053456183978724,65.94794342655652,132.3701],[-99.0177302725204,65.96454498905652,144.3836],[-98.9674373037704,65.969346421348192,142.4291],[-98.854603644916224,65.95673248905652,130.6504],[-98.829457160541224,65.966660874473192,132.1491]]}}