{"type":"Feature","properties":{"featurecla":"Lake Centerline","scalerank":5,"rivernum":161,"dissolve":"161Lake Centerline","name":"Thelon5","name_alt":null,"note":null,"min_zoom":4.7,"strokeweig":0.25,"name_en":"Thelon","min_label":5.7},
"geometry":{"type": "LineString","coordinates": [[-96.273364257812489,64.301385809369123,37.1153],[-96.22705078125,64.28339264530662,7.1577],[-96.197265625,64.28180573124412,10.4677],[-96.125415039062489,64.282489324994117,1.4898],[-96.087988281249991,64.284686590619117,0.0],[-96.061767578125,64.28400299686912,0.0],[-96.021411132812489,64.276239324994123,0.0],[-95.966650390624991,64.24787018436912,0.0],[-95.905859374999991,64.21027252811912,0.0],[-95.825854492187489,64.19269440311912,0.0],[-95.72421875,64.181268621869123,0.0],[-95.611743164062489,64.17975494999412,0.0],[-95.50546875,64.168963934369117,0.0],[-95.473974609374991,64.16046784061912,0.0],[-95.447680664062489,64.15790436405662,0.0]]}}