{"type": "Feature","bbox": [-72.1901,48.7554,-70.8582,52.2798],"geometry": {"type": "MultiPolygon","coordinates": [[[[-71.5446,48.7887,169.5],[-71.532,48.7812,169.5],[-71.5254,48.7795,169.5005],[-71.5138,48.7817,172.4623],[-71.5104,48.7851,190.1005],[-71.5075,48.7841,169.5],[-71.5015,48.7878,177.7954],[-71.4995,48.7951,202.2812],[-71.5044,48.8076,185.0856],[-71.5014,48.8125,192.4241],[-71.4978,48.8119,192.4063],[-71.492,48.8145,196.0659],[-71.4908,48.8164,181.301],[-71.492,48.8268,192.1448],[-71.4879,48.8337,196.4607],[-71.4774,48.8388,247.9249],[-71.4741,48.8428,197.6817],[-71.4733,48.848,227.7835],[-71.468,48.8518,177.0632],[-71.4732,48.8604,172.5255],[-71.4694,48.8625,207.3987],[-71.4634,48.8735,214.9823],[-71.4603,48.8824,247.8928],[-71.4616,48.8904,219.1225],[-71.459,48.8901,198.0224],[-71.4558,48.8942,203.385],[-71.4468,48.8981,215.6536],[-71.4354,48.9097,272.3043],[-71.4233,48.9162,229.7653],[-71.4052,48.9332,291.9653],[-71.3862,48.9435,224.6757],[-71.376,48.9693,328.1957],[-71.3722,48.9735,298.3771],[-71.3549,48.9839,232.9539],[-71.3492,48.9911,230.1351],[-71.3436,49.0101,243.3834],[-71.3464,49.0172,269.4014],[-71.3385,49.0354,245.0259],[-71.3251,49.0522,185.9789],[-71.3244,49.0562,191.0547],[-71.314,49.0667,179.8914],[-71.3032,49.0747,185.0616],[-71.3022,49.078,195.4398],[-71.2962,49.0841,183.4572],[-71.2856,49.0989,193.6698],[-71.2775,49.1203,184.7921],[-71.2704,49.1586,194.2137],[-71.2654,49.1748,214.0478],[-71.265,49.1902,186.2608],[-71.2606,49.2138,187.0313],[-71.2621,49.2375,187.6271],[-71.2641,49.2469,293.9649],[-71.2649,49.2758,336.8582],[-71.2611,49.2883,216.9504],[-71.2577,49.3086,177.795],[-71.2583,49.3157,289.9719],[-71.2349,49.3588,212.5741],[-71.2225,49.374,204.7685],[-71.2166,49.3863,206.2351],[-71.2129,49.4021,232.9772],[-71.2146,49.41,287.2289],[-71.2143,49.4205,398.9785],[-71.2108,49.4309,306.8681],[-71.2048,49.4449,292.4119],[-71.2013,49.4476,307.3632],[-71.2016,49.4501,355.2198],[-71.1961,49.4633,388.7128],[-71.1822,49.4858,220.2751],[-71.1802,49.4916,219.661],[-71.1813,49.4992,241.7609],[-71.1847,49.507,243.0],[-71.183,49.5085,235.5947],[-71.1889,49.5105,243.0],[-71.2042,49.5207,243.2823],[-71.2163,49.5377,244.0054],[-71.2207,49.5503,244.3748],[-71.2189,49.5651,244.3677],[-71.2137,49.5752,262.9416],[-71.2084,49.5937,360.4316],[-71.2004,49.6035,253.6624],[-71.2004,49.6214,337.2013],[-71.1978,49.6373,244.3881],[-71.2006,49.642,244.3322],[-71.2009,49.6495,243.0],[-71.2089,49.6682,291.7241],[-71.2098,49.6769,297.5322],[-71.2062,49.6853,283.9987],[-71.2064,49.7015,349.1711],[-71.2036,49.7124,401.8632],[-71.2032,49.7341,331.7889],[-71.197,49.7543,294.2906],[-71.1935,49.7798,348.788],[-71.1871,49.7976,368.8244],[-71.1774,49.8107,288.1312],[-71.1706,49.8253,327.8967],[-71.1739,49.8355,356.8859],[-71.1801,49.8406,433.4012],[-71.2013,49.8472,352.8648],[-71.215,49.8558,374.8663],[-71.217,49.8675,396.528],[-71.2264,49.868899999999996,389.9321],[-71.2334,49.8733,400.8351],[-71.2456,49.8866,386.5228],[-71.2497,49.8877,395.406],[-71.2578,49.8848,393.1071],[-71.2721,49.8941,442.0405],[-71.2546,49.9158,438.0],[-71.2565,49.92,438.0],[-71.2633,49.9208,507.8489],[-71.2605,49.9267,438.0],[-71.2528,49.9347,438.0],[-71.2567,49.9414,438.0],[-71.2541,49.9489,438.0],[-71.2558,49.9548,438.0],[-71.2509,49.9674,438.0],[-71.2399,49.9681,438.0],[-71.2441,49.9749,438.0],[-71.2349,49.9853,438.0],[-71.2291,49.9892,438.0],[-71.2251,49.9966,438.0],[-71.2142,50.0003,438.0],[-71.2228,50.0038,438.0],[-71.223,50.0081,438.0],[-71.2258,50.0138,438.0],[-71.2248,50.02,438.0],[-71.2133,50.0266,491.6474],[-71.2246,50.0257,438.0],[-71.2339,50.0321,438.0],[-71.232,50.0361,438.0],[-71.237,50.0389,459.0493],[-71.2351,50.0443,471.4724],[-71.2338,50.0697,438.0],[-71.2656,50.0769,438.0],[-71.2827,50.0869,438.0],[-71.2875,50.1043,463.3496],[-71.2767,50.1201,514.8217],[-71.2655,50.1228,476.9991],[-71.2825,50.1239,455.0789],[-71.2877,50.1262,455.1642],[-71.2842,50.1296,440.8657],[-71.2906,50.1383,438.0],[-71.2921,50.1501,448.1599],[-71.2872,50.1566,438.0],[-71.2788,50.1577,438.0],[-71.2854,50.1627,438.0],[-71.2778,50.1654,438.0],[-71.2858,50.1681,438.0],[-71.282,50.1736,438.0],[-71.2765,50.1772,438.0],[-71.2705,50.1913,438.0],[-71.2579,50.2025,438.0],[-71.2594,50.2051,438.0],[-71.2492,50.2072,438.0],[-71.2557,50.2097,438.0],[-71.2501,50.2168,438.0],[-71.2638,50.2217,438.0],[-71.2596,50.2289,438.0],[-71.27,50.2278,438.0],[-71.2752,50.2296,438.0],[-71.2764,50.2315,438.0],[-71.2912,50.2359,438.0],[-71.2859,50.2527,438.0],[-71.2818,50.2573,438.0],[-71.2796,50.2669,438.0],[-71.2732,50.2711,438.0],[-71.2854,50.2749,438.0],[-71.2911,50.2791,438.0],[-71.291,50.2869,438.0],[-71.3146,50.2997,438.0],[-71.3181,50.3059,438.0],[-71.3253,50.3086,440.4923],[-71.333,50.316,438.0],[-71.3479,50.3204,438.0],[-71.3504,50.3225,438.0],[-71.3507,50.325,438.0],[-71.355,50.3283,438.0],[-71.3541,50.332,438.0],[-71.3589,50.3325,453.7162],[-71.3559,50.3343,438.0],[-71.3597,50.3385,482.3179],[-71.3576,50.3459,442.0188],[-71.3585,50.352,438.0],[-71.3551,50.3595,452.1815],[-71.3554,50.362,456.0096],[-71.3452,50.3751,446.7476],[-71.3474,50.3762,447.1306],[-71.3553,50.4015,438.6701],[-71.3681,50.4212,450.0899],[-71.3663,50.4253,455.803],[-71.3582,50.431399999999996,457.1281],[-71.3519,50.4602,447.3127],[-71.3371,50.469,454.8282],[-71.3325,50.4831,458.6269],[-71.3219,50.4925,462.0762],[-71.31,50.4971,493.1362],[-71.2929,50.5001,449.9227],[-71.2898,50.5064,473.9127],[-71.291,50.5229,443.4721],[-71.29,50.5552,469.5859],[-71.2974,50.5676,524.7565],[-71.2949,50.5721,520.381],[-71.2843,50.5815,484.0095],[-71.2578,50.5953,498.7074],[-71.2545,50.6,480.8638],[-71.2559,50.6072,438.3561],[-71.2618,50.6134,443.3981],[-71.2857,50.6294,457.2307],[-71.2889,50.6337,463.7629],[-71.2917,50.6566,458.6562],[-71.2885,50.6684,445.0122],[-71.2935,50.6837,438.5],[-71.2878,50.6926,443.7283],[-71.2905,50.6962,444.9297],[-71.2866,50.701,446.6528],[-71.2852,50.7062,443.4229],[-71.2859,50.7135,438.5],[-71.292,50.7177,446.998],[-71.2964,50.7242,455.1507],[-71.3098,50.7158,438.5],[-71.3265,50.7178,438.5],[-71.3334,50.7217,438.5],[-71.3359,50.7306,438.5],[-71.3438,50.7339,438.5],[-71.3288,50.7443,438.5],[-71.3287,50.7538,438.5],[-71.3266,50.7622,438.5],[-71.3271,50.771,438.5],[-71.3199,50.7735,438.5],[-71.323,50.7787,438.5],[-71.3182,50.7801,438.5],[-71.3058,50.792,439.4297],[-71.2987,50.8093,442.5093],[-71.2956,50.8381,461.4415],[-71.3082,50.8757,451.2253],[-71.3166,50.8856,462.8158],[-71.3154,50.898,441.9981],[-71.3173,50.9038,445.4775],[-71.3291,50.9125,447.6285],[-71.3346,50.9273,443.2569],[-71.3513,50.9376,449.3752],[-71.3532,50.9404,450.9697],[-71.3558,50.9616,470.658],[-71.3438,50.9996,466.5801],[-71.3424,51.0177,462.0396],[-71.3436,51.0317,491.063],[-71.3496,51.0487,451.4224],[-71.3602,51.0663,456.8539],[-71.3658,51.072,447.3894],[-71.3812,51.0822,463.8209],[-71.3863,51.0927,456.0482],[-71.3944,51.0996,458.5661],[-71.4029,51.1018,467.0895],[-71.4076,51.1054,466.1968],[-71.4311,51.129,461.8121],[-71.4372,51.1379,484.583],[-71.4345,51.1465,470.6604],[-71.4347,51.1523,452.5587],[-71.4469,51.1612,476.581],[-71.4501,51.1659,478.1359],[-71.451,51.176,456.7247],[-71.4553,51.1803,466.0803],[-71.4674,51.183,485.2138],[-71.4712,51.1891,467.5359],[-71.4788,51.1935,480.4285],[-71.4891,51.1955,468.2701],[-71.4946,51.1996,480.8348],[-71.5146,51.2343,490.4926],[-71.5126,51.2436,495.9043],[-71.509,51.2471,494.4162],[-71.4873,51.2578,518.0441],[-71.475,51.2603,503.4311],[-71.4705,51.2656,519.3912],[-71.4534,51.2964,533.2732],[-71.4532,51.3057,512.2178],[-71.4626,51.3372,516.5575],[-71.4677,51.3686,549.0091],[-71.4777,51.393,514.6347],[-71.4721,51.41,501.8363],[-71.4638,51.4166,506.3741],[-71.4591,51.4352,508.5233],[-71.4547,51.4437,506.2299],[-71.4582,51.4599,526.3996],[-71.4557,51.4751,511.8925],[-71.4584,51.4851,529.0253],[-71.4587,51.4938,512.8707],[-71.4545,51.4989,538.7484],[-71.4383,51.5118,517.2755],[-71.4354,51.519,515.9427],[-71.4369,51.5255,521.1247],[-71.4359,51.5323,506.6866],[-71.4416,51.5378,515.4903],[-71.4424,51.5454,515.855],[-71.438,51.5563,518.0421],[-71.4382,51.5661,521.4338],[-71.4351,51.5756,518.5702],[-71.4369,51.5837,519.3992],[-71.4329,51.5984,522.2133],[-71.4277,51.6063,515.595],[-71.4293,51.6093,523.189],[-71.4361,51.6109,526.9698],[-71.4398,51.6136,524.2498],[-71.4328,51.6177,524.1844],[-71.4323,51.6234,526.9375],[-71.4172,51.6318,526.0582],[-71.4122,51.6378,527.2735],[-71.3957,51.6447,522.0288],[-71.3816,51.6655,537.8757],[-71.3636,51.676,536.557],[-71.3603,51.6802,537.8729],[-71.3511,51.6842,539.6024],[-71.3443,51.6975,546.3582],[-71.3355,51.7045,538.0784],[-71.3256,51.7153,533.5139],[-71.3245,51.7224,538.1901],[-71.3207,51.7271,541.4006],[-71.318,51.7366,542.4592],[-71.3184,51.7432,537.5],[-71.3106,51.7546,546.2306],[-71.3063,51.7652,549.0626],[-71.3012,51.7715,536.8171],[-71.3114,51.7769,533.6187],[-71.3159,51.7828,544.7412],[-71.3166,51.7878,544.6647],[-71.3145,51.7976,565.3828],[-71.3085,51.813,571.7372],[-71.2976,51.8268,577.8828],[-71.2855,51.8336,585.5508],[-71.2734,51.8439,600.9368],[-71.2634,51.8477,586.2716],[-71.2542,51.8585,603.3156],[-71.2473,51.872,582.8253],[-71.2478,51.8775,591.4003],[-71.2363,51.9078,609.6008],[-71.2162,51.9272,629.8922],[-71.1902,51.9683,650.8506],[-71.1843,51.9821,663.3436],[-71.1799,51.9855,665.0136],[-71.1735,51.9869,658.2551],[-71.1522,52.0069,671.9951],[-71.1456,52.0199,698.4146],[-71.1388,52.0282,699.3024],[-71.1291,52.0543,702.1749],[-71.1171,52.0802,706.7837],[-71.1078,52.0915,690.5889],[-71.1057,52.1004,689.0649],[-71.1069,52.1103,708.7822],[-71.1031,52.1186,707.1371],[-71.0859,52.1266,720.0758],[-71.081,52.1274,701.0646],[-71.0767,52.1327,700.2236],[-71.0781,52.1371,704.3419],[-71.0737,52.1438,707.11],[-71.0565,52.1484,719.6475],[-71.0536,52.1471,717.3412],[-71.0513,52.1411,701.8596],[-71.0461,52.1409,707.0238],[-71.0427,52.1451,706.4916],[-71.0451,52.1507,706.1662],[-71.039,52.1589,715.7585],[-71.0343,52.1615,723.3613],[-71.0278,52.1594,718.4329],[-71.0219,52.166,719.1635],[-71.0109,52.1685,720.7289],[-71.0008,52.1757,746.0865],[-70.9823,52.1784,728.2333],[-70.9708,52.1855,726.8669],[-70.9468,52.2076,749.4916],[-70.9336,52.2156,781.1995],[-70.9078,52.2413,768.0992],[-70.9004,52.2442,761.2343],[-70.8958,52.2488,764.2419],[-70.8722,52.2637,777.4061],[-70.8582,52.2691,774.6777],[-70.8603,52.2716,772.9619],[-70.872,52.2726,789.7195],[-70.882,52.2798,792.3503],[-70.9171,52.2511,773.3831],[-70.9208,52.2437,775.4162],[-70.9464,52.2409,772.7113],[-70.9577,52.2368,802.9111],[-70.9643,52.2312,784.3844],[-71.0112,52.2192,754.2952],[-71.0224,52.2195,743.7511],[-71.0381,52.2115,740.0026],[-71.0812,52.213,726.3725],[-71.0862,52.2083,723.6688],[-71.0875,52.2019,743.9529],[-71.0837,52.1895,732.5623],[-71.0962,52.182,722.3776],[-71.1066,52.1782,726.8721],[-71.1159,52.1773,725.8069],[-71.1268,52.1729,721.3083],[-71.1404,52.17,727.9817],[-71.1469,52.1601,724.7532],[-71.1547,52.1524,739.7424],[-71.1533,52.1388,741.674],[-71.1624,52.1275,740.4882],[-71.1917,52.1156,761.181],[-71.1976,52.107,756.7356],[-71.2029,52.0902,759.5504],[-71.2101,52.0887,767.7937],[-71.2134,52.0851,774.316],[-71.2274,52.0782,778.1245],[-71.2371,52.0762,786.0987],[-71.2437,52.0696,789.8423],[-71.245,52.0635,787.1162],[-71.2632,52.0548,780.1306],[-71.2685,52.0462,786.5012],[-71.2688,52.0401,799.4456],[-71.2479,52.0358,809.6285],[-71.2054,52.0396,824.2754],[-71.2099,52.0258,798.5848],[-71.2461,52.0215,820.385],[-71.2562,52.0157,816.4226],[-71.2737,52.0008,803.6586],[-71.2807,51.9865,783.5198],[-71.2875,51.9838,780.3576],[-71.2929,51.9776,772.398],[-71.3151,51.9669,751.2087],[-71.3181,51.9619,748.8372],[-71.3137,51.9472,760.6179],[-71.3287,51.9189,745.0189],[-71.3536,51.9053,735.491],[-71.3636,51.8785,703.655],[-71.378,51.8545,710.9987],[-71.3886,51.8464,723.0599],[-71.3997,51.8414,726.3184],[-71.4158,51.8403,693.4319],[-71.4501,51.844,707.2523],[-71.467,51.8396,661.8313],[-71.5305,51.8343,693.8517],[-71.5711,51.8138,638.8552],[-71.5722,51.8019,650.8209],[-71.5835,51.7847,631.3463],[-71.5822,51.7572,602.5708],[-71.5781,51.7483,640.3504],[-71.5933,51.7184,570.6224],[-71.5977,51.7034,555.1899],[-71.6041,51.6948,556.4462],[-71.5999,51.6859,554.0955],[-71.5997,51.6797,550.6647],[-71.611,51.6666,559.0797],[-71.6132,51.6591,555.0605],[-71.6033,51.6481,550.8344],[-71.6098,51.621,548.4394],[-71.6096,51.6065,561.3695],[-71.6036,51.598,550.5919],[-71.5981,51.5933,553.4004],[-71.5897,51.588,552.0067],[-71.5811,51.5868,570.3145],[-71.5808,51.5739,571.2885],[-71.5832,51.561,535.7906],[-71.5932,51.5511,535.18],[-71.5909,51.5439,534.156],[-71.5822,51.5372,562.7424],[-71.5793,51.5323,564.8109],[-71.5772,51.5189,586.4814],[-71.5792,51.5067,671.3849],[-71.5835,51.5004,702.9727],[-71.5914,51.4952,621.0939],[-71.6654,51.4772,648.6647],[-71.6867,51.4464,586.692],[-71.6914,51.4332,646.1287],[-71.694,51.4173,706.8944],[-71.6878,51.4135,669.221],[-71.6865,51.4078,615.9084],[-71.7064,51.3941,606.8541],[-71.7096,51.3869,609.7664],[-71.7088,51.381,613.5005],[-71.7111,51.3759,606.9156],[-71.7491,51.3505,641.1967],[-71.7595,51.3484,659.3349],[-71.7663,51.3594,590.849],[-71.7722,51.3632,602.6776],[-71.7848,51.3629,660.7504],[-71.7994,51.3543,712.4612],[-71.817,51.3535,637.8094],[-71.8161,51.371,655.6819],[-71.8207,51.3756,602.1506],[-71.8291,51.3771,655.3859],[-71.8345,51.3706,672.6072],[-71.8364,51.3594,632.6157],[-71.8429,51.3557,613.8749],[-71.8643,51.3492,663.59],[-71.8747,51.3362,660.2594],[-71.8739,51.3307,674.9745],[-71.8674,51.3213,733.4771],[-71.8709,51.3154,700.4156],[-71.8811,51.3055,611.8844],[-71.8732,51.2874,577.765],[-71.8735,51.2781,600.0902],[-71.8856,51.2733,682.1097],[-71.8947,51.2745,653.8991],[-71.9034,51.278,698.6824],[-71.9192,51.2788,639.2314],[-71.937,51.2715,710.5994],[-71.9384,51.2649,672.6068],[-71.9454,51.2561,619.525],[-71.9547,51.2495,650.9772],[-71.9569,51.2403,610.3472],[-71.9893,51.2295,606.2749],[-71.9785,51.2157,612.9058],[-71.9792,51.2107,641.0864],[-71.9919,51.2067,588.0],[-71.9969,51.1833,580.5],[-71.9965,51.1781,608.1887],[-72.025,51.1634,684.1812],[-72.0397,51.162,711.9706],[-72.0271,51.1504,653.3062],[-72.0176,51.1368,634.4962],[-72.0275,51.1377,628.8597],[-72.0409,51.144,596.9189],[-72.0599,51.1498,669.525],[-72.0692,51.1509,695.8493],[-72.0743,51.1494,678.9565],[-72.0776,51.1423,649.5593],[-72.0641,51.122,665.6304],[-72.0603,51.1043,628.0098],[-72.0549,51.0932,602.8057],[-72.0544,51.0819,573.8785],[-72.0667,51.0549,561.0402],[-72.0738,51.0475,563.5503],[-72.0732,51.0396,558.8138],[-72.0802,51.0361,558.8158],[-72.0928,51.0223,568.0508],[-72.0897,51.0066,552.4338],[-72.0931,51.0001,554.3445],[-72.0921,50.9943,552.5347],[-72.0975,50.986,547.4523],[-72.0953,50.9779,551.5221],[-72.1032,50.9647,545.0327],[-72.1052,50.9576,555.2224],[-72.1044,50.9047,539.6588],[-72.0986,50.883,543.7288],[-72.1048,50.8681,534.3191],[-72.1159,50.8559,553.0444],[-72.1381,50.8438,538.9457],[-72.1458,50.8419,534.4226],[-72.1485,50.8359,526.0909],[-72.1538,50.833,527.5419],[-72.1559,50.8288,524.9376],[-72.148,50.7827,486.4918],[-72.1507,50.753,470.9202],[-72.1537,50.7426,470.5429],[-72.1619,50.7294,471.8712],[-72.1618,50.7179,466.4021],[-72.1656,50.7061,462.397],[-72.1762,50.69,451.4315],[-72.1789,50.683,448.0506],[-72.1794,50.6665,445.1006],[-72.1885,50.6427,438.8968],[-72.1863,50.6248,433.7804],[-72.1898,50.6162,431.3266],[-72.188,50.6068,434.9611],[-72.1901,50.5986,421.7647],[-72.1861,50.5813,413.3886],[-72.1623,50.5414,358.1332],[-72.1595,50.499,343.2298],[-72.1572,50.4923,344.1569],[-72.1536,50.4878,359.7831],[-72.1546,50.4844,337.8165],[-72.1604,50.4789,360.9315],[-72.1588,50.4722,336.5319],[-72.1594,50.4502,340.7946],[-72.1621,50.443,346.2645],[-72.1622,50.437,350.1437],[-72.1603,50.4255,341.6578],[-72.1634,50.4133,351.5727],[-72.1813,50.3944,344.7958],[-72.1854,50.3778,349.0228],[-72.1856,50.3613,324.4888],[-72.1816,50.3541,308.8768],[-72.175,50.3507,328.4105],[-72.1725,50.3467,322.1831],[-72.1642,50.3432,315.6347],[-72.1599,50.3339,312.234],[-72.1628,50.3285,318.173],[-72.1607,50.3243,312.8603],[-72.1614,50.32,316.8444],[-72.1593,50.3149,330.611],[-72.1606,50.3115,311.855],[-72.1545,50.3072,313.3293],[-72.1577,50.3027,317.2933],[-72.1597,50.2962,317.6148],[-72.1565,50.2734,309.5315],[-72.1669,50.2671,334.3816],[-72.1638,50.261,314.3091],[-72.1536,50.2559,307.509],[-72.1579,50.2501,309.7572],[-72.1545,50.2436,307.3172],[-72.1574,50.2389,314.7988],[-72.1515,50.2313,310.6177],[-72.1682,50.2188,317.1106],[-72.1581,50.2155,306.4556],[-72.1569,50.2132,312.5327],[-72.1744,50.2069,307.9849],[-72.1776,50.2029,310.127],[-72.1787,50.1976,324.1348],[-72.1761,50.195,309.3662],[-72.164,50.1944,314.9946],[-72.1632,50.1907,312.4431],[-72.1726,50.1844,314.0319],[-72.169,50.1712,308.7023],[-72.1713,50.1688,310.7739],[-72.1684,50.1559,305.9271],[-72.1641,50.1519,311.3592],[-72.1632,50.1454,304.1793],[-72.1641,50.1345,302.5],[-72.1672,50.1256,302.5],[-72.1723,50.1201,305.3525],[-72.1668,50.1128,307.8686],[-72.1755,50.1064,311.1658],[-72.1674,50.1007,302.5979],[-72.1656,50.0871,299.5],[-72.1574,50.0688,300.2427],[-72.1591,50.0654,299.5],[-72.1659,50.0597,306.3936],[-72.1682,50.0536,304.0876],[-72.1709,50.0514,320.6135],[-72.1651,50.0477,304.1479],[-72.1595,50.0386,298.0],[-72.1472,50.0014,297.0],[-72.132,49.9449,333.7765],[-72.1178,49.9235,297.0],[-72.0787,49.8497,325.761],[-72.0658,49.8387,307.9638],[-72.0604,49.8264,290.5105],[-72.0514,49.8197,338.5827],[-72.0414,49.8178,314.094],[-72.0356,49.8146,290.797],[-72.033,49.8076,283.7818],[-72.0325,49.8005,283.0931],[-72.035,49.7869,283.5995],[-72.0396,49.7825,295.8245],[-72.0378,49.778,277.8531],[-72.0296,49.7707,278.7183],[-72.0291,49.7553,294.0031],[-72.0269,49.7495,297.9945],[-72.0096,49.7254,280.7804],[-72.0015,49.721,265.0813],[-72.0005,49.7164,273.6672],[-72.0041,49.7057,315.5371],[-72.0093,49.6981,316.6511],[-72.0222,49.6917,277.1386],[-72.027,49.6838,267.6524],[-72.0304,49.6812,274.4853],[-72.0421,49.6798,269.6816],[-72.0473,49.6715,262.1044],[-72.0473,49.6669,252.2413],[-72.0413,49.6585,274.3798],[-72.0388,49.6504,247.0403],[-72.0429,49.6295,238.0722],[-72.0424,49.6226,260.5383],[-72.036,49.6081,244.5172],[-72.0339,49.5923,234.8217],[-72.014,49.569,268.0121],[-71.9962,49.5551,238.8154],[-71.9778,49.5487,228.619],[-71.9563,49.5155,245.4041],[-71.9514,49.5147,230.8736],[-71.948,49.5161,213.8229],[-71.9417,49.5136,212.7629],[-71.9398,49.4979,220.7344],[-71.9382,49.4951,216.9076],[-71.9397,49.4889,221.1023],[-71.9375,49.4748,223.4223],[-71.9394,49.4662,229.7909],[-71.934,49.4353,214.1599],[-71.9429,49.4187,226.709],[-71.949,49.402,224.5935],[-71.9482,49.395,216.5345],[-71.9561,49.3882,242.8151],[-71.9591,49.3895,215.2027],[-71.9705,49.3866,267.9496],[-71.9788,49.3721,212.8016],[-71.9857,49.3676,205.5],[-71.9917,49.3682,209.7535],[-71.9969,49.3752,210.3582],[-72.0035,49.3774,225.4848],[-72.0071,49.3776,245.9055],[-72.0149,49.3733,205.5],[-72.0212,49.3736,215.0894],[-72.0222,49.3875,234.6104],[-72.025,49.3918,240.2921],[-72.0307,49.3947,211.3738],[-72.0338,49.395,206.622],[-72.0382,49.3911,227.8355],[-72.0411,49.3868,233.4307],[-72.0406,49.3845,225.9911],[-72.0451,49.3812,206.6751],[-72.0506,49.3818,206.62],[-72.0609,49.3937,206.3961],[-72.0699,49.3937,206.3467],[-72.0777,49.3842,225.3107],[-72.0819,49.3749,198.4307],[-72.0852,49.3732,194.75],[-72.0994,49.3744,226.1983],[-72.105,49.3695,254.5388],[-72.11,49.3591,235.9417],[-72.1303,49.3358,245.7501],[-72.1336,49.3295,254.7395],[-72.1525,49.2784,199.2251],[-72.1594,49.253,184.9043],[-72.1559,49.2442,205.2666],[-72.1176,49.2029,212.2469],[-72.0994,49.1762,244.6829],[-72.0876,49.1628,191.5258],[-72.0866,49.1579,186.4717],[-72.0999,49.1348,183.2582],[-72.1097,49.0706,225.3485],[-72.113,49.0632,180.6652],[-72.1163,49.0612,206.7008],[-72.1218,49.0619,209.0992],[-72.1297,49.0672,193.7762],[-72.1464,49.0625,188.3706],[-72.1531,49.0565,186.7576],[-72.1499,49.0524,180.2868],[-72.1582,49.0349,191.1965],[-72.1518,49.0189,174.4761],[-72.1526,49.013,161.1455],[-72.1547,49.0115,159.5214],[-72.0745,48.9427,162.2541],[-71.9295,49.013,266.3395],[-71.8483,49.0155,206.9572],[-71.8474,49.0089,200.2165],[-71.8509,49.0036,198.8317],[-71.8634,48.9951,200.5396],[-71.8703,48.9825,236.2585],[-71.8751,48.979,235.8662],[-71.8769,48.9747,212.3019],[-71.8821,48.9699,193.4232],[-71.8881,48.9516,190.1207],[-71.8926,48.9469,185.0827],[-71.9066,48.9412,184.6526],[-71.92,48.939,186.0468],[-71.9309,48.932,182.9426],[-71.9392,48.9239,210.2321],[-71.9322,48.92,177.2771],[-71.932,48.906,186.803],[-71.9349,48.8995,197.9203],[-71.9413,48.8969,198.6822],[-71.9471,48.8898,197.489],[-71.9612,48.8825,175.9723],[-71.9711,48.8795,174.0928],[-71.9753,48.8746,172.8562],[-71.9805,48.8722,170.4255],[-71.9051,48.8586,189.3365],[-71.8624,48.9631,188.3073],[-71.7738,48.9486,212.4189],[-71.7801,48.9334,188.3474],[-71.7543,48.929,176.1195],[-71.7578,48.9268,183.0314],[-71.7599,48.9223,183.8937],[-71.7556,48.9164,181.5647],[-71.7556,48.912,178.1189],[-71.7675,48.9026,178.06],[-71.7685,48.8992,176.5492],[-71.7659,48.8925,173.7189],[-71.7613,48.8894,181.0388],[-71.7611,48.8839,176.8941],[-71.7674,48.8701,172.8145],[-71.7824,48.8565,173.7271],[-71.7824,48.8528,171.6367],[-71.7751,48.8494,157.5467],[-71.7719,48.846,144.7978],[-71.7694,48.8391,145.872],[-71.7705,48.8336,136.5],[-71.7646,48.8295,139.0275],[-71.7606,48.8241,153.5549],[-71.7548,48.8228,136.5],[-71.7456,48.8261,149.8635],[-71.7411,48.8255,156.6304],[-71.7369,48.8187,171.7883],[-71.7346,48.809,152.9409],[-71.7292,48.8026,151.2656],[-71.7052,48.7884,136.5],[-71.7021,48.7801,169.0],[-71.6966,48.7738,169.0],[-71.6777,48.7656,169.0],[-71.6704,48.7654,169.0],[-71.6558,48.757,169.0],[-71.6466,48.7554,169.0],[-71.6372,48.7566,169.0],[-71.6362,48.7617,194.0776],[-71.6299,48.7654,186.5395],[-71.6161,48.7668,169.0],[-71.6059,48.7711,195.6345],[-71.602,48.7705,200.2987],[-71.587,48.7803,186.6805],[-71.5819,48.7908,190.299],[-71.5745,48.7943,169.0],[-71.564,48.7901,169.0],[-71.5446,48.7887,169.5]]]]}
,"properties": {"GID_3": "CAN.11.73.2_1","GID_0": "CAN","country": "Canada","GID_1": "CAN.11_1","province": "Québec","NL_NAME_1": "NA","GID_2": "CAN.11.73_1","county": "Maria-Chapdelaine","NL_NAME_2": "NA","city": "Chute-des-Passes","VARNAME_3": "NA","NL_NAME_3": "NA","TYPE_3": "NonOrganisé","ENGTYPE_3": "Unorganized","CC_3": "NA","HASC_3": "NA","name": "Chute-des-Passes.city","area_km2": 16747.39,"hist_schema_id": "Elevation0-9000","hist_area_km2": {"125": 2.35,"150": 7.92,"175": 100.09,"200": 327.21,"225": 354.16,"250": 470.03,"275": 510.97,"300": 483.58,"325": 486.46,"350": 589.57,"375": 651.72,"400": 736.33,"425": 725.49,"450": 925.97,"475": 873.55,"500": 968.59,"525": 1667.47,"550": 1891.71,"575": 1566.85,"600": 1223.14,"625": 916.18,"650": 538.59,"675": 285.69,"700": 159.02,"725": 134.16,"750": 72.17,"775": 43.44,"800": 23.96,"825": 9.22,"850": 1.42,"875": 0.38}}}