{"type":"Feature","properties":{"featurecla":"River","scalerank":12,"rivernum":22037,"dissolve":"22037River","name":"Mackenzie23","name_alt":null,"note":"ID is link back to CEC data","name_full":"Mackenzie River","min_zoom":7.0,"strokeweig":0.15,"uident":1204801,"min_label":8.0},
"geometry":{"type": "LineString","coordinates": [[-134.79499264231205,67.997178452598192,7.7845],[-134.7472224600204,67.99310944218152,10.7355],[-134.66331946522871,67.97321198124402,5.4518],[-134.62458248606205,67.97089264530652,4.7019],[-134.57005774647871,67.99066803593152,7.4073],[-134.58739173085371,68.03436920780652,4.6374],[-134.54967200429121,68.05304596561902,3.2524],[-134.4552302725204,68.05975983280652,5.218]]}}