{"type":"Feature","properties":{"featurecla":"River","scalerank":10,"rivernum":22065,"dissolve":"22065River","name":"Mackenzie44","name_alt":null,"note":"ID is link back to CEC data","name_full":"Mackenzie River","min_zoom":6.0,"strokeweig":0.25,"uident":1189001,"min_label":7.0},
"geometry":{"type": "LineString","coordinates": [[-135.45006262929121,68.610459702598192,1.2128],[-135.41340084543705,68.592393296348192,1.5607],[-135.3653865225204,68.57746002811902,1.8436],[-135.27672278554121,68.571397202598192,-0.4314],[-135.23395748606205,68.54425690311902,-0.1071]]}}