{"type":"Feature","properties":{"featurecla":"River","scalerank":12,"rivernum":22087,"dissolve":"22087River","name":"Mackenzie61","name_alt":null,"note":"ID is link back to CEC data","name_full":"Mackenzie River","min_zoom":7.0,"strokeweig":0.2,"uident":1176901,"min_label":8.0},
"geometry":{"type": "LineString","coordinates": [[-135.10456295481205,69.09528229374402,0.6304],[-135.15851803293705,69.09857819218152,2.1247],[-135.17723548085371,69.106553452598192,1.8078],[-135.2145076162704,69.11884186405652,1.2904],[-135.27643795481205,69.14899323124402,1.2479],[-135.31794186106205,69.17853424686902,1.0727],[-135.30943762929121,69.19452545780652,0.8021],[-135.34154212147871,69.212754624473192,1.0836],[-135.41779537668705,69.221462306764863,1.0604],[-135.47789466054121,69.21161530155652,0.0727],[-135.51423092356205,69.20502350468152,1.6664],[-135.5462947256454,69.20844147343152,0.2188],[-135.56737219960371,69.22907135624402,1.1259]]}}