{"type":"Feature","properties":{"featurecla":"River","scalerank":11,"rivernum":22076,"dissolve":"22076River","name":"Mackenzie54","name_alt":null,"note":"ID is link back to CEC data","name_full":"Mackenzie River","min_zoom":6.7,"strokeweig":0.2,"uident":1184101,"min_label":7.7},
"geometry":{"type": "LineString","coordinates": [[-135.36790930897871,68.782090561973192,0.1728],[-135.33527584543705,68.783311265098192,0.9383],[-135.29255123606205,68.77973053593152,2.4409],[-135.23936926991621,68.76825592655652,-0.16],[-135.19115149647871,68.75324127811902,-0.1851],[-135.15119381418705,68.75104401249402,-0.3037],[-135.10399329335371,68.76569244999402,1.3155],[-135.09430904856205,68.77265045780652,3.9755]]}}