{"type":"Feature","properties":{"featurecla":"River","scalerank":12,"rivernum":22082,"dissolve":"22082River","name":"Mackenzie60","name_alt":null,"note":"ID is link back to CEC data","name_full":"Mackenzie River","min_zoom":7.0,"strokeweig":0.15,"uident":1181101,"min_label":8.0},
"geometry":{"type": "LineString","coordinates": [[-135.0331111318954,69.056911525514863,2.0488],[-134.9842830068954,69.060329494264863,1.3159],[-134.96178137929121,69.062363999473192,1.9175],[-134.92613684804121,69.06561920780652,2.3911],[-134.92418372304121,69.07013580936902,0.0],[-134.92223059804121,69.07477448124402,2.6253],[-134.93004309804121,69.086208400514863,2.7533],[-134.91755123606205,69.094509181764863,1.3761],[-134.91315670481205,69.09613678593152,0.8176],[-134.90379798085371,69.099636134889863,0.8357],[-134.89793860585371,69.101833400514863,0.6366],[-134.88288326731205,69.10150787968152,0.0],[-134.83454342356205,69.07587311405652,3.0436],[-134.7657771475204,69.06024811405652,0.5],[-134.69859778554121,69.02704498905652,25.4105]]}}