{"type": "Feature","bbox": [-80.4229,44.0393,-80.1717,44.2569],"geometry": {"type": "MultiPolygon","coordinates": [[[[-80.1874,44.0817,485.8652],[-80.1717,44.0849,474.0827],[-80.2126,44.2569,504.5776],[-80.41,44.2149,513.9556],[-80.4083,44.213,519.3748],[-80.4229,44.2001,513.1963],[-80.4055,44.1936,519.0143],[-80.3609,44.1674,510.2927],[-80.3983,44.1352,505.61],[-80.3749,44.0393,484.0201],[-80.3403,44.0467,494.5683],[-80.3335,44.0521,497.9366],[-80.2128,44.0766,496.2227],[-80.2153,44.0878,495.9544],[-80.1987,44.0901,477.3148],[-80.1983,44.0882,483.3138],[-80.1899,44.0894,481.8799],[-80.1874,44.0817,485.8652]]]]}
,"properties": {"GID_3": "CAN.9.6.4_1","GID_0": "CAN","country": "Canada","GID_1": "CAN.9_1","province": "Ontario","NL_NAME_1": "NA","GID_2": "CAN.9.6_1","county": "Dufferin","NL_NAME_2": "NA","city": "Melancthon","VARNAME_3": "NA","NL_NAME_3": "NA","TYPE_3": "Township","ENGTYPE_3": "Township","CC_3": "NA","HASC_3": "NA","name": "Melancthon.city","area_km2": 312.2818,"hist_schema_id": "Elevation0-9000","hist_area_km2": {"400": 0.0913,"425": 0.3042,"450": 1.1866,"475": 29.3474,"500": 155.4635,"525": 125.7976,"550": 0.0912}}}