{"type": "Feature","bbox": [-105.4508,52.9742,-105.4162,52.9945],"geometry": {"type": "MultiPolygon","coordinates": [[[[-105.4389,52.9874,458.1382],[-105.4387,52.9944,457.0785],[-105.4508,52.9945,456.564],[-105.4508,52.987,460.2509],[-105.4389,52.9871,458.1382],[-105.442,52.9848,461.2025],[-105.441,52.9797,480.2317],[-105.4387,52.9797,481.6124],[-105.4386,52.9742,485.8235],[-105.4274,52.9788,475.1783],[-105.4252,52.9842,460.1946],[-105.4252,52.9855,459.5333],[-105.4275,52.9851,462.0963],[-105.4275,52.987,459.7026],[-105.4162,52.9879,457.333],[-105.4215,52.989,456.9132],[-105.4288,52.9872,457.2798],[-105.4389,52.9874,458.1382]]]]}
,"properties": {"GID_3": "CAN.12.6.10_1","GID_0": "CAN","country": "Canada","GID_1": "CAN.12_1","province": "Saskatchewan","NL_NAME_1": "NA","GID_2": "CAN.12.6_1","county": "DivisionNo.15","NL_NAME_2": "NA","city": "BirchHills","VARNAME_3": "NA","NL_NAME_3": "NA","TYPE_3": "Town","ENGTYPE_3": "Town","CC_3": "NA","HASC_3": "NA","name": "Birch_Hills.city","area_km2": 1.735918,"hist_schema_id": "Elevation0-9000","hist_area_km2": {"450": 0.918933,"475": 0.804218,"500": 0.012767}}}