{"type":"Feature","properties":{"GID_3":"CAN.12.16.42_1","GID_0":"CAN","country":"Canada","GID_1":"CAN.12_1","province":"Saskatchewan","NL_NAME_1":"NA","GID_2":"CAN.12.16_1","county":"DivisionNo.7","NL_NAME_2":"NA","city":"RodgersNo.133","VARNAME_3":"NA","NL_NAME_3":"NA","TYPE_3":"RuralMunicipality","ENGTYPE_3":"RuralMunicipality","CC_3":"NA","HASC_3":"NA","name":"Rodgers_No.133.city"},
"geometry":{"type": "MultiPolygon","coordinates": [[[[-106.0047,50.0473,665.5],[-106.0048,50.3093,724.4952],[-106.4168,50.3101,707.274],[-106.4159,50.2227,681.1381],[-106.4133,50.2225,681.4166],[-106.4133,50.221,682.6734],[-106.4131,50.0477,673.7325],[-106.0047,50.0473,665.5]],
[[-106.38,50.1375,693.9976],[-106.3801,50.1364,691.5963],[-106.3757,50.1365,690.3827],[-106.3735,50.1349,685.8098],[-106.379,50.1349,689.0623],[-106.3792,50.1309,682.5707],[-106.3908,50.1308,691.0767],[-106.3908,50.1396,699.9638],[-106.3799,50.1396,694.9922],[-106.38,50.1375,693.9976]]]]}}