{"type":"Feature","properties":{"GID_3":"CAN.3.20.5_1","GID_0":"CAN","country":"Canada","GID_1":"CAN.3_1","province":"Manitoba","NL_NAME_1":"NA","GID_2":"CAN.3.20_1","county":"DivisionNo.6","NL_NAME_2":"NA","city":"Sifton","VARNAME_3":"NA","NL_NAME_3":"NA","TYPE_3":"RuralMunicipality","ENGTYPE_3":"RuralMunicipality","CC_3":"NA","HASC_3":"NA","name":"Sifton.city"},
"geometry":{"type": "MultiPolygon","coordinates": [[[[-100.8502,49.5333,432.5676],[-100.463,49.5323,424.4231],[-100.4645,49.5917,433.3658],[-100.4631,49.6212,428.9105],[-100.4627,49.7982,436.1331],[-100.5171,49.7986,365.9782],[-100.5311,49.7889,366.9796],[-100.5313,49.798,366.6514],[-100.8734,49.798,437.5652],[-100.8735,49.5332,435.7066],[-100.8502,49.5333,432.5676]],
[[-100.6228,49.7612,437.6579],[-100.6456,49.7612,432.1258],[-100.6456,49.776,430.0673],[-100.6227,49.7759,428.6261],[-100.6228,49.7612,437.6579]]]]}}