{"type": "Feature","bbox": [-119.3288,50.3403,-119.0794,50.5506],"geometry": {"type": "MultiPolygon","coordinates": [[[[-119.308,50.5146,1136.9113],[-119.3079,50.5003,676.2651],[-119.2963,50.5004,597.1826],[-119.2962,50.4929,555.3328],[-119.2631,50.4929,541.6331],[-119.2627,50.4851,616.2184],[-119.2975,50.4849,527.7793],[-119.2972,50.4713,622.3964],[-119.3288,50.47,532.772],[-119.3281,50.4411,547.3943],[-119.3173,50.4408,683.4943],[-119.3192,50.4053,472.6022],[-119.3084,50.4051,517.1924],[-119.3059,50.3694,373.1925],[-119.2904,50.3692,351.4034],[-119.291,50.3586,364.5027],[-119.2842,50.3584,357.0954],[-119.2842,50.3546,354.7564],[-119.2822,50.3545,349.4808],[-119.2853,50.3519,349.7446],[-119.2776,50.3515,400.6919],[-119.2778,50.3405,510.9411],[-119.2518,50.3403,391.5692],[-119.2514,50.3447,395.1354],[-119.2482,50.3448,396.209],[-119.2484,50.3403,393.0092],[-119.1712,50.3403,1196.6348],[-119.172,50.4129,832.5668],[-119.1498,50.4132,1071.5868],[-119.1491,50.442,433.5203],[-119.0794,50.4421,1491.0756],[-119.0817,50.5506,353.2258],[-119.0871,50.5488,353.2238],[-119.0964,50.5487,351.5967],[-119.1039,50.5444,350.2701],[-119.1165,50.5443,349.5],[-119.1234,50.5416,354.099],[-119.1253,50.5362,351.7135],[-119.123,50.5336,351.9295],[-119.1228,50.5276,355.6185],[-119.1209,50.5256,352.6232],[-119.1237,50.522,355.6811],[-119.1227,50.5209,355.6811],[-119.1243,50.5201,351.0616],[-119.1238,50.5185,352.1785],[-119.1393,50.5204,395.2908],[-119.1396,50.5128,397.2319],[-119.1372,50.5124,385.3606],[-119.1378,50.4996,388.5337],[-119.1833,50.5001,518.3851],[-119.1834,50.5278,515.0082],[-119.3083,50.5287,1218.7998],[-119.308,50.5146,1136.9113]],
[[-119.1822,50.4493,358.7913],[-119.1831,50.4298,392.0659],[-119.191,50.4298,392.0352],[-119.1912,50.4347,387.1625],[-119.1931,50.4346,387.1625],[-119.1944,50.4392,372.187],[-119.2057,50.4381,392.2936],[-119.2057,50.4363,391.0455],[-119.2172,50.4362,373.9274],[-119.2168,50.4488,386.3782],[-119.21,50.4487,363.5414],[-119.2101,50.456,405.6691],[-119.1819,50.456,376.2412],[-119.1822,50.4493,358.7913]],
[[-119.2305,50.3841,414.5249],[-119.2385,50.384,404.7641],[-119.2382,50.3906,399.6232],[-119.2286,50.3907,419.5509],[-119.2285,50.3841,437.6167],[-119.2305,50.3841,414.5249]]]]}
,"properties": {"GID_3": "CAN.2.19.14_1","GID_0": "CAN","country": "Canada","GID_1": "CAN.2_1","province": "BritishColumbia","NL_NAME_1": "NA","GID_2": "CAN.2.19_1","county": "NorthOkanagan","NL_NAME_2": "NA","city": "Spallumcheen","VARNAME_3": "NA","NL_NAME_3": "NA","TYPE_3": "DistrictMunicipality","ENGTYPE_3": "DistrictMunicipality","CC_3": "NA","HASC_3": "NA","name": "Spallumcheen.city","area_km2": 255.4493,"hist_schema_id": "Elevation0-9000","hist_area_km2": {"350": 13.1659,"375": 26.6059,"400": 43.1406,"425": 13.4216,"450": 10.7735,"475": 10.8003,"500": 13.4129,"525": 16.6471,"550": 10.7413,"575": 7.5714,"600": 5.5746,"625": 4.968,"650": 4.6446,"675": 4.4963,"700": 4.3082,"725": 3.8488,"750": 4.3214,"775": 4.2406,"800": 5.4294,"825": 4.0245,"850": 3.9164,"875": 3.3356,"900": 3.4166,"925": 3.4035,"950": 3.6056,"975": 2.9573,"1000": 2.9841,"1025": 2.1335,"1050": 1.4587,"1075": 1.31,"1100": 1.8093,"1125": 1.4855,"1150": 1.8227,"1175": 1.5256,"1200": 2.1734,"1225": 1.3104,"1250": 0.9598,"1275": 1.0952,"1300": 0.8519,"1325": 0.676,"1350": 0.5815,"1375": 0.2433,"1400": 0.0811,"1425": 0.054,"1450": 0.027,"1475": 0.054,"1500": 0.0135,"1525": 0.027}}}