{"type":"Feature","properties":{"GID_3":"CAN.2.4.40_1","GID_0":"CAN","country":"Canada","GID_1":"CAN.2_1","province":"BritishColumbia","NL_NAME_1":"NA","GID_2":"CAN.2.4_1","county":"Cariboo","NL_NAME_2":"NA","city":"CaribooI","VARNAME_3":"NA","NL_NAME_3":"NA","TYPE_3":"RegionalDistrictElectoralArea","ENGTYPE_3":"RegionalDistrictElectoralArea","CC_3":"NA","HASC_3":"NA","name":"Cariboo_I.city"},
"geometry":{"type": "MultiPolygon","coordinates": [[[[-125.0118,53.4446,859.9943],[-125.0097,53.4426,862.5762],[-125.0111,53.4391,871.7076],[-125.0099,53.4375,861.4127],[-125.0113,53.4202,859.7015],[-125.0131,53.4182,883.9035],[-125.0068,53.413,887.0289],[-125.0056,53.4081,911.9044],[-125.0,53.4033,901.4575],[-125.0,53.0,1120.4752],[-123.9996,53.0,1311.2102],[-123.9978,52.5013,1269.5745],[-123.3061,52.5013,1141.5839],[-122.4479,52.5073,452.7448],[-122.4481,52.5036,489.9596],[-122.4391,52.5033,434.1193],[-122.4494,52.5315,439.051],[-122.4559,52.5349,451.1476],[-122.4625,52.5351,466.8968],[-122.4702,52.5378,496.8448],[-122.4787,52.5433,463.536],[-122.4815,52.5519,428.0],[-122.4771,52.5559,442.857],[-122.4721,52.5652,461.3216],[-122.4721,52.5723,429.25],[-122.4725,52.5745,429.5],[-122.4784,52.579,444.1409],[-122.4849,52.5888,433.7322],[-122.4849,52.5911,430.5],[-122.4794,52.5961,462.7817],[-122.4644,52.6165,442.645],[-122.4646,52.6196,438.2459],[-122.4699,52.6317,444.6622],[-122.4748,52.6299,436.4373],[-122.4803,52.632,446.2591],[-122.4804,52.6352,437.9336],[-122.4857,52.6359,448.5581],[-122.4943,52.642,485.0505],[-122.4939,52.6443,437.5],[-122.4869,52.6524,449.6383],[-122.4669,52.6628,463.8376],[-122.46,52.6705,458.0261],[-122.4587,52.6754,441.125],[-122.459,52.6802,443.3875],[-122.4676,52.6876,449.9403],[-122.4746,52.6911,450.5467],[-122.4805,52.6991,447.756],[-122.4838,52.7103,479.8639],[-122.4811,52.713,445.8849],[-122.4807,52.7217,448.4616],[-122.4855,52.7357,450.181],[-122.4829,52.7461,449.7848],[-122.4835,52.7491,451.0284],[-122.4804,52.7568,452.5547],[-122.4627,52.7644,454.5779],[-122.4588,52.7731,464.4383],[-122.4636,52.8008,452.5],[-122.463,52.8117,452.5],[-122.4595,52.8242,453.809],[-122.4526,52.8329,469.7432],[-122.444,52.8482,454.25],[-122.4412,52.86,456.566],[-122.4436,52.8653,455.0],[-122.456,52.8735,509.9598],[-122.4654,52.8901,456.5],[-122.4759,52.8977,506.2172],[-122.4767,52.904,457.0],[-122.4853,52.9119,500.2896],[-122.4956,52.9284,471.7614],[-122.4936,52.9415,469.8354],[-122.4946,52.9447,472.2609],[-122.5101,52.9516,462.8338],[-122.5128,52.9544,463.213],[-122.5177,52.9544,503.3991],[-122.5219,52.9595,526.3683],[-122.5221,52.9713,504.8611],[-122.5308,52.9714,582.1461],[-122.5309,52.9735,554.9028],[-122.5364,52.9747,590.7759],[-122.5379,52.9783,629.0596],[-122.5439,52.9784,651.2595],[-122.5424,52.9567,742.7177],[-122.5831,52.955,731.5387],[-122.6365,52.9575,605.7883],[-122.641,52.9549,705.7946],[-122.6889,52.9537,666.8759],[-122.7825,52.9586,805.711],[-122.8713,52.9591,850.1085],[-122.8865,52.9591,860.4626],[-122.8871,52.9561,880.6038],[-122.9104,52.956,895.4269],[-122.91,53.0105,977.2257],[-122.8807,53.077,985.6008],[-122.8731,53.0898,960.9182],[-122.8808,53.1386,961.1718],[-122.8852,53.2721,800.088],[-122.8972,53.2721,784.2816],[-122.8972,53.2792,770.1618],[-122.8855,53.2791,807.0538],[-122.8849,53.301,686.6589],[-122.8908,53.3012,674.807],[-122.8927,53.3058,519.3425],[-122.9049,53.3094,531.6215],[-122.911,53.2971,595.6213],[-122.9449,53.2932,592.5488],[-122.9487,53.2953,541.608],[-122.9563,53.293,596.5554],[-122.9649,53.2953,590.3798],[-122.9704,53.2809,613.5126],[-122.9868,53.2804,781.4617],[-123.0039,53.2722,763.8209],[-123.0096,53.2728,780.2006],[-123.0135,53.2772,609.1669],[-123.0226,53.2781,661.5282],[-123.023,53.2842,675.0523],[-123.0402,53.2934,670.403],[-123.0498,53.2958,642.2734],[-123.0608,53.292,653.8387],[-123.0684,53.2869,774.5732],[-123.1046,53.2889,669.5208],[-123.1168,53.2843,757.6543],[-123.134,53.2856,718.8671],[-123.145,53.2831,727.8441],[-123.1496,53.2888,653.8019],[-123.1553,53.2895,707.7764],[-123.1683,53.2872,726.8372],[-123.1706,53.2894,662.0892],[-123.1664,53.2947,645.2769],[-123.2042,53.2926,797.0187],[-123.208,53.2937,795.8651],[-123.2084,53.2983,656.5663],[-123.2145,53.2989,669.8727],[-123.2187,53.2948,755.9637],[-123.232,53.2977,676.5233],[-123.2415,53.2945,725.281],[-123.2617,53.291,687.3558],[-123.2704,53.2864,712.5901],[-123.2841,53.2839,692.9607],[-123.2887,53.2795,740.0073],[-123.3024,53.2796,750.3469],[-123.3009,53.2853,715.7762],[-123.3025,53.471,781.5966],[-123.4193,53.4708,835.1035],[-123.4201,53.4841,829.0665],[-123.9969,53.484,961.7365],[-123.9972,53.444,1039.8137],[-124.0068,53.4436,1035.5848],[-124.0316,53.4352,1078.275],[-124.0461,53.4322,1113.606],[-124.0558,53.4348,1098.2516],[-124.0693,53.4328,1082.9581],[-124.0854,53.435,1072.0541],[-124.1041,53.4312,1100.0546],[-124.1123,53.4245,1115.5059],[-124.1044,53.4166,1123.6482],[-124.1082,53.4121,1117.2878],[-124.1225,53.4133,1119.3746],[-124.1361,53.4083,1113.8557],[-124.1443,53.4084,1111.6783],[-124.1604,53.4098,1110.7999],[-124.1678,53.4134,1114.1807],[-124.18,53.4126,1085.3159],[-124.1982,53.4192,1053.1458],[-124.208,53.4191,1077.1201],[-124.2149,53.4208,1074.9933],[-124.2187,53.4296,1096.5942],[-124.2188,53.4337,1132.0029],[-124.2177,53.4403,1141.407],[-124.2151,53.4439,1157.05],[-124.2381,53.4529,1113.0862],[-124.2457,53.4531,1114.1572],[-124.2482,53.4617,1094.9822],[-124.2533,53.4668,1124.7766],[-124.2657,53.468,1120.1333],[-124.2695,53.4743,1125.2881],[-124.2802,53.4807,1130.7267],[-124.286,53.4765,1123.168],[-124.2791,53.4654,1122.9692],[-124.2791,53.4613,1152.7114],[-124.2941,53.4558,1093.1194],[-124.305,53.4558,1078.8231],[-124.337,53.4614,1036.5692],[-124.353,53.4571,1017.8628],[-124.3804,53.4553,1032.9208],[-124.3842,53.4612,1035.033],[-124.3859,53.4712,1027.774],[-124.3858,53.486,1009.6252],[-124.3985,53.4906,1001.5529],[-124.404,53.496,1034.6089],[-124.393,53.4982,1028.1335],[-124.3809,53.4978,1047.1218],[-124.3809,53.5028,1071.402],[-124.4387,53.5104,1090.9906],[-124.4847,53.5213,1118.5974],[-124.4958,53.5274,1078.4155],[-124.5042,53.5298,1032.7728],[-124.5276,53.5322,1034.8383],[-124.5361,53.5296,1019.165],[-124.5364,53.5259,1047.9839],[-124.5088,53.5024,1012.2196],[-124.5134,53.4951,1015.9127],[-124.5123,53.4897,964.9367],[-124.5169,53.4843,979.8032],[-124.518,53.4779,998.196],[-124.5335,53.4734,1029.9675],[-124.5514,53.4716,1051.9806],[-124.5606,53.4683,1050.8789],[-124.5515,53.4632,1079.0734],[-124.5267,53.4553,1100.965],[-124.5202,53.4511,1127.6262],[-124.5214,53.4461,1139.981],[-124.5318,53.442,1099.7513],[-124.5367,53.4369,1110.8801],[-124.5315,53.422,1118.1082],[-124.5271,53.4159,1117.2823],[-124.5253,53.4079,1115.5098],[-124.5224,53.403,1115.4146],[-124.5168,53.4001,1115.9954],[-124.515,53.3952,1114.9017],[-124.5225,53.3938,1111.1591],[-124.5378,53.3952,1142.6505],[-124.5535,53.3941,1142.0439],[-124.5727,53.3907,1260.772],[-124.5969,53.3891,1426.4966],[-124.6056,53.3865,1421.4496],[-124.628,53.3866,1340.5786],[-124.6335,53.3917,1382.4199],[-124.6367,53.4002,1388.6267],[-124.6464,53.4081,1458.5522],[-124.6603,53.4092,1552.1772],[-124.6865,53.4,1568.6376],[-124.6831,53.3891,1439.6063],[-124.6801,53.3846,1373.1067],[-124.6874,53.3805,1310.1855],[-124.6962,53.3786,1168.1405],[-124.7122,53.3666,1076.6403],[-124.718,53.3604,1062.7903],[-124.7271,53.3558,1061.1949],[-124.7355,53.3551,1053.2678],[-124.7785,53.3622,1027.9749],[-124.8046,53.3695,1004.0911],[-124.8387,53.3873,962.0329],[-124.8537,53.3968,950.3267],[-124.8973,53.4357,910.8303],[-124.9129,53.4385,913.4619],[-124.9326,53.4392,904.7819],[-124.9414,53.4348,901.0531],[-124.9514,53.4341,902.6139],[-124.9631,53.4365,894.7914],[-124.9822,53.4318,898.6225],[-124.983,53.4351,908.882],[-124.9906,53.4373,897.1954],[-124.991,53.4415,890.554],[-125.0,53.4471,875.325],[-125.0118,53.4446,859.9943]],
[[-122.4985,52.5577,560.5413],[-122.5074,52.5576,653.342],[-122.5071,52.5925,560.7551],[-122.495,52.5926,496.9753],[-122.4951,52.5888,511.8745],[-122.4882,52.5886,490.4672],[-122.4774,52.5724,448.044],[-122.4774,52.5677,445.661],[-122.4865,52.5677,461.1915],[-122.4872,52.5578,455.3235],[-122.4985,52.5577,560.5413]],
[[-123.8077,52.9829,968.9217],[-123.8075,52.9788,976.1049],[-123.8202,52.9788,973.6776],[-123.8202,52.9856,999.6361],[-123.8079,52.9856,967.5869],[-123.808,52.9902,970.2728],[-123.7957,52.9903,974.3897],[-123.7962,52.983,990.6494],[-123.8077,52.9829,968.9217]],
[[-124.7052,53.3123,956.9327],[-124.7054,53.3065,967.4826],[-124.729,53.3066,929.7739],[-124.7287,53.3148,926.3721],[-124.7051,53.3144,962.433],[-124.7052,53.3123,956.9327]],
[[-123.5,53.2251,806.8455],[-123.4898,53.225,818.5262],[-123.49,53.2037,846.2298],[-123.5154,53.2029,802.5504],[-123.5173,53.2253,864.3762],[-123.5,53.2251,806.8455]],
[[-123.5257,53.1842,819.0461],[-123.5158,53.1874,805.7597],[-123.516,53.1817,821.9675],[-123.5378,53.181,808.0],[-123.5384,53.1882,820.8992],[-123.521,53.1884,805.8782],[-123.5257,53.1842,819.0461]],
[[-124.3275,53.1229,1060.6816],[-124.3276,53.1181,1034.4609],[-124.3414,53.1186,1027.7252],[-124.3408,53.1235,1029.1062],[-124.3275,53.1229,1060.6816]],
[[-124.4874,53.0849,957.2295],[-124.4892,53.0819,961.9722],[-124.512,53.0829,1062.6326],[-124.5115,53.098,1072.0281],[-124.4629,53.0976,1049.4999],[-124.4624,53.0898,957.3643],[-124.4874,53.0849,957.2295]],
[[-124.6545,53.0909,1011.517],[-124.6544,53.0833,1016.7739],[-124.6686,53.0837,1012.9465],[-124.6678,53.0914,1024.1345],[-124.6545,53.0909,1011.517]],
[[-123.8484,52.9927,1033.3118],[-123.8365,52.9927,1014.2426],[-123.8362,52.9853,1019.9917],[-123.8487,52.9853,1025.9872],[-123.8484,52.9927,1033.3118]],
[[-123.584,52.9652,836.2649],[-123.5839,52.9629,838.1599],[-123.5726,52.9631,874.4136],[-123.5722,52.9448,840.2694],[-123.5662,52.9449,904.1569],[-123.5663,52.9358,843.808],[-123.5899,52.9376,907.5751],[-123.5901,52.963,838.4192],[-123.6031,52.9629,878.1729],[-123.6035,52.9711,836.1219],[-123.5844,52.9711,851.7362],[-123.584,52.9652,836.2649]]]]}}