{"type": "Feature","bbox": [-104.1297,51.3859,-103.7041,51.6528],"geometry": {"type": "MultiPolygon","coordinates": [[[[-104.1297,51.5643,645.8888],[-104.1294,51.3871,656.6993],[-103.8525,51.3859,682.7356],[-103.7045,51.3869,662.2513],[-103.7053,51.564,608.6678],[-103.7041,51.6223,592.0907],[-103.7055,51.6521,583.1635],[-104.1297,51.6528,639.0317],[-104.1297,51.5643,645.8888]],
[[-103.9683,51.5451,625.6519],[-103.9875,51.546,625.4285],[-103.9876,51.5496,624.1395],[-103.9684,51.5496,623.9235],[-103.9683,51.5451,625.6519]],
[[-103.8821,51.4309,669.625],[-103.8812,51.4073,684.5088],[-103.8926,51.4073,680.5192],[-103.8936,51.4232,676.518],[-103.9052,51.4232,681.7386],[-103.9051,51.431,675.1857],[-103.8821,51.4309,669.625]]]]}
,"properties": {"GID_3": "CAN.12.1.8_1","GID_0": "CAN","country": "Canada","GID_1": "CAN.12_1","province": "Saskatchewan","NL_NAME_1": "NA","GID_2": "CAN.12.1_1","county": "DivisionNo.10","NL_NAME_2": "NA","city": "EmeraldNo.277","VARNAME_3": "NA","NL_NAME_3": "NA","TYPE_3": "RuralMunicipality","ENGTYPE_3": "RuralMunicipality","CC_3": "NA","HASC_3": "NA","name": "Emerald_No.277.city","area_km2": 863.9401,"hist_schema_id": "Elevation0-9000","hist_area_km2": {"575": 2.0392,"600": 172.6627,"625": 275.7797,"650": 262.3816,"675": 148.5367,"700": 2.5402}}}