{"type":"Feature","properties":{"GID_3":"CAN.9.20.1_1","GID_0":"CAN","country":"Canada","GID_1":"CAN.9_1","province":"Ontario","NL_NAME_1":"NA","GID_2":"CAN.9.20_1","county":"Kenora","NL_NAME_2":"NA","city":"Attawapiskat91A","VARNAME_3":"NA","NL_NAME_3":"NA","TYPE_3":"RéserveIndienne","ENGTYPE_3":"IndianReserve","CC_3":"NA","HASC_3":"NA","name":"Attawapiskat91_A.city"},
"geometry":{"type": "MultiPolygon","coordinates": [[[[-82.4068,52.9276,7.2277],[-82.4065,52.931,6.1774],[-82.4277,52.9327,10.0316],[-82.4275,52.9132,0.0],[-82.4096,52.9108,7.2867],[-82.4068,52.9276,7.2277]]]]}}