{"type": "Feature","bbox": [-80.4099,43.4683,-80.0858,43.7253],"geometry": {"type": "MultiPolygon","coordinates": [[[[-80.0858,43.6291,363.4165],[-80.2228,43.7253,409.661],[-80.2836,43.6717,394.725],[-80.2867,43.6671,389.2358],[-80.2855,43.6663,386.0539],[-80.289,43.6581,381.8428],[-80.2917,43.6558,375.6459],[-80.2951,43.6565,374.5105],[-80.3486,43.6184,373.3439],[-80.3553,43.6233,374.3924],[-80.4099,43.5831,348.6442],[-80.383,43.5636,341.883],[-80.3672,43.5694,343.8141],[-80.374,43.5329,335.6173],[-80.3056,43.4719,321.2701],[-80.3042,43.4683,317.746],[-80.253,43.5061,311.4991],[-80.2577,43.5138,318.453],[-80.252,43.5178,327.5636],[-80.2614,43.5257,308.1407],[-80.2635,43.5222,305.8537],[-80.2675,43.5204,312.5134],[-80.273,43.5125,327.9196],[-80.2749,43.5132,327.147],[-80.2783,43.5108,330.0954],[-80.2969,43.5236,330.1468],[-80.3057,43.5202,336.8502],[-80.3269,43.5344,339.9896],[-80.3177,43.541,341.489],[-80.3198,43.5425,346.6211],[-80.3014,43.5552,343.347],[-80.3034,43.5567,345.8633],[-80.2943,43.5633,338.7166],[-80.289,43.5624,337.7067],[-80.2796,43.5687,334.9642],[-80.2785,43.5674,334.9642],[-80.2762,43.5689,332.7755],[-80.2765,43.5707,330.5809],[-80.274,43.5728,334.3255],[-80.27,43.5723,342.3347],[-80.2708,43.5804,342.4994],[-80.2675,43.592,352.2555],[-80.2646,43.592,357.4146],[-80.2438,43.5769,349.6744],[-80.2333,43.5846,349.6838],[-80.2279,43.5808,351.7765],[-80.2256,43.5825,356.2357],[-80.197,43.5622,333.736],[-80.1958,43.5604,327.9146],[-80.1968,43.5598,327.9146],[-80.1935,43.5571,326.4614],[-80.1879,43.5542,328.4608],[-80.1697,43.5677,342.821],[-80.1604,43.5611,331.8383],[-80.1501,43.5706,325.3617],[-80.145,43.567,351.5319],[-80.1286,43.5816,348.4631],[-80.1344,43.5855,345.367],[-80.0858,43.6291,363.4165]]]]}
,"properties": {"GID_3": "CAN.9.52.4_1","GID_0": "CAN","country": "Canada","GID_1": "CAN.9_1","province": "Ontario","NL_NAME_1": "NA","GID_2": "CAN.9.52_1","county": "Wellington","NL_NAME_2": "NA","city": "Guelph/Eramosa","VARNAME_3": "NA","NL_NAME_3": "NA","TYPE_3": "Township","ENGTYPE_3": "Township","CC_3": "NA","HASC_3": "NA","name": "Guelph_Eramosa.city","area_km2": 297.0168,"hist_schema_id": "Elevation0-9000","hist_area_km2": {"300": 2.8606,"325": 37.219,"350": 118.297,"375": 96.7484,"400": 40.5122,"425": 1.3796}}}