{"type":"Feature","properties":{"GID_3":"CAN.2.27.7_1","GID_0":"CAN","country":"Canada","GID_1":"CAN.2_1","province":"BritishColumbia","NL_NAME_1":"NA","GID_2":"CAN.2.27_1","county":"SunshineCoast","NL_NAME_2":"NA","city":"SunshineCoastB","VARNAME_3":"NA","NL_NAME_3":"NA","TYPE_3":"RegionalDistrictElectoralArea","ENGTYPE_3":"RegionalDistrictElectoralArea","CC_3":"NA","HASC_3":"NA","name":"Sunshine_Coast_B.city"},
"geometry":{"type": "MultiPolygon","coordinates": [[[[-123.9606,49.4639,3.9607],[-123.9589,49.465,0.0],[-123.9631,49.4658,0.0],[-123.9628,49.4646,1.1785],[-123.9606,49.4639,3.9607]]],
[[[-123.9117,49.468,0.0],[-123.9208,49.4714,12.9687],[-123.9239,49.4706,8.4707],[-123.9206,49.4677,3.4113],[-123.9128,49.4662,0.4258],[-123.9117,49.468,0.0]]],
[[[-123.979,49.5076,3.5337],[-123.9819,49.5096,0.0],[-123.9828,49.5072,4.7487],[-123.9797,49.5031,18.1438],[-123.9842,49.4967,0.0],[-123.9791,49.4925,6.8336],[-123.982,49.4922,7.3985],[-123.9817,49.49,1.5912],[-123.9836,49.4894,1.0625],[-123.9886,49.493899999999996,0.4078],[-123.9903,49.4921,6.0101],[-123.9865,49.4897,0.0],[-123.9857,49.4865,20.2987],[-123.9797,49.4842,21.3715],[-123.9806,49.4814,0.0],[-123.9783,49.4775,0.0],[-123.9784,49.4711,0.0],[-123.9667,49.4669,0.0],[-123.9644,49.4681,2.4251],[-123.9628,49.4664,0.0],[-123.9542,49.4683,0.0],[-123.9519,49.4675,8.1142],[-123.9516,49.4694,15.9894],[-123.9552,49.4716,3.0399],[-123.9508,49.4725,0.0],[-123.9571,49.4755,2.4163],[-123.9505,49.4808,0.0],[-123.9572,49.4847,0.0],[-123.955,49.4864,0.0],[-123.9575,49.4872,5.8837],[-123.9567,49.4914,0.0],[-123.9542,49.4917,0.0],[-123.954,49.493,6.1071],[-123.9678,49.5016,22.1572],[-123.9735,49.5073,0.0],[-123.9791,49.5092,0.0],[-123.979,49.5076,3.5337]]],
[[[-123.9978,49.5092,0.0],[-124.0133,49.5081,4.243],[-124.0181,49.5036,0.0],[-124.01,49.5025,28.3177],[-124.0022,49.4956,31.1959],[-123.99,49.4944,0.4078],[-123.9969,49.5036,63.5633],[-123.9947,49.5061,0.4191],[-123.9978,49.5092,0.0]]],
[[[-123.9692,49.5122,2.6906],[-123.9708,49.5114,0.0],[-123.9669,49.5108,0.0],[-123.9674,49.512,0.0],[-123.9692,49.5122,2.6906]]],
[[[-123.8874,49.7239,0.5],[-123.9036,49.7247,270.1222],[-123.9037,49.7285,185.1075],[-123.9131,49.7254,257.3927],[-123.9243,49.7287,329.9784],[-123.9388,49.7194,690.9477],[-123.9389,49.7069,968.399],[-123.935,49.7002,1115.766],[-123.9341,49.6918,1134.9924],[-123.9282,49.6837,1044.7751],[-123.9296,49.6789,1041.6514],[-123.9277,49.6716,1101.225],[-123.9265,49.6699,1111.2141],[-123.9093,49.6651,1088.1985],[-123.9068,49.6628,1120.1243],[-123.9061,49.6587,1071.1761],[-123.908,49.6559,1071.788],[-123.8945,49.6515,1118.328],[-123.8899,49.6435,1257.0073],[-123.8928,49.6352,1057.1361],[-123.8988,49.6309,982.0971],[-123.9001,49.6212,956.9385],[-123.8983,49.6132,898.5432],[-123.9088,49.6127,865.3199],[-123.915,49.6058,853.1361],[-123.918,49.5971,812.2808],[-123.9128,49.5949,814.2104],[-123.9126,49.587,684.2613],[-123.9181,49.587,661.5361],[-123.9178,49.5802,586.7004],[-123.9373,49.5543,324.7825],[-123.9951,49.5516,0.0],[-123.9874,49.5454,0.0],[-123.9845,49.5449,0.0],[-123.9832,49.5409,6.4199],[-123.978,49.5367,0.0],[-123.9756,49.5365,17.7789],[-123.9742,49.5339,5.6818],[-123.975,49.5317,4.8027],[-123.9694,49.5283,0.0],[-123.9667,49.5292,3.6624],[-123.9662,49.532,10.3275],[-123.969,49.5362,0.0],[-123.9737,49.538,6.6025],[-123.9681,49.5369,0.0],[-123.9653,49.5336,0.0],[-123.9619,49.5337,2.2572],[-123.9594,49.5319,15.5144],[-123.9594,49.53,14.053],[-123.9649,49.5269,2.0357],[-123.9609,49.5235,13.6971],[-123.9631,49.5174,1.3465],[-123.9693,49.5158,5.0075],[-123.9644,49.5087,0.0],[-123.952,49.504,15.6501],[-123.9495,49.5016,0.0],[-123.9475,49.5025,0.0],[-123.9492,49.5042,23.873],[-123.9451,49.5029,0.0],[-123.9428,49.5042,0.0],[-123.9453,49.5072,5.0389],[-123.9402,49.507,0.0],[-123.9392,49.5119,1.8807],[-123.9342,49.5093,4.5479],[-123.9247,49.5125,2.3409],[-123.9195,49.5107,3.0906],[-123.9143,49.5124,13.9391],[-123.9119,49.5106,3.9277],[-123.9101,49.5115,3.9277],[-123.9084,49.5091,0.0],[-123.9114,49.5071,0.0],[-123.9089,49.5052,1.4396],[-123.9123,49.4975,0.0],[-123.9072,49.4883,24.0925],[-123.9077,49.4844,24.0443],[-123.902,49.48,0.0],[-123.8911,49.4764,6.0776],[-123.8883,49.4735,0.0],[-123.8719,49.4678,11.3849],[-123.8577,49.4685,0.0],[-123.8556,49.4703,11.3397],[-123.8627,49.4751,2.2293],[-123.8603,49.4777,4.0045],[-123.8496,49.4756,17.7186],[-123.8485,49.4758,17.7186],[-123.8482,49.4825,143.2123],[-123.827,49.4826,240.914],[-123.8265,49.4971,227.9034],[-123.8157,49.4971,226.0979],[-123.8156,49.4996,273.6425],[-123.7969,49.4998,110.5337],[-123.7964,49.5097,2.5038],[-123.7977,49.5127,26.409],[-123.7943,49.5168,17.503],[-123.7994,49.5198,29.763],[-123.8002,49.5225,5.4678],[-123.7959,49.5245,10.214],[-123.7942,49.5308,23.3803],[-123.7898,49.5331,5.2334],[-123.793,49.5354,13.9505],[-123.7952,49.535,33.6717],[-123.7987,49.5411,0.5],[-123.7986,49.5436,0.5],[-123.7934,49.5466,26.5953],[-123.8007,49.5496,1.0],[-123.7994,49.5514,4.3942],[-123.8032,49.5595,18.3493],[-123.8082,49.5651,9.3813],[-123.8062,49.5682,10.7444],[-123.8131,49.5719,30.1495],[-123.8095,49.5755,5.4559],[-123.8174,49.5874,1.0],[-123.8144,49.5936,5.7],[-123.8212,49.601,3.7917],[-123.8263,49.603,15.3452],[-123.8312,49.611,6.7923],[-123.8414,49.6205,5.7902],[-123.8477,49.6345,30.3361],[-123.847,49.6371,22.7966],[-123.8484,49.6403,52.4073],[-123.856,49.6466,33.7281],[-123.8611,49.6567,10.8946],[-123.8609,49.6617,17.7131],[-123.8629,49.6666,71.5023],[-123.8612,49.6712,1.0],[-123.8653,49.6775,33.0483],[-123.875,49.6848,7.7034],[-123.8776,49.6891,6.8921],[-123.8832,49.6925,5.6513],[-123.885,49.6962,1.0],[-123.8892,49.6994,0.5],[-123.8907,49.7084,25.1602],[-123.889,49.7106,0.5],[-123.8905,49.7142,31.56],[-123.8891,49.7225,7.033],[-123.8874,49.7239,0.5]]],
[[[-123.8028,49.6214,1.0],[-123.8036,49.6233,1.0],[-123.8069,49.6219,1.0],[-123.8047,49.6214,2.9159],[-123.8044,49.6197,1.0],[-123.8028,49.6214,1.0]]],
[[[-123.6206,49.9302,1854.9546],[-123.6199,49.9309,1853.2944],[-123.6344,49.9271,1503.0249],[-123.6599,49.9302,1312.3197],[-123.6754,49.9221,1447.6279],[-123.6822,49.9123,1411.2097],[-123.6883,49.908,1150.8336],[-123.702,49.9051,1516.8086],[-123.7092,49.9056,1610.3705],[-123.7226,49.8945,1680.0099],[-123.7331,49.8958,1779.7601],[-123.7388,49.8915,1810.8918],[-123.7415,49.8855,1698.8717],[-123.7464,49.8864,1611.4338],[-123.7586,49.8707,1491.4004],[-123.7699,49.8687,1623.512],[-123.7747,49.8616,1514.8202],[-123.7753,49.8567,1497.8862],[-123.7724,49.8545,1424.688],[-123.7665,49.841,1397.5063],[-123.7714,49.8258,1652.0663],[-123.7967,49.7983,1283.4265],[-123.7973,49.7701,1708.1504],[-123.8048,49.76,1468.3002],[-123.8176,49.7535,1426.7347],[-123.8349,49.7477,1184.7258],[-123.8564,49.7461,624.9313],[-123.8732,49.742,70.5669],[-123.8849,49.743,23.3609],[-123.8846,49.7342,3.2444],[-123.8731,49.7301,0.5],[-123.869,49.7263,0.5],[-123.8667,49.7228,1.3269],[-123.8639,49.7109,0.5],[-123.8592,49.7081,0.5],[-123.8579,49.7048,1.8246],[-123.8445,49.6908,27.2632],[-123.843,49.6869,1.0],[-123.8402,49.6862,5.4394],[-123.8181,49.6912,19.7375],[-123.8084,49.691,15.2092],[-123.8036,49.6942,38.006],[-123.7967,49.7028,20.4968],[-123.7906,49.7047,1.0],[-123.7883,49.7108,24.5459],[-123.7769,49.7115,9.5788],[-123.7731,49.7158,37.206],[-123.7507,49.7245,12.1989],[-123.7469,49.7297,9.6756],[-123.7419,49.7328,60.3631],[-123.7406,49.7364,3.6148],[-123.7372,49.7386,1.0],[-123.7378,49.7428,26.9655],[-123.7325,49.7553,40.2768],[-123.7282,49.7593,5.5901],[-123.7283,49.7711,7.7052],[-123.7229,49.7783,27.8759],[-123.7253,49.7851,35.2777],[-123.724,49.7868,1.0],[-123.7265,49.7876,9.8205],[-123.727,49.7952,33.1742],[-123.7256,49.7952,30.5911],[-123.7255,49.8008,21.18],[-123.7214,49.8008,27.253],[-123.7215,49.7944,32.2051],[-123.7156,49.7943,186.0296],[-123.7159,49.7879,28.4158],[-123.7213,49.7887,2.7638],[-123.7233,49.787,1.0],[-123.7168,49.7864,1.0],[-123.7205,49.7795,5.1368],[-123.7177,49.7741,12.8537],[-123.7132,49.7743,160.4233],[-123.7122,49.7597,241.0038],[-123.7186,49.76,27.963],[-123.7206,49.7586,25.9841],[-123.7261,49.7441,12.4947],[-123.7256,49.7417,12.7445],[-123.7304,49.7331,48.7417],[-123.7425,49.7214,8.4486],[-123.7476,49.7202,7.7309],[-123.753,49.7164,21.0233],[-123.7595,49.7156,1.0],[-123.7625,49.7131,19.5111],[-123.7733,49.7129,16.7612],[-123.7762,49.7108,68.1147],[-123.781,49.703,10.6806],[-123.7871,49.7017,1.0],[-123.7879,49.6921,1.0],[-123.7993,49.6833,18.6603],[-123.8262,49.6761,10.8349],[-123.8272,49.6725,21.9242],[-123.8195,49.6631,95.5446],[-123.8195,49.6546,21.7793],[-123.8244,49.6593,14.5342],[-123.8243,49.6611,4.6524],[-123.8294,49.6629,4.8897],[-123.8276,49.6641,1.0],[-123.83,49.6653,13.2249],[-123.8344,49.6651,9.5225],[-123.8397,49.6607,8.2173],[-123.8413,49.6542,22.0042],[-123.8392,49.6492,5.6704],[-123.8336,49.6482,37.9328],[-123.8249,49.6342,20.5894],[-123.8146,49.63,1.0],[-123.8104,49.6305,29.937],[-123.8072,49.6285,33.6834],[-123.8092,49.6253,1.0],[-123.805,49.6239,3.0071],[-123.8004,49.6294,1.0],[-123.8004,49.6323,39.0651],[-123.7911,49.6353,1.0],[-123.783,49.6356,13.7594],[-123.7683,49.6419,16.0194],[-123.7519,49.6413,12.8716],[-123.7294,49.6492,61.0388],[-123.7167,49.6481,7.0955],[-123.6869,49.6536,5.3388],[-123.6656,49.649,53.6315],[-123.661,49.6525,1.5],[-123.6589,49.6589,27.747],[-123.6508,49.6636,1.5],[-123.6433,49.6628,14.3143],[-123.6339,49.6656,68.2721],[-123.6287,49.6628,25.3763],[-123.6145,49.6697,13.2652],[-123.5994,49.6729,36.4482],[-123.5964,49.6756,73.5835],[-123.5719,49.6789,1.5],[-123.5714,49.6797,1.5],[-123.5754,49.6812,9.5203],[-123.5744,49.6828,18.474],[-123.5656,49.6825,44.9853],[-123.5625,49.6809,15.2899],[-123.5466,49.6973,47.9382],[-123.5355,49.6986,1.5],[-123.5356,49.7014,45.8468],[-123.5313,49.709,1.5],[-123.5286,49.7094,3.6348],[-123.5258,49.7076,1.5],[-123.5294,49.6983,32.7118],[-123.5427,49.6887,45.1435],[-123.5456,49.6811,37.4462],[-123.554,49.6816,3.2831],[-123.5547,49.6776,9.9718],[-123.5632,49.6711,40.7978],[-123.5861,49.6679,1.5],[-123.5923,49.6612,1.5],[-123.6165,49.6539,1.5],[-123.6317,49.6532,35.8758],[-123.6335,49.6503,105.1687],[-123.6413,49.647,69.3544],[-123.6467,49.6427,9.2233],[-123.6638,49.6375,18.2179],[-123.6794,49.6375,29.7554],[-123.6895,49.6416,30.3697],[-123.7077,49.6372,1.0],[-123.7172,49.6372,1.0],[-123.7214,49.6308,48.7928],[-123.7323,49.6245,7.5104],[-123.7596,49.6183,11.7032],[-123.7719,49.6078,12.5855],[-123.7896,49.6028,3.6945],[-123.7898,49.6009,10.6379],[-123.7872,49.5989,3.1446],[-123.7873,49.594,1.0],[-123.7839,49.5906,35.8687],[-123.7861,49.5864,1.0],[-123.7834,49.5805,19.0677],[-123.7861,49.5764,1.0],[-123.7817,49.5736,19.3453],[-123.7847,49.5691,1.0],[-123.7818,49.5641,20.7821],[-123.7769,49.5616,1.0],[-123.7774,49.5574,1.0],[-123.7681,49.5561,61.2564],[-123.7659,49.5512,19.432],[-123.7534,49.551,346.7552],[-123.7528,49.5467,126.7303],[-123.7496,49.5468,158.0547],[-123.7498,49.5442,105.8433],[-123.753,49.5425,79.5679],[-123.7531,49.5341,121.6922],[-123.7475,49.5218,147.0764],[-123.741,49.5217,244.1839],[-123.7414,49.5043,53.5038],[-123.7368,49.5041,175.0138],[-123.7365,49.4875,107.4721],[-123.7072,49.5007,456.7256],[-123.6816,49.5008,490.9164],[-123.6805,49.5124,861.9138],[-123.6744,49.5406,1116.7219],[-123.6632,49.5522,1125.8368],[-123.6579,49.5705,1277.9766],[-123.6549,49.5752,1248.1346],[-123.6445,49.5773,1135.927],[-123.6397,49.5806,1127.2357],[-123.6459,49.5886,1153.3972],[-123.646,49.591,1192.8516],[-123.6439,49.593,1127.2971],[-123.627,49.5999,1182.5502],[-123.5678,49.6143,1119.9062],[-123.5664,49.616,1091.5959],[-123.567,49.6186,989.7957],[-123.5724,49.624,1164.1455],[-123.5623,49.6312,1347.8319],[-123.5459,49.6324,1287.4618],[-123.5379,49.6348,1041.4911],[-123.5309,49.6328,1155.6523],[-123.5194,49.6255,1363.0237],[-123.5029,49.6206,1070.3724],[-123.4801,49.6159,1279.9894],[-123.4721,49.6158,1302.4766],[-123.4573,49.6191,935.491],[-123.4529,49.6234,1080.0421],[-123.4495,49.6316,1112.0698],[-123.4499,49.636,1050.6008],[-123.4516,49.6404,1172.9747],[-123.4573,49.6458,1249.6788],[-123.4568,49.6477,1252.9724],[-123.454,49.6505,1286.4751],[-123.4429,49.6555,1085.1482],[-123.4288,49.6551,629.9536],[-123.3906,49.6497,1134.855],[-123.3745,49.6496,1346.9424],[-123.3684,49.6512,1128.9078],[-123.3566,49.6574,1036.751],[-123.3511,49.6629,1174.4401],[-123.3527,49.6699,1136.5591],[-123.3637,49.6745,1092.9769],[-123.3508,49.6844,1313.7324],[-123.3457,49.6907,1196.2275],[-123.3456,49.6968,1145.0265],[-123.3372,49.7063,1290.0829],[-123.3269,49.7129,1266.0306],[-123.32,49.7235,1485.1886],[-123.3232,49.7273,1455.5908],[-123.3362,49.7348,1679.9507],[-123.3368,49.7474,1867.1443],[-123.3302,49.7501,1610.0583],[-123.303,49.7501,1005.1893],[-123.2806,49.7467,1481.4495],[-123.2767,49.75,1490.2496],[-123.2838,49.76,1251.1805],[-123.2763,49.7653,1701.9758],[-123.2725,49.7709,1534.5383],[-123.2823,49.7718,1507.7009],[-123.2922,49.7765,1829.1605],[-123.3007,49.778,1995.785],[-123.3065,49.79,1968.9264],[-123.3052,49.7965,2067.2681],[-123.3294,49.8212,2363.0454],[-123.3333,49.8273,2171.4263],[-123.3307,49.83,2247.6846],[-123.3312,49.8374,1955.7299],[-123.3271,49.8455,1849.3149],[-123.3284,49.8514,1605.1237],[-123.3539,49.8607,1943.6965],[-123.3586,49.8653,2169.8899],[-123.3711,49.8661,1933.0326],[-123.3988,49.8813,1132.0182],[-123.4163,49.8792,1332.4889],[-123.4226,49.895,1491.2152],[-123.4256,49.8955,1494.395],[-123.4277,49.901,1168.0752],[-123.4474,49.9028,1435.2303],[-123.4569,49.9105,1803.5923],[-123.4733,49.9121,1999.0178],[-123.4878,49.9114,2148.4001],[-123.5071,49.8975,1412.8073],[-123.5274,49.8859,1817.9249],[-123.5252,49.8797,1633.7058],[-123.53,49.878,1681.0193],[-123.5443,49.878,1352.0813],[-123.5483,49.8754,1543.5181],[-123.5502,49.8712,1594.8657],[-123.5511,49.8549,1820.3527],[-123.5478,49.8463,1759.9713],[-123.5495,49.8387,2037.7039],[-123.5537,49.8387,1854.5039],[-123.5651,49.8462,1613.9744],[-123.5779,49.8459,1888.7472],[-123.5801,49.8549,1959.0964],[-123.5872,49.8606,2012.8923],[-123.5773,49.8676,1791.7263],[-123.5738,49.8754,1725.068],[-123.5689,49.8801,1611.9177],[-123.5732,49.8848,1491.406],[-123.5674,49.8889,1173.1956],[-123.5686,49.8977,1580.1003],[-123.5648,49.9055,1840.2168],[-123.5534,49.9127,1819.3344],[-123.5491,49.9168,1848.8866],[-123.5489,49.9188,1901.2675],[-123.5522,49.9204,1899.4329],[-123.5706,49.9202,1433.8247],[-123.5811,49.9256,1921.1626],[-123.5894,49.921,1953.3203],[-123.5957,49.9234,1893.2729],[-123.6025,49.9232,1756.6777],[-123.6206,49.9302,1854.9546]],
[[-123.8649,49.7256,25.3343],[-123.8604,49.7242,84.4261],[-123.8594,49.7212,76.5714],[-123.8642,49.7208,35.4495],[-123.8634,49.7227,24.9894],[-123.8665,49.7254,15.786],[-123.8649,49.7256,25.3343]],
[[-123.7259,49.7799,32.0702],[-123.7273,49.7758,31.0767],[-123.7275,49.7799,34.4752],[-123.7259,49.7799,32.0702]],
[[-123.7167,49.7809,41.032],[-123.717,49.7804,28.5215],[-123.7179,49.7801,28.5215],[-123.7177,49.7814,41.032],[-123.7167,49.7809,41.032]],
[[-123.7074,49.8228,90.6456],[-123.7061,49.8205,133.3726],[-123.7091,49.8206,89.1853],[-123.7092,49.825,104.6524],[-123.7063,49.8253,97.1982],[-123.7074,49.8228,90.6456]]],
[[[-123.8758,49.7253,16.0888],[-123.8769,49.725,16.0888],[-123.8803,49.7253,0.5],[-123.8733,49.7228,0.5],[-123.8758,49.7253,16.0888]]]]}}