{"type": "Feature","bbox": [-66.5317,50.3677,-65.4989,52.3101],"geometry": {"type": "MultiPolygon","coordinates": [[[[-66.2694,52.1492,715.049],[-66.257,52.1487,663.744],[-66.2534,51.9961,614.3961],[-66.5032,51.9964,610.2151],[-66.5027,51.9429,606.5277],[-66.5068,51.8507,505.8354],[-66.5317,51.8504,401.1498],[-66.5158,51.8344,420.1982],[-66.5059,51.8171,426.2904],[-66.4964,51.8079,410.5587],[-66.4952,51.8046,425.8229],[-66.4992,51.794,393.2318],[-66.4947,51.7778,516.6198],[-66.4912,51.7741,548.9272],[-66.4772,51.7666,459.8078],[-66.4681,51.7574,404.4805],[-66.4483,51.7275,472.9776],[-66.4368,51.7142,462.5981],[-66.4159,51.7047,493.5479],[-66.3775,51.6804,340.054],[-66.3591,51.6732,263.812],[-66.3564,51.6669,289.4227],[-66.3532,51.6338,274.59],[-66.3582,51.6246,230.6635],[-66.3666,51.618899999999996,227.6024],[-66.3853,51.6128,210.1978],[-66.3875,51.6099,265.5821],[-66.3792,51.5904,247.5927],[-66.3808,51.5569,416.6178],[-66.3726,51.5378,333.7257],[-66.3608,51.5267,349.7888],[-66.3567,51.5187,451.9387],[-66.3496,51.5124,536.929],[-66.3287,51.5048,534.4614],[-66.3241,51.4982,450.8616],[-66.3079,51.4876,437.6837],[-66.3083,51.4823,464.6942],[-66.304,51.475,548.0761],[-66.284,51.4662,322.6353],[-66.2816,51.462,296.2517],[-66.2887,51.4437,460.5826],[-66.2878,51.432,191.6896],[-66.3054,51.4187,196.4104],[-66.3076,51.411,265.5678],[-66.3038,51.3988,366.7076],[-66.2897,51.3844,214.0982],[-66.3012,51.3691,167.3399],[-66.3062,51.3576,160.7503],[-66.3144,51.3507,162.1991],[-66.3209,51.3421,255.1057],[-66.3225,51.3347,182.1635],[-66.3198,51.3289,191.0994],[-66.3133,51.3239,380.6669],[-66.2984,51.3172,450.9816],[-66.2957,51.3134,348.5637],[-66.2924,51.2871,216.296],[-66.2878,51.2772,391.9884],[-66.2898,51.2544,166.527],[-66.2775,51.2337,376.1784],[-66.2562,51.2225,208.8778],[-66.253,51.2146,230.7339],[-66.2544,51.2036,146.2562],[-66.2665,51.1772,144.5218],[-66.2687,51.167,211.6118],[-66.2626,51.1407,212.0144],[-66.2644,51.1326,140.0],[-66.2751,51.1254,139.5],[-66.2839,51.1125,366.0869],[-66.3011,51.1047,154.7822],[-66.3013,51.1008,186.7502],[-66.2963,51.0914,203.1302],[-66.3002,51.0825,133.1079],[-66.3463,51.0385,221.6859],[-66.3551,51.0339,120.0],[-66.3549,51.0222,245.8848],[-66.3507,51.0073,123.6067],[-66.3538,51.0007,212.4073],[-66.3649,50.9914,116.75],[-66.3682,50.9841,192.3787],[-66.352,50.9506,175.702],[-66.3548,50.9474,288.741],[-66.3653,50.9448,198.1413],[-66.3726,50.9396,196.7814],[-66.3792,50.9266,119.3046],[-66.3862,50.9226,200.6476],[-66.4296,50.9188,84.8355],[-66.4373,50.8959,77.7732],[-66.4435,50.8852,78.5536],[-66.4512,50.8779,159.2415],[-66.461,50.8732,88.2141],[-66.4645,50.8696,72.0402],[-66.4637,50.8589,73.0084],[-66.467,50.8564,71.4595],[-66.4631,50.8543,107.5591],[-66.4394,50.8533,72.3369],[-66.4303,50.8502,76.1492],[-66.4034,50.8342,129.1602],[-66.3931,50.8254,120.4049],[-66.3915,50.8133,62.5],[-66.3864,50.8001,91.132],[-66.3857,50.7923,66.8592],[-66.3886,50.777,67.7833],[-66.3758,50.7679,207.7303],[-66.3538,50.7576,95.1365],[-66.3303,50.758,92.2086],[-66.3236,50.754,54.0],[-66.3089,50.7389,166.0891],[-66.3002,50.733,67.2707],[-66.2764,50.7228,245.242],[-66.2682,50.7212,106.9519],[-66.2497,50.7259,62.9997],[-66.2417,50.7252,103.5993],[-66.2105,50.6973,64.1245],[-66.2068,50.6915,85.9881],[-66.2102,50.6684,63.7662],[-66.1982,50.6461,44.1334],[-66.1941,50.6314,42.4951],[-66.1981,50.6016,43.0849],[-66.1957,50.5944,56.5753],[-66.1827,50.5864,160.3724],[-66.1737,50.5832,40.6104],[-66.1657,50.5827,51.132],[-66.1512,50.5874,38.5259],[-66.1449,50.5753,132.5818],[-66.1477,50.5662,50.2146],[-66.1151,50.5157,52.3518],[-66.1015,50.5049,35.0766],[-66.0964,50.4963,28.0],[-66.0974,50.4951,28.6782],[-66.0007,50.4938,481.9507],[-66.0,50.5002,365.1133],[-65.6258,50.4962,422.5142],[-65.5514,50.4941,200.4644],[-65.5512,50.4843,204.9289],[-65.5536,50.4771,248.6242],[-65.5509,50.4694,272.0789],[-65.534,50.4483,182.2099],[-65.5286,50.4382,194.1703],[-65.528,50.4275,177.066],[-65.5312,50.406,187.6414],[-65.516,50.3712,198.831],[-65.5159,50.3677,174.6089],[-65.5,50.3697,171.3208],[-65.4989,50.8211,689.7739],[-65.5008,50.9564,738.6456],[-65.5,52.1103,768.4213],[-65.5032,52.1099,769.9949],[-65.5043,52.1041,756.272],[-65.5018,52.098,746.551],[-65.5065,52.0918,697.9756],[-65.5138,52.0828,690.5644],[-65.5307,52.0708,656.7916],[-65.5311,52.0606,699.3755],[-65.5418,52.0493,731.9478],[-65.5399,52.0446,736.4299],[-65.5485,52.0389,773.542],[-65.5642,52.0339,764.1427],[-65.5793,52.0328,758.569],[-65.5983,52.0349,773.6054],[-65.6205,52.043,758.9757],[-65.6268,52.0267,713.1061],[-65.6367,52.0117,753.5264],[-65.6375,52.0063,755.5427],[-65.6341,52.0,779.3094],[-65.6382,51.9925,780.8678],[-65.6502,51.9868,824.7463],[-65.6597,51.9894,741.9661],[-65.6686,51.9944,769.0233],[-65.6774,52.0077,766.8974],[-65.6782,52.0135,783.9727],[-65.6687,52.0263,765.7222],[-65.6695,52.0322,736.3771],[-65.6799,52.0415,779.8806],[-65.6581,52.0499,736.3511],[-65.6512,52.0553,768.0544],[-65.6537,52.0678,761.4998],[-65.6486,52.0809,746.4406],[-65.6624,52.0924,751.2685],[-65.6652,52.0975,746.0205],[-65.6669,52.1064,765.2563],[-65.6645,52.1151,812.841],[-65.6683,52.1173,774.2211],[-65.6748,52.1176,760.0966],[-65.6866,52.1038,753.2709],[-65.7139,52.0962,657.7181],[-65.7293,52.0835,730.884],[-65.7339,52.0829,754.3458],[-65.7383,52.0852,740.8719],[-65.7453,52.0936,689.8577],[-65.753,52.1078,680.3759],[-65.7594,52.1037,705.8043],[-65.7713,52.1115,755.4165],[-65.7737,52.1108,734.7736],[-65.7763,52.1045,748.7349],[-65.7974,52.1057,819.0993],[-65.8054,52.1083,828.0814],[-65.8053,52.1186,863.1321],[-65.81,52.118899999999996,837.803],[-65.8222,52.1102,821.7125],[-65.842,52.1165,874.9222],[-65.8669,52.1145,796.2987],[-65.877,52.1104,786.7209],[-65.8857,52.1034,748.4833],[-65.889,52.0971,734.3846],[-65.8876,52.0878,709.7462],[-65.8921,52.0809,753.0639],[-65.8977,52.0761,793.1768],[-65.9038,52.0793,775.31],[-65.9133,52.0814,709.6434],[-65.9193,52.0911,696.3785],[-65.9397,52.0966,697.8879],[-65.9457,52.0998,738.6891],[-65.9548,52.0999,784.7571],[-65.9613,52.1046,686.0256],[-65.9678,52.0931,686.4889],[-65.9614,52.0774,719.5494],[-65.966,52.0709,699.1829],[-65.9704,52.0565,739.1992],[-65.9788,52.0527,713.0641],[-65.9962,52.0547,706.1815],[-65.9981,52.0618,721.9054],[-66.003,52.0672,735.8356],[-66.0122,52.0685,716.4222],[-66.0165,52.0727,716.0802],[-66.0156,52.0799,710.0485],[-66.0351,52.0851,733.4625],[-66.0496,52.0854,705.1689],[-66.0595,52.0913,671.7233],[-66.0663,52.0978,573.2476],[-66.07,52.099,575.3175],[-66.0771,52.0969,564.0188],[-66.0905,52.0907,582.8942],[-66.0912,52.0864,574.8514],[-66.0926,52.0866,579.5679],[-66.0969,52.0907,573.3839],[-66.0982,52.0943,571.9503],[-66.096,52.0986,579.8678],[-66.0964,52.1078,572.8488],[-66.0782,52.1247,579.1743],[-66.0758,52.1308,567.0155],[-66.0787,52.1413,564.6768],[-66.0759,52.155,572.8943],[-66.0826,52.1617,567.2736],[-66.0874,52.1723,559.8228],[-66.1039,52.1985,564.8693],[-66.128,52.2102,587.3599],[-66.1384,52.2246,583.5826],[-66.1521,52.2305,592.823],[-66.16,52.2317,592.9149],[-66.1723,52.2135,588.2841],[-66.177,52.2133,590.1892],[-66.2008,52.227,591.054],[-66.2084,52.2341,601.1082],[-66.2057,52.239,612.1649],[-66.2057,52.243899999999996,611.1176],[-66.2148,52.2549,602.9576],[-66.2181,52.2571,613.8185],[-66.2317,52.26,624.5829],[-66.2373,52.2628,629.8114],[-66.2496,52.274,645.9075],[-66.2521,52.2802,649.1608],[-66.2487,52.2896,629.1498],[-66.2499,52.2938,653.3928],[-66.2539,52.2974,650.3707],[-66.2537,52.3041,655.3033],[-66.26,52.3093,637.0131],[-66.2667,52.3101,617.9497],[-66.2721,52.3082,633.4772],[-66.2871,52.3091,684.7662],[-66.2818,52.3036,666.8187],[-66.2896,52.2967,642.9914],[-66.2795,52.2916,642.8494],[-66.2835,52.2854,666.6935],[-66.2969,52.2835,649.1863],[-66.3126,52.2855,681.3485],[-66.3094,52.2759,690.9399],[-66.3035,52.2701,673.6986],[-66.2982,52.2613,669.5366],[-66.2977,52.2556,669.9633],[-66.3001,52.2499,684.382],[-66.2994,52.2432,700.5252],[-66.2929,52.2318,678.1478],[-66.2867,52.2085,657.7897],[-66.2641,52.1652,668.0189],[-66.2651,52.155,699.356],[-66.2694,52.1492,715.049]]]]}
,"properties": {"GID_3": "CAN.11.94.14_1","GID_0": "CAN","country": "Canada","GID_1": "CAN.11_1","province": "Québec","NL_NAME_1": "NA","GID_2": "CAN.11.94_1","county": "Sept-Rivières--Caniapiscau","NL_NAME_2": "NA","city": "Rivière-Nipissis","VARNAME_3": "NA","NL_NAME_3": "NA","TYPE_3": "NonOrganisé","ENGTYPE_3": "Unorganized","CC_3": "NA","HASC_3": "NA","name": "Rivière-Nipissis.city","area_km2": 10509.353,"hist_schema_id": "Elevation0-9000","hist_area_km2": {"25": 2.345,"50": 16.594,"75": 25.148,"100": 27.727,"125": 34.573,"150": 46.894,"175": 51.377,"200": 57.32,"225": 53.78,"250": 62.876,"275": 77.393,"300": 77.042,"325": 80.068,"350": 96.084,"375": 177.927,"400": 155.225,"425": 181.361,"450": 254.913,"475": 301.894,"500": 322.524,"525": 352.83,"550": 479.611,"575": 741.748,"600": 1269.206,"625": 1265.272,"650": 1048.779,"675": 880.885,"700": 767.303,"725": 574.476,"750": 414.668,"775": 283.553,"800": 168.949,"825": 91.371,"850": 44.353,"875": 16.591,"900": 3.804,"925": 1.779,"950": 0.615,"975": 0.347,"1000": 0.147}}}