{"type": "Feature","bbox": [-52.8409,47.2872,-52.7382,47.3592],"geometry": {"type": "MultiPolygon","coordinates": [[[[-52.7394,47.3309,0.0],[-52.7855,47.3489,254.0993],[-52.8014,47.3576,167.0747],[-52.8101,47.3592,143.791],[-52.8089,47.3544,131.9256],[-52.8388,47.3303,99.1376],[-52.8374,47.318,112.0428],[-52.8409,47.31,95.0716],[-52.8368,47.3049,86.3555],[-52.8314,47.3015,81.8266],[-52.766,47.2872,13.5777],[-52.7705,47.2959,0.0],[-52.8087,47.3054,8.1801],[-52.8139,47.3158,5.8395],[-52.7972,47.3095,1.0726],[-52.7873,47.3079,1.1842],[-52.7836,47.3103,0.0],[-52.7744,47.3092,4.7178],[-52.7722,47.3114,13.184],[-52.7683,47.3119,0.0],[-52.7506,47.3072,3.7949],[-52.7455,47.3106,12.1193],[-52.7453,47.3179,3.4339],[-52.7382,47.3271,0.0],[-52.7394,47.3309,0.0]]]]}
,"properties": {"GID_3": "CAN.5.3.6_1","GID_0": "CAN","country": "Canada","GID_1": "CAN.5_1","province": "NewfoundlandandLabrador","NL_NAME_1": "NA","GID_2": "CAN.5.3_1","county": "DivisionNo.1","NL_NAME_2": "NA","city": "BayBulls","VARNAME_3": "NA","NL_NAME_3": "NA","TYPE_3": "Town","ENGTYPE_3": "Town","CC_3": "NA","HASC_3": "NA","name": "Bay_Bulls.city","area_km2": 33.01248,"hist_schema_id": "Elevation0-9000","hist_area_km2": {"0": 1.35136,"25": 1.88315,"50": 4.24065,"75": 7.15819,"100": 5.49034,"125": 5.27351,"150": 2.14093,"175": 1.23578,"200": 1.5375,"225": 1.62359,"250": 0.862,"275": 0.21549}}}