{"type": "Feature","bbox": [-72.8767,45.2831,-72.7546,45.3684],"geometry": {"type": "MultiPolygon","coordinates": [[[[-72.798,45.2997,93.4329],[-72.7844,45.2999,126.1782],[-72.7842,45.3137,129.8902],[-72.7741,45.3136,127.4524],[-72.7738,45.3287,127.217],[-72.7654,45.3289,164.2289],[-72.7632,45.3416,144.0688],[-72.7564,45.341,147.8725],[-72.7546,45.3542,127.6371],[-72.8177,45.3551,94.7739],[-72.8128,45.3684,92.6106],[-72.8458,45.3684,96.5301],[-72.8767,45.2831,75.3004],[-72.8649,45.2858,74.0641],[-72.8557,45.2843,74.5099],[-72.8516,45.2921,75.6909],[-72.8507,45.299,80.847],[-72.798,45.2997,93.4329]]]]}
,"properties": {"GID_3": "CAN.11.38.5_1","GID_0": "CAN","country": "Canada","GID_1": "CAN.11_1","province": "Québec","NL_NAME_1": "NA","GID_2": "CAN.11.38_1","county": "LaHaute-Yamaska","NL_NAME_2": "NA","city": "Saint-Alphonse","VARNAME_3": "NA","NL_NAME_3": "NA","TYPE_3": "MunicipalitéDeParoisse","ENGTYPE_3": "ParishMunicipality","CC_3": "NA","HASC_3": "NA","name": "Saint-Alphonse.city","area_km2": 50.56112,"hist_schema_id": "Elevation0-9000","hist_area_km2": {"75": 19.00927,"100": 24.47159,"125": 5.05338,"150": 1.93744,"175": 0.08943}}}