{"type":"Feature","properties":{"featurecla":"River","scalerank":12,"rivernum":21921,"dissolve":"21921River","name":"null845","name_alt":null,"note":"ID is link back to CEC data","name_full":null,"min_zoom":7.0,"strokeweig":0.2,"uident":1176201,"min_label":8.0},
"geometry":{"type": "LineString","coordinates": [[-109.78026282460372,72.436143296348192,0.0],[-109.68122311106205,72.42999909061902,237.0543],[-109.62922115793705,72.423122463014863,150.9491],[-109.55858313710372,72.40704987186902,238.0071],[-109.49083411366622,72.38727448124402,45.4867],[-109.45246334543705,72.36005280155652,40.9839],[-109.44017493397872,72.329372463014863,29.379],[-109.44831295481205,72.30231354374402,103.4474],[-109.41246497304122,72.25556061405652,178.7117],[-109.4078669912704,72.23480866093152,217.5874],[-109.42039954335372,72.20575592655652,252.3074],[-109.44294186106205,72.18805573124402,245.6357]]}}