{"type":"Feature","properties":{"featurecla":"River","scalerank":12,"rivernum":21787,"dissolve":"21787River","name":"null780","name_alt":null,"note":"ID is link back to CEC data","name_full":null,"min_zoom":7.0,"strokeweig":0.2,"uident":1236801,"min_label":8.0},
"geometry":{"type": "LineString","coordinates": [[-114.55817623606205,69.511501369264863,179.1324],[-114.5431208975204,69.49506256718152,179.1042],[-114.53758704335372,69.47211334843152,145.0227],[-114.50841223866622,69.417507228639863,95.6476],[-114.51667232981205,69.409287827598192,76.7188],[-114.56358801991622,69.393093166139863,56.7422],[-114.57628333241622,69.37897369999402,49.7856],[-114.54792232981205,69.35321686405652,37.2685],[-114.45759029856205,69.32721588749402,30.2876],[-114.43952389231205,69.284938869264863,0.0]]}}