{"type":"Feature","properties":{"featurecla":"Lake Centerline","scalerank":6,"rivernum":265,"dissolve":"265Lake Centerline","name":"Back","name_alt":null,"note":null,"min_zoom":5.0,"strokeweig":0.2,"name_en":"Back","min_label":6.0},
"geometry":{"type": "LineString","coordinates": [[-108.08945312499999,64.715448309369123,323.8894],[-108.06884765625,64.724237371869123,315.9526],[-108.03076171875,64.72992584843162,314.3395],[-107.9791748046875,64.720331121869123,315.7404],[-107.979052734375,64.720331121869123,315.7404],[-107.9789306640625,64.72040436405662,320.5488]]}}