{"type":"Feature","properties":{"featurecla":"River","scalerank":11,"rivernum":21619,"dissolve":"21619River","name":"Angimajuq1","name_alt":null,"note":"ID is link back to CEC data","name_full":"Angimajuq River","min_zoom":6.7,"strokeweig":0.2,"uident":1299201,"min_label":7.7},
"geometry":{"type": "LineString","coordinates": [[-106.3465876943954,68.186875718223192,0.0],[-106.30357825429122,68.185166733848192,5.4257],[-106.17943274647872,68.153184311973192,46.4661],[-106.12352454335372,68.125352280723192,35.4576],[-106.07530676991622,68.09345123905652,50.8392],[-105.9977107412704,68.01959869999402,63.5869],[-105.94017493397872,67.93732330936902,79.3634],[-105.91999264231205,67.914089259889863,91.2],[-105.91144772043705,67.905869858848192,85.9984],[-105.9012751943954,67.89423248905652,68.5],[-105.9234919912704,67.87164948124402,89.6816],[-105.96056067616622,67.851670640098192,100.6256],[-105.9396052725204,67.796901759889863,106.767],[-105.95636959543705,67.77289459843152,112.412],[-105.94957434804122,67.74884674686902,111.7047],[-105.9335017568954,67.73407623905652,118.9848],[-105.90705318918705,67.72699616093152,110.3517],[-105.89049231679122,67.72113678593152,119.4832],[-105.86921139231205,67.70502350468152,116.3162],[-105.88963782460372,67.65973541874402,121.4957],[-105.9356990225204,67.58978912968152,132.4814],[-105.90721594960372,67.51801178593152,150.6335],[-105.88329016835372,67.48627350468152,147.6718],[-105.8822322256454,67.485459702598192,145.7948]]}}