{"type":"Feature","properties":{"featurecla":"River","scalerank":12,"rivernum":21938,"dissolve":"21938River","name":"null857","name_alt":null,"note":"ID is link back to CEC data","name_full":null,"min_zoom":7.0,"strokeweig":0.2,"uident":1168101,"min_label":8.0},
"geometry":{"type": "LineString","coordinates": [[-106.3014216787704,72.83026764530652,96.9639],[-106.2919001943954,72.83893463749402,93.8657],[-106.26207434804122,72.84747955936902,84.9593],[-106.15721594960372,72.84955475468152,80.2764],[-106.0768123037704,72.86249420780652,67.1539],[-106.0243220693954,72.863552150514863,60.1277],[-105.8146052725204,72.82758209843152,45.7808],[-105.72423255116622,72.82355377811902,39.4957],[-105.6795955068954,72.82758209843152,45.4424],[-105.66266842356205,72.83881256718152,20.4526],[-105.6217341787704,72.92633698124402,0.0]]}}