{"type":"Feature","properties":{"featurecla":"River","scalerank":11,"rivernum":21733,"dissolve":"21733River","name":"null741","name_alt":null,"note":"ID is link back to CEC data","name_full":null,"min_zoom":6.7,"strokeweig":0.2,"uident":1247701,"min_label":7.7},
"geometry":{"type": "LineString","coordinates": [[-106.32640540272872,69.409206447389863,0.0],[-106.28766842356205,69.41351959843152,24.2412],[-106.23045813710372,69.42767975468152,89.0401],[-106.18464107981205,69.43585846561902,38.1519],[-106.13703365793705,69.429307358848192,11.4781]]}}