{"type":"Feature","properties":{"featurecla":"River","scalerank":11,"rivernum":21759,"dissolve":"21759River","name":"null756","name_alt":null,"note":"ID is link back to CEC data","name_full":null,"min_zoom":6.7,"strokeweig":0.2,"uident":1245201,"min_label":7.7},
"geometry":{"type": "LineString","coordinates": [[-112.11192786366622,69.274522202598192,127.5],[-112.1312556631454,69.26727936405652,132.9438],[-112.14826412668705,69.25665924686902,124.5],[-112.14391028554122,69.23200104374402,124.0893],[-112.15510006418705,69.20758698124402,126.3639],[-112.1859431631454,69.19550202030652,120.2439],[-112.27208411366622,69.183376369264863,114.818],[-112.5314021475204,69.173366603639863,97.7065],[-112.59675045481205,69.179225978639863,93.6845],[-112.69212805897872,69.19098541874402,84.5857],[-112.81086178293705,69.200303452598192,100.9232],[-112.88434811106205,69.20343659061902,79.9635],[-113.00926673085372,69.21381256718152,91.7033],[-113.08739173085372,69.21649811405652,79.2268],[-113.23827063710372,69.214951890098192,63.9065],[-113.2814021475204,69.21222565311902,39.3362],[-113.29450436106205,69.203640041139863,26.0389],[-113.29881751210372,69.19049713749402,37.2064],[-113.31480872304122,69.19245026249402,30.7623],[-113.33238684804122,69.19013092655652,22.2118],[-113.35553951731205,69.18744537968152,36.3419],[-113.38451087147872,69.187119858848192,52.0146],[-113.46873938710372,69.177110093223192,0.0],[-113.50877844960372,69.174424546348192,9.3162]]}}