{"type":"Feature","properties":{"GID_3":"CAN.11.58.16_1","GID_0":"CAN","country":"Canada","GID_1":"CAN.11_1","province":"Québec","NL_NAME_1":"NA","GID_2":"CAN.11.58_1","county":"LeHaut-Saint-Maurice","NL_NAME_2":"NA","city":"Wemotaci","VARNAME_3":"NA","NL_NAME_3":"NA","TYPE_3":"RéserveIndienne","ENGTYPE_3":"IndianReserve","CC_3":"NA","HASC_3":"NA","name":"Wemotaci.city"},
"geometry":{"type": "MultiPolygon","coordinates": [[[[-73.8482,47.9426,345.5],[-73.8381,47.9182,347.3953],[-73.8343,47.9157,345.5],[-73.798,47.9075,359.4789],[-73.7962,47.9033,346.9751],[-73.7633,47.8995,346.4915],[-73.7613,47.8925,345.0],[-73.7565,47.8925,351.4776],[-73.7489,47.8983,356.9958],[-73.7429,47.8996,364.3873],[-73.7441,47.942,520.2973],[-73.8482,47.9426,345.5]]]]}}