{"type":"Feature","properties":{"GID_3":"CAN.11.67.2_1","GID_0":"CAN","country":"Canada","GID_1":"CAN.11_1","province":"Québec","NL_NAME_1":"NA","GID_2":"CAN.11.67_1","county":"LesLaurentides","NL_NAME_2":"NA","city":"Arundel","VARNAME_3":"NA","NL_NAME_3":"NA","TYPE_3":"MunicipalitéDeCanton","ENGTYPE_3":"CantonMunicipality","CC_3":"NA","HASC_3":"NA","name":"Arundel.city"},
"geometry":{"type": "MultiPolygon","coordinates": [[[[-74.5881,45.9198,308.0325],[-74.5829,45.944,180.0],[-74.5712,45.9829,250.6923],[-74.5885,45.9853,258.572],[-74.582,46.0142,225.0505],[-74.5691,46.013,409.5594],[-74.567,46.0198,441.1908],[-74.5607,46.019,411.4838],[-74.555,46.0375,424.6997],[-74.5694,46.038,323.0902],[-74.5957,46.046,209.1228],[-74.6252,46.0514,191.5],[-74.6256,46.0469,203.3804],[-74.6208,46.0418,198.6422],[-74.6213,46.0363,218.0864],[-74.6303,46.0281,197.5619],[-74.6279,46.0169,192.3022],[-74.6392,45.9951,206.8769],[-74.6324,45.9828,192.2823],[-74.6273,45.9808,197.6924],[-74.6264,45.9785,190.2415],[-74.6449,45.9659,192.1794],[-74.6569,45.9511,182.8745],[-74.6707,45.944,182.1173],[-74.6729,45.9364,176.9606],[-74.6664,45.9266,194.922],[-74.5881,45.9198,308.0325]]]]}}