{"type":"Feature","properties":{"GID_3":"CAN.4.4.26_1","GID_0":"CAN","country":"Canada","GID_1":"CAN.4_1","province":"NewBrunswick","NL_NAME_1":"NA","GID_2":"CAN.4.4_1","county":"Gloucester","NL_NAME_2":"NA","city":"Saumarez","VARNAME_3":"NA","NL_NAME_3":"NA","TYPE_3":"Parish","ENGTYPE_3":"Parish","CC_3":"NA","HASC_3":"NA","name":"Saumarez.city"},
"geometry":{"type": "MultiPolygon","coordinates": [[[[-64.9361,47.4386,0.0],[-64.9342,47.437,0.0],[-64.88,47.4492,1.0542],[-64.8718,47.4654,0.4158],[-64.8701,47.4782,0.0],[-64.875,47.4795,0.0],[-64.8725,47.4764,0.2976],[-64.8748,47.4717,0.8457],[-64.881,47.4652,1.3287],[-64.8878,47.4642,0.1776],[-64.89,47.4561,0.0561],[-64.8939,47.4539,1.75],[-64.8947,47.4547,1.7321],[-64.8919,47.4583,0.2546],[-64.8958,47.4625,0.0],[-64.8956,47.4658,0.0],[-64.9,47.465,2.5266],[-64.9067,47.4669,3.7976],[-64.9092,47.4692,0.0],[-64.9153,47.4702,0.0],[-64.9128,47.4633,0.0],[-64.91,47.4617,0.5144],[-64.9214,47.4572,0.0],[-64.9233,47.4578,0.0],[-64.9242,47.4564,0.0],[-64.9236,47.4519,0.0],[-64.9169,47.4483,0.2952],[-64.9211,47.4439,0.4002],[-64.9308,47.4453,1.2283],[-64.9364,47.444,0.0],[-64.9383,47.4411,4.6885],[-64.9361,47.4386,0.0]]],
[[[-65.2944,47.3556,27.1051],[-65.2936,47.354,35.2212],[-64.9369,47.4363,0.0],[-64.9422,47.4403,9.2868],[-64.9408,47.4417,0.0],[-64.9416,47.4445,0.0],[-64.9467,47.4431,6.5794],[-64.9506,47.4456,0.0],[-64.9542,47.4428,0.5212],[-64.9556,47.4447,0.0],[-64.954,47.4463,0.3235],[-64.9576,47.4471,0.0],[-64.9681,47.4463,5.5403],[-64.9717,47.4482,0.4728],[-64.9826,47.4462,0.0],[-64.9841,47.4442,10.9212],[-64.9846,47.4467,11.4192],[-64.9894,47.4494,0.0],[-64.9931,47.4451,12.1468],[-64.9988,47.4461,2.9195],[-64.9986,47.4439,12.9692],[-65.0003,47.4426,16.0757],[-65.0121,47.4404,26.6538],[-65.0197,47.4436,8.7441],[-65.0247,47.4393,7.1857],[-65.0315,47.444,3.2561],[-65.0411,47.4447,8.7979],[-65.0325,47.4453,2.5993],[-65.0253,47.4408,2.5578],[-65.0203,47.445,3.9301],[-65.0116,47.4417,0.0],[-65.0028,47.4447,0.0],[-65.0,47.4489,16.8976],[-64.9933,47.4482,3.0855],[-64.9938,47.4504,7.7374],[-64.989,47.4521,13.9267],[-64.9858,47.4489,2.2627],[-64.9844,47.4497,7.6218],[-64.9797,47.4481,0.5323],[-64.9708,47.4497,4.8324],[-64.9611,47.4478,4.4135],[-64.9581,47.4489,12.2725],[-64.9511,47.4481,6.1298],[-64.9472,47.4458,7.4646],[-64.9394,47.4483,1.6944],[-64.9269,47.4489,0.0],[-64.9317,47.4525,1.1449],[-64.9336,47.4561,5.0615],[-64.9367,47.4569,4.6652],[-64.9428,47.4528,3.9152],[-64.9518,47.452,8.1654],[-64.95,47.4536,1.8861],[-64.9469,47.4528,0.0],[-64.9361,47.4583,0.0],[-64.9366,47.4602,0.5792],[-64.9403,47.4609,0.5343],[-64.9352,47.4615,0.2254],[-64.9317,47.4644,0.0],[-64.9378,47.4684,0.4958],[-64.9314,47.4703,0.0],[-64.9298,47.4738,0.0],[-64.9454,47.4771,5.505],[-64.9541,47.4807,21.6742],[-64.9478,47.4896,34.2366],[-64.9174,47.4969,22.1867],[-64.9203,47.502,20.3697],[-64.9191,47.5023,19.5306],[-64.9231,47.5073,19.9477],[-64.9215,47.5077,20.7769],[-64.923,47.5103,21.8164],[-64.9278,47.5104,27.759],[-64.9287,47.5119,29.129],[-64.9239,47.5144,23.9324],[-64.9247,47.5173,21.9204],[-64.9455,47.5122,21.633],[-64.9496,47.5195,18.464],[-64.94,47.5221,10.796],[-64.9397,47.5261,4.4737],[-64.9364,47.5292,0.0],[-64.9403,47.5328,0.0],[-64.9428,47.5308,2.137],[-64.9517,47.5289,2.0728],[-64.9574,47.5323,4.062],[-64.9549,47.5325,0.3535],[-64.9545,47.5343,-0.142],[-64.9567,47.5373,2.2054],[-64.9597,47.5383,10.2022],[-64.9581,47.5389,7.2232],[-64.9544,47.5364,1.3565],[-64.9519,47.5303,2.0728],[-64.9469,47.5328,2.4017],[-64.9442,47.5325,2.3727],[-64.9417,47.5381,1.8716],[-64.9479,47.5442,0.9588],[-64.9428,47.5492,0.5532],[-64.943,47.5513,1.6049],[-64.9404,47.5531,0.0],[-64.941,47.5547,5.4749],[-64.939,47.5537,6.4232],[-64.9397,47.5523,0.0],[-64.9098,47.5581,3.5567],[-64.9039,47.5556,0.0],[-64.9003,47.5594,3.2077],[-64.8858,47.5642,0.3331],[-64.8853,47.5656,0.0],[-64.8882,47.5684,0.3937],[-64.8971,47.5705,3.2491],[-64.9007,47.577,6.6879],[-64.9156,47.5851,15.8662],[-64.9175,47.5874,24.4952],[-64.9568,47.5786,20.5704],[-64.9506,47.5745,17.0327],[-64.9523,47.5723,12.7949],[-64.9494,47.5686,18.315],[-64.9862,47.5602,32.7092],[-64.9843,47.5558,24.8663],[-65.0179,47.5482,45.2472],[-65.0036,47.5173,5.9947],[-65.0079,47.5158,9.3242],[-65.0082,47.5176,11.1496],[-65.0127,47.5186,8.7267],[-65.0147,47.5156,14.9804],[-65.0208,47.5146,15.6212],[-65.0227,47.5094,11.6329],[-65.0221,47.5059,14.4826],[-65.0281,47.5051,20.6728],[-65.0299,47.5019,18.1983],[-65.0336,47.5,18.9011],[-65.0333,47.4932,24.5819],[-65.0346,47.4914,21.9825],[-65.0373,47.4918,20.0105],[-65.0466,47.4887,25.599],[-65.0508,47.4857,28.0387],[-65.0557,47.4851,23.2509],[-65.059,47.4823,20.7139],[-65.071,47.4865,31.0613],[-65.087,47.4865,39.6202],[-65.0903,47.4901,41.0778],[-65.0954,47.4852,47.015],[-65.1007,47.4837,50.2909],[-65.11,47.485,45.1261],[-65.1203,47.4815,48.6864],[-65.1255,47.4818,46.9357],[-65.1283,47.4838,54.4551],[-65.3341,47.436,107.6996],[-65.2944,47.3556,27.1051]]],
[[[-64.9003,47.4997,8.2943],[-64.9012,47.5004,8.2943],[-64.9031,47.4962,8.3779],[-64.8949,47.4845,5.6414],[-64.8842,47.4834,-0.0283],[-64.8833,47.4881,0.0894],[-64.8889,47.4951,0.198],[-64.8818,47.4991,1.3878],[-64.8809,47.5003,0.0],[-64.8824,47.5011,2.5981],[-64.8756,47.5028,0.8059],[-64.8742,47.5047,1.9133],[-64.8772,47.5098,0.0],[-64.8819,47.5103,0.0561],[-64.8806,47.5067,0.4311],[-64.8831,47.505,2.5094],[-64.885,47.5064,0.0],[-64.8883,47.5064,0.0],[-64.8903,47.5044,0.1867],[-64.8973,47.5057,0.04],[-64.8961,47.5042,0.119],[-64.8997,47.5014,-0.1436],[-64.8972,47.5014,0.3608],[-64.8952,47.4988,1.4575],[-64.9003,47.4997,8.2943]]],
[[[-64.8722,47.5083,0.144],[-64.8757,47.5113,-0.0068],[-64.8725,47.5061,0.1993],[-64.8744,47.5033,0.0731],[-64.8731,47.5017,0.4956],[-64.8775,47.4989,-0.1144],[-64.8769,47.4944,-0.2676],[-64.8794,47.4886,-0.4883],[-64.8783,47.4881,-0.4883],[-64.8767,47.4908,-0.1905],[-64.8761,47.4889,-0.2945],[-64.8786,47.4875,-0.4883],[-64.8786,47.4858,-0.3427],[-64.8753,47.4844,0.1703],[-64.8731,47.4894,0.4532],[-64.873,47.4836,1.7212],[-64.8748,47.4825,0.3881],[-64.8712,47.48,0.0],[-64.8714,47.4936,0.5211],[-64.8731,47.4917,0.58],[-64.8739,47.4933,-0.2742],[-64.8753,47.4931,-0.2742],[-64.875,47.4917,0.07],[-64.8758,47.4933,-0.3385],[-64.8714,47.4944,0.4877],[-64.8706,47.5061,0.0],[-64.8722,47.5083,0.144]]],
[[[-64.8648,47.529,0.0],[-64.859,47.5503,0.0],[-64.8602,47.553,0.0],[-64.8617,47.5521,0.0],[-64.8604,47.5489,0.5481],[-64.8633,47.5458,0.0],[-64.8658,47.5393,0.0],[-64.8725,47.5363,0.0],[-64.8691,47.5351,0.2176],[-64.8711,47.5264,0.0721],[-64.8699,47.5238,-0.0167],[-64.8716,47.519,0.0],[-64.8754,47.516,-0.6284],[-64.8705,47.5133,0.9712],[-64.8716,47.5097,0.0],[-64.8682,47.5118,0.0],[-64.8648,47.529,0.0]]],
[[[-64.8695,47.5511,-0.1638],[-64.8666,47.5514,0.0],[-64.8656,47.556,0.0],[-64.8692,47.5555,0.0],[-64.874,47.5515,0.0],[-64.8695,47.5511,-0.1638]]]]}}