{"type": "Feature","bbox": [-77.9739,43.977,-77.7732,44.1779],"geometry": {"type": "MultiPolygon","coordinates": [[[[-77.7732,44.0047,73.5],[-77.8515,44.1779,165.1659],[-77.9739,44.1478,275.0105],[-77.897,43.9772,73.5],[-77.8922,43.9791,75.0062],[-77.8724,43.977,73.5],[-77.855,43.9865,73.5],[-77.8133,44.0006,73.5],[-77.7732,44.0047,73.5]]]]}
,"properties": {"GID_3": "CAN.9.34.6_1","GID_0": "CAN","country": "Canada","GID_1": "CAN.9_1","province": "Ontario","NL_NAME_1": "NA","GID_2": "CAN.9.34_1","county": "Northumberland","NL_NAME_2": "NA","city": "Cramahe","VARNAME_3": "NA","NL_NAME_3": "NA","TYPE_3": "Township","ENGTYPE_3": "Township","CC_3": "NA","HASC_3": "NA","name": "Cramahe.city","area_km2": 206.9078,"hist_schema_id": "Elevation0-9000","hist_area_km2": {"25": 0.0305,"50": 1.0374,"75": 12.6591,"100": 14.5789,"125": 5.2293,"150": 22.8991,"175": 65.8352,"200": 55.909,"225": 25.7462,"250": 2.6332,"275": 0.3499}}}