{"type": "Feature","bbox": [-70.0982,47.2956,-69.9405,47.4004],"geometry": {"type": "MultiPolygon","coordinates": [[[[-70.0786,47.3572,5.1106],[-70.0831,47.3547,1.0568],[-70.0897,47.3463,1.6021],[-70.0982,47.341,0.0],[-70.0792,47.3288,29.1794],[-70.0811,47.3277,27.7587],[-70.0711,47.3227,34.4686],[-70.0287,47.2956,244.287],[-69.9835,47.3295,153.096],[-69.9818,47.3287,164.2814],[-69.9692,47.3413,177.5594],[-69.963,47.3519,202.4895],[-69.9651,47.358,169.8521],[-69.9555,47.3687,149.9938],[-69.9425,47.3602,125.087],[-69.9414,47.3636,141.1683],[-69.9423,47.3715,116.256],[-69.9405,47.3722,140.4594],[-69.9472,47.3766,101.3339],[-69.9463,47.3775,88.6512],[-69.9429,47.3754,134.0628],[-69.9451,47.3793,134.2685],[-69.9604,47.3852,84.2737],[-69.9613,47.3827,70.315],[-69.9697,47.3784,82.3407],[-70.002,47.4004,5.3423],[-70.0101,47.3907,4.5883],[-70.0098,47.3831,6.6507],[-70.0169,47.3698,25.1615],[-70.0255,47.3644,26.265],[-70.0235,47.3632,29.6292],[-70.038,47.3512,33.0848],[-70.0527,47.3414,30.4971],[-70.0786,47.3572,5.1106]]]]}
,"properties": {"GID_3": "CAN.11.28.18_1","GID_0": "CAN","country": "Canada","GID_1": "CAN.11_1","province": "Québec","NL_NAME_1": "NA","GID_2": "CAN.11.28_1","county": "Kamouraska","NL_NAME_2": "NA","city": "Sainte-Anne-de-la-Pocatière","VARNAME_3": "NA","NL_NAME_3": "NA","TYPE_3": "MunicipalitéDeParoisse","ENGTYPE_3": "ParishMunicipality","CC_3": "NA","HASC_3": "NA","name": "Sainte-Anne-de-la-Pocatière.city","area_km2": 55.8263,"hist_schema_id": "Elevation0-9000","hist_area_km2": {"0": 2.36951,"25": 13.97602,"50": 3.51887,"75": 3.89238,"100": 4.74038,"125": 10.14324,"150": 8.0018,"175": 3.8080599999999998,"200": 2.27079,"225": 1.75382,"250": 0.90571,"275": 0.3738,"300": 0.07189}}}