{"type":"Feature","properties":{"featurecla":"River","scalerank":12,"rivernum":20104,"dissolve":"20104River","name":"Seine","name_alt":null,"note":"ID is link back to CEC data","name_full":"Seine River","min_zoom":7.0,"strokeweig":0.2,"uident":1794301,"min_label":8.0},
"geometry":{"type": "LineString","coordinates": [[-90.9039607412704,49.033758856244027,454.282],[-90.869374152728724,49.013698634889863,461.089],[-90.804921027728724,49.016180731244027,491.0321],[-90.7821345693954,49.011786199994027,502.848],[-90.758778449603724,48.988836981244027,459.2195],[-90.7027888662704,48.965399481244027,473.3966]]}}