{"type":"Feature","properties":{"featurecla":"River","scalerank":12,"rivernum":20066,"dissolve":"20066River","name":"Arrow","name_alt":null,"note":"ID is link back to CEC data","name_full":"Arrow River","min_zoom":7.0,"strokeweig":0.2,"uident":1810701,"min_label":8.0},
"geometry":{"type": "LineString","coordinates": [[-89.8795466787704,48.129461981244027,414.7118],[-89.8133845693954,48.091498114056527,352.0827],[-89.752268032937067,48.051703192181527,335.6055],[-89.744943814187067,48.040472723431527,385.005]]}}