{"type":"Feature","properties":{"featurecla":"River","scalerank":12,"rivernum":20068,"dissolve":"20068River","name":"Arrow1","name_alt":null,"note":"ID is link back to CEC data","name_full":"Arrow River","min_zoom":7.0,"strokeweig":0.2,"uident":1809101,"min_label":8.0},
"geometry":{"type": "LineString","coordinates": [[-90.143788215228724,48.174872137494027,462.5],[-90.130360480853724,48.1810163432232,474.5945],[-90.0572810537704,48.158880926556527,501.3841],[-90.0104060537704,48.149847723431527,476.0833],[-89.9625544912704,48.138617254681527,446.7338],[-89.924794074603724,48.130641994264863,421.7632],[-89.8895564443954,48.127630926556527,399.1101],[-89.8795466787704,48.129461981244027,414.7118]]}}