{"type":"Feature","properties":{"featurecla":"Lake Centerline","scalerank":12,"rivernum":20252,"dissolve":"20252Lake Centerline","name":"Attwood3","name_alt":null,"note":"ID is link back to CEC data","name_full":"Attwood River","min_zoom":7.0,"strokeweig":0.2,"uident":1731501,"min_label":8.0},
"geometry":{"type": "LineString","coordinates": [[-88.4232478506454,51.325873114056527,311.6837],[-88.455067512103724,51.316473699994027,327.9544],[-88.515614387103724,51.271551824994027,313.4],[-88.582020637103724,51.244208074994027,295.462],[-88.6253962881454,51.248846746869027,305.0]]}}