{"type":"Feature","properties":{"featurecla":"River","scalerank":12,"rivernum":20078,"dissolve":"20078River","name":"Whitefish","name_alt":null,"note":"ID is link back to CEC data","name_full":"Whitefish River","min_zoom":7.0,"strokeweig":0.2,"uident":1806401,"min_label":8.0},
"geometry":{"type": "LineString","coordinates": [[-89.813791470437067,48.303900457806527,406.185],[-89.7823787100204,48.298773504681527,352.4498],[-89.743031379291224,48.3033307963482,334.8283],[-89.721424933978724,48.314520574994027,304.7854],[-89.7044978506454,48.328192449994027,284.5883],[-89.699086066791224,48.344794012494027,281.448],[-89.680653449603724,48.357245184369027,275.489],[-89.6041560537704,48.3790143900982,216.1559]]}}