{"type":"Feature","properties":{"featurecla":"River","scalerank":12,"rivernum":20070,"dissolve":"20070River","name":"null215","name_alt":null,"note":"ID is link back to CEC data","name_full":null,"min_zoom":7.0,"strokeweig":0.2,"uident":1808801,"min_label":8.0},
"geometry":{"type": "LineString","coordinates": [[-89.941477017312067,48.240668035931527,457.8918],[-89.906564907937067,48.2098249369732,409.454],[-89.890980598041224,48.186468817181527,472.8793],[-89.879750129291224,48.1395124369732,394.2836],[-89.8795466787704,48.129461981244027,414.7118]]}}