{"type":"Feature","properties":{"featurecla":"River","scalerank":12,"rivernum":20080,"dissolve":"20080River","name":"Pukaskwa","name_alt":null,"note":"ID is link back to CEC data","name_full":"Pukaskwa River","min_zoom":7.0,"strokeweig":0.15,"uident":1803101,"min_label":8.0},
"geometry":{"type": "LineString","coordinates": [[-85.8822322256454,48.0062116557232,272.9506],[-85.856068488666224,48.033758856244027,302.949],[-85.823068814187067,48.070746160931527,342.7815],[-85.794016079812067,48.0916608744732,348.0429],[-85.779367642312067,48.119899806764863,354.0826],[-85.7757869131454,48.134833074994027,372.2147],[-85.747059699603724,48.184352931764863,393.9037],[-85.708811001687067,48.2252057963482,391.6057],[-85.6717830068954,48.247503973431527,449.4597],[-85.636463996478724,48.247992254681527,535.3115],[-85.606271939187067,48.248602606244027,440.6741],[-85.567372199603724,48.262477931764863,403.5],[-85.5299373037704,48.280829168744027,454.1711],[-85.503041144916224,48.284857489056527,463.1997],[-85.447743293353724,48.285956121869027,493.0994],[-85.410511848041224,48.290838934369027,482.9189],[-85.370187954812067,48.306463934369027,535.4366],[-85.346994595437067,48.3353132182232,509.1554]]}}