{"type":"Feature","properties":{"featurecla":"River","scalerank":11,"rivernum":23272,"dissolve":"23272River","name":"Pigeon4","name_alt":null,"note":"ID is link back to CEC data","name_full":"Pigeon River","min_zoom":6.7,"strokeweig":0.2,"uident":1811001,"min_label":7.7},
"geometry":{"type": "LineString","coordinates": [[-89.589426236062067,48.0228132182232,239.2321],[-89.6141658193954,48.023708400514863,356.4235],[-89.6407771475204,48.026556707806527,380.3152],[-89.6686091787704,48.0291608744732,373.6817],[-89.694813605853724,48.029486395306527,322.5284],[-89.7276912100204,48.037420965619027,352.8713],[-89.744943814187067,48.040472723431527,385.005],[-89.764149543353724,48.017604884889863,349.1743],[-89.781849738666224,48.0174421244732,308.6611],[-89.804310676166224,48.0140241557232,317.6987],[-89.9032283193954,47.9861921244732,411.0862],[-89.9212947256454,47.987738348431527,460.7987],[-89.9811091787704,48.0103620463482,418.482],[-89.996205207416224,48.018866278119027,416.3645],[-90.009022590228724,48.030056056764863,427.2091],[-90.061879035541224,48.091253973431527,512.5497],[-90.074086066791224,48.1014264994732,452.5351],[-90.121205207416224,48.1155866557232,520.9377],[-90.179514126687067,48.116725978639863,501.7456],[-90.471424933978724,48.090155340619027,580.3618],[-90.478749152728724,48.091742254681527,546.4272],[-90.4842830068954,48.094753322389863,582.6916],[-90.491322394916224,48.096502996869027,496.6027],[-90.502674933978724,48.094549871869027,543.0573],[-90.5323787100204,48.0848249369732,522.8671],[-90.542836066791224,48.084051824994027,561.4291],[-90.563059048562067,48.089056707806527,556.3107],[-90.574696418353724,48.098171291139863,528.7925],[-90.587635871478724,48.105047918744027,483.3278],[-90.611927863666224,48.103705145306527,484.9962],[-90.702137824603724,48.0848249369732,591.6278],[-90.751210090228724,48.084295965619027,475.4522],[-90.7872615225204,48.100653387494027,517.0471],[-90.7975154287704,48.1172956400982,508.1426],[-90.8038630850204,48.147406317181527,469.9723],[-90.813099738666224,48.161200262494027,454.4023],[-90.824696418353724,48.1685651713482,477.3992],[-90.835072394916224,48.172064520306527,440.3171],[-90.843820767312067,48.177191473431527,444.2211],[-90.850534634499567,48.1898054057232,466.9508],[-90.849680142312067,48.198919989056527,463.1567],[-90.838734504291224,48.210760809369027,465.1962],[-90.8414607412704,48.2203229838482,448.3774],[-90.8585505850204,48.226874090619027,460.5648]]}}