{"type":"Feature","properties":{"featurecla":"Lake Centerline","scalerank":10,"rivernum":20198,"dissolve":"20198Lake Centerline","name":"null1253","name_alt":null,"note":"ID is link back to CEC data","name_full":null,"min_zoom":6.0,"strokeweig":0.2,"uident":1749001,"min_label":7.0},
"geometry":{"type": "LineString","coordinates": [[-88.392404751687067,50.2994245463482,265.5537],[-88.367176887103724,50.265692449994027,258.5],[-88.3307185537704,50.2552350932232,258.5],[-88.309885220437067,50.226629949994027,258.5],[-88.278635220437067,50.205837306764863,258.5],[-88.2604060537704,50.1849225932232,258.5],[-88.249989387103724,50.151149806764863,258.5],[-88.257801887103724,50.093817449994027,258.5],[-88.2760310537704,50.054754949994027,258.5],[-88.281239387103724,50.007879949994027,258.5],[-88.281239387103724,49.968817449994027,258.5],[-88.289051887103724,49.906317449994027,258.5],[-88.296864387103724,49.807399806764863,258.5],[-88.2760310537704,49.765692449994027,258.5],[-88.2604060537704,49.734442449994027,258.5],[-88.239572720437067,49.6614850932232,258.5],[-88.255197720437067,49.6302350932232,258.5],[-88.2525935537704,49.580837306764863,258.5],[-88.2447810537704,49.539129949994027,258.5],[-88.231760220437067,49.484442449994027,258.5],[-88.234852668353724,49.4383405619732,271.7772]]}}