{"type":"Feature","properties":{"GID_3":"CAN.12.11.31_1","GID_0":"CAN","country":"Canada","GID_1":"CAN.12_1","province":"Saskatchewan","NL_NAME_1":"NA","GID_2":"CAN.12.11_1","county":"DivisionNo.2","NL_NAME_2":"NA","city":"Ogema","VARNAME_3":"NA","NL_NAME_3":"NA","TYPE_3":"Town","ENGTYPE_3":"Town","CC_3":"NA","HASC_3":"NA","name":"Ogema.city"},
"geometry":{"type": "MultiPolygon","coordinates": [[[[-104.9196,49.581,720.7012],[-104.9197,49.579,721.2192],[-104.9215,49.5789,722.2288],[-104.9215,49.5754,727.7369],[-104.9236,49.5754,728.3864],[-104.9235,49.5738,728.3864],[-104.9197,49.5738,728.8337],[-104.9196,49.5662,723.7402],[-104.9084,49.5665,725.4446],[-104.9083,49.5809,715.6992],[-104.9196,49.581,720.7012]]]]}}