{"type":"Feature","properties":{"GID_3":"CAN.11.14.17_1","GID_0":"CAN","country":"Canada","GID_1":"CAN.11_1","province":"Québec","NL_NAME_1":"NA","GID_2":"CAN.11.14_1","county":"Brome-Missisquoi","NL_NAME_2":"NA","city":"Sainte-Sabine","VARNAME_3":"NA","NL_NAME_3":"NA","TYPE_3":"MunicipalitéDeParoisse","ENGTYPE_3":"ParishMunicipality","CC_3":"NA","HASC_3":"NA","name":"Sainte-Sabine.city"},
"geometry":{"type": "MultiPolygon","coordinates": [[[[-73.0165,45.2725,53.1794],[-73.0461,45.2927,54.2087],[-73.048,45.2779,50.737],[-73.0498,45.2766,49.2524],[-73.0499,45.2671,48.667],[-73.0585,45.273,49.218],[-73.0592,45.2648,50.252],[-73.0636,45.2673,51.297],[-73.0655,45.2447,51.9358],[-73.0681,45.2469,52.3596],[-73.0685,45.23,51.5372],[-73.0701,45.231,53.3842],[-73.0739,45.2286,54.2473],[-73.0578,45.2141,50.8459],[-73.0579,45.2125,50.8113],[-73.0421,45.2122,46.6276],[-73.0323,45.2058,46.2054],[-73.0326,45.2019,49.6572],[-73.0273,45.2025,46.197],[-73.0225,45.199,47.1376],[-73.0221,45.2039,47.5778],[-73.0118,45.2041,54.1429],[-73.0112,45.1928,51.1287],[-72.9742,45.1919,78.6452],[-72.9718,45.2246,77.584],[-72.9492,45.2248,74.3701],[-72.9464,45.2411,72.6405],[-72.9798,45.2405,74.1678],[-72.9843,45.2536,70.3534],[-73.0175,45.2531,51.4493],[-73.0165,45.2725,53.1794]]]]}}