{"type":"Feature","properties":{"featurecla":"Lake","scalerank":0,"name":"Lake Superior","name_abb":"L. Superior","name_alt":"Great Lakes","note":null,"delta":null,"dam_name":null,"year":-99,"admin":"admin-0","min_zoom":1.0,"min_label":3.0},
"geometry":{"type": "Polygon","coordinates": [[[-84.492982725697956,46.473515363966172,191.9372],[-84.493833493806918,46.4805038162898,184.5492],[-84.50825733603638,46.484624914069627,184.9244],[-84.521356539693727,46.495810750900631,186.7613],[-84.532836740651874,46.512000777892894,193.3779],[-84.546524672563493,46.526424620122327,231.5727],[-84.589207470997579,46.542025918860304,304.6459],[-84.58847156067975,46.562925771886654,330.3187],[-84.575813903213088,46.585886173802919,231.4613],[-84.56300906368287,46.601193108413781,180.5],[-84.490301124281345,46.659182841458716,190.8859],[-84.4340775759992,46.693623444333127,180.5],[-84.42509947012168,46.710990927833905,185.6134],[-84.429220567901524,46.725120405936224,190.4821],[-84.441583861241057,46.7407217046742,180.5],[-84.458656980614691,46.753673726267976,180.5],[-84.476907556496855,46.75897228055635,180.5],[-84.494422222061189,46.750730084996661,180.5],[-84.504136238256535,46.731596416733112,180.5],[-84.5112009773077,46.710990927833905,180.5],[-84.521356539693727,46.697450177985843,192.2041],[-84.546083126372793,46.697450177985843,223.5546],[-84.561242878920069,46.716878210376535,211.9474],[-84.565952704954185,46.7407217046742,180.5],[-84.559182330030154,46.751907541505204,180.5],[-84.547702129072022,46.762504650081922,202.7541],[-84.542845120974349,46.786053780252473,182.7571],[-84.543728213355735,46.811369095185796,187.0407],[-84.549321131771237,46.827264758050887,199.8869],[-84.539459933512333,46.831974584085,180.5],[-84.495746860633275,46.845515333933065,180.5],[-84.487063118882887,46.849930795840038,180.5],[-84.477643466814683,46.853168801238496,180.5],[-84.462925260458093,46.854346257747011,180.5],[-84.450120420927874,46.852285708857096,180.5],[-84.421714282659664,46.840805507898949,180.5],[-84.398165152489128,46.838156230754777,180.5],[-84.389334228675182,46.839922415517549,180.5],[-84.377412481526349,46.848164611077237,180.5],[-84.359603451834886,46.872596833629188,180.5],[-84.35621826437287,46.875540474900504,180.5],[-84.360192180089143,46.893202322528396,227.9578],[-84.374763204382162,46.903210702850885,228.0792],[-84.394779965027112,46.912335990791945,224.7951],[-84.436579671079812,46.941183675250869,263.6325],[-84.459687255059649,46.943244224140784,255.8442],[-84.50825733603638,46.937062577471011,198.6389],[-84.532395194461174,46.940594946996583,194.315],[-84.553295047487524,46.9461878654121,186.1594],[-84.572870261941773,46.946482229539214,186.2057],[-84.593328568777423,46.933824572072552,199.8764],[-84.59686093830301,46.923816191750092,180.5],[-84.593475750841,46.9155739961904,180.5],[-84.594064479095252,46.909981077774887,180.5],[-84.609518595769671,46.909097985393515,204.3795],[-84.621145978791375,46.912041626664831,224.5052],[-84.632184633558808,46.918812001588861,233.5882],[-84.651759848013057,46.937062577471011,201.7057],[-84.659266133254917,46.947954050174872,180.5],[-84.663387231034761,46.9564906098617,180.5],[-84.671040698340192,46.962083528277191,180.5],[-84.689291274222356,46.964438441294249,180.5],[-84.730207887893656,46.964438441294249,249.2205],[-84.75228519742852,46.971503180345422,191.9585],[-84.776864602044029,46.987693207337657,202.4337],[-84.787461710620761,47.005943783219834,180.5],[-84.76773931410294,47.01889580481361,206.0792],[-84.772596322200613,47.03479146767873,215.5469],[-84.769947045056426,47.053042043560879,180.5],[-84.76023302886108,47.0680546140446,180.5],[-84.731238162338613,47.080417907384145,212.523],[-84.717697412490551,47.094547385486464,193.9019],[-84.708719306613034,47.108676863588784,206.9796],[-84.709749581058,47.115152874385672,260.3966],[-84.713134768520021,47.11927397216553,319.1155],[-84.724320605351025,47.13929073281048,276.0188],[-84.72682270043164,47.145766743607368,180.5],[-84.7231431488425,47.153125846785656,180.5],[-84.714900953282807,47.156952580438372,180.5],[-84.705775665341719,47.159601857582544,180.5],[-84.700035564862659,47.16342859123526,180.5],[-84.696061649146372,47.173436971557749,180.5],[-84.696356013273515,47.178441161718979,224.5124],[-84.698710926290559,47.181679167117437,330.1416],[-84.700035564862659,47.187566449660068,180.5],[-84.696503195337073,47.1943368245841,180.5],[-84.688113817713827,47.198163558236814,180.5],[-84.678841347709181,47.201107199508129,192.4206],[-84.672218154848707,47.2046395690337,289.9648],[-84.620410068473547,47.26969404112981,180.5],[-84.610401688151057,47.275581323672441,180.5],[-84.599215851320054,47.2779362366895,180.5],[-84.589207470997579,47.282057334469329,204.4816],[-84.582731460200691,47.293243171300333,222.005],[-84.583320188454948,47.305017736385594,220.3824],[-84.589649017188279,47.311788111309625,229.1516],[-84.597449666557267,47.3162035732166,201.0144],[-84.6033369490999,47.32061903512357,202.5323],[-84.6196741581557,47.355059637997982,209.8846],[-84.6274748075247,47.365362382447586,192.2754],[-84.639690918800667,47.3700722084817,377.3795],[-84.669863241831663,47.368011659591787,379.4328],[-84.682079353107625,47.37242712149876,332.4937],[-84.696503195337073,47.392149518016566,224.8846],[-84.710191127248692,47.429533762162293,276.3629],[-84.72682270043164,47.444840696773156,278.9504],[-84.771271683628527,47.464563093290963,232.0579],[-84.7962926344347,47.482224940918854,301.4837],[-84.806006650630053,47.485757310444455,269.5553],[-84.8273480498471,47.488700951715771,264.0],[-84.9049129973463,47.512250081886293,191.5515],[-84.914627013541647,47.518726092683181,241.7072],[-84.935821230695126,47.536682304438216,252.6779],[-84.942444423555585,47.540214673963817,271.0824],[-84.945682428954029,47.545513228252162,308.4755],[-84.950097890861,47.569062358422713,320.4311],[-84.9561323554672,47.574360912711086,265.8982],[-84.976590662302854,47.579070738745173,251.1676],[-85.000139792473391,47.590845303830463,209.7557],[-85.019715006927655,47.60644660256844,205.1569],[-85.028398748678029,47.622342265433531,180.5],[-85.014416452639281,47.620576080670759,212.5612],[-85.007351713588122,47.634116830518792,253.1717],[-85.0030834337447,47.652956134655227,195.5541],[-84.9974905153292,47.667085612757546,180.5],[-84.971586472141624,47.688279829911039,300.7611],[-84.9704090156331,47.699760030869157,422.5551],[-84.994399691994332,47.710945867700161,320.1384],[-84.984244129608285,47.727430258819538,180.5],[-84.977179390557126,47.735378090252112,180.5],[-84.970114651505966,47.738910459777685,180.5],[-84.9509809832424,47.738616095650542,180.5],[-84.942591605619157,47.741559736921857,260.2803],[-84.932583225296682,47.760693405185435,180.5],[-84.901527809884286,47.78777490488153,180.5],[-84.891225065434682,47.801021290602449,315.7371],[-84.905943271791259,47.803376203619507,345.6403],[-84.921397388465678,47.811618399179196,187.0462],[-84.933613499741639,47.823098600137342,286.1393],[-84.93905923609357,47.834578801095461,180.5],[-84.935674048631554,47.851063192214838,180.5],[-84.924782575927679,47.861660300791584,180.5],[-84.89814262242227,47.875495414766789,180.5],[-84.891372247498239,47.881088333182277,180.5],[-84.877537133523049,47.896689631920253,180.5],[-84.850161269699811,47.910524745895458,180.5],[-84.843538076839351,47.917000756692346,180.5],[-84.838828250805236,47.934956968447381,191.0556],[-84.844568351284309,47.950263903058215,210.9778],[-84.858550647323057,47.960861011634961,227.4922],[-84.877537133523049,47.964982109414791,244.1872],[-84.888281424163353,47.962627196397762,223.3326],[-84.894757434960255,47.95821173449076,180.5],[-84.898731350676528,47.95320754432953,180.5],[-84.901527809884286,47.951146995439615,180.5],[-84.911683372270332,47.954385000838073,180.5],[-84.921544570529235,47.968514478940392,271.3753],[-84.9290508557711,47.971752484338822,261.0021],[-85.278902620867086,47.95821173449076,222.3008],[-85.424171317606564,47.927303501141949,247.6852],[-85.533086044645287,47.926126044633435,231.2392],[-85.743114849353731,47.95232445194813,287.3528],[-85.85924149750717,47.984998870059769,272.113],[-85.87469561418159,47.995595978636487,217.7534],[-85.891621551491653,48.019439472934152,222.4638],[-85.898686290542813,48.026209847858183,213.4146],[-85.908841852928859,48.033274586909357,236.8618],[-85.940191632468384,48.046815336757419,252.3375],[-85.944754276438914,48.065654640893825,259.232],[-86.001566552975333,48.089498135191491,187.5396],[-86.007895381708664,48.108337439327926,275.0724],[-86.015548849014081,48.1118698088535,284.9377],[-86.076776587457474,48.163383531101545,183.0019],[-86.097234894293123,48.201650867628672,252.5923],[-86.099295443183053,48.215780345730991,235.5492],[-86.104299633344283,48.222550720655022,328.6189],[-86.110922826204742,48.226671818434852,322.623],[-86.117840383192345,48.232264736850368,253.9006],[-86.129320584150477,48.251104040986775,219.6996],[-86.142419787807839,48.288193921005387,249.4333],[-86.151839439876056,48.30762195339608,225.4143],[-86.178185029254337,48.334703453092175,231.482],[-86.186280042750454,48.350893480084409,196.0536],[-86.1792153036993,48.368849691839443,271.9151],[-86.187604681322554,48.374736974382074,207.6971],[-86.191725779102384,48.382979169941763,181.9821],[-86.189665230212469,48.391221365501451,180.5],[-86.1792153036993,48.396814283916967,202.8576],[-86.227638202612454,48.431549250918493,180.5],[-86.222928376578352,48.446561821402213,214.4825],[-86.226019199913225,48.464223669030105,197.1691],[-86.234261395472913,48.481296788403739,231.146],[-86.245005686113217,48.4957206306332,209.1078],[-86.250892968655862,48.510733201116921,201.8381],[-86.258546435961279,48.552827271296735,253.7393],[-86.268554816283753,48.5681342059076,202.8295],[-86.266788631520967,48.587267874171147,243.687],[-86.286363845975217,48.605224085926181,195.5019],[-86.330076918854274,48.629656308478104,180.5],[-86.323895272184515,48.634071770385077,210.7488],[-86.31800798964187,48.640842145309108,191.9567],[-86.313150981544212,48.648789976741682,180.5],[-86.309618612018625,48.657620900555628,293.567],[-86.3265445493287,48.656737808174228,266.001],[-86.340085299176749,48.6593870853184,232.4792],[-86.351271136007753,48.664980003733916,208.9008],[-86.3614266983938,48.674399655802119,199.2108],[-86.365253432046515,48.680875666599036,210.6815],[-86.370404804271317,48.695888237082727,268.5167],[-86.37482026617829,48.701481155498243,215.6514],[-86.390568746979838,48.711783899947847,225.2732],[-86.392776477933324,48.712078264074989,187.9882],[-86.399841216984484,48.727385198685823,180.5],[-86.3963088474589,48.729740111702881,180.5],[-86.38909692634418,48.730917568211396,181.2239],[-86.385270192691465,48.7429864974238,218.5544],[-86.3907159290434,48.750051236474974,264.9309],[-86.403815132700757,48.752994877746289,194.0638],[-86.433693091604624,48.752994877746289,180.5],[-86.428541719379822,48.773306002518353,180.5],[-86.456653493520889,48.7744834590269,251.1853],[-86.52023614498134,48.759176524416034,262.7179],[-86.5315691638759,48.760942709178835,218.1121],[-86.536131807846445,48.760059616797435,199.6134],[-86.5371620822914,48.757410339653262,180.5],[-86.537750810545674,48.753289241873404,253.2205],[-86.539222631181332,48.749168144093574,199.8452],[-86.542902182770476,48.746224502822258,199.8899],[-86.552910563092951,48.741809040915285,335.6008],[-86.558209117381324,48.740042856152485,255.0913],[-86.566451312941012,48.739454127898227,269.9593],[-86.6151685759813,48.746518866949373,318.0088],[-86.631652967100678,48.746224502822258,229.7428],[-86.617965035189044,48.788024208874958,204.3061],[-86.634596608372,48.7942058555447,251.651],[-86.693763797925456,48.800976230468734,186.324],[-86.697296167451029,48.803331143485792,182.3962],[-86.7021531755487,48.808040969519908,180.5],[-86.708923550472733,48.812456431426881,202.4798],[-86.71746011015955,48.814516980316796,243.2997],[-86.725113577464981,48.811573339045481,261.1946],[-86.741597968584344,48.7942058555447,189.6066],[-86.758965452085121,48.787141116493558,233.5057],[-86.810479174333167,48.774189094899754,214.2298],[-86.840651497364163,48.761531437433092,255.0663],[-86.854045065148654,48.758587796161777,281.4448],[-86.871854094840117,48.760059616797435,287.6025],[-86.915125621528475,48.773306002518353,185.3638],[-86.93896911582614,48.784491839349357,226.7898],[-86.9572196917083,48.797443860943162,279.3741],[-86.967228072030778,48.807157877138508,180.5],[-86.977089270289682,48.813045159681138,260.0496],[-86.988275107120685,48.813928252062539,251.7892],[-87.002257403159447,48.807746605392765,180.5],[-87.003876405858662,48.800387502214477,194.2969],[-86.9976947591889,48.792439670781931,180.5],[-86.996958848871074,48.785080567603643,183.4659],[-87.015356606816809,48.780370741569527,253.4902],[-87.023893166503626,48.7830200187137,180.5],[-87.032282544126872,48.788907301256359,182.8563],[-87.042438106512918,48.793322763163332,211.0807],[-87.056567584615237,48.790967850146274,204.0364],[-87.0790864403408,48.7839031110951,249.4776],[-87.101163749875681,48.780370741569527,253.8105],[-87.186676528807439,48.780370741569527,240.2664],[-87.226121321843081,48.76889054061138,294.9075],[-87.241869802644615,48.767418719975723,262.4807],[-87.293089160765533,48.774189094899754,347.09],[-87.300448263943821,48.778604556806727,180.5],[-87.309867916012038,48.799798773960219,218.195],[-87.317521383317455,48.807746605392765,294.8202],[-87.365355553976357,48.807746605392765,284.1709],[-87.390965233036809,48.817166257461,267.2704],[-87.436886036869353,48.843953393029977,259.1791],[-87.464409082756163,48.849251947318351,296.829],[-87.517541807703424,48.838360474614461,211.6326],[-87.544034579145276,48.836888653978804,246.8386],[-87.5646400680445,48.849251947318351,180.5],[-87.555514780103422,48.8675025232005,180.5],[-87.56154924470961,48.878099631777246,182.8729],[-87.575678722811929,48.882809457811362,216.4023],[-87.59128002154992,48.882809457811362,247.3854],[-87.606734138224326,48.877510903522989,320.5272],[-87.622188254898745,48.8692687079633,317.6328],[-87.639408556335937,48.864558881929185,287.8455],[-87.66016122729873,48.869857436217558,180.5],[-87.663840778887874,48.875155990505931,180.5],[-87.664429507142131,48.890757289243908,184.1312],[-87.667078784286318,48.896644571786538,273.4772],[-87.673407613019648,48.900471305439254,283.6522],[-87.700489112715758,48.910774049888857,225.6308],[-87.7235966966956,48.91430641941443,235.0072],[-87.7662794951297,48.9101853216346,191.5802],[-87.789828625300231,48.910774049888857,180.5],[-87.781586429740543,48.928435897516749,200.1625],[-87.793066630698675,48.933734451805122,225.7144],[-87.84987890723508,48.929907718152407,196.0533],[-87.8588570131126,48.931379538788065,194.2001],[-87.866216116290886,48.934028815932265,196.973],[-87.879020955821119,48.941976647364811,198.3676],[-87.885496966618021,48.944920288636126,214.7037],[-87.903894724563742,48.946686473398927,258.4308],[-87.923469939018,48.946097745144669,268.2893],[-87.9420148790273,48.947275201653184,258.1302],[-87.957468995701717,48.955517397212873,220.9451],[-87.970273835231936,48.964937049281076,256.5185],[-87.999415883817974,48.979949619764795,249.3478],[-88.0126622695389,48.989369271833,347.618],[-88.0182551879544,48.991429820722942,349.8582],[-88.032531848120286,48.991724184850057,180.5],[-88.03621139970943,48.992607277231457,180.5],[-88.0368001279637,48.995550918502772,180.5],[-88.035622671455172,49.003498749935346,180.5],[-88.03621139970943,49.006442391206662,180.5],[-88.032531848120286,49.006736755333776,180.5],[-88.0303241171668,49.013212766130664,180.5],[-88.031060027484628,49.021454961690353,204.705],[-88.03621139970943,49.027636608360126,211.4443],[-88.04960496749392,49.025576059470211,206.5806],[-88.068738635757484,48.999377652155488,208.5087],[-88.081101929097017,48.992607277231457,194.0829],[-88.088608214338876,48.994962190248515,185.9687],[-88.103473602759024,49.004676206443861,190.5973],[-88.112010162445841,49.006442391206662,200.0821],[-88.123931909594674,49.003498749935346,220.8116],[-88.1307022845187,48.998494559774088,194.1815],[-88.136883931188464,48.992312913104342,191.9696],[-88.14615640119311,48.985836902307426,191.5754],[-88.16072742548613,48.978772163256281,202.7943],[-88.176917452478364,48.973473608967907,213.2555],[-88.193107479470612,48.972296152459364,216.6258],[-88.208267232017889,48.979066527383395,209.6867],[-88.224310076946566,48.97200178833225,237.1279],[-88.239028283303156,48.974062337222165,237.1976],[-88.25021412013416,48.983776353417511,180.5],[-88.255365492358962,49.000260744536888,180.5],[-88.27111397316051,48.989663635960142,203.6937],[-88.268759060143452,48.974651065476422,206.1888],[-88.248595117434931,48.944920288636126,180.5],[-88.241088832193071,48.925786620372577,288.5943],[-88.2427078348923,48.916955696558631,215.2498],[-88.250802848388417,48.908124772744685,195.0952],[-88.262871777600822,48.890462925116765,190.1807],[-88.241088832193071,48.865147610183442,180.5],[-88.213860150433391,48.848663219064065,180.5],[-88.1181918091156,48.804508599994335,180.5],[-88.108624974983826,48.797443860943162,198.7487],[-88.108477792920255,48.789496029510616,238.9045],[-88.117161534670643,48.759176524416034,248.9229],[-88.11892771943343,48.746224502822258,236.7404],[-88.114217893399328,48.730917568211396,241.3668],[-88.108772157047383,48.72120355201605,245.222],[-88.109360885301655,48.711489535820704,211.0291],[-88.122607271022574,48.694710780574212,270.2036],[-88.167203436283032,48.657620900555628,277.7805],[-88.203115859793087,48.61346628148587,199.8012],[-88.225634715518666,48.59757061862075,234.2348],[-88.255365492358962,48.595510069730835,180.5],[-88.249478209816331,48.6099339119603,180.5],[-88.232257908379125,48.631128129113762,258.5629],[-88.228136810599281,48.643197058326166,262.9291],[-88.268759060143452,48.614055009740127,227.7483],[-88.273174522050425,48.6090508195789,212.4294],[-88.29157227999616,48.613171917358727,221.8604],[-88.298931383174448,48.623180297681216,201.9364],[-88.303052480954292,48.636426683402135,239.1838],[-88.311294676513981,48.6499674332502,215.0744],[-88.330281162713973,48.657326536428485,204.8053],[-88.334843806684518,48.638192868164936,180.5],[-88.325718518743429,48.611111368468812,180.5],[-88.303788391272121,48.595510069730835,180.5],[-88.313208043340339,48.586384781789747,196.7521],[-88.323657969853514,48.582263684009916,248.3113],[-88.348531738596137,48.581969319882774,216.5553],[-88.35927602923644,48.5793200427386,213.9964],[-88.364721765588371,48.573432760195971,237.1496],[-88.368254135113958,48.5663680211448,218.3649],[-88.372669597020931,48.560775102729309,214.9756],[-88.390331444648837,48.551355450661077,202.0678],[-88.4076989281496,48.549000537644048,212.8227],[-88.420945313870519,48.55577091256805,180.5],[-88.427421324667421,48.574904580831628,203.2154],[-88.438607161498425,48.566956749399054,197.8557],[-88.462156291668961,48.533987967160328,205.6625],[-88.47496113119918,48.526040135727754,191.4106],[-88.4848223294581,48.522507766202182,199.2402],[-88.492034250572829,48.516031755405294,194.4346],[-88.49630253041623,48.499253000158774,180.5],[-88.493506071208486,48.493660081743286,180.5],[-88.487030060411584,48.490127712217713,180.5],[-88.481584324059654,48.486006614437855,180.5],[-88.482025870250339,48.47894187538671,180.5],[-88.487765970729413,48.473643321098336,180.5],[-88.493947617399172,48.475115141733994,200.4331],[-88.499246171687545,48.478353147132424,194.1814],[-88.503072905340261,48.47894187538671,195.5549],[-88.521323481222424,48.46392930490299,198.2087],[-88.525444579002269,48.454215288707644,193.1968],[-88.516024926934051,48.444795636639412,180.5],[-88.55767745092318,48.431549250918493,180.5],[-88.55856054330458,48.449505462673528,197.9065],[-88.565772464419311,48.462751848394447,189.4037],[-88.570629472516984,48.475409505861109,180.5],[-88.564447825847211,48.492482625234743,189.8439],[-88.571218200771241,48.492188261107628,208.6742],[-88.584611768555732,48.492776989361886,180.5],[-88.591234961416191,48.492482625234743,180.5],[-88.576958301250315,48.508378288099863,180.5],[-88.558266179177451,48.539875249702959,180.5],[-88.543989519011561,48.554593456059536,180.5],[-88.499687717878246,48.574904580831628,180.5],[-88.338964904464348,48.694416416447069,180.5],[-88.331164255095359,48.708545894549388,180.5],[-88.329103706205444,48.720320459634678,180.5],[-88.319978418264355,48.7421034050424,180.5],[-88.31747632318374,48.752994877746289,180.5],[-88.318653779692269,48.766241263467208,180.5],[-88.322480513344985,48.7744834590269,180.5],[-88.327337521442658,48.780959469823785,186.4447],[-88.331164255095359,48.788024208874958,188.4925],[-88.33793463001939,48.808335333647022,180.5],[-88.347943010341865,48.828352094292,187.7852],[-88.364133037334113,48.843364664775692,191.8874],[-88.441845166896869,48.856316686369496,186.9262],[-88.468337938338721,48.857199778750896,197.7088],[-88.48879624517437,48.849251947318351,191.8545],[-88.491887068509257,48.841009751758662,185.1547],[-88.492622978827086,48.829235186673372,184.9774],[-88.495713802161973,48.819226806350912,187.985],[-88.514847470425522,48.810984610791223,190.7315],[-88.527505127892184,48.802153686977277,195.9819],[-88.539132510913888,48.791850942527674,207.9549],[-88.543989519011561,48.784197475222243,203.9849],[-88.544283883138689,48.761237073305978,182.2576],[-88.541928970121646,48.7429864974238,180.5],[-88.531920589799157,48.728857019321481,180.5],[-88.50925455201002,48.71884863899902,180.5],[-88.535305777261172,48.712666992329247,199.9902],[-88.547521888537148,48.707662802168016,216.3697],[-88.55767745092318,48.698537514226928,217.1671],[-88.5489937091728,48.684408036124609,180.5],[-88.544136701075132,48.663508183098259,180.5],[-88.546933160282876,48.644668878961824,200.1082],[-88.5610626383852,48.636426683402135,197.0902],[-88.585347678873561,48.636426683402135,210.4048],[-88.606100349836339,48.634071770385077,217.227],[-88.6205241920658,48.624946482444017,197.6609],[-88.625969928417732,48.605518450053324,180.5],[-88.63509521635882,48.533104874778928,180.5],[-88.639657860329351,48.519858489058009,188.5927],[-88.681163202254922,48.513382478261093,206.7086],[-88.6976475933743,48.506906467464205,216.97],[-88.687344848924681,48.492482625234743,180.5],[-88.709569340523132,48.450977283309186,211.5983],[-88.718988992591335,48.426545060757263,229.5619],[-88.72281572624405,48.406822664239428,213.1472],[-88.730027647358781,48.383862262323163,209.1838],[-88.747542312923116,48.3738538820007,226.85],[-88.768589348013023,48.368555327712329,232.4668],[-88.802588404696735,48.350893480084409,220.1156],[-88.8724998848905,48.335292181346432,267.9879],[-88.883391357594377,48.334703453092175,442.4856],[-88.903702482366455,48.33676400198209,427.5192],[-88.914005226816073,48.335292181346432,327.6435],[-88.920628419676532,48.329110534676687,195.81],[-88.924749517456377,48.3199852467356,301.7115],[-88.930342435871879,48.315275420701482,226.5054],[-88.941233908575754,48.3217514314984,180.5],[-88.93004807174475,48.335880909600718,180.5],[-88.916065775705988,48.365317322313871,180.5],[-88.907087669828471,48.376503159144875,180.5],[-88.895018740616081,48.382684805814648,180.5],[-88.885451906484292,48.382096077560391,180.5],[-88.876473800606789,48.38032989279759,180.5],[-88.866171056157171,48.383273534068906,189.1221],[-88.862933050758727,48.388572088357279,180.5],[-88.862785868695156,48.395931191535567,180.5],[-88.86072531980524,48.403584658841,180.5],[-88.8518943959913,48.409766305510743,211.0673],[-88.858370406788183,48.42301269123169,180.5],[-88.8566042220254,48.431843615045636,180.5],[-88.850716939482766,48.440085810605325,180.5],[-88.845712749321521,48.451566011563443,180.5],[-88.838206464079661,48.486300978565,180.5],[-88.773593538174268,48.543701983355675,180.5],[-88.75828660356342,48.566956749399054,196.9095],[-88.763143611661093,48.583441140518431,205.6155],[-88.7799223669076,48.58844533067969,243.5982],[-88.816570700735483,48.569900390670369,211.9129],[-89.149054982330711,48.48394606554794,218.0198],[-89.188646957429924,48.467461674428563,219.1568],[-89.215581275062462,48.444795636639412,216.8923],[-89.226619929829909,48.42625069663012,184.2036],[-89.237217038406641,48.4009353816968,183.1177],[-89.237805766660912,48.37856370803479,184.2766],[-89.218672098397349,48.368849691839443,183.6281],[-89.214403818553933,48.364728594059613,181.051],[-89.201893343150843,48.341768192143348,180.5],[-89.206014440930687,48.326166893405372,180.5],[-89.211165813155489,48.325578165151086,198.9614],[-89.218524916333777,48.327933078168144,200.5834],[-89.2292692069741,48.3217514314984,225.3666],[-89.240749407932228,48.29172629053096,309.0172],[-89.24634232634773,48.287016464496844,341.8446],[-89.253407065398889,48.283189730844128,358.6949],[-89.261207714767878,48.274653171157325,327.9334],[-89.267536543501208,48.264350426707722,325.7747],[-89.2701858206454,48.256108231148033,339.0428],[-89.266211904929108,48.21401416096819,180.5],[-89.27357100810741,48.201945231755786,185.6745],[-89.2981504127229,48.211953612078275,207.8179],[-89.304332059392664,48.205183237154245,197.7004],[-89.294176497006617,48.185755204763552,199.6497],[-89.305067969710493,48.1666215365,216.4351],[-89.345248673063963,48.136302031405421,222.3005],[-89.3390670263942,48.133358390134106,238.8218],[-89.336417749250018,48.13041474886279,225.9039],[-89.334798746550788,48.1265880152101,180.5],[-89.331707923215916,48.122466917430245,180.5],[-89.432969182949208,48.101861428531038,197.8205],[-89.455193674547644,48.088909406937233,196.9076],[-89.422960802626733,48.086260129793061,180.5],[-89.419281251037575,48.079784118996145,180.5],[-89.435471278029823,48.070658831055084,180.5],[-89.461964049471675,48.061239178986852,239.2241],[-89.459609136454617,48.051230798664392,180.5],[-89.499495475680959,48.051819526918649,198.5924],[-89.510386948384834,48.043577331358961,183.6916],[-89.519953782516609,48.029447853256642,185.6947],[-89.541147999670088,48.023560570714011,195.2548],[-89.5639612195228,48.019733837061295,194.1571],[-89.578090697625115,48.012669098010122,206.1574],[-89.577501969370857,48.001777625306261,205.7449],[-89.578090697625115,47.998833984034945,192.1831],[-89.590159626837519,47.990591788475257,216.1003],[-89.606938382084024,47.991474880856657,190.5141],[-89.636521976860749,47.998833984034945,320.7074],[-89.648443724009582,47.994712886255115,297.1261],[-89.665369661319659,47.97587358211868,264.7463],[-89.69303988927004,47.966748294177592,237.2794],[-89.724978397063822,47.941432979244269,300.0886],[-89.743228972945985,47.930835870667522,272.5705],[-90.085280088672988,47.811324035052081,202.8836],[-90.287655426076,47.767758144236581,283.1209],[-90.328719221810871,47.750096296608689,180.5],[-90.3457923411845,47.746269562955973,186.0035],[-90.3958342427969,47.741854101049,209.8125],[-90.532860743976684,47.711534595954447,266.6672],[-90.791459629661858,47.616160618763786,449.4596],[-90.949238801804427,47.512250081886293,229.5963],[-91.012379907074177,47.493116413622744,348.9193],[-91.261706322754691,47.307519831466223,353.7994],[-91.511032738435219,47.1219232493097,219.4304],[-91.581827311010386,47.096607934376379,243.7785],[-91.592865965777833,47.084833369291118,313.2587],[-91.598017338002634,47.073058804205857,316.6064],[-91.610086267215024,47.0671715216632,219.5835],[-91.623627017063086,47.063933516264768,274.0544],[-91.633782579449132,47.05981241848491,262.7985],[-91.638786769610363,47.054513864196537,224.7269],[-91.649236696123538,47.0392069295857,203.4738],[-91.654976796602611,47.033319647043072,209.2722],[-91.711936255202588,47.003000141948519,206.305],[-91.745640947759171,46.992697397498887,302.8927],[-91.798332126515731,46.950014599064815,208.666],[-91.859707047022681,46.920872550478776,218.3622],[-91.897532837359108,46.911747262537688,260.6294],[-91.956552844849,46.875540474900504,242.2592],[-92.047952906323388,46.834329497102061,314.7591],[-92.09534553079159,46.804009992007508,305.0202],[-92.114184834928011,46.772513030404411,188.7378],[-92.104323636669108,46.758383552302092,182.6248],[-92.082835055388486,46.7398386122928,180.5],[-92.058991561090821,46.723942949427681,180.5],[-92.042212805844315,46.71717257450365,180.5],[-92.026611507106338,46.713640204978077,180.5],[-91.9634704018366,46.690679803061812,180.5],[-91.939332543411808,46.689796710680412,180.5],[-91.793033572227358,46.705986737672646,180.5],[-91.569758381798,46.764270834844723,180.5],[-91.490427249536012,46.772513030404411,180.5],[-91.4146284867996,46.794295975812162,180.5],[-91.401087736951553,46.786348144379588,183.5884],[-91.35281202010195,46.818433834236941,180.5],[-91.2746583443485,46.853463165365611,180.5],[-91.224763624799678,46.88437139871445,180.5],[-91.1962103044679,46.88937558887568,180.5],[-91.2035694076462,46.86759264346793,209.0697],[-91.190028657798138,46.8617053609253,180.5],[-91.16765698413613,46.867887007595073,180.5],[-91.147787405554737,46.882310849824535,180.5],[-91.14764022349118,46.878189752044676,180.5],[-91.146462766982651,46.876423567281876,180.5],[-91.146168402855523,46.874068654264846,180.5],[-91.147787405554737,46.868181371722216,180.5],[-91.128212191100488,46.859350447908241,180.5],[-91.1152601695067,46.866709551086558,180.5],[-91.099364506641578,46.88937558887568,180.5],[-91.090533582827632,46.892907958401253,180.5],[-91.081997023140815,46.894968507291196,180.5],[-91.062127444559422,46.895557235545454,180.5],[-91.053738066936177,46.897912148562511,180.5],[-91.050794425664861,46.903505066978,180.5],[-91.049175422965632,46.91027544190203,180.5],[-91.044759961058659,46.9164570885718,180.5],[-91.033426942164084,46.922933099368692,180.5],[-90.990155415475741,46.937062577471011,180.5],[-90.986181499759454,46.939711854615211,180.5],[-90.981913219916052,46.944127316522184,180.5],[-90.975731573246279,46.948248414302014,180.5],[-90.966017557050932,46.950014599064815,180.5],[-90.959247182126916,46.949131506683415,180.5],[-90.9442346116432,46.944716044776442,180.5],[-90.935845234019936,46.943832952395042,180.5],[-90.914651016866458,46.945010408903556,180.5],[-90.904201090353283,46.9470709577935,180.5],[-90.894487074157936,46.950014599064815,180.5],[-90.891543432886621,46.954135696844645,180.5],[-90.8885997916153,46.961494800022933,180.5],[-90.8843315117719,46.968559539074107,180.5],[-90.877266772720745,46.971797544472537,180.5],[-90.856955647948652,46.970325723836879,180.5],[-90.848419088261835,46.96797081081985,180.5],[-90.83929380032076,46.964438441294249,180.5],[-90.8373804334944,46.960317343514419,180.5],[-90.836497341113,46.953252604463245,238.1902],[-90.834436792223087,46.946776593666357,233.5874],[-90.829138237934714,46.943832952395042,200.8774],[-90.798965914903718,46.945599137157842,180.5],[-90.788663170454114,46.939123126360926,180.5],[-90.784689254737827,46.919989458097376,231.7839],[-90.777035787432411,46.913219083173345,180.5],[-90.7640837658386,46.905565615867914,183.7484],[-90.761581670757991,46.897617784435369,241.7034],[-90.784689254737827,46.88937558887568,221.354],[-90.781892795530084,46.885548855222964,202.9676],[-90.777182969495968,46.875540474900504,232.981],[-90.793667360615345,46.8617053609253,214.0347],[-90.818688311421539,46.816373285347026,262.487],[-90.835908612858745,46.80665926915168,258.6149],[-90.854306370804466,46.799005801846249,253.3686],[-90.86593375382617,46.7807552259641,204.4626],[-90.8722625825595,46.759266644683493,180.5],[-90.874175949385858,46.742193525309858,180.5],[-90.870054851606014,46.732185144987369,180.5],[-90.8624013843006,46.722471128792023,180.5],[-90.857838740330052,46.712462748469562,180.5],[-90.863137294618426,46.700982547511416,223.5733],[-90.927455856396691,46.6468195481192,227.7255],[-90.944528975770325,46.627097151601362,222.9541],[-90.956009176728458,46.607374755083555,208.7558],[-90.930105133540877,46.597660738888209,180.5],[-90.900815902891267,46.602076200795182,180.5],[-90.781156885212255,46.637105531923851,180.5],[-90.754958477897532,46.650940645899027,180.5],[-90.736266355824668,46.670074314162576,186.3813],[-90.771001322826208,46.670074314162576,180.5],[-90.771001322826208,46.67625596083235,180.5],[-90.762023216948691,46.680377058612208,180.5],[-90.752014836626216,46.683320699883524,180.5],[-90.741270545985913,46.684498156392038,180.5],[-90.730084709154909,46.683909428137781,181.8553],[-90.749954287736287,46.700393819257158,180.5],[-90.756871844723889,46.704220552909874,183.5251],[-90.736413537888239,46.695095264968785,180.5],[-90.662086595787486,46.644464635102139,182.4444],[-90.569803441931711,46.607080390956412,180.5],[-90.497389866657315,46.59442273348975,180.5],[-90.4544127040961,46.577055249988973,180.5],[-90.435279035832536,46.576466521734716,180.5],[-90.387003318982948,46.600015651905238,180.5],[-90.361835186113183,46.60855221159207,180.5],[-90.334900868480645,46.613262037626185,180.5],[-90.301784904178319,46.615028222388958,180.5],[-90.289568792902358,46.6170887712789,180.5],[-90.237024796209354,46.640343537322281,180.5],[-90.059670409612522,46.680377058612208,180.5],[-90.0175763394327,46.697450177985843,180.5],[-89.834776216483931,46.815490192965626,180.5],[-89.79415396693976,46.8302083993222,180.5],[-89.39764548769341,46.863765909815214,180.5],[-89.308011610981808,46.893496686655538,180.5],[-89.226767111893466,46.93617948508961,180.5],[-89.153617626301255,46.992403033371772,180.5],[-89.130804406448547,47.005943783219834,180.5],[-89.110198917549326,47.007121239728349,180.5],[-89.061334472445466,46.9991734082958,180.5],[-89.0500014535509,47.000939593058575,180.5],[-89.010115114324563,47.012714158143865,180.5],[-88.978912516848609,47.016246527669438,180.5],[-88.968609772398992,47.01889580481361,180.5],[-88.951831017152486,47.031259098153157,180.5],[-88.916212957769559,47.072764440078714,180.5],[-88.910620039354058,47.08159536389266,180.5],[-88.906498941574213,47.086305189926776,180.5],[-88.886629362992821,47.115152874385672,180.5],[-88.879564623941661,47.118979608038387,180.5],[-88.8518943959913,47.128693624233733,180.5],[-88.683812479399108,47.228188699204225,180.5],[-88.658644346529343,47.237902715399571,180.5],[-88.635831126676649,47.23701962301817,180.5],[-88.625969928417732,47.214353585229048,218.7093],[-88.630532572388276,47.188449542041468,182.9095],[-88.637155765248735,47.167844053142232,190.7995],[-88.634948034295249,47.151065297895741,190.6925],[-88.61287072476037,47.135758363284879,217.7601],[-88.58740822776349,47.129871080742248,266.7943],[-88.535452959324743,47.125161254708161,226.0644],[-88.512639739472036,47.1116205048601,180.5],[-88.507782731374363,47.101023396283352,180.5],[-88.50969609820072,47.089248831198091,180.5],[-88.517791111696837,47.061872967374853,183.9188],[-88.523972758366611,47.051570222925221,241.483],[-88.523531212175911,47.046860396891134,232.0572],[-88.516172108997623,47.04067875022136,180.5],[-88.509401734073592,47.042444934984161,180.5],[-88.502925723276689,47.046566032763991,180.5],[-88.49630253041623,47.046860396891134,180.5],[-88.4792294110426,47.035968924187245,180.5],[-88.461273199287561,47.020073261322153,194.0118],[-88.446849357058113,47.001233957185718,181.1257],[-88.440962074515483,46.981805924795026,187.0283],[-88.444052897850355,46.960317343514419,180.5],[-88.451853547219343,46.935885120962496,194.5092],[-88.463039384050347,46.912630354919088,197.5166],[-88.475697041517009,46.895557235545454,203.94],[-88.46995694103795,46.886137583477222,180.5],[-88.469221030720121,46.876717931409019,180.5],[-88.472459036118565,46.867298279340815,180.5],[-88.478935046915467,46.858172991399726,187.1665],[-88.482761780568168,46.848164611077237,217.1085],[-88.479523775169724,46.838450594881891,180.5],[-88.459065468334074,46.809014182168738,180.5],[-88.455974644999188,46.802832535498965,180.5],[-88.458329558016246,46.796945252956334,180.5],[-88.465688661194534,46.793412883430761,183.5579],[-88.475549859453452,46.790469242159446,193.6541],[-88.484675147394526,46.786348144379588,214.9807],[-88.48879624517437,46.7798721335827,198.1551],[-88.474666767072051,46.773396122785812,180.5],[-88.440962074515483,46.800477622481907,180.5],[-88.38635752893255,46.854346257747011,188.6722],[-88.400487007034869,46.866120822832272,180.5],[-88.389153988140308,46.872596833629188,180.5],[-88.355302113520167,46.875540474900504,180.5],[-88.339406450655048,46.880839029188877,180.5],[-88.309970037941881,46.903799431105142,180.5],[-88.278620258402356,46.913513447300488,180.5],[-88.234907185523312,46.943832952395042,180.5],[-88.1888391996272,46.967087718438449,180.5],[-88.173532265016362,46.971797544472537,180.5],[-88.1440958523032,46.970325723836879,180.5],[-88.154251414689227,46.95295824033613,209.1552],[-88.1836878274024,46.932941479691181,215.6826],[-88.239469829493856,46.9129247190462,222.5105],[-88.259192226011677,46.88849249649428,236.403],[-88.276412527448869,46.8608222685439,250.7205],[-88.29701801634809,46.840805507898949,267.2413],[-88.29701801634809,46.834623861229204,264.7646],[-88.273174522050425,46.839922415517549,203.0069],[-88.246387386481445,46.856701170764069,180.5],[-88.224310076946566,46.878484116171819,186.5976],[-88.21503760694192,46.899089605071026,180.5],[-88.198553215822542,46.911747262537688,180.5],[-88.119074901497,46.927642925402807,180.5],[-88.063881627659811,46.93117529492838,180.5],[-87.902864450118784,46.921166914605891,180.5],[-87.796451818160691,46.901150153960941,180.5],[-87.7830582503762,46.892319230146995,180.5],[-87.779231516723485,46.884665762841564,180.5],[-87.76966468259171,46.883782670460192,180.5],[-87.758331663697135,46.884665762841564,180.5],[-87.748912011628917,46.882310849824535,180.5],[-87.7408169981328,46.873185561883446,180.5],[-87.7309557998739,46.855229350128411,180.5],[-87.720947419551408,46.848164611077237,180.5],[-87.709025672402575,46.846987154568723,180.5],[-87.684299085723524,46.85258007298421,180.5],[-87.676939982545235,46.851402616475696,180.5],[-87.668109058731275,46.829030942813688,180.5],[-87.660749955552987,46.8199056548726,180.5],[-87.649711300785555,46.824026752652458,180.5],[-87.629694540140591,46.828736578686545,180.5],[-87.614387605529757,46.809308546295881,180.5],[-87.598197578537508,46.765742655480381,219.7913],[-87.58495119281659,46.752201905632319,180.5],[-87.5391775710476,46.71717257450365,180.5],[-87.529169190725128,46.707752922435446,180.5],[-87.522545997864668,46.690679803061812,180.5],[-87.506061606745291,46.673312319561035,180.5],[-87.48589766403677,46.658888477331573,180.5],[-87.467794270218178,46.649468825263369,180.5],[-87.469413272917407,46.635044983033907,198.8017],[-87.459404892594932,46.625625330965704,180.5],[-87.407155260029057,46.608846575719213,180.5],[-87.396705333515882,46.60443111381224,180.5],[-87.39273141779961,46.597366374761066,180.5],[-87.387727227638365,46.547030109021563,216.7026],[-87.373597749536046,46.526424620122327,180.5],[-87.348135252539151,46.516710603926981,180.5],[-87.226121321843081,46.502286761697547,180.5],[-87.183144159281852,46.517299332181238,180.5],[-87.1356043527501,46.51082332138435,180.5],[-87.1114664943253,46.512295142020008,180.5],[-87.103077116702039,46.518182424562639,180.5],[-87.0864455435191,46.535844272190559,180.5],[-87.0808526251036,46.539671005843246,180.5],[-87.05509576397958,46.538199185207588,180.5],[-87.04214374238579,46.539082277588989,180.5],[-87.0330184544447,46.543497739495962,180.5],[-87.0218326176137,46.551151206801393,180.5],[-87.0084390498292,46.553506119818451,180.5],[-86.994456753790459,46.55173993505565,180.5],[-86.981651914260226,46.547324473148677,180.5],[-86.970318895365651,46.540259734097532,180.5],[-86.966786525840078,46.534961179809159,180.5],[-86.965609069331549,46.528779533139385,180.5],[-86.960604879170319,46.519359881071182,180.5],[-86.93013819201218,46.488157283595228,180.5],[-86.920865722007534,46.484624914069627,180.5],[-86.908355246604444,46.48491927819677,180.5],[-86.89716940977344,46.48315309343397,187.5346],[-86.892312401675767,46.474616533747167,180.5],[-86.882009657226149,46.45989832739059,180.5],[-86.857871798801355,46.457543414373532,180.5],[-86.830495934978117,46.462547604534763,180.5],[-86.810479174333167,46.470789800094451,180.5],[-86.7801596692386,46.495516386773517,180.5],[-86.759848544466507,46.501109305189004,180.5],[-86.7383599631859,46.488157283595228,180.5],[-86.719962205240165,46.469906707713051,180.5],[-86.702005993485145,46.460781419771962,180.5],[-86.6806645942681,46.457543414373532,212.9496],[-86.652111273936328,46.457249050246389,180.5],[-86.654171822826243,46.452833588339416,180.5],[-86.657115464097558,46.441942115635555,213.0919],[-86.659028830923916,46.437526653728582,254.3924],[-86.6254713204309,46.44400266452547,180.5],[-86.594563087082079,46.465491245806078,180.5],[-86.546434552296049,46.515827511545581,180.5],[-86.533335348638687,46.526424620122327,180.5],[-86.488297637187543,46.553506119818451,180.5],[-86.472549156386009,46.557921581725424,180.5],[-86.436489550812368,46.5623370436324,180.5],[-86.396456029522469,46.586180537930062,180.5],[-86.282831476449644,46.621798597312988,180.5],[-86.145657793206283,46.690679803061812,180.5],[-86.118576293510174,46.678905237976551,180.5],[-86.090906065559793,46.67537286845095,180.5],[-85.926209336429622,46.699216362748615,180.5],[-85.898686290542813,46.710990927833905,180.5],[-85.891768733555224,46.704220552909874,180.5],[-85.860566136079257,46.708636014816847,180.5],[-85.521900207814284,46.683909428137781,180.5],[-85.475537857791039,46.689502346553269,180.5],[-85.2930320989694,46.754556818649377,180.5],[-85.200307398922931,46.775456671675727,180.5],[-85.123183997614433,46.7798721335827,180.5],[-85.038995857254776,46.772513030404411,180.5],[-85.0178016401013,46.774573579294326,180.5],[-84.976149116112168,46.783993231362558,180.5],[-84.952747168005189,46.786348144379588,180.5],[-84.961136545628449,46.768980660878839,185.6313],[-84.976737844366426,46.759561008810607,189.828],[-84.994105327867189,46.751318813250919,186.2452],[-85.007940441842379,46.7389555199114,195.6416],[-85.013386178194324,46.724237313554823,191.7635],[-85.031195207885787,46.606786026829269,180.5],[-85.017948822164854,46.573228516336258,180.5],[-85.027957202487329,46.556155396962623,180.5],[-85.055774612501281,46.532900630919244,183.558],[-85.048268327259422,46.517593696308381,180.5],[-85.039584585509033,46.505230402968863,180.5],[-85.027074110105943,46.496693843282031,180.5],[-85.007940441842379,46.491984017247916,180.5],[-84.992044778977274,46.493750202010716,180.5],[-84.95907599673852,46.50493603884172,180.5],[-84.945976793081172,46.506407859477378,180.5],[-84.935968412758683,46.501698033443262,180.5],[-84.921838934656364,46.487568555340943,180.5],[-84.9147741956052,46.484624914069627,180.5],[-84.877537133523049,46.478443267399882,180.5],[-84.83544306334322,46.459603963263447,180.5],[-84.819547400478115,46.457249050246389,180.5],[-84.7864314361758,46.459603963263447,180.5],[-84.749488738220776,46.466668702314593,180.5],[-84.715048135346365,46.478443267399882,180.5],[-84.689291274222356,46.495516386773517,180.5],[-84.656469674047173,46.501992397570405,180.5],[-84.618349519583617,46.484330549942513,180.5],[-84.594064479095252,46.457837778500647,180.5],[-84.6033369490999,46.437526653728582,192.1076],[-84.569779438606886,46.423397175626263,180.5],[-84.529157189062715,46.429873186423151,180.5],[-84.490140813956842,46.446469704192054,180.5],[-84.49043684271804,46.449286925094029,180.5],[-84.492982725697956,46.473515363966172,191.9372]],
[[-86.604129921213854,46.472850348984366,180.5],[-86.616934760744087,46.469317979458793,264.1846],[-86.639159252342523,46.470789800094451,180.5],[-86.6384233420247,46.473144713111509,182.2371],[-86.641661347423153,46.477854539145596,189.4622],[-86.646959901711512,46.482270001052569,195.291],[-86.652111273936328,46.484624914069627,233.6183],[-86.657262646161129,46.481975636925455,245.6268],[-86.660206287432445,46.471378528348708,192.6715],[-86.666535116165775,46.470789800094451,252.9906],[-86.676249132361121,46.474910897874281,271.8174],[-86.67698504267895,46.478737631527,270.2974],[-86.675807586170421,46.48580237057817,233.9609],[-86.680075866013837,46.498754392171946,200.6217],[-86.6866990588743,46.508762772494435,252.7923],[-86.6927335234805,46.515827511545581,289.2076],[-86.697590531578172,46.522892250596755,298.7705],[-86.700534172849487,46.532900630919244,259.0795],[-86.698915170150258,46.553800483945565,180.5],[-86.687729333319254,46.567046869666513,180.5],[-86.66903721124639,46.5717566957006,180.5],[-86.6453408990123,46.566458141412255,180.5],[-86.63518533662625,46.560865222996739,180.5],[-86.628267779638662,46.553211755691308,180.5],[-86.617965035189044,46.532900630919244,180.5],[-86.632977605672764,46.516121875672724,237.8066],[-86.639159252342523,46.506996587731635,245.5869],[-86.639159252342523,46.498754392171946,180.5],[-86.629445236147177,46.496105115027774,180.5],[-86.614874211854172,46.498165663917689,180.5],[-86.601922190260368,46.496693843282031,180.5],[-86.5975067283534,46.484624914069627,180.5],[-86.604129921213854,46.472850348984366,180.5]],
[[-86.956189417263332,48.641136509436251,180.5],[-86.994751117917588,48.623474661808359,211.7753],[-86.987980742993557,48.636426683402135,226.0743],[-87.027278353965642,48.637309775783535,210.3726],[-87.045823293974934,48.642313965944766,223.9418],[-87.046264840165634,48.653794166902912,195.0216],[-87.030957905554786,48.661447634208344,182.6138],[-86.993868025536187,48.664980003733916,233.6343],[-86.981651914260226,48.677932025327692,180.5],[-86.975028721399767,48.675577112310663,180.5],[-86.960604879170319,48.672927835166462,180.5],[-86.953834504246288,48.670572922149404,180.5],[-86.946622583131557,48.653499802775769,180.5],[-86.956189417263332,48.641136509436251,180.5]],
[[-85.610650992144471,47.738910459777685,251.1998],[-85.621542464848346,47.737733003269142,283.5076],[-85.645974687400269,47.739793552159085,269.2505],[-85.655394339468486,47.735672454379227,276.7623],[-85.662164714392517,47.730668264218,274.7164],[-85.670112545825077,47.727724622946681,233.0712],[-85.709262974733591,47.72007115564125,214.3374],[-85.733400833158385,47.718010606751335,197.3498],[-85.756508417138221,47.72095424802265,203.9262],[-85.775200539211085,47.732140084853654,280.7967],[-85.803901041606423,47.721248612149793,227.8814],[-85.832159997811061,47.716538786115677,237.4633],[-85.906634121975372,47.719776791514136,238.9531],[-85.921646692459078,47.723897889293966,271.7797],[-85.929741705955209,47.724780981675366,269.9704],[-85.937836719451326,47.726841530565281,236.2249],[-85.94284090961257,47.731845720726511,225.2518],[-85.946520461201715,47.736555546760627,236.7615],[-85.950200012790859,47.738910459777685,188.4034],[-85.9529964719986,47.741265372794743,181.7649],[-85.9547626567614,47.747152655337374,180.5],[-85.955057020888532,47.754217394388519,180.5],[-85.95387956438,47.759515948676892,180.5],[-85.9259149723025,47.765697595346666,180.5],[-85.8819075352963,47.793367823297046,180.5],[-85.858652769252913,47.803376203619507,180.5],[-85.733989561412642,47.80779166552648,180.5],[-85.713678436640564,47.801021290602449,180.5],[-85.694250404249871,47.798372013458277,180.5],[-85.610062263890214,47.773056698524954,180.5],[-85.594019418961537,47.763342682329608,180.5],[-85.59137014181735,47.751568117244346,180.5],[-85.610650992144471,47.738910459777685,251.1998]],
[[-87.714765772881648,47.416876104695632,180.5],[-87.737284628607227,47.415404284059974,207.211],[-87.773344234180854,47.40009734944914,215.0435],[-87.793655358952932,47.396270615796425,192.6876],[-87.81602703261494,47.39833116468634,244.4568],[-87.856354918031982,47.407750816754543,284.4091],[-87.87872659169399,47.4101057297716,293.2234],[-87.899332080593211,47.408339545008829,304.2837],[-87.953789444112559,47.396270615796425,269.5696],[-87.997355334928045,47.397742436432083,349.1296],[-88.017519277636566,47.395387523415025,339.0825],[-88.030176935103228,47.38331859420262,218.7233],[-88.000298976199375,47.378020039914247,180.5],[-87.9652696450707,47.368011659591787,180.5],[-87.948932436014886,47.355059637997982,183.2238],[-88.011190448903236,47.319441578615056,208.871],[-88.032531848120286,47.31061065480111,214.5774],[-88.0540204294009,47.307078285275509,202.7685],[-88.060643622261367,47.303251551622822,194.4295],[-88.0772751954443,47.279702421452271,180.5],[-88.087872304021033,47.274992595418183,193.1206],[-88.11274607276367,47.268222220494152,208.964],[-88.122607271022574,47.262629302078636,205.3569],[-88.163818248821016,47.228483063331367,198.15],[-88.1758871780334,47.221418324280194,210.0233],[-88.188692017563639,47.220535231898822,199.562],[-88.201938403284558,47.221123960153079,193.4602],[-88.21503760694192,47.218180318881764,193.8444],[-88.22975581329851,47.2064057537965,186.8947],[-88.242119106638029,47.187860813787182,187.4133],[-88.246093022354316,47.169021509650776,182.5598],[-88.234907185523312,47.156069488056971,180.5],[-88.234907185523312,47.14929911313294,187.1173],[-88.254188035850433,47.14929911313294,189.6475],[-88.271849883478339,47.147532928370168,186.2403],[-88.284507540945,47.140468189318995,186.6205],[-88.289511731106231,47.125455618835275,184.4206],[-88.298195472856619,47.113681053750014,223.4515],[-88.3361684452566,47.100434668029095,221.2234],[-88.344852187006992,47.091309380088006,216.6349],[-88.3762019665465,47.03655765244153,198.0505],[-88.3969546375093,47.010064880999664,216.0964],[-88.409612294975958,46.997407223533,210.3689],[-88.424183319268977,46.992403033371772,190.3673],[-88.480259685487553,47.054513864196537,180.5],[-88.483497690886,47.065994065154683,180.5],[-88.477610408343367,47.07659117373143,180.5],[-88.462156291668961,47.087777010562434,180.5],[-88.433014243082923,47.101906488664753,212.3333],[-88.423447408951148,47.1107374124787,204.0719],[-88.4137333927558,47.128693624233733,202.8896],[-88.409317930848829,47.145472379480225,180.6917],[-88.405196833068985,47.18109043886318,180.5],[-88.399456732589911,47.196986101728271,183.5876],[-88.414322121010059,47.191393183312783,215.0573],[-88.434191699591452,47.176969341083321,228.1664],[-88.452295093410044,47.158718765201172,236.8228],[-88.462156291668961,47.14252873820891,191.3],[-88.436105066417809,47.154892031548457,201.5412],[-88.423447408951148,47.143706194717453,213.0149],[-88.4240361372054,47.124866890581018,221.7825],[-88.437576887053467,47.115152874385672,235.5759],[-88.482320234377482,47.108382499461641,231.6979],[-88.4890906093015,47.111914868987213,244.1957],[-88.506016546611576,47.129576716615134,244.5188],[-88.516024926934051,47.135758363284879,286.7522],[-88.606247531899911,47.139879461064737,266.6837],[-88.619052371430143,47.1525371185314,254.4897],[-88.617727732858043,47.197869194109671,184.8649],[-88.6136066350782,47.221712688407337,198.1229],[-88.605511621582082,47.238785807780971,182.2813],[-88.587702591890618,47.251737829374775,180.5],[-88.544431065202261,47.270282769384067,180.5],[-88.5266220355108,47.282940426850729,180.5],[-88.431248058320136,47.37242712149876,180.5],[-88.397984911954254,47.388911512618137,180.5],[-88.31747632318374,47.416876104695632,180.5],[-88.290836369678331,47.433949224069266,180.5],[-88.283330084436471,47.437187229467725,180.5],[-88.272291429669025,47.436009772959181,180.5],[-88.260811228710892,47.431888675179351,180.5],[-88.249478209816331,47.429533762162293,180.5],[-88.238586737112456,47.433949224069266,180.5],[-88.22342698456518,47.44601815328167,180.5],[-88.209444688526418,47.453377256459959,180.5],[-88.137031113252036,47.473394017104908,180.5],[-88.052548608765235,47.4842854898088,180.5],[-87.819706584204084,47.483991125681655,180.5],[-87.799984187686263,47.479870027901825,180.5],[-87.76259994354055,47.464563093290963,180.5],[-87.7477345551204,47.4545547129685,198.1796],[-87.728012158602567,47.432477403433609,219.3246],[-87.714765772881648,47.423646479619663,180.5],[-87.714765772881648,47.416876104695632,180.5]],
[[-88.6359783087402,48.034746407545015,202.1224],[-88.687344848924681,48.012669098010122,219.2587],[-88.948151465563342,47.93819497384581,219.4418],[-88.952272563343186,47.931130234794665,186.9332],[-88.98980398955247,47.914940207802431,198.5553],[-89.002756011146275,47.903460006844284,181.7399],[-88.914005226816073,47.903460006844284,180.5],[-88.914005226816073,47.896689631920253,211.5039],[-88.966549223509077,47.890802349377623,190.8809],[-89.137574781372578,47.835167529349746,231.9928],[-89.160976729479543,47.832518252205546,221.4629],[-89.182612492823722,47.838111170621062,204.2554],[-89.201893343150843,47.855184289994696,211.8365],[-89.206750351248516,47.857539203011754,218.6233],[-89.211165813155489,47.856656110630354,215.4762],[-89.214403818553933,47.857244838884611,216.8326],[-89.215581275062462,47.865781398571443,196.4536],[-89.201893343150843,47.889624892869108,203.4957],[-89.192473691082625,47.895806539538853,213.0928],[-89.153617626301255,47.910230381768315,212.9328],[-89.153617626301255,47.917000756692346,192.1649],[-89.188352593302781,47.9064036481156,232.0238],[-89.205131348549287,47.9055205557342,221.5128],[-89.215581275062462,47.917000756692346,180.5],[-89.123592485333816,47.964393381160534,180.5],[-88.982886432564882,48.016201467535723,180.5],[-88.948151465563342,48.033863315163615,180.5],[-88.928429069045521,48.031508402146557,180.5],[-88.9031137541122,48.037101320562073,180.5],[-88.878092803306,48.047698429138791,180.5],[-88.85940068123314,48.061239178986852,180.5],[-88.8329079097913,48.060650450732595,180.5],[-88.787428652149458,48.077134841851972,180.5],[-88.740330391808385,48.100683972022495,180.5],[-88.70853906607816,48.122466917430245,180.5],[-88.70853906607816,48.108337439327926,180.5],[-88.632740303341762,48.149842781253483,180.5],[-88.620229827938658,48.145132955219395,184.0968],[-88.587996956017747,48.154846971414742,180.5],[-88.571365382834813,48.149842781253483,180.5],[-88.55017116568132,48.162500438720144,180.5],[-88.475697041517009,48.190759394924783,180.5],[-88.497038440734059,48.178984829839521,180.5],[-88.504839090103047,48.171920090788376,180.5],[-88.50925455201002,48.163383531101545,180.5],[-88.479818139296853,48.169270813644175,182.6118],[-88.4658358432581,48.174569367932548,180.5],[-88.4546500064271,48.184577748255037,180.5],[-88.458182375952674,48.179279193966664,180.5],[-88.46289220198679,48.174275003805406,210.3259],[-88.475697041517009,48.163383531101545,214.8248],[-88.502778541213132,48.14631041172791,200.9073],[-88.575486480614657,48.115990906633357,252.1094],[-88.5985940645945,48.095091053607007,214.1348],[-88.5981525184038,48.090086863445748,188.6949],[-88.592706782051849,48.0718362875636,231.8385],[-88.591234961416191,48.064182820258168,232.3177],[-88.595356059196035,48.059767358351195,231.3145],[-88.6359783087402,48.034746407545015,202.1224]],
[[-90.409522174708513,47.073647532460114,205.1644],[-90.412024269789143,47.070998255315914,212.4798],[-90.414820728996887,47.067465885790341,230.6259],[-90.410258085026342,47.033614011170187,208.3439],[-90.432776940751921,47.01565779941518,225.7366],[-90.475606921249579,47.002117049567119,180.5],[-90.471780187596863,47.03479146767873,180.5],[-90.4600056225116,47.063639152137625,180.5],[-90.438958587421681,47.08159536389266,180.5],[-90.4079031720093,47.08159536389266,180.5],[-90.4079031720093,47.07659117373143,180.5],[-90.409522174708513,47.073647532460114,205.1644]],
[[-88.085075844813289,48.941976647364811,180.5],[-88.072712551473757,48.95433994070433,180.5],[-88.057405616862908,48.959344130865588,180.5],[-88.032679030183857,48.952573755941557,180.5],[-88.021640375416411,48.937855549584981,180.5],[-88.019727008590053,48.91783878894,180.5],[-88.022670649861382,48.896644571786538,207.2603],[-88.034150850819515,48.906652952109027,205.1785],[-88.049457785430363,48.91518951179583,234.7578],[-88.0660893586133,48.921371158465604,204.3782],[-88.081101929097017,48.923726071482662,201.5734],[-88.089638488783834,48.929613354025292,250.3745],[-88.085075844813289,48.941976647364811,180.5]],
[[-88.086989211639647,48.8265859095292,180.5],[-88.016489003191609,48.856316686369496,180.5],[-87.965858373324963,48.8675025232005,180.5],[-87.772461141799454,48.859260327640811,180.5],[-87.76259994354055,48.856316686369496,180.5],[-87.76259994354055,48.85160686033538,180.5],[-87.764071764176208,48.84836885493695,180.5],[-87.769370318464567,48.841892844140034,180.5],[-87.769370318464567,48.815400072698196,223.7864],[-87.772755505926582,48.795972040307504,285.7973],[-87.784677253075415,48.787141116493558,284.0923],[-87.810434114199438,48.7942058555447,217.498],[-87.809551021818052,48.768596176484266,213.4968],[-87.818234763568427,48.759176524416034,297.7518],[-87.873575219469188,48.760942709178835,237.3965],[-87.897565895830411,48.766241263467208,250.8025],[-87.910370735360644,48.767418719975723,213.8394],[-87.935833232357538,48.765063806958693,259.6175],[-87.982195582380768,48.755938519017604,229.2111],[-87.990879324131157,48.752994877746289,229.5755],[-88.017666459700138,48.736216122499769,222.131],[-88.016489003191609,48.722381008524593,187.8118],[-88.019432644462924,48.714727541219162,220.3305],[-88.026938929704784,48.709134622803674,308.0365],[-88.036947310027259,48.705896617405216,315.3946],[-88.0471028724133,48.7047191608967,304.442],[-88.061085168452053,48.706485345659473,203.4489],[-88.068297089566784,48.712078264074989,181.4623],[-88.085223026876861,48.752700513619146,180.5],[-88.096556045771422,48.796266404434647,180.5],[-88.098322230534208,48.818049349842369,180.5],[-88.086989211639647,48.8265859095292,180.5]],
[[-87.6701696076212,48.747696323457916,243.1742],[-87.693718737791741,48.746224502822258,223.883],[-87.738314903052185,48.752994877746289,225.1196],[-87.750531014328146,48.757115975526119,180.5],[-87.7455268241669,48.765063806958693,180.5],[-87.7343409873359,48.772717274264096,180.5],[-87.728453704793267,48.774189094899754,180.5],[-87.723007968441337,48.7856692958579,230.8193],[-87.725215699394823,48.791556578400531,208.9937],[-87.738314903052185,48.7942058555447,180.5],[-87.743760639404115,48.798032589197419,180.5],[-87.750089468137446,48.807452241265651,180.5],[-87.754946476235119,48.818932442223769,180.5],[-87.75582956861652,48.828352094292,196.5325],[-87.7459683703576,48.839832295250119,180.5],[-87.727717794475438,48.845425213665635,180.5],[-87.70652357732196,48.846013941919892,180.5],[-87.687537091121968,48.841892844140034,180.5],[-87.675909708100264,48.829235186673372,180.5],[-87.65265494205687,48.7942058555447,180.5],[-87.6055566817158,48.760059616797435,180.5],[-87.6701696076212,48.747696323457916,243.1742]],
[[-89.1503796209028,48.248749127969745,237.5433],[-89.138899419944664,48.255225138766633,232.6313],[-89.12933258581289,48.262878606072064,183.3327],[-89.115644653901271,48.271120801631753,180.5],[-89.099454626909022,48.274064442903068,180.5],[-89.064866841971053,48.273475714648782,180.5],[-89.056183100220665,48.264644790834836,202.9802],[-89.04573317370749,48.259346236546463,180.5],[-89.023214317981925,48.252870225749575,180.5],[-89.037343796084244,48.244333666062744,229.1307],[-89.1141728332656,48.213425432713933,277.0673],[-89.125653034223745,48.211953612078275,180.5],[-89.130657224384976,48.215191617476734,180.5],[-89.13521986835552,48.221667628273622,206.1406],[-89.142137425343108,48.22490563367208,189.3884],[-89.153617626301255,48.218135258748049,184.3516],[-89.160535183288843,48.222550720655022,242.9259],[-89.165833737577216,48.226966182561995,258.8101],[-89.170249199484189,48.232559100977483,231.9704],[-89.1740759331369,48.239918204155771,180.5],[-89.1503796209028,48.248749127969745,237.5433]],
[[-87.464556264819734,48.764475078704407,255.566],[-87.4870751205453,48.761237073305978,208.2478],[-87.508710883889478,48.774777823154039,185.3691],[-87.522987544055368,48.800976230468734,180.5],[-87.501940508965447,48.800976230468734,180.5],[-87.447335963382528,48.788024208874958,180.5],[-87.464556264819734,48.764475078704407,255.566]],
[[-90.585257558606131,46.848753339331523,193.6881],[-90.600711675280536,46.84257169266175,197.7002],[-90.627057264658816,46.840805507898949,211.6402],[-90.651783851337882,46.834329497102061,202.5032],[-90.676068891826247,46.820494383126885,207.7592],[-90.68622445421228,46.808425453914481,182.7443],[-90.668121060393688,46.80665926915168,180.5],[-90.681956174368878,46.7901748780323,209.4996],[-90.737149448206068,46.7798721335827,190.335],[-90.781598431402941,46.757206095793549,216.6506],[-90.796316637759531,46.762799014209065,180.5],[-90.797199730140932,46.779577769455557,180.5],[-90.777182969495968,46.800477622481907,180.5],[-90.701089842632442,46.832268948212146,180.5],[-90.689168095483609,46.844632241551665,180.5],[-90.677393530398334,46.853168801238496,180.5],[-90.620286889734786,46.8728911977563,194.5947],[-90.599828582899136,46.875540474900504,180.5],[-90.58393292003403,46.859350447908241,180.5],[-90.585257558606131,46.848753339331523,193.6881]],
[[-84.541814846529377,46.900855789833827,183.846],[-84.528862824935587,46.915868360317546,180.5],[-84.512378433816224,46.922638735241549,180.5],[-84.493980675870489,46.9164570885718,180.5],[-84.476613192369726,46.906448708249314,180.5],[-84.45895134474182,46.905565615867914,180.5],[-84.441583861241057,46.907037436503572,180.5],[-84.42509947012168,46.902916338723742,180.5],[-84.439376130287556,46.896734692053968,180.5],[-84.454388700771275,46.895851599672568,201.5492],[-84.470137181572824,46.896440327926854,180.5],[-84.4866215726922,46.895557235545454,180.5],[-84.532542376524731,46.882310849824535,216.2002],[-84.549321131771237,46.882310849824535,187.9711],[-84.541814846529377,46.900855789833827,183.846]],
[[-90.771001322826208,46.943832952395042,180.5],[-90.764230947902178,46.950308963191929,180.5],[-90.7589323936138,46.9564906098617,180.5],[-90.754516931706831,46.963555348912877,180.5],[-90.750543015990559,46.971797544472537,180.5],[-90.741123363922341,46.967087718438449,180.5],[-90.7231671521673,46.961200435895819,180.5],[-90.71639677724329,46.9573737022431,202.8612],[-90.702267299140956,46.940889311123726,209.9092],[-90.70050111437817,46.930880930801237,241.2746],[-90.710362312637088,46.924110555877206,279.312],[-90.730084709154909,46.9164570885718,246.2261],[-90.740240271540941,46.92617110476715,267.3107],[-90.771001322826208,46.943832952395042,180.5]],
[[-90.530947377150326,46.950014599064815,229.0638],[-90.5418388498542,46.942949860013641,218.201],[-90.551847230176676,46.934707664453953,192.5215],[-90.556557056210792,46.924110555877206,193.9919],[-90.551994412240248,46.909097985393515,198.2361],[-90.566712618596824,46.917928909207461,180.5],[-90.583344191779773,46.922933099368692,214.058],[-90.6013004035348,46.924110555877206,214.8279],[-90.655757767054155,46.921166914605891,180.5],[-90.663852780550286,46.92705419714855,180.5],[-90.6482514818123,46.943832952395042,180.5],[-90.6352994602185,46.949425870810529,180.5],[-90.585404740669688,46.9573737022431,180.5],[-90.5465486758883,46.967087718438449,180.5],[-90.5306530130232,46.965027169548534,209.9798],[-90.530947377150326,46.950014599064815,229.0638]],
[[-90.936581144337765,46.985632658447742,188.8353],[-90.950857804503656,46.972680636853937,201.7127],[-90.967783741813733,46.967676446692707,199.3176],[-90.983973768805967,46.97797919114231,182.1352],[-90.983237858488138,46.987398843210542,180.5],[-90.954390174029243,47.003000141948519,180.5],[-90.943057155134667,47.012714158143865,180.5],[-90.92863331290522,46.9991734082958,180.5],[-90.936581144337765,46.985632658447742,188.8353]]]}}