{"type": "Feature","bbox": [-84.493830392512066,46.344801232268324,-84.072747845559221,46.552811705060009],"geometry": {"type": "Polygon","coordinates": [[[-84.17754148884076,46.351859376275243,173.5],[-84.173211712746721,46.365433775372509,176.1785],[-84.184735150246723,46.376420103497509,189.2016],[-84.203485150246721,46.385331236310009,193.5938],[-84.219720501809221,46.396439634747509,194.2635],[-84.225994915871723,46.408451353497512,202.6353],[-84.238031048684221,46.447025572247512,224.1703],[-84.240155072121723,46.460648619122509,213.4025],[-84.249554486184223,46.471390806622509,196.6392],[-84.267205853371721,46.475419126935009,184.2818],[-84.277386517434223,46.482499205060009,185.6394],[-84.264398236184221,46.502518736310009,183.7066],[-84.249749798684221,46.514725767560009,180.8647],[-84.199212689309221,46.547245298810012,173.5],[-84.181512493996721,46.536625181622512,174.1321],[-84.141961712746721,46.532792173810009,174.7634],[-84.123455853371723,46.525467955060009,177.6238],[-84.128582806496723,46.523636900372509,195.9314],[-84.130853314309221,46.520951353497509,198.0055],[-84.133050579934221,46.517216001935012,188.8984],[-84.147454876809221,46.502030455060009,234.3532],[-84.173455853371721,46.465043150372509,188.0747],[-84.178704876809221,46.454105650372512,173.5],[-84.178949017434221,46.433915220685009,173.5],[-84.177728314309221,46.423221861310012,173.5],[-84.171868939309221,46.413529478497509,173.5],[-84.129193158059223,46.359940611310009,173.5],[-84.120404095559223,46.354203306622509,173.5],[-84.117181439309221,46.348758970685012,188.8638],[-84.117194247832415,46.347157063079024,196.6979],[-84.083343119658977,46.344801232268324,181.3505],[-84.113885540871721,46.370926939435009,202.2352],[-84.117303509621721,46.409427915997512,173.5],[-84.113568158059223,46.411820494122509,173.5],[-84.106366009621723,46.414750181622509,175.6968],[-84.099359173684221,46.419266783185009,179.3924],[-84.096185345559221,46.426468931622509,183.0454],[-84.096429486184221,46.437577330060009,184.4433],[-84.095452923684221,46.442704283185009,181.2324],[-84.087689251809223,46.456132017560009,194.8665],[-84.084759564309223,46.473148619122512,192.1825],[-84.079144329934223,46.481400572247509,179.7492],[-84.072747845559221,46.493534361310012,176.246],[-84.077996868996721,46.503739439435009,172.5],[-84.096185345559221,46.519291197247512,181.8149],[-84.108929486184223,46.538163267560009,199.2269],[-84.115521283059223,46.542240415997512,250.9552],[-84.130365033059221,46.547245298810012,239.2396],[-84.179681439309221,46.552811705060009,184.9145],[-84.219476361184221,46.541996275372512,180.5731],[-84.257684368996721,46.526859556622512,194.0869],[-84.302240033059221,46.519291197247512,229.3319],[-84.316571087746723,46.521439634747509,220.1804],[-84.341717572121723,46.530839048810009,194.4439],[-84.353143353371721,46.532963072247512,189.0018],[-84.364373822121721,46.531815611310009,187.1295],[-84.383221478371723,46.526688658185009,184.6797],[-84.412957806496721,46.524540220685012,192.7082],[-84.433636517434223,46.520829283185009,188.4403],[-84.454583783059221,46.512699400372512,196.6057],[-84.473553509621723,46.498856626935009,208.6704],[-84.467572064309223,46.484696470685009,180.5],[-84.477288861184221,46.479569517560009,200.4954],[-84.493830392512066,46.480504190182579,184.5492],[-84.49043684271804,46.449286925094029,180.5],[-84.490140972146449,46.4464694116338,180.5],[-84.489740033059221,46.446610533185009,180.5],[-84.459881634621723,46.464066587872509,180.5],[-84.422967572121721,46.503055845685012,180.5],[-84.405267376809221,46.512455259747512,202.1596],[-84.382977337746723,46.515751158185012,185.4171],[-84.358685345559223,46.513675962872512,185.3956],[-84.336053509621721,46.506791197247509,174.5],[-84.318719525246721,46.495438658185009,174.5],[-84.280145306496721,46.459476744122512,173.5],[-84.268304486184221,46.432987486310012,185.3667],[-84.236737103371723,46.382157408185009,173.5],[-84.229852337746721,46.374100767560009,173.5],[-84.224528244779037,46.355397730426681,177.5067],[-84.17754148884076,46.351859376275243,173.5]]]}
,"properties": {"featurecla": "Lake","scalerank": 3,"name": "St. Marys River","name_abb": "St. Marys R.","name_alt": "Great Lakes","note": null,"delta": null,"dam_name": null,"year": -99,"admin": "admin-0","min_zoom": 3.0,"min_label": 6.0,"area_km2": 202.0259,"hist_schema_id": "Elevation0-9000","hist_area_km2": {"175": 159.0633,"200": 38.7441,"225": 4.1748,"250": 0.0437}}}