{"type":"Feature","properties":{"featurecla":"River","scalerank":11,"rivernum":20038,"dissolve":"20038River","name":"Goulais1","name_alt":null,"note":"ID is link back to CEC data","name_full":"Goulais River","min_zoom":6.7,"strokeweig":0.2,"uident":1822301,"min_label":7.7},
"geometry":{"type": "LineString","coordinates": [[-84.429269986062067,46.725043035931527,190.4821],[-84.4105525381454,46.735174871869027,191.9796],[-84.379017707416224,46.733710028119027,203.534],[-84.349110480853724,46.7171491557232,201.4185],[-84.3294978506454,46.717840887494027,215.7635],[-84.316354946999567,46.727240301556527,213.8875],[-84.302479621478724,46.743353582806527,270.3875],[-84.2709041006454,46.753851629681527,247.9452],[-84.2118220693954,46.756903387494027,290.5031],[-84.211252407937067,46.756781317181527,290.5031],[-84.162587043353724,46.750189520306527,300.9569],[-84.089955207416224,46.759222723431527,355.8329],[-84.056223111062067,46.786200262494027,248.861],[-84.026966926166224,46.805934963014863,283.5672],[-84.011463996478724,46.841742254681527,315.4364],[-84.0035701162704,46.8834089213482,403.7176],[-83.9916072256454,46.915065822389863,443.5428],[-83.950998501687067,46.949001369264863,527.1211],[-83.928700324603739,46.976019598431527,540.05],[-83.926136848041239,47.007269598431527,415.7701],[-83.910959439187067,47.049505926556527,421.4944],[-83.886789517312067,47.074652410931527,426.9135],[-83.841420051166239,47.086696681764863,515.5316]]}}