{"type":"Feature","properties":{"featurecla":"River","scalerank":11,"rivernum":20046,"dissolve":"20046River","name":"Aubinadong","name_alt":null,"note":"ID is link back to CEC data","name_full":"Aubinadong River","min_zoom":6.7,"strokeweig":0.15,"uident":1818601,"min_label":7.7},
"geometry":{"type": "LineString","coordinates": [[-83.410959439187067,47.519558009889863,470.5622],[-83.394154426166239,47.515204168744027,460.5],[-83.3568416006454,47.496161199994027,446.0],[-83.338978644916239,47.480007228639863,469.1166],[-83.3265681631454,47.460760809369027,468.2455],[-83.332386848041239,47.415716864056527,498.5247],[-83.327381965228739,47.280829168744027,525.4243],[-83.3160701162704,47.2532819682232,528.5703],[-83.291859504291239,47.2115339213482,468.5244]]}}