{"type":"Feature","properties":{"featurecla":"Lake Centerline","scalerank":10,"rivernum":20048,"dissolve":"20048Lake Centerline","name":"Mississagi4","name_alt":null,"note":"ID is link back to CEC data","name_full":"Mississagi River","min_zoom":6.0,"strokeweig":0.2,"uident":1817801,"min_label":7.0},
"geometry":{"type": "LineString","coordinates": [[-82.812977668353739,46.944606838014863,430.7821],[-82.908192512103739,46.939520574994027,404.0],[-83.001942512103739,46.945379949994027,438.7953],[-83.052723762103739,46.935614324994027,443.8877],[-83.103505012103739,46.904364324994027,457.6105],[-83.144520637103739,46.871161199994027,404.0],[-83.1773982412704,46.8585065775982,393.0]]}}