{"type":"Feature","properties":{"featurecla":"River","scalerank":12,"rivernum":20042,"dissolve":"20042River","name":"Batchawana","name_alt":null,"note":"ID is link back to CEC data","name_full":"Batchawana River","min_zoom":7.0,"strokeweig":0.15,"uident":1820301,"min_label":8.0},
"geometry":{"type": "LineString","coordinates": [[-84.035145637103724,47.311835028119027,432.4416],[-84.001088019916224,47.328558660931527,445.8427],[-83.965402798562067,47.338446356244027,427.8005],[-83.930490689187067,47.3416608744732,430.4844],[-83.882069465228739,47.337103582806527,426.4366],[-83.837228970437067,47.3453229838482,436.2371],[-83.794545051166239,47.352118231244027,434.5576],[-83.767445441791239,47.361110744264863,440.9347],[-83.737172004291239,47.371405340619027,487.1798],[-83.699045376687067,47.389675197389863,463.2098]]}}