{"type":"Feature","properties":{"featurecla":"River","scalerank":11,"rivernum":20174,"dissolve":"20174River","name":"Nagagami","name_alt":null,"note":"ID is link back to CEC data","name_full":"Nagagami River","min_zoom":6.7,"strokeweig":0.2,"uident":1761801,"min_label":7.7},
"geometry":{"type": "LineString","coordinates": [[-84.411610480853724,50.410711981244027,103.4874],[-84.399647590228724,50.407294012494027,101.6933],[-84.384592251687067,50.399847723431527,101.2313],[-84.373036262103724,50.383978582806527,88.0016],[-84.363758918353724,50.3240827494732,105.5457],[-84.360666470437067,50.256048895306527,109.6054],[-84.3507380850204,50.2012800150982,111.6],[-84.349598762103724,50.163885809369027,116.5313],[-84.363148566791224,50.137396551556527,124.5276],[-84.381703254291224,50.112819728639863,122.2752],[-84.440785285541224,50.078070379681527,131.4675],[-84.4720759756454,50.032049871869027,132.4622],[-84.494943814187067,49.990668035931527,140.3865],[-84.526356574603724,49.892035223431527,190.9514],[-84.5682673818954,49.792181707806527,244.3053],[-84.586740689187067,49.765895900514863,257.6246],[-84.6261287100204,49.738796291139863,261.209],[-84.664906379291224,49.7183698588482,270.6332],[-84.709462043353724,49.7169050150982,270.0908],[-84.728749152728724,49.705877996869027,267.6985],[-84.749012824603724,49.686468817181527,277.7532],[-84.7745662100204,49.612982489056527,296.3161],[-84.7909236318954,49.578151759889863,298.0673],[-84.8224177725204,49.549017645306527,314.6785],[-84.8409724600204,49.519313869264863,291.0],[-84.864125129291224,49.494899806764863,303.3569],[-84.905384894916224,49.471136785931527,320.3608],[-84.9454646475204,49.459295965619027,312.0768],[-84.9879451162704,49.4490827494732,305.1645],[-85.009144660541224,49.4227155619732,295.0]]}}