{"type":"Feature","properties":{"GID_3":"CAN.11.99.4_1","GID_0":"CAN","country":"Canada","GID_1":"CAN.11_1","province":"Québec","NL_NAME_1":"NA","GID_2":"CAN.11.99_1","county":"Vaudreuil-Soulanges","NL_NAME_2":"NA","city":"L'Île-Perrot","VARNAME_3":"NA","NL_NAME_3":"NA","TYPE_3":"Ville","ENGTYPE_3":"Ville","CC_3":"NA","HASC_3":"NA","name":"L'Île-Perrot.city"},
"geometry":{"type": "MultiPolygon","coordinates": [[[[-73.9426,45.3835,48.8253],[-73.9525,45.3878,49.9836],[-73.9767,45.3928,51.7333],[-73.986,45.4005,20.0],[-73.9855,45.3983,20.0],[-73.9875,45.3975,20.0],[-73.9622,45.3827,68.3928],[-73.961,45.3844,59.3315],[-73.9525,45.3836,57.4484],[-73.9541,45.3732,59.8697],[-73.9462,45.3757,54.0918],[-73.9426,45.3835,48.8253]]]]}}