{"type":"Feature","properties":{"GID_3":"CAN.2.16.2_1","GID_0":"CAN","country":"Canada","GID_1":"CAN.2_1","province":"BritishColumbia","NL_NAME_1":"NA","GID_2":"CAN.2.16_1","county":"KootenayBoundary","NL_NAME_2":"NA","city":"GrandForks","VARNAME_3":"NA","NL_NAME_3":"NA","TYPE_3":"Cité","ENGTYPE_3":"City","CC_3":"NA","HASC_3":"NA","name":"Grand_Forks.city"},
"geometry":{"type": "MultiPolygon","coordinates": [[[[-118.4297,49.0508,760.1203],[-118.4516,49.0521,649.5964],[-118.4517,49.0504,551.3964],[-118.4546,49.0511,591.7961],[-118.4561,49.0483,525.774],[-118.4544,49.0468,534.1378],[-118.4473,49.0468,519.1791],[-118.4482,49.0366,557.1397],[-118.4754,49.0365,530.8995],[-118.4751,49.0153,531.9707],[-118.4611,49.0135,530.5308],[-118.4584,49.0166,521.4924],[-118.4563,49.0161,516.1825],[-118.4563,49.0147,515.8062],[-118.4443,49.0148,524.337],[-118.4453,49.0188,515.2805],[-118.4415,49.0188,523.2932],[-118.4349,49.0224,514.9627],[-118.4305,49.0209,518.6263],[-118.4304,49.0159,522.3784],[-118.4415,49.016,525.1463],[-118.4415,49.0147,524.9229],[-118.4195,49.0147,512.2425],[-118.4196,49.017,512.8995],[-118.423,49.017,517.3984],[-118.422,49.0195,524.6813],[-118.4271,49.0209,520.048],[-118.427,49.0239,514.8238],[-118.4196,49.0224,510.5789],[-118.4195,49.0293,576.9416],[-118.4245,49.0295,549.541],[-118.4247,49.0368,653.3798],[-118.4295,49.0375,603.9543],[-118.4297,49.0508,760.1203]]]]}}