{"type": "Feature","bbox": [-91.661747171526642,51.066402552874081,-91.393139905518993,51.170018725624431],"geometry": {"type": "Polygon","coordinates": [[[-91.661747171526642,51.158244160539141,377.7423],[-91.644821234216565,51.145292138945365,400.0092],[-91.606112351498751,51.132928845605818,382.7878],[-91.578736487675513,51.119976824012042,388.5175],[-91.571966112751483,51.118505003376384,377.0],[-91.567256286717367,51.115266997977926,386.9689],[-91.56549010195458,51.106730438291123,382.0818],[-91.571818930687911,51.093484052570176,384.2118],[-91.57343793338714,51.085830585264773,377.0],[-91.569022471480167,51.082592579866315,380.5168],[-91.507500368909646,51.0899516830446,377.0],[-91.493518072870884,51.084064400501973,386.7209],[-91.4814491436585,51.072878563670969,380.6647],[-91.467908393810433,51.066991281128338,387.2158],[-91.449510635864712,51.076410933196541,385.3012],[-91.433026244745335,51.070229286526796,382.5388],[-91.4094771145748,51.066402552874081,374.3066],[-91.393139905518993,51.070229286526796,392.9278],[-91.397996913616666,51.086419313519031,389.258],[-91.425519959503475,51.11055717194381,397.0016],[-91.429199511092619,51.122626101156214,392.2783],[-91.4146284867996,51.137933035767077,403.1027],[-91.422281954105031,51.150001964979452,385.1295],[-91.4512768206275,51.155594883394969,404.1479],[-91.449510635864712,51.164425807208914,402.949],[-91.466583755238346,51.170018725624431,384.2058],[-91.548858528771646,51.158244160539141,377.0],[-91.6390811337375,51.165014535463172,397.983],[-91.661747171526642,51.158244160539141,377.7423]]]}
,"properties": {"featurecla": "Lake","scalerank": 6,"name": "null33","name_abb": null,"name_alt": null,"note": "_untitled_26","delta": null,"dam_name": null,"year": -99,"admin": null,"min_zoom": 5.0,"min_label": 6.5,"area_km2": 118.30465,"hist_schema_id": "Elevation0-9000","hist_area_km2": {"375": 83.84862,"400": 33.96331,"425": 0.49272}}}