{"type": "Feature","bbox": [-83.1447,42.0128,-82.9674,42.1906],"geometry": {"type": "MultiPolygon","coordinates": [[[[-82.9674,42.1829,187.7669],[-83.107,42.1871,170.0],[-83.1094,42.19,170.0],[-83.1122,42.1906,170.0],[-83.1234,42.1776,170.0],[-83.1332,42.173,170.0],[-83.1323,42.1616,170.0],[-83.1238,42.1328,170.0],[-83.1231,42.1205,170.0],[-83.1262,42.1115,170.0],[-83.1314,42.1039,170.0],[-83.1339,42.0889,170.0],[-83.1447,42.0558,170.0],[-83.1442,42.0405,170.0],[-83.1425,42.0456,170.0],[-83.1081,42.043,170.0],[-83.1063,42.044,170.0],[-83.1031,42.0411,170.0],[-83.0826,42.0342,170.0],[-83.0618,42.0298,170.0],[-83.0608,42.0341,173.388],[-83.0554,42.0393,170.0],[-83.0488,42.0319,171.0211],[-83.0493,42.0275,170.0],[-83.0005,42.0128,170.0],[-82.9981,42.0589,190.0577],[-82.9751,42.0581,187.5241],[-82.9674,42.1829,187.7669]]]]}
,"properties": {"GID_3": "CAN.9.9.1_1","GID_0": "CAN","country": "Canada","GID_1": "CAN.9_1","province": "Ontario","NL_NAME_1": "NA","GID_2": "CAN.9.9_1","county": "Essex","NL_NAME_2": "NA","city": "Amherstburg","VARNAME_3": "NA","NL_NAME_3": "NA","TYPE_3": "Town","ENGTYPE_3": "Town","CC_3": "NA","HASC_3": "NA","name": "Amherstburg.city","area_km2": 219.9262,"hist_schema_id": "Elevation0-9000","hist_area_km2": {"125": 0.2515,"150": 0.283,"175": 209.5756,"200": 9.8162}}}