{"type":"Feature","properties":{"featurecla":"River","scalerank":12,"rivernum":20647,"dissolve":"20647River","name":"Chilko","name_alt":null,"note":"ID is link back to CEC data","name_full":"Chilko River","min_zoom":7.0,"strokeweig":0.2,"uident":1666401,"min_label":8.0},
"geometry":{"type": "LineString","coordinates": [[-124.13385982981205,51.616725978639863,1253.3906],[-124.11945553293705,51.6461042338482,1195.0385],[-124.1095271475204,51.664374090619027,1166.1008],[-124.12401282460372,51.7244733744732,1159.9517],[-124.11766516835372,51.754950262494027,1233.1467],[-124.10285397043705,51.782294012494027,1163.1082],[-124.06354732981205,51.813421942181527,1172.1655],[-124.02643795481205,51.836127020306527,1168.8978],[-123.95372473866622,51.864081121869027,1081.9789],[-123.89574134022872,51.8836530619732,1024.3065],[-123.86359615793705,51.897284246869027,1044.3674],[-123.8251033193954,51.922186590619027,993.9115],[-123.7982478506454,51.9598249369732,1054.8549],[-123.7884822256454,51.9649518900982,1014.3304],[-123.73558509022872,51.992865301556527,980.4644],[-123.7003474600204,52.035711981244027,1049.3926]]}}