{"type":"Feature","properties":{"featurecla":"River","scalerank":12,"rivernum":20693,"dissolve":"20693River","name":"Nazko1","name_alt":null,"note":"ID is link back to CEC data","name_full":"Nazko River","min_zoom":7.0,"strokeweig":0.2,"uident":1646701,"min_label":8.0},
"geometry":{"type": "LineString","coordinates": [[-123.58726966054122,53.148464259889863,856.4229],[-123.56379147043705,53.115423895306527,829.5743],[-123.57689368397872,53.096380926556527,850.6396],[-123.6166072256454,53.071478582806527,979.9472],[-123.62315833241622,53.056219793744027,995.8741],[-123.61851966054122,53.038641668744027,828.9204],[-123.58482825429122,53.012518621869027,916.377],[-123.56126868397872,52.983262436973192,929.6912],[-123.56574459543705,52.937689520306527,845.2321],[-123.58043372304122,52.907416082806527,933.3147],[-123.5821833975204,52.903835353639863,910.4351],[-123.58726966054122,52.874863999473192,847.8188],[-123.55842037668705,52.839789129681527,864.1342],[-123.53661048085372,52.817328192181527,991.7448],[-123.51524817616622,52.812933660931527,1047.0316],[-123.49421139231205,52.808539129681527,1054.5645],[-123.46320553293705,52.790594793744027,997.8144],[-123.45811926991622,52.782741603639863,1095.1962],[-123.44713294179122,52.765651759889863,887.1158],[-123.45433509022872,52.753119207806527,926.9593],[-123.4432673818954,52.716091213014863,1048.322],[-123.41466223866622,52.685126043744027,1091.5881],[-123.39317786366622,52.6380475932232,1008.1313]]}}