{"type":"Feature","properties":{"featurecla":"River","scalerank":11,"rivernum":20657,"dissolve":"20657River","name":"Homathko1","name_alt":null,"note":"ID is link back to CEC data","name_full":"Homathko River","min_zoom":6.7,"strokeweig":0.15,"uident":1664701,"min_label":7.7},
"geometry":{"type": "LineString","coordinates": [[-124.59251868397872,51.818426824994027,1325.5521],[-124.56676184804122,51.824652410931527,1182.066],[-124.53612219960372,51.824733791139863,1043.0068],[-124.52623450429122,51.8201764994732,1010.7185],[-124.50397701731205,51.792792059369027,1083.7015],[-124.4659724600204,51.779974676556527,1025.5701],[-124.4400935537704,51.748114324994027,977.1466],[-124.43382727772872,51.7176374369732,906.8936],[-124.39704342356205,51.672145900514863,886.528],[-124.39167232981205,51.6334089213482,826.5]]}}