{"type":"Feature","properties":{"featurecla":"River","scalerank":10,"rivernum":20673,"dissolve":"20673River","name":"Chilcotin","name_alt":null,"note":"ID is link back to CEC data","name_full":"Chilcotin River","min_zoom":6.0,"strokeweig":0.15,"uident":1653301,"min_label":7.0},
"geometry":{"type": "LineString","coordinates": [[-124.77375240793705,52.816677150514863,1598.5046],[-124.7648005850204,52.806016343223192,1597.8972],[-124.7418513662704,52.790106512494027,1602.8567],[-124.66368567616622,52.772162176556527,1553.9025],[-124.63597571522872,52.757757879681527,1551.0458],[-124.55011959543705,52.700018621869027,1437.3496],[-124.52098548085372,52.676459051556527,1439.5701],[-124.51353919179122,52.671087957806527,1422.7762],[-124.50837154856205,52.653591213014863,1398.9329],[-124.52204342356205,52.624579168744027,1390.6456],[-124.5106501943954,52.610907293744027,1382.7521],[-124.4855037100204,52.599432684369027,1389.3109],[-124.47508704335372,52.594305731244027,1372.5195]]}}