{"type":"Feature","properties":{"featurecla":"Lake Centerline","scalerank":11,"rivernum":20600,"dissolve":"20600Lake Centerline","name":"Homathko2","name_alt":null,"note":"ID is link back to CEC data","name_full":"Homathko River","min_zoom":6.7,"strokeweig":0.2,"uident":1680401,"min_label":7.7},
"geometry":{"type": "LineString","coordinates": [[-124.39167232981205,51.6334089213482,826.5],[-124.39452063710372,51.582098699994027,826.5],[-124.40233313710372,51.544989324994027,826.5],[-124.41600501210372,51.509833074994027,826.5],[-124.42577063710372,51.476629949994027,832.312],[-124.4476619131454,51.458441473431527,826.5]]}}