{"type":"Feature","properties":{"GID_3":"CAN.2.25.37_1","GID_0":"CAN","country":"Canada","GID_1":"CAN.2_1","province":"BritishColumbia","NL_NAME_1":"NA","GID_2":"CAN.2.25_1","county":"Squamish-Lillooet","NL_NAME_2":"NA","city":"Squamish-LillooetB","VARNAME_3":"NA","NL_NAME_3":"NA","TYPE_3":"RegionalDistrictElectoralArea","ENGTYPE_3":"RegionalDistrictElectoralArea","CC_3":"NA","HASC_3":"NA","name":"Squamish-Lillooet_B.city"},
"geometry":{"type": "MultiPolygon","coordinates": [[[[-122.618,51.0813,2239.6436],[-122.6147,51.0676,2283.9626],[-122.5896,51.056399999999996,2734.343],[-122.5876,51.0538,2818.4739],[-122.5889,51.0499,2683.3835],[-122.5864,51.0445,2570.3113],[-122.5724,51.0341,2551.1196],[-122.5783,51.0303,2567.4316],[-122.5944,51.0273,2120.1143],[-122.5958,51.0224,2213.3613],[-122.5885,51.0183,2413.7874],[-122.5878,51.0095,2473.2532],[-122.5366,50.9616,2475.9785],[-122.5019,50.9491,2723.353],[-122.4774,50.9452,2345.0154],[-122.454,50.9439,2397.0898],[-122.4379,50.9389,2567.6753],[-122.4319,50.9329,2514.7612],[-122.4292,50.9033,2231.5737],[-122.4221,50.8962,2295.1323],[-122.3487,50.8552,2475.7554],[-122.327,50.8461,2224.9785],[-122.2951,50.8277,2442.3875],[-122.2875,50.8271,2243.6069],[-122.2736,50.8313,2207.4377],[-122.2593,50.8391,2390.8667],[-122.233,50.859,1516.8625],[-122.2186,50.8647,1214.238],[-122.2073,50.8623,1056.3422],[-122.2044,50.8644,954.8597],[-122.2054,50.867,898.869],[-122.2003,50.868,855.4252],[-122.1905,50.8585,481.7974],[-122.1745,50.8627,438.674],[-122.1691,50.8592,547.498],[-122.1634,50.8587,532.765],[-122.1557,50.8612,404.5422],[-122.1558,50.8571,425.5899],[-122.1483,50.8527,407.1136],[-122.1411,50.8508,428.98],[-122.1393,50.8469,399.7937],[-122.12,50.8367,378.6318],[-122.1154,50.8305,373.9041],[-122.105,50.8257,455.1995],[-122.0878,50.8224,562.386],[-122.0828,50.8175,404.101],[-122.0677,50.8128,386.6825],[-122.0562,50.8121,356.6393],[-122.0486,50.8143,340.4503],[-122.0403,50.814,397.3693],[-122.0371,50.8113,304.1729],[-122.0311,50.8109,343.3242],[-122.0333,50.8224,473.3365],[-122.0229,50.8262,622.6029],[-122.0205,50.8061,539.223],[-122.0134,50.8016,450.6113],[-122.0042,50.8027,601.8475],[-121.9688,50.7886,567.9573],[-121.9574,50.7677,335.9115],[-121.9499,50.7607,454.962],[-121.9438,50.7575,400.0476],[-121.936,50.757,293.1716],[-121.9261,50.7674,372.9873],[-121.9285,50.77,453.8522],[-121.9207,50.7713,471.7568],[-121.9031,50.7673,435.957],[-121.9207,50.7676,364.4589],[-121.9276,50.7647,299.5365],[-121.9329,50.7538,258.9448],[-121.9316,50.7483,204.5437],[-121.9332,50.743,230.4806],[-121.9761,50.7431,1031.3043],[-121.9754,50.7616,541.1263],[-121.99,50.7615,949.8677],[-121.9897,50.779,437.748],[-122.0236,50.7793,1144.6777],[-122.0236,50.7937,519.7414],[-122.043,50.7938,761.6352],[-122.0425,50.8084,550.8791],[-122.065,50.8087,513.9742],[-122.0653,50.8052,747.5259],[-122.1021,50.8054,752.9445],[-122.1023,50.8089,561.6811],[-122.1365,50.8095,1228.7457],[-122.137,50.8325,754.7906],[-122.1617,50.833,1025.6648],[-122.1622,50.8192,1301.4849],[-122.1592,50.8159,1399.9324],[-122.1479,50.8105,1281.1884],[-122.1362,50.7983,1439.4092],[-122.1151,50.7871,1310.1455],[-122.0901,50.7667,1515.3262],[-122.09,50.7637,1587.0916],[-122.0944,50.7639,1686.2601],[-122.0957,50.749,1983.4849],[-122.0986,50.7418,2288.3433],[-122.1165,50.7448,2285.6865],[-122.1284,50.7436,2176.4265],[-122.1716,50.7643,2098.1509],[-122.1861,50.7609,1800.4397],[-122.2253,50.7561,1471.1655],[-122.2623,50.739,977.2054],[-122.3912,50.7546,2124.0444],[-122.4486,50.743899999999996,2185.0669],[-122.4885,50.7396,2327.9956],[-122.5128,50.7316,2202.1304],[-122.5876,50.7019,2444.5596],[-122.592,50.6801,2103.1323],[-122.587,50.6774,2016.531],[-122.5855,50.6694,2133.042],[-122.5869,50.6625,2088.2922],[-122.5817,50.656,2212.6423],[-122.5883,50.652,2072.4971],[-122.5881,50.642,2146.8132],[-122.6072,50.6427,2059.6843],[-122.6105,50.6353,2215.8438],[-122.6079,50.634,2215.8438],[-122.6116,50.6153,1938.2916],[-122.6069,50.6038,1942.5089],[-122.609,50.5995,2094.7202],[-122.5845,50.593,2037.125],[-122.5495,50.5795,2120.7241],[-122.5363,50.5802,1912.9404],[-122.5032,50.5663,757.7698],[-122.478,50.5664,298.7834],[-122.4776,50.5773,575.6976],[-122.4664,50.5778,365.8534],[-122.4665,50.5921,717.9312],[-122.4611,50.5922,631.2363],[-122.4615,50.5976,677.6431],[-122.4566,50.5976,615.6371],[-122.4566,50.6013,651.5455],[-122.4488,50.6013,569.3115],[-122.4484,50.6186,611.0897],[-122.4372,50.6186,478.278],[-122.4374,50.6299,576.5762],[-122.4279,50.6301,258.1258],[-122.4294,50.6284,323.8006],[-122.4317,50.6094,333.6203],[-122.4271,50.601,256.0],[-122.43,50.5978,256.0],[-122.4086,50.5911,580.1283],[-122.4158,50.5822,717.3917],[-122.4268,50.5738,692.5332],[-122.455,50.5611,440.1106],[-122.4498,50.5579,581.2675],[-122.418,50.5525,1742.0461],[-122.4064,50.5455,1835.0803],[-122.3957,50.5425,2091.0215],[-122.3867,50.5364,2129.7344],[-122.3598,50.5242,2338.8311],[-122.3367,50.5204,2340.2957],[-122.3229,50.5079,2284.1323],[-122.3138,50.5075,2256.0444],[-122.3102,50.5015,2227.0349],[-122.3107,50.4947,2355.5413],[-122.2895,50.4812,2272.5906],[-122.2866,50.4752,2162.4468],[-122.2927,50.4695,2274.2866],[-122.3035,50.4628,2263.9497],[-122.3056,50.4543,2211.27],[-122.3023,50.4407,2133.8311],[-122.3041,50.4307,1941.8092],[-122.3145,50.4238,1904.2427],[-122.3357,50.4159,2106.8247],[-122.3551,50.4142,2026.9352],[-122.3711,50.4108,2060.1721],[-122.3965,50.4108,2209.8665],[-122.4067,50.405,2094.6978],[-122.4078,50.399,2306.4194],[-122.4142,50.3981,2273.0964],[-122.4455,50.43,2154.5601],[-122.485,50.4431,2165.249],[-122.4976,50.4442,2291.6875],[-122.5049,50.4407,2392.4023],[-122.5001,50.4305,2146.7759],[-122.4935,50.4253,2180.5903],[-122.4949,50.4198,2133.4707],[-122.5015,50.4212,1953.1091],[-122.5046,50.4171,1892.088],[-122.5168,50.4193,2008.8843],[-122.5247,50.4144,2321.2871],[-122.5254,50.4095,2342.6235],[-122.5228,50.4069,2375.8418],[-122.5227,50.3995,2450.6196],[-122.5269,50.39,2164.061],[-122.5166,50.3874,1955.645],[-122.4988,50.3927,1683.7625],[-122.4865,50.3905,1705.2178],[-122.4768,50.3835,1301.3918],[-122.4718,50.3715,1503.5198],[-122.4703,50.3584,2010.188],[-122.4622,50.351,2193.4136],[-122.4385,50.3352,2206.0344],[-122.4078,50.3327,2062.6436],[-122.3849,50.3185,2336.9126],[-122.3662,50.3113,2147.8589],[-122.3604,50.2917,1791.1073],[-122.3574,50.2872,1958.0013],[-122.3634,50.282,2137.9731],[-122.3712,50.2707,2324.0791],[-122.3735,50.2614,2206.7029],[-122.3608,50.2576,2201.7808],[-122.3469,50.2504,2225.8545],[-122.3514,50.2465,1944.7401],[-122.3578,50.2352,2332.6655],[-122.3534,50.2307,2293.3369],[-122.3148,50.2284,2367.7695],[-122.3016,50.2295,2377.5083],[-122.3005,50.2334,2298.1099],[-122.2971,50.2355,2266.8901],[-122.2956,50.2386,2197.0322],[-122.3031,50.2483,2153.4473],[-122.2995,50.2517,2120.4624],[-122.2892,50.2553,2092.8782],[-122.2773,50.2567,2392.6653],[-122.2719,50.2601,2527.3289],[-122.2628,50.2587,2360.5586],[-122.2584,50.2641,2083.2925],[-122.2474,50.2711,1959.8459],[-122.2399,50.2744,2081.4055],[-122.2344,50.2749,2271.1875],[-122.2371,50.2804,2216.2878],[-122.236,50.2825,2197.6582],[-122.2369,50.2866,2125.676],[-122.2464,50.2915,2207.2778],[-122.2487,50.2964,2175.7205],[-122.2491,50.3054,2180.9443],[-122.237,50.3119,2331.8997],[-122.2384,50.3143,2338.8823],[-122.2435,50.3165,2338.3623],[-122.2416,50.3221,2225.592],[-122.2339,50.3245,2095.3406],[-122.2149,50.3258,2409.3838],[-122.2134,50.3327,2483.0938],[-122.2044,50.3347,2267.1392],[-122.2009,50.3379,2359.4727],[-122.1917,50.3392,2082.6296],[-122.1808,50.3347,2277.9136],[-122.1719,50.3354,2358.6426],[-122.1669,50.3464,2310.0762],[-122.1538,50.3501,2267.2354],[-122.1524,50.3515,2284.4929],[-122.1534,50.354,2424.8188],[-122.1504,50.3577,2240.7166],[-122.1448,50.3603,2258.0435],[-122.1507,50.3684,2343.689],[-122.1625,50.3712,2388.6553],[-122.1635,50.3727,2459.1123],[-122.1542,50.3762,2222.2217],[-122.1545,50.3797,2220.0051],[-122.1502,50.3844,2349.2771],[-122.1435,50.3848,2315.0503],[-122.1395,50.387,2426.2266],[-122.1405,50.389,2400.3325],[-122.1375,50.3937,2357.3818],[-122.1389,50.3972,2372.8193],[-122.1295,50.4001,2416.1848],[-122.132,50.4056,2418.356],[-122.1273,50.4082,2415.1611],[-122.1231,50.4131,2316.325],[-122.1178,50.4153,2424.9321],[-122.1186,50.4181,2287.3484],[-122.1306,50.4268,2486.0342],[-122.1308,50.4284,2530.2451],[-122.1255,50.4309,2661.6609],[-122.1185,50.4328,2650.0957],[-122.1076,50.4304,2448.9341],[-122.1035,50.4325,2333.5115],[-122.0924,50.4333,2332.2354],[-122.0835,50.4309,2339.6843],[-122.0723,50.4254,2258.7734],[-122.0607,50.4258,2462.7607],[-122.054,50.4296,2400.6453],[-122.0456,50.4312,2518.5422],[-122.0419,50.4208,2337.9128],[-122.0229,50.4165,2363.1885],[-122.0193,50.4144,2450.0317],[-122.0144,50.4145,2405.8289],[-122.0107,50.4122,2303.6785],[-121.9898,50.4163,2269.5989],[-121.9677,50.4175,2301.2739],[-121.9643,50.4136,2175.6106],[-121.9663,50.4109,2102.2744],[-121.9654,50.4075,2119.0278],[-121.9543,50.4015,2251.241],[-121.9488,50.4059,2064.916],[-121.942,50.4053,2013.5106],[-121.9285,50.4083,2134.6072],[-121.9257,50.4108,2079.2771],[-121.9264,50.4145,2113.29],[-121.9212,50.4161,2111.1042],[-121.9187,50.4193,2178.5425],[-121.9043,50.4208,2304.6589],[-121.8823,50.4195,2109.4919],[-121.8696,50.4227,2141.5239],[-121.8637,50.4293,2362.8669],[-121.8675,50.4369,2262.6736],[-121.8542,50.4502,2611.7778],[-121.8567,50.4529,2487.7285],[-121.8584,50.4584,2462.5674],[-121.8616,50.4612,2520.8247],[-121.8541,50.4722,2397.7632],[-121.8404,50.4788,2329.8599],[-121.8384,50.4856,2404.7834],[-121.831,50.4882,2480.1509],[-121.8237,50.504,2119.2764],[-121.8057,50.5178,1508.8861],[-121.7832,50.5174,845.1567],[-121.7831,50.5309,338.8173],[-121.8034,50.5317,919.7184],[-121.8025,50.555,200.3639],[-121.7657,50.5544,613.3802],[-121.7656,50.5467,514.3766],[-121.7612,50.5467,437.2313],[-121.7611,50.5758,1101.7589],[-121.7656,50.5758,1033.4702],[-121.765,50.7506,1896.665],[-121.7426,50.7507,2006.7358],[-121.742,50.794,1741.7906],[-121.7198,50.794,1939.1086],[-121.7191,50.838,1272.6847],[-121.6957,50.8383,959.463],[-121.6955,50.853,1735.2018],[-121.6716,50.8531,1659.3169],[-121.6722,50.8818,1861.4122],[-121.6485,50.882,1678.9022],[-121.6483,50.8959,1530.7002],[-121.625,50.8963,1440.7529],[-121.6269,50.9965,1818.1615],[-121.8446,50.9978,1288.5397],[-121.9151,50.9968,288.389],[-121.9142,50.987,279.6739],[-122.1656,50.9902,1611.3696],[-122.1522,50.9993,1916.4158],[-122.1445,50.9993,1938.3014],[-122.142,51.0075,1959.3145],[-122.1444,51.0148,1945.2668],[-122.1607,51.0209,2043.4865],[-122.1697,51.0199,1997.0565],[-122.1756,51.0162,2082.1445],[-122.1973,51.0183,2071.3855],[-122.2716,51.0376,1917.5121],[-122.3064,51.0444,1909.1304],[-122.3012,51.0618,1886.5166],[-122.3273,51.0613,1982.2633],[-122.3446,51.0667,1997.7889],[-122.3583,51.0746,1984.3043],[-122.3642,51.0881,1919.4133],[-122.3762,51.1071,2054.45],[-122.3869,51.1106,2108.6597],[-122.4294,51.1124,2113.458],[-122.4409,51.111,2139.084],[-122.454,51.1117,2194.584],[-122.4651,51.1143,2042.0879],[-122.4775,51.1259,1949.9183],[-122.4787,51.1323,2082.6831],[-122.4756,51.1394,2167.1726],[-122.4685,51.1432,2067.2817],[-122.4605,51.1519,2135.3462],[-122.4704,51.1565,2054.0979],[-122.507,51.1877,2025.3313],[-122.5094,51.1962,2190.4519],[-122.5137,51.2041,2175.3638],[-122.5211,51.2092,2101.228],[-122.5291,51.209,2268.5925],[-122.5464,51.2016,2335.2173],[-122.5512,51.191,2141.1301],[-122.557,51.1843,2020.5812],[-122.5671,51.1788,1964.5485],[-122.5888,51.1766,2042.4287],[-122.5932,51.1733,2070.8074],[-122.5929,51.1664,2020.0225],[-122.6017,51.1425,2134.1152],[-122.5959,51.1326,2024.1783],[-122.586,51.1276,1830.6729],[-122.5862,51.1223,1699.4811],[-122.5905,51.1224,1708.4182],[-122.5953,51.1182,1767.1875],[-122.5935,51.1133,1840.2307],[-122.592,51.112,1883.537],[-122.5804,51.1103,1902.2606],[-122.5823,51.1054,1947.6355],[-122.579,51.1034,1945.9012],[-122.5869,51.0962,1874.8484],[-122.6038,51.0863,2053.697],[-122.618,51.0813,2239.6436]],
[[-121.7985,50.6516,950.7756],[-121.7986,50.6487,928.9619],[-121.7946,50.6487,1006.0106],[-121.7964,50.6178,884.9547],[-121.7985,50.6163,874.645],[-121.8048,50.6164,1072.5059],[-121.8031,50.6487,943.3369],[-121.8095,50.6489,1106.0134],[-121.8093,50.6555,1006.3818],[-121.7985,50.6556,998.9457],[-121.7985,50.6516,950.7756]],
[[-121.8553,50.7417,461.4739],[-121.8554,50.728,586.1049],[-121.8636,50.7279,628.1427],[-121.8638,50.7321,540.9539],[-121.8691,50.732,714.1118],[-121.8688,50.7394,408.5276],[-121.8712,50.7424,398.1903],[-121.8553,50.7417,461.4739]],
[[-121.9158,50.7632,334.8526],[-121.9158,50.7583,438.24],[-121.9129,50.7585,463.9909],[-121.9131,50.755,598.4909],[-121.9309,50.7552,202.5361],[-121.9238,50.7629,208.8291],[-121.9181,50.7646,218.1546],[-121.9158,50.7645,228.3222],[-121.9158,50.7632,334.8526]],
[[-121.9058,50.7217,529.1505],[-121.9058,50.7204,545.1788],[-121.9034,50.7202,643.2986],[-121.9036,50.708,511.7787],[-121.8981,50.7078,632.9187],[-121.8985,50.7007,381.0934],[-121.8814,50.7,941.593],[-121.8829,50.6809,429.2888],[-121.8771,50.6808,553.146],[-121.8772,50.6772,485.5221],[-121.8748,50.6772,585.5582],[-121.8752,50.6629,423.1583],[-121.8638,50.6628,985.7645],[-121.864,50.6489,869.5283],[-121.8779,50.648,339.5586],[-121.8853,50.6495,196.1158],[-121.8841,50.6487,193.8638],[-121.8926,50.6484,212.6995],[-121.8924,50.6466,293.3145],[-121.8984,50.6463,359.6556],[-121.8984,50.6435,396.2058],[-121.9239,50.6437,943.2553],[-121.9232,50.6551,498.4381],[-121.9341,50.6552,778.7328],[-121.9342,50.6624,520.3049],[-121.9454,50.6625,725.784],[-121.9463,50.6671,405.2529],[-121.9695,50.6672,272.3053],[-121.9694,50.6635,816.6006],[-121.9755,50.6633,488.6191],[-121.9754,50.6599,470.1845],[-121.9783,50.6599,300.3669],[-121.9785,50.6562,393.4208],[-121.9954,50.6563,333.7004],[-121.9956,50.6652,269.367],[-121.9973,50.6661,237.0],[-121.9907,50.6677,237.0],[-121.9934,50.669,237.0],[-121.9902,50.6709,297.6517],[-121.9755,50.6711,242.0249],[-121.9753,50.6742,494.739],[-121.964,50.6743,518.7822],[-121.964,50.6722,406.5445],[-121.9543,50.6721,281.4589],[-121.9532,50.6923,487.3915],[-121.9622,50.6926,597.8042],[-121.9624,50.6963,601.3676],[-121.968,50.6964,727.0432],[-121.9674,50.7089,943.046],[-121.9568,50.7088,1080.7456],[-121.9565,50.7016,740.149],[-121.9508,50.7015,704.1072],[-121.951,50.6944,506.2662],[-121.9427,50.6944,341.7569],[-121.9379,50.6978,374.5212],[-121.9378,50.6998,427.7246],[-121.9349,50.6998,427.7246],[-121.935,50.7044,626.8018],[-121.9283,50.7044,289.5154],[-121.9283,50.7086,327.1708],[-121.9339,50.7087,581.3481],[-121.9326,50.734,299.7617],[-121.9347,50.734,356.913],[-121.9347,50.7378,348.0995],[-121.9273,50.7382,363.0918],[-121.9152,50.7191,236.6534],[-121.9119,50.7189,320.4388],[-121.9145,50.7228,305.0912],[-121.9059,50.7227,609.3714],[-121.9058,50.7217,529.1505]],
[[-121.807,50.6843,885.0448],[-121.8108,50.6843,882.0243],[-121.8106,50.689,879.7888],[-121.8023,50.6889,974.6647],[-121.8023,50.6843,1065.8817],[-121.807,50.6843,885.0448]],
[[-121.8392,50.7892,516.5358],[-121.8379,50.7892,596.4658],[-121.8378,50.7822,516.0066],[-121.8292,50.7823,802.9407],[-121.8293,50.7658,515.4171],[-121.8459,50.7658,226.7935],[-121.8552,50.7894,272.4649],[-121.8392,50.7892,516.5358]],
[[-121.8331,50.7045,756.3355],[-121.8392,50.705,813.2994],[-121.8387,50.709,774.9163],[-121.8323,50.7087,818.0051],[-121.8331,50.7045,756.3355]],
[[-122.2803,50.7064,250.9121],[-122.2801,50.7137,294.2954],[-122.2841,50.7138,417.2903],[-122.2841,50.7102,253.562],[-122.3013,50.7105,458.2126],[-122.3015,50.7064,304.6009],[-122.309,50.7064,416.0867],[-122.3101,50.7083,573.4188],[-122.3099,50.7252,1104.9829],[-122.2802,50.7251,532.1645],[-122.2803,50.7289,892.0941],[-122.2425,50.7282,238.6773],[-122.2468,50.7185,237.0],[-122.2688,50.7126,237.0],[-122.2735,50.7083,240.311],[-122.2707,50.7062,246.3255],[-122.2753,50.7063,257.7181],[-122.2754,50.7029,302.2881],[-122.285,50.7028,303.0592],[-122.2848,50.7065,257.7008],[-122.2803,50.7064,250.9121]],
[[-122.293,50.7004,376.5757],[-122.3015,50.7006,274.9402],[-122.3016,50.7059,304.6009],[-122.2928,50.7057,261.7704],[-122.293,50.7004,376.5757]],
[[-121.8649,50.8974,254.0573],[-121.8161,50.8976,1136.9885],[-121.8158,50.8814,804.3259],[-121.8226,50.8813,777.1442],[-121.8227,50.8829,754.4022],[-121.8317,50.8809,731.9213],[-121.8381,50.8711,679.5677],[-121.8443,50.868,619.2068],[-121.8577,50.8665,556.776],[-121.8688,50.8686,352.4189],[-121.8635,50.8832,286.9087],[-121.8644,50.8921,299.8298],[-121.8682,50.8977,254.0573],[-121.8649,50.8974,254.0573]],
[[-122.2318,50.7357,513.3513],[-122.2276,50.7357,506.6628],[-122.2272,50.7499,1245.6506],[-122.173,50.7499,1594.0906],[-122.1731,50.7186,237.0],[-122.1937,50.7257,264.0324],[-122.2028,50.7248,237.0],[-122.2225,50.7266,237.0],[-122.2257,50.73,257.3534],[-122.2358,50.7309,295.2441],[-122.2355,50.7357,586.994],[-122.2318,50.7357,513.3513]],
[[-121.8509,50.5923,226.0837],[-121.8509,50.587,323.2546],[-121.8457,50.5871,181.2271],[-121.8456,50.5798,289.3929],[-121.8572,50.58,672.2793],[-121.8566,50.5924,279.836],[-121.8509,50.5923,226.0837]]],
[[[-121.8385,50.7815,453.2192],[-121.839,50.7671,414.5598],[-121.8329,50.7669,465.4659],[-121.8323,50.7813,642.2778],[-121.8385,50.7815,453.2192]]]]}}