{"type": "Feature","bbox": [-119.4611,50.2088,-119.2776,50.4162],"geometry": {"type": "MultiPolygon","coordinates": [[[[-119.4611,50.2088,339.0],[-119.4402,50.2247,345.4728],[-119.4405,50.2293,348.2989],[-119.443,50.2301,355.3513],[-119.4492,50.2419,345.7683],[-119.4496,50.2472,342.8256],[-119.4396,50.2668,339.0],[-119.4358,50.2692,341.2766],[-119.4205,50.2692,339.0],[-119.4141,50.2729,339.8209],[-119.4034,50.2737,339.0],[-119.3927,50.2882,343.2292],[-119.3931,50.2928,339.0],[-119.3832,50.2998,339.0],[-119.3764,50.3005,339.0],[-119.3748,50.3074,346.2278],[-119.3707,50.3095,339.0],[-119.3719,50.3132,345.8309],[-119.3635,50.3203,339.0],[-119.358,50.3215,339.0],[-119.3456,50.3302,339.0],[-119.3398,50.3314,339.0],[-119.3313,50.3302,339.0],[-119.3284,50.3356,340.0267],[-119.3288,50.3395,345.9835],[-119.3197,50.3461,339.0],[-119.3158,50.3465,339.0],[-119.312,50.3443,339.0],[-119.307,50.3352,345.609],[-119.3106,50.3305,346.0146],[-119.3191,50.3257,340.8395],[-119.3457,50.3055,367.1903],[-119.3526,50.3041,340.6509],[-119.3594,50.2936,345.6221],[-119.3746,50.2817,345.8465],[-119.3826,50.2797,343.3576],[-119.3928,50.2679,349.5922],[-119.4048,50.2598,407.6194],[-119.4128,50.2573,411.186],[-119.4174,50.2529,401.8593],[-119.3805,50.253,624.6458],[-119.3796,50.2594,652.1089],[-119.3523,50.26,644.489],[-119.3517,50.2743,716.2461],[-119.3311,50.2747,769.4221],[-119.3299,50.2891,689.8613],[-119.3062,50.2894,686.6295],[-119.3064,50.3029,725.0927],[-119.2827,50.3033,503.1864],[-119.2836,50.3092,511.7332],[-119.2859,50.3105,508.12],[-119.2868,50.3153,504.5642],[-119.2839,50.3228,502.4106],[-119.2819,50.3222,497.5293],[-119.279,50.326,502.8894],[-119.2776,50.3515,400.6919],[-119.2853,50.3519,349.7446],[-119.2822,50.3545,349.4808],[-119.2842,50.3546,354.7564],[-119.2842,50.3584,357.0954],[-119.291,50.3586,364.5027],[-119.2904,50.3692,351.4034],[-119.3059,50.3694,373.1925],[-119.3084,50.4051,517.1924],[-119.3191,50.4051,472.6022],[-119.3178,50.4162,491.3522],[-119.3524,50.4162,881.1445],[-119.3522,50.4051,741.8922],[-119.3416,50.4047,628.6234],[-119.3421,50.3467,515.1336],[-119.3529,50.3468,804.2],[-119.3528,50.3393,632.0872],[-119.3693,50.3391,926.3339],[-119.3695,50.3324,626.8681],[-119.3801,50.3325,873.5494],[-119.3808,50.325,639.6628],[-119.3859,50.3251,772.3017],[-119.3864,50.3212,685.4567],[-119.3917,50.3212,745.3749],[-119.3917,50.3178,645.6649],[-119.4031,50.318,775.6802],[-119.4032,50.3143,737.9554],[-119.4486,50.3143,529.5436],[-119.4493,50.2746,524.65],[-119.4541,50.2746,604.9222],[-119.4542,50.2602,551.2573],[-119.459,50.2602,616.9528],[-119.4611,50.2088,339.0]]]]}
,"properties": {"GID_3": "CAN.2.19.12_1","GID_0": "CAN","country": "Canada","GID_1": "CAN.2_1","province": "BritishColumbia","NL_NAME_1": "NA","GID_2": "CAN.2.19_1","county": "NorthOkanagan","NL_NAME_2": "NA","city": "Okanagan(Part)1","VARNAME_3": "NA","NL_NAME_3": "NA","TYPE_3": "RéserveIndienne","ENGTYPE_3": "IndianReserve","CC_3": "NA","HASC_3": "NA","name": "Okanagan(Part)1.city","area_km2": 91.00661,"hist_schema_id": "Elevation0-9000","hist_area_km2": {"350": 19.48622,"375": 8.13767,"400": 4.00811,"425": 3.48056,"450": 3.5744,"475": 5.65619,"500": 5.23863,"525": 6.64719,"550": 5.07676,"575": 3.43851,"600": 3.18043,"625": 4.43929,"650": 4.35912,"675": 4.49375,"700": 3.58826,"725": 2.42438,"750": 1.70609,"775": 1.08316,"800": 0.47372,"825": 0.24348,"850": 0.13536,"875": 0.10826,"900": 0.02706}}}