{"type": "Feature","bbox": [-53.2527,47.6294,-53.2108,47.6452],"geometry": {"type": "MultiPolygon","coordinates": [[[[-53.2108,47.6407,14.3973],[-53.2174,47.6452,66.5353],[-53.2359,47.641,145.1762],[-53.2527,47.6323,136.2902],[-53.2437,47.6294,14.95],[-53.2264,47.6361,10.4044],[-53.2175,47.6372,16.9422],[-53.2108,47.6407,14.3973]]]]}
,"properties": {"GID_3": "CAN.5.3.10_1","GID_0": "CAN","country": "Canada","GID_1": "CAN.5_1","province": "NewfoundlandandLabrador","NL_NAME_1": "NA","GID_2": "CAN.5.3_1","county": "DivisionNo.1","NL_NAME_2": "NA","city": "Bishop'sCove","VARNAME_3": "NA","NL_NAME_3": "NA","TYPE_3": "Town","ENGTYPE_3": "Town","CC_3": "NA","HASC_3": "NA","name": "Bishop's_Cove.city","area_km2": 2.214394,"hist_schema_id": "Elevation0-9000","hist_area_km2": {"0": 0.157155,"25": 0.314306,"50": 0.37144,"75": 0.371446,"100": 0.45716,"125": 0.414314,"150": 0.128573}}}