{"type":"Feature","properties":{"featurecla":"River","scalerank":12,"rivernum":21043,"dissolve":"21043River","name":"Aigneau2","name_alt":null,"note":"ID is link back to CEC data","name_full":"Rivire Aigneau","min_zoom":7.0,"strokeweig":0.2,"uident":1466901,"min_label":8.0},
"geometry":{"type": "LineString","coordinates": [[-69.953439907937067,57.570013739056527,63.9029],[-69.958851691791239,57.558457749473192,58.3642],[-69.9217830068954,57.482001043744027,119.7638],[-69.9293513662704,57.445339259889863,186.6199],[-69.966908332416239,57.388983465619027,169.5221],[-70.0143123037704,57.333685614056527,287.6985],[-70.066354946999567,57.300075588014863,246.9782],[-70.099436001687067,57.293036199994027,242.485],[-70.131296353249567,57.287217515098192,250.0001]]}}