{"type":"Feature","properties":{"featurecla":"River","scalerank":12,"rivernum":21235,"dissolve":"21235River","name":"null520","name_alt":null,"note":"ID is link back to CEC data","name_full":null,"min_zoom":7.0,"strokeweig":0.2,"uident":1406201,"min_label":8.0},
"geometry":{"type": "LineString","coordinates": [[-75.293080207416239,60.548366603639863,178.6352],[-75.2919001943954,60.578314520306527,192.4415],[-75.314808723041239,60.600205796348192,207.5837],[-75.304554816791239,60.616034246869027,201.3968],[-75.272816535541239,60.626654364056527,212.79],[-75.210194465228739,60.641180731244027,207.5676],[-75.108754035541239,60.666042384889863,264.856],[-75.017567512103739,60.644069728639863,253.137]]}}