{"type":"Feature","properties":{"featurecla":"Lake Centerline","scalerank":12,"rivernum":21215,"dissolve":"21215Lake Centerline","name":"null1113","name_alt":null,"note":"ID is link back to CEC data","name_full":null,"min_zoom":7.0,"strokeweig":0.2,"uident":1411401,"min_label":8.0},
"geometry":{"type": "LineString","coordinates": [[-75.293080207416239,60.548366603639863,178.6352],[-75.330067512103739,60.531317449994027,175.7664],[-75.365223762103739,60.521551824994027,203.5721],[-75.455067512103739,60.478583074994027,190.0954],[-75.457020637103739,60.461004949994027,155.5],[-75.437489387103739,60.445379949994027,166.9713],[-75.398426887103739,60.439520574994027,155.5],[-75.3705134756454,60.417303778119027,155.5]]}}