{"type":"Feature","properties":{"featurecla":"Lake Centerline","scalerank":12,"rivernum":21282,"dissolve":"21282Lake Centerline","name":"null1123","name_alt":null,"note":"ID is link back to CEC data","name_full":null,"min_zoom":7.0,"strokeweig":0.2,"uident":1387201,"min_label":8.0},
"geometry":{"type": "LineString","coordinates": [[-70.176014777728739,60.363470770306527,130.9001],[-70.263010220437067,60.359442449994027,127.9086],[-70.4010310537704,60.362005926556527,126.5],[-70.4322810537704,60.377630926556527,126.5],[-70.479196743874567,60.411485093223192,147.1853],[-70.4869685537704,60.432318426556527,126.5],[-70.467396613666239,60.450222072389863,134.2255]]}}