{"type":"Feature","properties":{"featurecla":"River","scalerank":11,"rivernum":20623,"dissolve":"20623River","name":"Roggan","name_alt":null,"note":"ID is link back to CEC data","name_full":"Rivire Roggan","min_zoom":6.7,"strokeweig":0.15,"uident":1597901,"min_label":7.7},
"geometry":{"type": "LineString","coordinates": [[-77.248768683978739,54.230780340619027,191.38],[-77.1231990225204,54.216376043744027,198.3553],[-77.075306769916239,54.198919989056527,219.735],[-77.061634894916239,54.176459051556527,203.6485],[-77.039621548562067,54.161891994264863,242.4168],[-76.998646613666239,54.150336004681527,205.578]]}}