{"type":"Feature","properties":{"featurecla":"River","scalerank":12,"rivernum":20974,"dissolve":"20974River","name":"Chteauguay1","name_alt":null,"note":"ID is link back to CEC data","name_full":"Rivire Chteauguay","min_zoom":7.0,"strokeweig":0.2,"uident":1487401,"min_label":8.0},
"geometry":{"type": "LineString","coordinates": [[-70.0565486318954,56.491481838014863,343.4771],[-69.9989314443954,56.501572983848192,345.9722],[-69.934803840228739,56.523138739056527,367.7551],[-69.826975064187067,56.582220770306527,352.3866],[-69.768625454812067,56.604763088014863,332.6736],[-69.7284236318954,56.612372137494027,357.0172],[-69.684641079812067,56.602972723431527,311.9782],[-69.6566462881454,56.594671942181527,321.4159],[-69.595082160541239,56.590765692181527,280.3831],[-69.568348762103739,56.590765692181527,278.7336],[-69.542795376687067,56.607489324994027,221.3504],[-69.490915493874567,56.632513739056527,249.1757],[-69.423939582416239,56.643744207806527,282.6732],[-69.332142707416239,56.661566473431527,205.0587],[-69.257679816791239,56.681260483848192,145.0093],[-69.174387173562067,56.697129624473192,119.0327],[-69.1483455068954,56.697577215619027,117.1125]]}}