{"type":"Feature","properties":{"featurecla":"River","scalerank":12,"rivernum":21080,"dissolve":"21080River","name":"null457","name_alt":null,"note":"ID is link back to CEC data","name_full":null,"min_zoom":7.0,"strokeweig":0.15,"uident":1455401,"min_label":8.0},
"geometry":{"type": "LineString","coordinates": [[-64.365834113666239,56.436590887494027,555.5098],[-64.273996548562067,56.458522853639863,431.3261],[-64.234608527728739,56.467840887494027,426.0],[-64.167347785541239,56.483018296348192,475.344],[-64.147287564187067,56.498643296348192,515.0632],[-64.144642707416239,56.512762762494027,489.9626],[-64.172596808978739,56.539740301556527,479.3406],[-64.227528449603739,56.571234442181527,491.8224],[-64.2311091787704,56.580918686973192,502.1955],[-64.217640754291239,56.594549871869027,527.9465],[-64.186146613666239,56.609808660931527,490.8179]]}}