{"type":"Feature","properties":{"featurecla":"River","scalerank":12,"rivernum":20984,"dissolve":"20984River","name":"Aigneau1","name_alt":null,"note":"ID is link back to CEC data","name_full":"Rivire Aigneau","min_zoom":7.0,"strokeweig":0.2,"uident":1484401,"min_label":8.0},
"geometry":{"type": "LineString","coordinates": [[-70.158436652728739,57.168768621869027,241.8008],[-70.167591926166239,57.139512436973192,242.468],[-70.133371548562067,57.127956447389863,258.6024],[-70.113636848041239,57.121201890098192,250.3717],[-70.114328579812067,57.088446356244027,265.2494],[-70.101755337624567,57.048610744264863,259.7497],[-70.078928189187067,57.013942775514863,264.1935],[-70.053537564187067,57.006048895306527,254.3033],[-70.026682095437067,56.989040431764863,315.7824],[-70.043283657937067,56.959336655723192,300.0695],[-70.052072720437067,56.914007879681527,290.3091],[-70.067250129291239,56.898504949994027,329.4087],[-70.1092830068954,56.882025457806527,347.4538]]}}