{"type":"Feature","properties":{"featurecla":"River","scalerank":12,"rivernum":20612,"dissolve":"20612River","name":"null318","name_alt":null,"note":"ID is link back to CEC data","name_full":null,"min_zoom":7.0,"strokeweig":0.2,"uident":2181001,"min_label":8.0},
"geometry":{"type": "LineString","coordinates": [[-74.824452277728739,53.497910874473192,255.6779],[-74.818837043353739,53.515692449994027,277.3427],[-74.794422980853739,53.537787176556527,255.0519],[-74.803293423562067,53.548285223431527,269.1571],[-74.800770637103739,53.566473699994027,261.6037],[-74.792958137103739,53.582098699994027,267.9679],[-74.781320767312067,53.600165106244027,294.8626]]}}