{"type":"Feature","properties":{"featurecla":"River","scalerank":12,"rivernum":20769,"dissolve":"20769River","name":"null362","name_alt":null,"note":"ID is link back to CEC data","name_full":null,"min_zoom":7.0,"strokeweig":0.2,"uident":1546601,"min_label":8.0},
"geometry":{"type": "LineString","coordinates": [[-73.423776821999567,54.927761134889863,386.0],[-73.406605598041239,54.909002996869027,395.8265],[-73.397084113666239,54.895290431764863,400.6932],[-73.370432095437067,54.879095770306527,389.5977],[-73.3356013662704,54.874090887494027,393.9794],[-73.304676887103739,54.874863999473192,434.2285],[-73.245472785541239,54.891180731244027,399.0522],[-73.187082486062067,54.898627020306527,394.8623],[-73.143625454812067,54.892279364056527,399.8413],[-73.1271052725204,54.881048895306527,389.0],[-73.1307673818954,54.858587957806527,392.9055],[-73.109120246478739,54.837713934369027,397.3545],[-73.077504035541239,54.825995184369027,398.4781],[-73.0367732412704,54.833604233848192,395.5426]]}}