{"type":"Feature","properties":{"featurecla":"Lake Centerline","scalerank":12,"rivernum":21067,"dissolve":"21067Lake Centerline","name":"null1322","name_alt":null,"note":"ID is link back to CEC data","name_full":null,"min_zoom":7.0,"strokeweig":0.2,"uident":1457701,"min_label":8.0},
"geometry":{"type": "LineString","coordinates": [[-64.155344204812067,56.133124090619027,432.1853],[-64.162098762103739,56.107489324994027,428.6935],[-64.189442512103739,56.070379949994027,424.5],[-64.212880012103739,56.037176824994027,424.5],[-64.251942512103739,55.994208074994027,422.5],[-64.267567512103739,55.980536199994027,422.5],[-64.296864387103739,55.974676824994027,422.5],[-64.359364387103739,55.988348699994027,415.6613],[-64.402333137103739,56.003973699994027,413.5],[-64.462880012103739,56.027411199994027,413.5],[-64.513661262103739,56.029364324994027,413.5],[-64.562489387103739,56.025458074994027,411.0286],[-64.627674933978739,56.030707098431527,457.3791]]}}