{"type":"Feature","properties":{"featurecla":"Lake Centerline","scalerank":12,"rivernum":21006,"dissolve":"21006Lake Centerline","name":"la Baleine","name_alt":null,"note":"ID is link back to CEC data","name_full":"Rivire  la Baleine","min_zoom":7.0,"strokeweig":0.2,"uident":1477201,"min_label":8.0},
"geometry":{"type": "LineString","coordinates": [[-66.339955207416239,56.430528061973192,343.5],[-66.361887173562067,56.475409246869027,343.5],[-66.428293423562067,56.521185614056527,343.5],[-66.4305720693954,56.553290106244027,367.8684],[-66.386463996478739,56.599636134889863,346.5329]]}}