{"type":"Feature","properties":{"featurecla":"Lake Centerline","scalerank":7,"rivernum":408,"dissolve":"408Lake Centerline","name":"Nottaway1","name_alt":null,"note":null,"min_zoom":6.0,"strokeweig":0.2,"name_en":"Nottaway","min_label":7.0},
"geometry":{"type": "LineString","coordinates": [[-78.5390625,51.035419012494117,75.2052],[-78.576904296875,51.04645416874412,60.0],[-78.592578124999989,51.05390045780662,64.1525],[-78.614062499999989,51.06134674686912,58.0],[-78.637255859374989,51.06879303593162,64.0387],[-78.659521484374991,51.07623932499412,55.0],[-78.690966796874989,51.084491278119117,54.1127],[-78.723242187499991,51.087762762494116,55.0058],[-78.756274414062489,51.09357330936912,29.0],[-78.776123046875,51.10187409061912,22.375],[-78.792651367187489,51.114276434369117,35.8627],[-78.800097656249989,51.12995026249412,16.0],[-78.806738281249991,51.14813873905662,12.0],[-78.8125,51.15643952030662,38.4863],[-78.829833984375,51.16535065311912,30.868]]}}