{"type":"Feature","properties":{"featurecla":"River","scalerank":11,"rivernum":21050,"dissolve":"21050River","name":"null441","name_alt":null,"note":"ID is link back to CEC data","name_full":null,"min_zoom":6.7,"strokeweig":0.2,"uident":1464801,"min_label":7.7},
"geometry":{"type": "LineString","coordinates": [[-66.272531704812067,56.647894598431527,349.21],[-66.236683723041239,56.636826890098192,351.3686],[-66.2210994131454,56.615301824994027,328.5674],[-66.213205532937067,56.582464910931527,320.483],[-66.191232876687067,56.555772202598192,384.3828],[-66.167469855853739,56.541815496869027,345.2385],[-66.117054816791239,56.527696030723192,358.5501],[-66.057199673562067,56.508002020306527,369.8213],[-66.022938605853739,56.489813543744027,353.5912],[-65.976755337624567,56.430487371869027,366.4255],[-65.909616665749567,56.363104559369027,384.847],[-65.8861384756454,56.348944403119027,380.6363],[-65.833607551166239,56.343451239056527,382.5],[-65.789255337624567,56.345160223431527,412.447],[-65.751535611062067,56.351996160931527,437.1895],[-65.717355923562067,56.363145249473192,450.4053],[-65.6849666006454,56.361761785931527,434.9733],[-65.667591926166239,56.358181056764863,434.7401],[-65.650990363666239,56.343573309369027,392.1798],[-65.6239314443954,56.339667059369027,396.9568],[-65.5890193350204,56.346950588014863,432.118],[-65.554554816791239,56.348822332806527,422.7326],[-65.526600715228739,56.341009832806527,397.5029],[-65.5033259756454,56.326849676556527,401.131],[-65.4877009756454,56.325262762494027,398.6591],[-65.4317927725204,56.348415431764863,411.1856],[-65.391835090228739,56.353094793744027,398.9139]]}}