{"type":"Feature","properties":{"featurecla":"River","scalerank":12,"rivernum":21006,"dissolve":"21006River","name":"la Baleine","name_alt":null,"note":"ID is link back to CEC data","name_full":"Rivire  la Baleine","min_zoom":7.0,"strokeweig":0.2,"uident":1477201,"min_label":8.0},
"geometry":{"type": "LineString","coordinates": [[-66.339955207416239,56.430528061973192,343.5],[-66.3463435537704,56.363714910931527,364.9797],[-66.331166144916239,56.336737371869027,356.2973],[-66.287912564187067,56.322333074994027,372.7897],[-66.271473762103739,56.302313543744027,364.0773],[-66.289865689187067,56.274969793744027,369.9113],[-66.315378384499567,56.256374416139863,408.386],[-66.338937954812067,56.220811265098192,366.2652],[-66.335804816791239,56.205511785931527,360.0],[-66.295887824603739,56.171494858848192,375.7192],[-66.290394660541239,56.164984442181527,375.2087],[-66.292103644916239,56.152411199994027,370.2981],[-66.310373501687067,56.139715887494027,414.6738],[-66.321115689187067,56.123561916139863,390.5825],[-66.3119197256454,56.097764390098192,390.7506],[-66.154611782937067,55.934678452598192,382.5]]}}