{"type":"Feature","properties":{"featurecla":"River","scalerank":12,"rivernum":21288,"dissolve":"21288River","name":"null542","name_alt":null,"note":"ID is link back to CEC data","name_full":null,"min_zoom":7.0,"strokeweig":0.2,"uident":1386301,"min_label":8.0},
"geometry":{"type": "LineString","coordinates": [[-70.432484504291239,60.641872463014863,244.5871],[-70.394764777728739,60.625677801556527,259.5651],[-70.368234829812067,60.596502996869027,241.7461],[-70.3402400381454,60.576117254681527,229.4155],[-70.302479621478739,60.541571356244027,194.9306],[-70.307199673562067,60.527777410931527,183.0767],[-70.355417446999567,60.515082098431527,275.8398],[-70.368031379291239,60.506048895306527,178.3134],[-70.367136196999567,60.489610093223192,177.8483],[-70.378407355853739,60.476874090619027,175.0146],[-70.463246223041239,60.451483465619027,146.0774],[-70.467396613666239,60.450222072389863,134.2255]]}}