{"type":"Feature","properties":{"featurecla":"River","scalerank":11,"rivernum":21162,"dissolve":"21162River","name":"Qurlutuq2","name_alt":null,"note":"ID is link back to CEC data","name_full":"Rivire Qurlutuq","min_zoom":6.7,"strokeweig":0.2,"uident":1428701,"min_label":7.7},
"geometry":{"type": "LineString","coordinates": [[-66.827992316791239,58.456366278119027,3.769],[-66.800892707416239,58.433172918744027,82.3202],[-66.708241340228739,58.389837957806527,49.1707],[-66.677316861062067,58.363633530723192,44.2614],[-66.6730037100204,58.344509181764863,59.1247],[-66.692005988666239,58.316921291139863,74.2734],[-66.7003474600204,58.294623114056527,90.1979],[-66.6900935537704,58.274237371869027,81.2921],[-66.6290583975204,58.211127020306527,116.1633],[-66.5338435537704,58.097031968223192,165.4731],[-66.5064998037704,58.051296291139863,162.4667],[-66.497141079812067,58.034735418744027,180.8911],[-66.481190558978739,57.987412827598192,210.8687],[-66.419545051166239,57.929551499473192,260.0795]]}}