{"type":"Feature","properties":{"featurecla":"River","scalerank":12,"rivernum":21233,"dissolve":"21233River","name":"Brochant","name_alt":null,"note":"ID is link back to CEC data","name_full":"Rivire Brochant","min_zoom":7.0,"strokeweig":0.2,"uident":1404901,"min_label":8.0},
"geometry":{"type": "LineString","coordinates": [[-70.728993293353739,59.700222072389863,178.7524],[-70.630441861062067,59.726426499473192,168.1255],[-70.565378384499567,59.741400457806527,151.9685],[-70.483835415749567,59.759711004681527,148.5883],[-70.4139705068954,59.771348374473192,143.3605],[-70.3519587881454,59.778102931764863,150.3915],[-70.292551236062067,59.798936265098192,152.7515],[-70.227162238666239,59.815985418744027,151.2564],[-70.183338996478739,59.829697983848192,152.8243],[-70.110666470437067,59.846869207806527,150.5016],[-70.072621223041239,59.858018296348192,150.8134],[-70.0018611318954,59.852728582806527,116.7325],[-69.886219855853739,59.889431056764863,81.7154],[-69.864857551166239,59.912461655723192,61.7155],[-69.848255988666239,59.932440496869027,18.0297],[-69.821359829812067,59.939805405723192,18.0954],[-69.7938533193954,59.935370184369027,13.0],[-69.767567512103739,59.915594793744027,1.0378]]}}