{"type":"Feature","properties":{"featurecla":"River","scalerank":11,"rivernum":20487,"dissolve":"20487River","name":"Maquatua","name_alt":null,"note":"ID is link back to CEC data","name_full":"Rivire Maquatua","min_zoom":6.7,"strokeweig":0.2,"uident":1639001,"min_label":7.7},
"geometry":{"type": "LineString","coordinates": [[-78.8441462881454,53.002020574994027,0.0],[-78.7616267568954,53.035101629681527,37.0723],[-78.651112433978739,53.092962957806527,67.8536],[-78.6202693350204,53.100368556764863,75.4864],[-78.541981574603739,53.103054103639863,71.6407],[-78.497181769916239,53.119411525514863,82.8601],[-78.414133267312067,53.159613348431527,91.0695],[-78.322580532937067,53.188544012494027,111.4166],[-78.184396939187067,53.217881577598192,134.632],[-78.1310115225204,53.222927150514863,145.676],[-78.0448298818954,53.220974025514863,133.0528],[-77.903187629291239,53.211371160931527,154.1564],[-77.852121548562067,53.218207098431527,159.4321],[-77.753244595437067,53.239610093223192,177.8807]]}}