{"type":"Feature","properties":{"featurecla":"River","scalerank":12,"rivernum":21264,"dissolve":"21264River","name":"null529","name_alt":null,"note":"ID is link back to CEC data","name_full":null,"min_zoom":7.0,"strokeweig":0.2,"uident":1394301,"min_label":8.0},
"geometry":{"type": "LineString","coordinates": [[-71.763376431374567,60.717311916139863,370.1986],[-71.782093879291239,60.683864650514863,339.1588],[-71.798776821999567,60.673447983848192,322.3723],[-71.869699673562067,60.657904364056527,341.7252],[-71.909006314187067,60.659531968223192,332.2048],[-71.929798957416239,60.655218817181527,314.7743],[-71.950876431374567,60.629502671348192,284.9049],[-71.958363410541239,60.603379624473192,369.38],[-71.964670376687067,60.579128322389863,369.1013],[-71.9608455068954,60.546210028119027,351.7989],[-71.9869685537704,60.512152410931527,250.1404],[-72.005930142312067,60.484076239056527,308.723],[-72.008412238666239,60.466498114056527,322.2188],[-71.992909308978739,60.448268947389863,241.926],[-71.990101691791239,60.433539129681527,180.0],[-72.006296353249567,60.410589910931527,277.1935]]}}