{"type":"Feature","properties":{"featurecla":"River","scalerank":12,"rivernum":21014,"dissolve":"21014River","name":"Innuksuac","name_alt":null,"note":"ID is link back to CEC data","name_full":"Rivire Innuksuac","min_zoom":7.0,"strokeweig":0.2,"uident":1476301,"min_label":8.0},
"geometry":{"type": "LineString","coordinates": [[-78.1356501943954,58.473985093223192,68.4797],[-78.107167121478739,58.500921942181527,22.1671],[-78.073841926166239,58.520697332806527,41.7819],[-78.0472712881454,58.530544338014863,53.4027],[-77.999338345437067,58.533270574994027,56.5716],[-77.9337458975204,58.529079494264863,52.7231],[-77.890004035541239,58.539129949994027,58.6547],[-77.8592830068954,58.560899155723192,58.7848],[-77.839426236062067,58.580145574994027,55.6763],[-77.789133267312067,58.600124416139863,56.5977],[-77.7169490225204,58.637030340619027,51.5],[-77.598215298562067,58.663763739056527,65.4303],[-77.522572394916239,58.676459051556527,87.0217]]}}