{"type":"Feature","properties":{"featurecla":"River","scalerank":10,"rivernum":20569,"dissolve":"20569River","name":"Sakami1","name_alt":null,"note":"ID is link back to CEC data","name_full":"Rivire Sakami","min_zoom":6.0,"strokeweig":0.2,"uident":1614501,"min_label":7.0},
"geometry":{"type": "LineString","coordinates": [[-76.510731574603739,53.474717515098192,183.5],[-76.482167121478739,53.484157619264863,189.3337],[-76.458078579812067,53.482977606244027,189.6603],[-76.443918423562067,53.458563543744027,188.684],[-76.419260220437067,53.434637762494027,195.6479],[-76.369455532937067,53.424505926556527,238.9885],[-76.326527473041239,53.416774806764863,212.9021],[-76.263295051166239,53.421087957806527,220.3493],[-76.231027798562067,53.444444077598192,235.1719],[-76.1930232412704,53.450954494264863,197.2091],[-76.104318814187067,53.437201239056527,236.5263],[-76.039662238666239,53.424139715619027,226.2198],[-75.989857551166239,53.394232489056527,221.8604],[-75.9242244131454,53.367499090619027,236.4439],[-75.888905402728739,53.360907293744027,236.3874],[-75.804310676166239,53.370794989056527,256.4496],[-75.7533259756454,53.374701239056527,257.5],[-75.7186580068954,53.367010809369027,253.2512],[-75.711984829812067,53.365261134889863,259.7287],[-75.663156704812067,53.341253973431527,274.5619],[-75.610056118874567,53.334540106244027,309.355],[-75.5802302725204,53.335964259889863,290.4211],[-75.5411677725204,53.331000067181527,295.609],[-75.518544074603739,53.312323309369027,273.1787],[-75.4842830068954,53.294012762494027,275.9913],[-75.4335017568954,53.289333400514863,277.5394],[-75.398264126687067,53.289984442181527,281.3582],[-75.230051236062067,53.278631903119027,286.5923],[-75.159901496478739,53.286932684369027,326.1936],[-75.117787238666239,53.290147202598192,302.0025],[-75.109120246478739,53.290472723431527,305.7404],[-75.0775447256454,53.280137436973192,323.8037],[-75.051991340228739,53.273382879681527,354.4769],[-75.0079646475204,53.272284246869027,337.5607],[-74.979481574603739,53.277655340619027,368.5795],[-74.947621223041239,53.275824285931527,323.987],[-74.911936001687067,53.266180731244027,341.5546],[-74.894113736062067,53.262722072389863,379.2516],[-74.8685603506454,53.261257228639863,368.2803],[-74.853016730853739,53.269598699994027,397.6451],[-74.8497615225204,53.276800848431527,395.5354],[-74.841053840228739,53.284735418744027,367.4142],[-74.836252407937067,53.288194077598192,370.1448],[-74.830189582416239,53.289496160931527,374.3276],[-74.813710090228739,53.285752671348192,366.8964]]}}