{"type":"Feature","properties":{"featurecla":"River","scalerank":10,"rivernum":21173,"dissolve":"21173River","name":"Rivire de Puvirnituq","name_alt":null,"note":"ID is link back to CEC data","name_full":"Rivire de Puvirnituq","min_zoom":6.0,"strokeweig":0.25,"uident":1427501,"min_label":7.0},
"geometry":{"type": "LineString","coordinates": [[-76.512074348041239,60.546738999473192,96.8087],[-76.5284724600204,60.541286525514863,100.0569],[-76.558705207416239,60.528347072389863,101.5955],[-76.570301887103739,60.508246160931527,93.7662],[-76.572824673562067,60.483832098431527,95.9501],[-76.5921931631454,60.434515692181527,77.5],[-76.643544074603739,60.404160874473192,87.7108],[-76.677561001687067,60.380926824994027,84.0007],[-76.702259894916239,60.326931056764863,97.8381],[-76.728098111062067,60.315252996869027,93.9552],[-76.7779841787704,60.305975653119027,66.1174],[-76.824940558978739,60.294541733848192,78.5728],[-76.869130012103739,60.272284246869027,48.4194],[-76.879628058978739,60.253933009889863,55.8194],[-76.871693488666239,60.237331447389863,62.6261],[-76.8180232412704,60.211004949994027,38.7709],[-76.7977595693954,60.180853582806527,35.773],[-76.806263801166239,60.158758856244027,53.8281],[-76.888172980853739,60.129502671348192,31.0612],[-76.9291072256454,60.105292059369027,32.0111]]}}