{"type":"Feature","properties":{"featurecla":"River","scalerank":12,"rivernum":20986,"dissolve":"20986River","name":"null416","name_alt":null,"note":"ID is link back to CEC data","name_full":null,"min_zoom":7.0,"strokeweig":0.2,"uident":1484801,"min_label":8.0},
"geometry":{"type": "LineString","coordinates": [[-64.448963996478739,55.166123765098192,455.1843],[-64.364572720437067,55.148464259889863,454.8785],[-64.3094783193954,55.130072332806527,500.4499],[-64.211252407937067,55.108954168744027,472.5569],[-64.164133267312067,55.107123114056527,480.5302],[-64.078480598041239,55.109320379681527,485.2423],[-64.0389705068954,55.105576890098192,483.2868],[-64.0245662100204,55.098456121869027,484.3383],[-64.016916470437067,55.091091213014863,483.412],[-63.981027798562067,55.082586981244027,484.7865],[-63.943226691791239,55.081122137494027,481.0],[-63.922189907937067,55.074245509889863,485.0331],[-63.898304816791239,55.044460353639863,511.5127],[-63.871245897520396,55.029242254681527,499.0]]}}