{"type":"Feature","properties":{"featurecla":"River","scalerank":12,"rivernum":21145,"dissolve":"21145River","name":"null478","name_alt":null,"note":"ID is link back to CEC data","name_full":null,"min_zoom":7.0,"strokeweig":0.2,"uident":1436101,"min_label":8.0},
"geometry":{"type": "LineString","coordinates": [[-71.556223111062067,58.956610418744027,213.0569],[-71.508290168353739,58.942735093223192,210.1233],[-71.489979621478739,58.927801824994027,207.8716],[-71.4913630850204,58.912136134889863,197.0],[-71.489125129291239,58.890082098431527,195.5],[-71.468820767312067,58.876328843223192,208.19],[-71.4410701162704,58.863308009889863,199.7901],[-71.403309699603739,58.855780340619027,223.1951]]}}