{"type":"Feature","properties":{"featurecla":"River","scalerank":12,"rivernum":20906,"dissolve":"20906River","name":"null36","name_alt":null,"note":"ID is link back to CEC data","name_full":null,"min_zoom":7.0,"strokeweig":0.15,"uident":1501501,"min_label":8.0},
"geometry":{"type": "LineString","coordinates": [[-71.829701301166239,56.404608465619027,340.2898],[-71.806711392312067,56.379665431764863,420.7934],[-71.778757290749567,56.364610093223192,365.1195],[-71.745432095437067,56.354193426556527,373.9394],[-71.712147590228739,56.336533921348192,373.7923],[-71.640370246478739,56.280951239056527,389.316],[-71.627674933978739,56.261053778119027,383.0],[-71.6178279287704,56.248846746869027,386.969]]}}