{"type":"Feature","properties":{"featurecla":"River","scalerank":11,"rivernum":20275,"dissolve":"20275River","name":"Kitchigama","name_alt":null,"note":"ID is link back to CEC data","name_full":"Rivire Kitchigama","min_zoom":6.7,"strokeweig":0.2,"uident":1721001,"min_label":7.7},
"geometry":{"type": "LineString","coordinates": [[-78.747547980853739,51.082342840619027,47.8282],[-78.730824348041239,51.0399030619732,64.2703],[-78.7384333975204,51.017157293744027,68.6181],[-78.7235408193954,50.9732526713482,72.1179],[-78.6878962881454,50.942165431764863,80.0],[-78.663441535541239,50.9310163432232,94.073],[-78.636463996478739,50.919704494264863,110.6539],[-78.591297980853739,50.904730535931527,137.448],[-78.506418423562067,50.844305731244027,156.1395],[-78.420277473041239,50.768255926556527,179.1297],[-78.357492642312067,50.728949285931527,210.439],[-78.297230598041239,50.669256903119027,222.5862],[-78.247385220437067,50.622626043744027,235.2031],[-78.221994595437067,50.595892645306527,239.8966],[-78.191477017312067,50.568548895306527,240.7184],[-78.1468806631454,50.543036199994027,240.1242],[-78.115589973041239,50.518988348431527,251.7848],[-78.1034236318954,50.503973699994027,249.8916],[-78.100534634499567,50.474391994264863,244.6427],[-78.078195767312067,50.427272853639863,247.1839],[-78.078439907937067,50.426052150514863,246.5048],[-78.029652473041239,50.377630926556527,247.7536],[-77.966175910541239,50.346380926556527,252.188],[-77.953968879291239,50.292914129681527,254.379],[-77.956654426166239,50.234401759889863,254.6239],[-77.992746548562067,50.1976179057232,252.6684],[-78.063954230853739,50.145697332806527,257.3675],[-78.142811652728739,50.0970319682232,260.771],[-78.160715298562067,50.045233465619027,255.2863],[-78.1910701162704,50.013373114056527,260.0262],[-78.216053840228739,49.994655666139863,255.5355]]}}