{"type":"Feature","properties":{"featurecla":"River","scalerank":10,"rivernum":20882,"dissolve":"20882River","name":"null398","name_alt":null,"note":"ID is link back to CEC data","name_full":null,"min_zoom":6.0,"strokeweig":0.2,"uident":1513701,"min_label":7.0},
"geometry":{"type": "LineString","coordinates": [[-73.204823371478739,56.524969793744027,258.5135],[-73.1534724600204,56.510768947389863,256.3729],[-73.127023892312067,56.498155015098192,275.6056],[-73.115061001687067,56.482245184369027,274.0725],[-73.126454230853739,56.450140692181527,320.7411],[-73.148752407937067,56.330755926556527,346.9546],[-73.145741340228739,56.301947332806527,420.2369],[-73.148182746478739,56.282782293744027,391.9939],[-73.160878058978739,56.268500067181527,375.0269],[-73.1759333975204,56.242254949994027,317.0],[-73.177316861062067,56.216905015098192,317.0096],[-73.164051887103739,56.196234442181527,342.1829]]}}