{"type":"Feature","properties":{"featurecla":"River","scalerank":7,"rivernum":591,"dissolve":"591River","name":"Grande15","name_alt":null,"note":null,"min_zoom":6.0,"strokeweig":0.2,"name_en":"Grande Rivire de la Baleine","min_label":7.0},
"geometry":{"type": "LineString","coordinates": [[-73.659765624999991,54.934588934369117,392.6686],[-73.706298828125,54.93610260624412,387.9733],[-73.721240234374989,54.934588934369117,397.3271],[-73.732348632812489,54.93012116093162,383.5386],[-73.754931640624989,54.916376043744116,384.9128],[-73.765917968749989,54.91351959843162,381.7678],[-73.794848632812489,54.91229889530662,388.6503],[-73.819580078125,54.90863678593162,381.313],[-73.918212890625,54.875995184369117,388.6599],[-73.974780273437489,54.86908600468162,379.6648],[-74.262451171875,54.88202545780662,395.2938],[-74.358642578125,54.899774481244116,369.278],[-74.550927734375,54.889032293744116,376.8424],[-74.611914062499991,54.89301178593162,287.4378],[-75.059985351562489,55.02472565311912,299.6862],[-75.071240234375,55.03021881718162,310.3941],[-75.095263671874989,55.054559637494116,277.3594],[-75.109619140625,55.06098053593162,269.9174],[-75.115039062499989,55.06830475468162,280.5147],[-75.118457031249989,55.07819244999412,258.1451],[-75.11962890625,55.08881256718162,305.3609],[-75.124755859375,55.09833405155662,297.9745],[-75.13671875,55.10736725468162,276.6743],[-75.16064453125,55.119501043744116,283.4108],[-75.212158203125,55.13153717655662,300.0339],[-75.27099609375,55.13092682499412,256.6311],[-75.703955078124991,55.04535553593162,244.5678],[-75.758642578124991,55.04254791874412,243.4984],[-75.898876953125,55.06366608280662,256.3938],[-76.000097656249991,55.05988190311912,292.9725]]}}