{"type":"Feature","properties":{"featurecla":"River","scalerank":12,"rivernum":21188,"dissolve":"21188River","name":"Sorehead","name_alt":null,"note":"ID is link back to CEC data","name_full":"Rivire Sorehead","min_zoom":7.0,"strokeweig":0.2,"uident":1418001,"min_label":8.0},
"geometry":{"type": "LineString","coordinates": [[-77.415109829812067,60.546820379681527,2.978],[-77.342762824603739,60.536403713014863,8.8335],[-77.2662654287704,60.514675197389863,20.0921],[-77.202219204812067,60.491970119264863,16.2142],[-77.1461482412704,60.479763088014863,31.263],[-77.080148892312067,60.456000067181527,48.5152],[-77.019642707416239,60.455674546348192,79.6808],[-76.977040168353739,60.464056707806527,89.7373],[-76.853993293353739,60.472601629681527,78.1404],[-76.797678189187067,60.501328843223192,85.921],[-76.808094855853739,60.543280340619027,80.8696],[-76.818837043353739,60.547674871869027,80.9952]]}}