{"type":"Feature","properties":{"featurecla":"River","scalerank":4,"rivernum":109,"dissolve":"109River","name":"La4","name_alt":"La Grande Rivière","note":null,"min_zoom":4.0,"strokeweig":0.2,"name_en":"La Grande","min_label":5.0},
"geometry":{"type": "LineString","coordinates": [[-70.47998046875,53.40643952030662,558.35],[-70.47998046875,53.40643952030662,558.35],[-70.47998046875,53.40643952030662,558.35],[-70.47998046875,53.40643952030662,558.35],[-70.47998046875,53.40643952030662,558.35],[-70.4625,53.397088934369116,560.4485],[-70.445849609374989,53.385370184369116,559.2689],[-70.422607421875,53.404315496869117,631.9147],[-70.414794921875,53.40643952030662,633.0019],[-70.40009765625,53.40888092655662,563.2498],[-70.393603515624989,53.415057684369117,564.6923],[-70.39013671875,53.423846746869117,566.7253],[-70.368579101562489,53.45575592655662,589.3851],[-70.347216796874989,53.47858307499412,541.5112],[-70.34375,53.486200262494116,537.4112],[-70.342822265624989,53.49518463749412,534.7201],[-70.34921875,53.51288483280662,540.2833],[-70.363940429687489,53.51459381718162,534.0739],[-70.42626953125,53.497577215619117,536.52],[-70.50048828125,53.49518463749412,535.8157],[-70.509033203125,53.491571356244116,531.1832],[-70.548779296875,53.463495184369116,532.8998],[-70.558764648437489,53.46173737186912,523.7255],[-70.569580078125,53.46222565311912,526.7678],[-70.623217773437489,53.45355866093162,529.8998],[-70.689868164062489,53.452752996869116,537.629],[-70.708349609374991,53.446795965619117,527.6576],[-70.747485351562489,53.42694733280662,513.5766],[-70.77099609375,53.42035553593162,521.2131],[-70.797949218749991,53.41791412968162,520.5681],[-70.825292968749991,53.41998932499412,518.4451],[-70.844580078124991,53.42755768436912,511.6716]]}}