{"type":"Feature","properties":{"featurecla":"Lake Centerline","scalerank":11,"rivernum":20623,"dissolve":"20623Lake Centerline","name":"Roggan4","name_alt":null,"note":"ID is link back to CEC data","name_full":"Rivire Roggan","min_zoom":6.7,"strokeweig":0.2,"uident":1597901,"min_label":7.7},
"geometry":{"type": "LineString","coordinates": [[-77.703114387103739,54.139471746869027,178.4945],[-77.791005012103739,54.160223699994027,167.5],[-77.865223762103739,54.154364324994027,167.5],[-77.9420466787704,54.153143621869027,169.6119]]}}