{"type":"Feature","properties":{"featurecla":"River","scalerank":11,"rivernum":21261,"dissolve":"21261River","name":"Buet2","name_alt":null,"note":"ID is link back to CEC data","name_full":"Rivire Buet","min_zoom":6.7,"strokeweig":0.2,"uident":1394501,"min_label":7.7},
"geometry":{"type": "LineString","coordinates": [[-71.381418423562067,60.656439520306527,331.6392],[-71.487294074603739,60.536403713014863,283.463],[-71.5426326162704,60.477565822389863,271.8665],[-71.568470832416239,60.470282293744027,312.7404],[-71.618234829812067,60.466335353639863,282.1034],[-71.639719204812067,60.460272528119027,273.4985],[-71.670277473041239,60.444688218223192,263.8374],[-71.6786189443954,60.429714259889863,256.0813],[-71.6493220693954,60.404120184369027,313.6332],[-71.626779751687067,60.347113348431527,235.9923],[-71.582346157937067,60.325628973431527,238.0473],[-71.537668423562067,60.304022528119027,227.6164],[-71.421742316791239,60.287624416139863,247.6114],[-71.344838019916239,60.258612371869027,208.2394],[-71.214914517312067,60.242621160931527,231.9616],[-71.121408657937067,60.247422593223192,237.4997],[-71.0506892568954,60.257147528119027,228.2867],[-71.0218806631454,60.256699936973192,240.9374],[-70.980213996478739,60.247137762494027,222.295]]}}