{"type":"Feature","properties":{"featurecla":"River","scalerank":12,"rivernum":20813,"dissolve":"20813River","name":"null379","name_alt":null,"note":"ID is link back to CEC data","name_full":null,"min_zoom":7.0,"strokeweig":0.2,"uident":1533801,"min_label":8.0},
"geometry":{"type": "LineString","coordinates": [[-70.991932746478739,55.154486395306527,411.0],[-70.971018032937067,55.154567775514863,418.7771],[-70.943592902728739,55.149603582806527,417.6492],[-70.930734829812067,55.149196681764863,418.8295],[-70.916086392312067,55.143337306764863,421.084],[-70.912058071999567,55.138006903119027,421.3288],[-70.9147029287704,55.130967515098192,426.4531],[-70.914133267312067,55.123968817181527,424.654],[-70.9042048818954,55.116034246869027,424.3831],[-70.8912654287704,55.109238999473192,424.709],[-70.894357876687067,55.098578192181527,439.7983],[-70.907215949603739,55.095892645306527,432.9106],[-70.9286189443954,55.091905015098192,425.1356],[-70.947580532937067,55.083604233848192,426.5989],[-70.949452277728739,55.081366278119027,427.0647],[-70.955148892312067,55.073268947389863,453.0819],[-70.9596248037704,55.066758530723192,452.8658],[-70.960275845437067,55.061306056764863,439.4198],[-70.9598689443954,55.050808009889863,435.2293],[-70.956410285541239,55.047878322389863,436.8506],[-70.940907355853739,55.034247137494027,491.9767],[-70.931141730853739,55.023993231244027,441.3227],[-70.919300910541239,55.010321356244027,430.7693],[-70.919545051166239,54.999457098431527,439.3114],[-70.934396939187067,54.986395574994027,458.9346],[-70.948597785541239,54.971136785931527,441.3536],[-70.949208137103739,54.962836004681527,445.2906],[-70.943959113666239,54.948187567181527,455.0675],[-70.936024543353739,54.939561265098192,462.6359],[-70.913034634499567,54.908799546348192,460.3176],[-70.884755012103739,54.888739324994027,465.5505],[-70.845692512103739,54.878973699994027,465.9095],[-70.806630012103739,54.873114324994027,492.9932],[-70.767567512103739,54.863348699994027,466.2777],[-70.733387824603739,54.858913478639863,483.8102]]}}