{"type":"Feature","properties":{"featurecla":"River","scalerank":12,"rivernum":20898,"dissolve":"20898River","name":"Goodwood","name_alt":null,"note":"ID is link back to CEC data","name_full":"Rivire Goodwood","min_zoom":7.0,"strokeweig":0.15,"uident":1505901,"min_label":8.0},
"geometry":{"type": "LineString","coordinates": [[-67.780588345437067,55.228216864056527,422.7225],[-67.719593879291239,55.221014715619027,495.6749],[-67.659291144916239,55.238836981244027,544.244],[-67.633656379291239,55.240790106244027,548.8259],[-67.615305142312067,55.242132879681527,481.014],[-67.566232876687067,55.225449936973192,513.7578],[-67.547108527728739,55.191514390098192,545.0559],[-67.526600715228739,55.159247137494027,594.5966],[-67.514515754291239,55.146795965619027,608.5069],[-67.498117642312067,55.144639390098192,565.1855],[-67.440907355853739,55.155056056764863,689.2903],[-67.391590949603739,55.152411199994027,642.2602],[-67.346302863666239,55.143337306764863,579.1262]]}}