{"type":"Feature","properties":{"featurecla":"River","scalerank":12,"rivernum":21264,"dissolve":"21264River","name":"null40","name_alt":null,"note":"ID is link back to CEC data","name_full":null,"min_zoom":7.0,"strokeweig":0.15,"uident":1394301,"min_label":8.0},
"geometry":{"type": "LineString","coordinates": [[-71.740101691791239,60.999863999473192,469.5],[-71.7535701162704,60.989081121869027,463.1707],[-71.7687068350204,60.962429103639863,431.3249],[-71.7682185537704,60.937119858848192,407.5],[-71.753732876687067,60.917263088014863,406.5814],[-71.751820441791239,60.776719468223192,380.0],[-71.756906704812067,60.761297918744027,380.9668],[-71.763376431374567,60.717311916139863,370.1986]]}}