{"type":"Feature","properties":{"featurecla":"River","scalerank":11,"rivernum":20868,"dissolve":"20868River","name":"Rivire du Sable","name_alt":null,"note":"ID is link back to CEC data","name_full":"Rivire du Sable","min_zoom":6.7,"strokeweig":0.2,"uident":1518601,"min_label":7.7},
"geometry":{"type": "LineString","coordinates": [[-68.410389777728739,55.533880926556527,361.2507],[-68.439198371478739,55.471136785931527,452.4275],[-68.434315558978739,55.446722723431527,496.3388],[-68.407541470437067,55.416286525514863,328.7746],[-68.346547004291239,55.347601629681527,347.4414],[-68.301625129291239,55.295030015098192,511.7322],[-68.2521052725204,55.239325262494027,412.762],[-68.198475715228739,55.192816473431527,527.7067],[-68.1893611318954,55.155340887494027,548.8873],[-68.163441535541239,55.115790106244027,513.603],[-68.155629035541239,55.050889390098192,569.7357],[-68.1483455068954,55.009588934369027,589.8171],[-68.134388801166239,54.979803778119027,521.1083],[-68.113718228249567,54.966620184369027,549.9556],[-68.076893683978739,54.964911199994027,581.4891],[-68.0448298818954,54.960475978639863,533.0],[-67.9894099600204,54.936957098431527,590.0062],[-67.925119595437067,54.875352280723192,542.6581],[-67.890614387103739,54.854071356244027,544.5729],[-67.860056118874567,54.847235418744027,542.0]]}}