{"type":"Feature","properties":{"featurecla":"Lake Centerline","scalerank":11,"rivernum":20373,"dissolve":"20373Lake Centerline","name":"null1265","name_alt":null,"note":"ID is link back to CEC data","name_full":null,"min_zoom":6.7,"strokeweig":0.2,"uident":1688401,"min_label":7.7},
"geometry":{"type": "LineString","coordinates": [[-76.606312629291239,50.987005926556527,240.0],[-76.609364387103739,51.011786199994027,245.3001],[-76.638661262103739,51.019598699994027,240.0],[-76.677723762103739,50.994208074994027,240.0],[-76.742176887103739,50.966864324994027,247.9903],[-76.783192512103739,50.941473699994027,240.0],[-76.833973762103739,50.921942449994027,240.0],[-76.859364387103739,50.892645574994027,240.0],[-76.882801887103739,50.867254949994027,240.0],[-76.919911262103739,50.837958074994027,240.0],[-76.960926887103739,50.820379949994027,240.0],[-76.986317512103739,50.816473699994027,240.0],[-77.003895637103739,50.832098699994027,240.0],[-77.007801887103739,50.859442449994027,240.0],[-76.996083137103739,50.880926824994027,240.0],[-76.980458137103739,50.900458074994027,240.0],[-76.923817512103739,50.929754949994027,249.2007],[-76.900380012103739,50.957098699994027,245.3715],[-76.859364387103739,51.002020574994027,256.9265],[-76.839100715228739,51.0279401713482,245.2709],[-76.832997199603739,51.0447858744732,256.3574]]}}