{"type":"Feature","properties":{"featurecla":"River","scalerank":12,"rivernum":20824,"dissolve":"20824River","name":"Rivire de Troyes","name_alt":null,"note":"ID is link back to CEC data","name_full":"Rivire de Troyes","min_zoom":7.0,"strokeweig":0.2,"uident":1531101,"min_label":8.0},
"geometry":{"type": "LineString","coordinates": [[-75.921742316791239,56.188340561973192,142.995],[-75.8607478506454,56.170843817181527,125.4983],[-75.777902798562067,56.164740301556527,207.3373],[-75.6585994131454,56.133571681764863,140.8557],[-75.511301236062067,56.111599025514863,181.7989],[-75.479196743874567,56.099880275514863,185.9712]]}}