{"type": "Feature","bbox": [-122.4896,50.5419,-122.4642,50.5534],"geometry": {"type": "MultiPolygon","coordinates": [[[[-122.4805,50.551,276.9396],[-122.4896,50.5534,382.116],[-122.4895,50.5419,296.8694],[-122.4642,50.5423,373.3212],[-122.465,50.5533,256.0],[-122.4663,50.5508,256.0],[-122.471,50.5484,261.7227],[-122.4752,50.5529,257.5308],[-122.477,50.55,270.0259],[-122.4805,50.551,276.9396]]]]}
,"properties": {"GID_3": "CAN.2.25.22_1","GID_0": "CAN","country": "Canada","GID_1": "CAN.2_1","province": "BritishColumbia","NL_NAME_1": "NA","GID_2": "CAN.2.25_1","county": "Squamish-Lillooet","NL_NAME_2": "NA","city": "Nequatque1","VARNAME_3": "NA","NL_NAME_3": "NA","TYPE_3": "RéserveIndienne","ENGTYPE_3": "IndianReserve","CC_3": "NA","HASC_3": "NA","name": "Nequatque1.city","area_km2": 1.832322,"hist_schema_id": "Elevation0-9000","hist_area_km2": {"250": 0.107778,"275": 0.983503,"300": 0.444625,"325": 0.175155,"350": 0.080839,"375": 0.040421}}}