{"type": "Feature","bbox": [-80.7822,43.0943,-80.6938,43.1618],"geometry": {"type": "MultiPolygon","coordinates": [[[[-80.7207,43.1618,297.0473],[-80.7282,43.1575,296.3451],[-80.7548,43.1507,284.0],[-80.764,43.1427,300.3691],[-80.77,43.1489,304.246],[-80.7742,43.1573,308.4149],[-80.7822,43.1549,303.5426],[-80.777,43.1444,300.3584],[-80.7784,43.144,298.5093],[-80.7773,43.1412,297.942],[-80.7812,43.1402,301.8479],[-80.7782,43.1348,292.8307],[-80.7803,43.1343,303.0203],[-80.7778,43.1239,286.3211],[-80.7796,43.1211,282.5586],[-80.7766,43.1198,312.9167],[-80.7743,43.1214,294.0943],[-80.7653,43.1145,334.3285],[-80.7626,43.1163,323.3626],[-80.7575,43.0974,312.4355],[-80.7539,43.0943,300.9441],[-80.7385,43.1058,286.7292],[-80.7388,43.1072,286.451],[-80.7019,43.1129,287.2287],[-80.7041,43.118899999999996,296.0096],[-80.6938,43.1238,308.6227],[-80.6994,43.1385,301.0336],[-80.7041,43.1379,300.6046],[-80.7062,43.1445,302.0412],[-80.7142,43.1432,302.5358],[-80.7207,43.1618,297.0473]]]]}
,"properties": {"GID_3": "CAN.9.36.7_1","GID_0": "CAN","country": "Canada","GID_1": "CAN.9_1","province": "Ontario","NL_NAME_1": "NA","GID_2": "CAN.9.36_1","county": "Oxford","NL_NAME_2": "NA","city": "Woodstock","VARNAME_3": "NA","NL_NAME_3": "NA","TYPE_3": "Cité","ENGTYPE_3": "City","CC_3": "NA","HASC_3": "NA","name": "Woodstock.city","area_km2": 30.21969,"hist_schema_id": "Elevation0-9000","hist_area_km2": {"275": 2.75434,"300": 25.76284,"325": 1.70251}}}