{"type":"Feature","properties":{"GID_3":"CAN.2.9.24_1","GID_0":"CAN","country":"Canada","GID_1":"CAN.2_1","province":"BritishColumbia","NL_NAME_1":"NA","GID_2":"CAN.2.9_1","county":"Comox-Strathcona","NL_NAME_2":"NA","city":"Oclucje7","VARNAME_3":"NA","NL_NAME_3":"NA","TYPE_3":"RéserveIndienne","ENGTYPE_3":"IndianReserve","CC_3":"NA","HASC_3":"NA","name":"Oclucje7.city"},
"geometry":{"type": "MultiPolygon","coordinates": [[[[-126.9379,49.9873,48.4474],[-126.938,49.9909,109.2894],[-126.9436,49.9909,54.419],[-126.9435,49.9884,1.0433],[-126.9379,49.9873,48.4474]]]]}}