{"type": "Feature","bbox": [-71.8323,45.7614,-71.6449,45.8855],"geometry": {"type": "MultiPolygon","coordinates": [[[[-71.7406,45.8702,329.127],[-71.7699,45.8855,352.4464],[-71.8323,45.8261,276.9249],[-71.7072,45.7614,266.3395],[-71.6449,45.8188,304.4319],[-71.7406,45.8702,329.127]]]]}
,"properties": {"GID_3": "CAN.11.7.3_1","GID_0": "CAN","country": "Canada","GID_1": "CAN.11_1","province": "Québec","NL_NAME_1": "NA","GID_2": "CAN.11.7_1","county": "Asbestos","NL_NAME_2": "NA","city": "Saint-Adrien","VARNAME_3": "NA","NL_NAME_3": "NA","TYPE_3": "Municipalité","ENGTYPE_3": "Municipality","CC_3": "NA","HASC_3": "NA","name": "Saint-Adrien.city","area_km2": 98.43292,"hist_schema_id": "Elevation0-9000","hist_area_km2": {"250": 1.74435,"275": 23.52464,"300": 32.21224,"325": 23.61022,"350": 9.58734,"375": 6.20288,"400": 1.12279,"425": 0.33981,"450": 0.08865}}}