{"type":"Feature","properties":{"featurecla":"Lake","scalerank":9,"name":"null280","name_abb":null,"name_alt":null,"note":"_untitled_53","delta":null,"dam_name":null,"year":-99,"admin":null,"min_zoom":7.0,"min_label":8.0},
"geometry":{"type": "Polygon","coordinates": [[[-98.206344810045053,51.809966338008678,245.1505],[-98.220915834338058,51.809377609754392,246.1075],[-98.227097481007831,51.807905789118735,246.736],[-98.233573491804719,51.80260723483039,245.4182],[-98.258300078483785,51.818208533568367,247.6777],[-98.291268860722539,51.834692924687744,248.9544],[-98.324237642961279,51.841757663738889,241.5],[-98.349700139958173,51.829983098653628,243.6719],[-98.3555874225008,51.817325441186966,243.0],[-98.354998694246547,51.805256511974562,243.0],[-98.351613506784531,51.792893218635044,243.0],[-98.349700139958173,51.778763740532725,244.3078],[-98.355440240437233,51.772287729735808,244.9454],[-98.385465381404671,51.759041344014889,245.5497],[-98.486579459074392,51.731665480191651,244.7877],[-98.514691233215473,51.71989091510639,243.0],[-98.534119265606165,51.705761437004071,243.0],[-98.5554606648232,51.68221230683352,243.0],[-98.568412686417,51.65719135602734,243.0],[-98.562672585937932,51.637468959509505,243.0],[-98.583866803091411,51.605677633779294,243.0],[-98.5869576264263,51.590959427422717,243.0],[-98.576213335786,51.576535585193255,243.0],[-98.580334433565838,51.569765210269225,243.0],[-98.5813647080108,51.567410297252167,243.0],[-98.576213335786,51.562994835345194,243.0],[-98.582394982455753,51.555635732166905,243.0],[-98.571209145624749,51.545921715971559,243.0],[-98.539270637830967,51.529142960725068,244.2059],[-98.510570135435628,51.51000929246149,243.0],[-98.4995314806682,51.513541661987091,243.0],[-98.479956266213932,51.5350302432677,243.0],[-98.452727584454252,51.555635732166905,253.0099],[-98.450225489373636,51.562111742963793,245.0648],[-98.448900850801536,51.571237030904882,243.0],[-98.445368481275963,51.579479226464571,243.0],[-98.435948829207746,51.582717231863029,253.2038],[-98.426970723330228,51.590076335041317,255.9031],[-98.406365234431021,51.622456389025785,249.8634],[-98.390616753629473,51.63128731283976,249.8366],[-98.40533495998605,51.647182975704851,251.4596],[-98.411369424592252,51.6560138995188,244.1891],[-98.411075060465123,51.665433551587029,243.0],[-98.4012138622062,51.671026470002516,243.0],[-98.370452810920952,51.674853203655232,247.4374],[-98.36397680012405,51.68221230683352,243.0],[-98.36397680012405,51.716947273835075,255.6097],[-98.3689809902853,51.725189469394735,257.8338],[-98.377223185844983,51.728427474793193,257.3615],[-98.378842188544212,51.731959844318766,251.4002],[-98.36397680012405,51.741085132259855,243.0],[-98.3491114117039,51.745500594166828,243.3544],[-98.336306572173683,51.744323137658313,243.3158],[-98.323648914707022,51.741379496387,243.0],[-98.3086363442233,51.741085132259855,243.0],[-98.29715614326517,51.745500594166828,243.0],[-98.281407662463621,51.758746979887746,243.0],[-98.271104918014018,51.761690621159062,243.0],[-98.219002467511714,51.760513164650547,245.0167],[-98.192362514006291,51.766106083066063,243.4444],[-98.17219857129777,51.782001745931154,247.8443],[-98.16469228605591,51.782001745931154,246.1644],[-98.1682246555815,51.785239751329613,244.2855],[-98.167635927327225,51.788772120855185,244.9979],[-98.163662011610953,51.792304490380758,249.293],[-98.1579219111319,51.795836859906359,245.8872],[-98.2044314432187,51.804373419593162,244.0188],[-98.206344810045053,51.809966338008678,245.1505]]]}}