{"type": "Feature","bbox": [-69.0974,47.5891,-68.918,47.7379],"geometry": {"type": "MultiPolygon","coordinates": [[[[-68.984,47.7199,273.8898],[-69.0194,47.7379,304.0944],[-69.0344,47.7331,289.6115],[-69.0472,47.7335,299.7492],[-69.0536,47.6935,496.2628],[-69.0435,47.6708,377.5663],[-69.0974,47.6753,449.6472],[-69.0677,47.6538,336.6236],[-69.0711,47.6517,344.9905],[-69.0565,47.6421,272.7763],[-69.0545,47.6434,283.2291],[-69.0365,47.631,317.0984],[-69.0231,47.6218,303.7388],[-69.0251,47.6204,286.2181],[-68.9799,47.5891,322.9713],[-68.9545,47.6074,345.7716],[-68.9361,47.6518,273.7764],[-68.9321,47.6526,269.0577],[-68.9301,47.6692,257.7769],[-68.918,47.6851,208.4954],[-68.9309,47.6866,207.8363],[-68.9271,47.6889,201.2149],[-68.9316,47.7029,276.9291],[-68.9302,47.7064,250.8587],[-68.9373,47.7035,285.7993],[-68.9489,47.7074,279.8155],[-68.9636,47.7092,344.5081],[-68.9862,47.7167,283.4391],[-68.984,47.7199,273.8898]]]]}
,"properties": {"GID_3": "CAN.11.96.17_1","GID_0": "CAN","country": "Canada","GID_1": "CAN.11_1","province": "Québec","NL_NAME_1": "NA","GID_2": "CAN.11.96_1","county": "Témiscouata","NL_NAME_2": "NA","city": "Saint-Louis-du-Ha!Ha!","VARNAME_3": "NA","NL_NAME_3": "NA","TYPE_3": "MunicipalitéDeParoisse","ENGTYPE_3": "ParishMunicipality","CC_3": "NA","HASC_3": "NA","name": "Saint-Louis-du-Ha!Ha!.city","area_km2": 113.01307,"hist_schema_id": "Elevation0-9000","hist_area_km2": {"200": 0.84217,"225": 4.96894,"250": 14.39655,"275": 24.28665,"300": 17.94955,"325": 15.35114,"350": 13.35069,"375": 9.23779,"400": 3.19664,"425": 3.65303,"450": 4.35263,"475": 1.12748,"500": 0.12849,"525": 0.04283,"550": 0.08567,"575": 0.04283}}}