{"type": "Feature","bbox": [-72.565,48.5254,-72.2708,48.6587],"geometry": {"type": "MultiPolygon","coordinates": [[[[-72.2922,48.6081,99.0],[-72.3127,48.6142,99.0],[-72.3146,48.6124,99.0],[-72.3313,48.6161,99.0],[-72.3429,48.6273,99.0],[-72.3518,48.6322,101.6736],[-72.3577,48.6434,99.0],[-72.3784,48.6552,101.3499],[-72.3883,48.6587,108.6437],[-72.3948,48.6577,113.9643],[-72.4044,48.653,113.3724],[-72.4009,48.6514,107.9476],[-72.3968,48.6464,99.5],[-72.4017,48.6397,106.1403],[-72.4167,48.632,109.4126],[-72.4271,48.6309,110.1978],[-72.4331,48.6283,111.8424],[-72.4455,48.6285,115.6915],[-72.4495,48.6247,113.158],[-72.452,48.6186,121.4026],[-72.4574,48.6163,125.0888],[-72.478,48.6165,134.9461],[-72.4844,48.6132,139.0771],[-72.4889,48.6072,160.7072],[-72.4889,48.6028,173.3977],[-72.4846,48.5958,161.3687],[-72.4865,48.5932,194.4178],[-72.4917,48.5915,198.9653],[-72.4948,48.5863,232.6168],[-72.5027,48.5822,290.4618],[-72.5116,48.5825,277.8737],[-72.518,48.5845,263.3137],[-72.5341,48.5907,262.5253],[-72.5462,48.5993,248.0838],[-72.5566,48.6028,248.4244],[-72.5624,48.6034,242.1536],[-72.565,48.6003,271.4117],[-72.5643,48.5982,284.1417],[-72.484,48.5281,319.2587],[-72.4498,48.5456,263.8332],[-72.4346,48.5324,282.1284],[-72.4324,48.5355,276.0699],[-72.4247,48.5378,269.5298],[-72.4182,48.5417,263.3041],[-72.4151,48.5519,247.8994],[-72.4101,48.5595,214.0282],[-72.4037,48.556,187.8225],[-72.3717,48.5284,260.9142],[-72.3549,48.537,241.5847],[-72.3415,48.5254,233.9947],[-72.2718,48.5609,147.8051],[-72.2927,48.5796,121.7464],[-72.2708,48.5908,99.0],[-72.2922,48.6081,99.0]]]]}
,"properties": {"GID_3": "CAN.11.52.10_1","GID_0": "CAN","country": "Canada","GID_1": "CAN.11_1","province": "Québec","NL_NAME_1": "NA","GID_2": "CAN.11.52_1","county": "LeDomaine-du-Roy","NL_NAME_2": "NA","city": "Saint-Prime","VARNAME_3": "NA","NL_NAME_3": "NA","TYPE_3": "Municipalité","ENGTYPE_3": "Municipality","CC_3": "NA","HASC_3": "NA","name": "Saint-Prime.city","area_km2": 165.8983,"hist_schema_id": "Elevation0-9000","hist_area_km2": {"100": 40.2167,"125": 38.7322,"150": 14.5452,"175": 8.8103,"200": 15.7431,"225": 12.8399,"250": 17.3867,"275": 8.5177,"300": 5.514,"325": 2.975,"350": 0.6176}}}