{"type": "Feature","bbox": [-61.6017,45.936,-61.0078,46.2409],"geometry": {"type": "MultiPolygon","coordinates": [[[[-61.5922,45.9725,1.2504],[-61.5903,45.9747,0.0],[-61.5919,45.9806,1.7295],[-61.5956,45.9825,3.9095],[-61.5958,45.9872,0.0],[-61.5978,45.9891,2.1419],[-61.6017,45.9808,0.0],[-61.6017,45.9739,0.0],[-61.5922,45.9725,1.2504]]],
[[[-61.5716,46.0194,0.0],[-61.5731,46.0203,1.5921],[-61.5761,46.0189,0.0],[-61.5756,46.0142,0.0],[-61.5739,46.0144,3.9479],[-61.5728,46.0111,35.8271],[-61.5819,46.0009,5.777],[-61.5711,46.0003,0.0],[-61.5628,45.9958,3.0935],[-61.5578,45.9892,1.6112],[-61.5608,46.0,5.6755],[-61.5643,46.0047,0.0],[-61.5663,46.0109,1.6429],[-61.5622,46.0144,0.091],[-61.5652,46.0151,3.6503],[-61.5641,46.0168,-1.0],[-61.5567,46.0142,0.0],[-61.5548,46.0167,0.0],[-61.5631,46.0201,10.1879],[-61.5676,46.0182,3.9493],[-61.5716,46.0194,0.0]]],
[[[-61.4219,46.0672,0.0],[-61.4283,46.0672,0.0],[-61.4333,46.0636,9.6263],[-61.4275,46.0603,-0.1267],[-61.4225,46.0606,1.6064],[-61.419,46.0634,1.7032],[-61.4219,46.0672,0.0]]],
[[[-61.3012,46.2318,37.7429],[-61.3041,46.2409,0.0],[-61.324,46.2286,8.2522],[-61.3473,46.2178,1.3951],[-61.3764,46.2079,6.7007],[-61.3789,46.2052,52.6621],[-61.3899,46.203,0.0],[-61.3914,46.2011,26.1225],[-61.4153,46.1928,4.9346],[-61.4231,46.1883,5.3211],[-61.4272,46.1842,0.0],[-61.4311,46.1717,26.3765],[-61.4456,46.1633,0.0],[-61.4516,46.1562,0.0],[-61.4503,46.1494,12.8521],[-61.4598,46.1394,0.0],[-61.4653,46.1381,3.3403],[-61.4656,46.1358,19.8486],[-61.4608,46.133,0.4944],[-61.4603,46.1292,0.0],[-61.4648,46.1246,11.9663],[-61.4694,46.1236,0.0],[-61.4686,46.1208,0.0],[-61.4706,46.1164,0.0],[-61.4775,46.1094,0.0],[-61.4758,46.1008,25.3444],[-61.4847,46.0961,0.3757],[-61.4825,46.0919,0.0],[-61.4647,46.0856,2.4989],[-61.4513,46.0858,18.7762],[-61.4454,46.0794,0.5011],[-61.4425,46.0803,0.0],[-61.4406,46.0834,1.514],[-61.4372,46.0814,0.0],[-61.4225,46.0836,3.3198],[-61.4241,46.0808,6.4638],[-61.4186,46.0777,0.0],[-61.4119,46.0833,0.0],[-61.4067,46.0856,8.7666],[-61.4075,46.0836,23.6801],[-61.4131,46.0808,0.0],[-61.4123,46.079,7.7417],[-61.4075,46.0772,2.8424],[-61.4044,46.0722,2.9237],[-61.3971,46.0724,4.6203],[-61.3852,46.0681,1.772],[-61.3822,46.0706,27.1604],[-61.3714,46.0703,-0.5186],[-61.368899999999996,46.0722,12.8153],[-61.3675,46.0708,-2.5],[-61.3736,46.0678,11.2039],[-61.3803,46.0686,5.628],[-61.385,46.0656,0.0235],[-61.3956,46.0702,1.6269],[-61.404,46.0694,3.2589],[-61.4151,46.073,2.5716],[-61.4206,46.0697,0.0],[-61.4161,46.0636,0.0],[-61.4103,46.0631,0.0],[-61.4278,46.0558,0.5494],[-61.4275,46.0522,0.4399],[-61.4322,46.0511,2.6572],[-61.4319,46.0556,4.1039],[-61.4289,46.0586,6.481],[-61.4353,46.0647,28.0569],[-61.4284,46.0704,0.0],[-61.4335,46.0763,4.9715],[-61.4359,46.0779,0.0],[-61.4468,46.0747,5.4532],[-61.4514,46.0751,7.1857],[-61.4567,46.0788,0.0],[-61.4606,46.0778,4.2805],[-61.4603,46.0797,3.8396],[-61.4621,46.0814,1.7677],[-61.4679,46.0809,9.5134],[-61.4722,46.0842,0.735],[-61.4725,46.0867,1.0515],[-61.4767,46.0881,0.0],[-61.4775,46.085,0.0],[-61.4842,46.077,19.8381],[-61.4986,46.0694,14.2696],[-61.5091,46.0668,7.213],[-61.512,46.0644,0.0],[-61.5159,46.0643,0.0],[-61.5214,46.0594,1.1996],[-61.5227,46.06,1.1996],[-61.5225,46.0583,7.3115],[-61.5258,46.0572,0.0],[-61.5267,46.0532,1.2965],[-61.5306,46.0519,10.7371],[-61.5347,46.0544,0.0],[-61.5386,46.0533,0.0],[-61.5517,46.0414,9.0893],[-61.5514,46.0356,0.6924],[-61.5486,46.0319,0.0],[-61.5489,46.0278,0.0],[-61.5411,46.0264,1.3142],[-61.5392,46.0242,3.8142],[-61.5389,46.0178,0.0],[-61.5307,46.0085,0.0],[-61.5306,46.0056,0.0],[-61.5323,46.0037,0.7207],[-61.5403,46.0011,0.0],[-61.5328,45.995,0.0],[-61.5316,45.9922,10.7],[-61.5328,45.9703,0.7568],[-61.5322,45.9681,0.0],[-61.5272,45.9647,14.8599],[-61.5269,45.9601,1.0302],[-61.5297,45.9564,7.7997],[-61.5336,45.9562,4.628],[-61.5344,45.9503,0.0],[-61.5322,45.9467,0.0],[-61.5328,45.9444,0.5962],[-61.5284,45.9407,9.196],[-61.5,45.9395,60.7881],[-61.4788,45.9448,93.8958],[-61.4774,45.9466,100.5876],[-61.4418,45.9507,83.4876],[-61.4273,45.9455,113.7637],[-61.4102,45.936,149.335],[-61.4012,45.938,176.7015],[-61.3784,45.9498,115.7259],[-61.3735,45.9543,87.7403],[-61.3657,45.9526,99.8257],[-61.3571,45.9546,123.1465],[-61.3493,45.9531,149.858],[-61.3462,45.9504,165.3979],[-61.3367,45.948,198.2815],[-61.3268,45.949,185.3251],[-61.3168,45.9544,159.8823],[-61.3157,45.9623,131.9866],[-61.3128,45.959,125.5045],[-61.3047,45.9557,136.0789],[-61.3025,45.9497,145.032],[-61.2939,45.9501,143.3831],[-61.2923,45.9525,143.4692],[-61.2887,45.9534,161.9875],[-61.2868,45.9578,164.0223],[-61.2798,45.9618,156.8983],[-61.2769,45.9675,178.0652],[-61.2731,45.9688,172.2302],[-61.2679,45.9685,189.7132],[-61.2663,45.9647,195.006],[-61.2628,45.9636,226.138],[-61.2586,45.9524,277.2484],[-61.2479,45.9466,275.6726],[-61.2291,45.957,240.2895],[-61.2185,45.9555,252.156],[-61.1989,45.959,236.1209],[-61.196,45.9586,237.0771],[-61.1937,45.9547,251.9541],[-61.1911,45.9535,259.8939],[-61.1704,45.9477,252.7279],[-61.155,45.9474,198.7067],[-61.1596,45.9497,213.1333],[-61.157,45.951,249.4655],[-61.1733,45.9845,93.2682],[-61.1532,45.9894,50.4573],[-61.14,45.9763,10.1382],[-61.1277,45.9669,0.0],[-61.1233,45.9696,0.0],[-61.1236,45.9711,1.2196],[-61.1172,45.9733,2.3871],[-61.1125,45.9706,0.677],[-61.1125,45.9675,0.0],[-61.1094,45.9636,0.0],[-61.0931,45.96,0.0],[-61.0781,45.9608,0.03],[-61.0747,45.9639,8.4319],[-61.0706,45.9644,0.0],[-61.0669,45.9681,6.3961],[-61.057,45.9713,3.6235],[-61.0503,45.9756,23.7621],[-61.0347,45.9772,7.4866],[-61.0292,45.9792,1.5935],[-61.0214,45.9847,10.7282],[-61.0164,45.9833,0.0],[-61.0078,45.9878,1.1991],[-61.0085,45.9925,17.4235],[-61.0121,45.9964,73.3357],[-61.0229,46.0009,103.4444],[-61.0297,46.0117,152.1753],[-61.0411,46.0198,198.8779],[-61.0458,46.0221,217.6528],[-61.0537,46.0223,230.0076],[-61.0743,46.0316,255.807],[-61.0904,46.034,236.8805],[-61.0953,46.0363,174.051],[-61.098,46.0395,116.1436],[-61.0991,46.0388,116.1436],[-61.113,46.052,56.5],[-61.1301,46.0742,56.5],[-61.154,46.0948,56.5],[-61.1598,46.1054,56.5],[-61.1646,46.1095,56.5],[-61.165,46.1142,56.5],[-61.1772,46.1234,56.5],[-61.1794,46.1353,56.5],[-61.1836,46.1388,56.5],[-61.1994,46.1422,56.5],[-61.1986,46.1538,56.5],[-61.201,46.1603,56.5],[-61.2185,46.1612,96.8692],[-61.2265,46.1581,56.5],[-61.2272,46.1608,56.5],[-61.2307,46.1611,56.5],[-61.2461,46.1719,56.5],[-61.2517,46.1732,56.5],[-61.2731,46.1734,83.0076],[-61.2746,46.1674,76.8432],[-61.2777,46.168,86.0875],[-61.2817,46.1739,99.8713],[-61.2765,46.1827,100.9778],[-61.2814,46.189,75.3549],[-61.2805,46.1934,80.4923],[-61.2732,46.1957,82.0334],[-61.2777,46.1999,60.4886],[-61.2799,46.2104,58.1191],[-61.2841,46.2157,52.3286],[-61.2913,46.2176,26.3185],[-61.3051,46.2249,38.7483],[-61.3012,46.2318,37.7429]]]]}
,"properties": {"GID_3": "CAN.7.10.2_1","GID_0": "CAN","country": "Canada","GID_1": "CAN.7_1","province": "NovaScotia","NL_NAME_1": "NA","GID_2": "CAN.7.10_1","county": "Inverness","NL_NAME_2": "NA","city": "Inverness,Subd.B","VARNAME_3": "NA","NL_NAME_3": "NA","TYPE_3": "SubdivisionofCountyMunicipali","ENGTYPE_3": "SubdivisionofCountyMunicipali","CC_3": "NA","HASC_3": "NA","name": "Inverness,Subd.B.city","area_km2": 772.6597,"hist_schema_id": "Elevation0-9000","hist_area_km2": {"0": 20.0283,"25": 54.1401,"50": 118.9317,"75": 112.6008,"100": 92.7032,"125": 76.3757,"150": 61.6466,"175": 50.0713,"200": 42.0456,"225": 39.267,"250": 41.0486,"275": 28.1872,"300": 20.0291,"325": 14.2483,"350": 1.336}}}