{"type":"Feature","properties":{"GID_3":"CAN.9.20.40_1","GID_0":"CAN","country":"Canada","GID_1":"CAN.9_1","province":"Ontario","NL_NAME_1":"NA","GID_2":"CAN.9.20_1","county":"Kenora","NL_NAME_2":"NA","city":"SachigoLake1","VARNAME_3":"NA","NL_NAME_3":"NA","TYPE_3":"RéserveIndienne","ENGTYPE_3":"IndianReserve","CC_3":"NA","HASC_3":"NA","name":"Sachigo_Lake1.city"},
"geometry":{"type": "MultiPolygon","coordinates": [[[[-92.2316,53.8391,245.0],[-92.2254,53.8446,245.0],[-92.2015,53.8469,259.8435],[-92.2011,53.8435,245.0],[-92.1984,53.8417,245.0],[-92.1926,53.8463,245.0],[-92.188,53.8465,245.0],[-92.1838,53.8496,245.0],[-92.1919,53.8582,248.4849],[-92.1865,53.8623,245.0],[-92.1664,53.8616,245.0],[-92.1603,53.8644,245.0],[-92.1622,53.8683,246.4552],[-92.1564,53.8726,246.1551],[-92.1522,53.8735,245.0],[-92.146,53.8715,245.0],[-92.1437,53.8722,245.0],[-92.1433,53.8758,245.0],[-92.1464,53.8818,245.0],[-92.1364,53.885,245.0],[-92.1326,53.8848,245.0],[-92.1287,53.8797,255.2989],[-92.1344,53.8729,258.0634],[-92.1309,53.8606,245.0],[-92.1251,53.8649,245.0],[-92.1185,53.8609,248.2672],[-92.121,53.9029,258.1061],[-92.1506,53.9177,250.862],[-92.1685,53.9121,250.332],[-92.2086,53.8953,268.0249],[-92.2092,53.8655,257.7726],[-92.2985,53.8614,247.2851],[-92.2842,53.857,248.4599],[-92.2672,53.8564,246.516],[-92.2633,53.8541,259.1913],[-92.2641,53.8463,245.0],[-92.261,53.8447,245.0],[-92.2575,53.8473,245.0],[-92.2525,53.8459,252.3011],[-92.2475,53.8482,245.0],[-92.2374,53.8478,245.0],[-92.2335,53.8453,264.0262],[-92.2339,53.8405,245.0],[-92.2316,53.8391,245.0]]]]}}