{"type":"Feature","properties":{"GID_3":"CAN.9.48.4_1","GID_0":"CAN","country":"Canada","GID_1":"CAN.9_1","province":"Ontario","NL_NAME_1":"NA","GID_2":"CAN.9.48_1","county":"ThunderBay","NL_NAME_2":"NA","city":"FortWilliam52","VARNAME_3":"NA","NL_NAME_3":"NA","TYPE_3":"RéserveIndienne","ENGTYPE_3":"IndianReserve","CC_3":"NA","HASC_3":"NA","name":"Fort_William52.city"},
"geometry":{"type": "MultiPolygon","coordinates": [[[[-89.2041,48.3081,195.4208],[-89.2132,48.3117,187.5152],[-89.2108,48.3131,193.074],[-89.2062,48.3117,206.2079],[-89.2107,48.3194,193.5062],[-89.2071,48.3289,194.6739],[-89.2154,48.3335,190.217],[-89.2207,48.3393,185.3312],[-89.2256,48.3482,184.7935],[-89.2632,48.3572,189.6319],[-89.2797,48.3566,192.7782],[-89.2864,48.355,192.1721],[-89.2856,48.3519,194.8549],[-89.2754,48.3512,193.6119],[-89.2752,48.346,221.1843],[-89.2789,48.3459,335.8086],[-89.279,48.3483,252.3117],[-89.2878,48.348,225.8818],[-89.2879,48.3454,472.65],[-89.2904,48.3439,443.5373],[-89.297,48.3429,258.1552],[-89.2964,48.3502,196.9527],[-89.3061,48.3444,188.0305],[-89.3063,48.3175,314.4567],[-89.3336,48.3172,213.9121],[-89.3339,48.308,261.9966],[-89.3375,48.3079,251.2358],[-89.3364,48.2898,385.0229],[-89.3295,48.2885,331.6292],[-89.3199,48.2779,298.1245],[-89.2961,48.2733,289.1001],[-89.2948,48.2733,289.1001],[-89.2946,48.2753,301.5753],[-89.2895,48.2753,303.8084],[-89.2892,48.2724,304.8469],[-89.2572,48.2668,182.0786],[-89.2504,48.2699,194.2567],[-89.244,48.2759,209.21],[-89.2396,48.2864,317.6509],[-89.2418,48.2969,330.8609],[-89.2391,48.3028,180.5],[-89.2213,48.2959,180.5],[-89.2137,48.2969,180.5],[-89.2119,48.3051,200.2554],[-89.2054,48.3047,180.5],[-89.2032,48.3067,180.5],[-89.2041,48.3081,195.4208]]]]}}