{"type": "Feature","bbox": [-71.9204,45.1592,-71.7356,45.3072],"geometry": {"type": "MultiPolygon","coordinates": [[[[-71.7356,45.1592,448.3347],[-71.7395,45.3051,273.0347],[-71.8435,45.3062,236.9235],[-71.8429,45.2795,225.0613],[-71.8497,45.2796,204.4098],[-71.8495,45.2743,202.9799],[-71.8616,45.2758,193.6309],[-71.8617,45.2637,210.3458],[-71.9007,45.265,265.6635],[-71.9008,45.2703,256.0526],[-71.9193,45.2704,247.2438],[-71.9169,45.1601,402.7466],[-71.7356,45.1592,448.3347]]],
[[[-71.92,45.2811,244.5922],[-71.901,45.2811,202.8775],[-71.9009,45.2969,239.6593],[-71.8832,45.2968,216.593],[-71.8827,45.3068,179.4575],[-71.9204,45.3072,161.4092],[-71.92,45.2811,244.5922]]]]}
,"properties": {"GID_3": "CAN.11.18.3_1","GID_0": "CAN","country": "Canada","GID_1": "CAN.11_1","province": "Québec","NL_NAME_1": "NA","GID_2": "CAN.11.18_1","county": "Coaticook","NL_NAME_2": "NA","city": "Compton","VARNAME_3": "NA","NL_NAME_3": "NA","TYPE_3": "Municipalité","ENGTYPE_3": "Municipality","CC_3": "NA","HASC_3": "NA","name": "Compton.city","area_km2": 211.4428,"hist_schema_id": "Elevation0-9000","hist_area_km2": {"150": 0.6562,"175": 2.2818,"200": 19.0028,"225": 16.1933,"250": 23.0748,"275": 46.0832,"300": 33.4983,"325": 29.0365,"350": 19.0349,"375": 12.881,"400": 5.3952,"425": 3.0939,"450": 1.1511,"475": 0.0598}}}