{"type":"Feature","properties":{"GID_3":"CAN.5.5.6_1","GID_0":"CAN","country":"Canada","GID_1":"CAN.5_1","province":"NewfoundlandandLabrador","NL_NAME_1":"NA","GID_2":"CAN.5.5_1","county":"DivisionNo.3","NL_NAME_2":"NA","city":"DivisionNo.3,Subd.B","VARNAME_3":"NA","NL_NAME_3":"NA","TYPE_3":"SubdivisionofUnorganized","ENGTYPE_3":"SubdivisionofUnorganized","CC_3":"NA","HASC_3":"NA","name":"Division_No.3,Subd.B.city"},
"geometry":{"type": "MultiPolygon","coordinates": [[[[-55.9664,47.2395,1.6803],[-55.9656,47.2387,0.0],[-55.9621,47.2406,2.473],[-55.9636,47.241,0.0],[-55.9664,47.2395,1.6803]]],
[[[-55.9517,47.2467,41.6992],[-55.9526,47.2486,8.6413],[-55.9502,47.2523,0.0],[-55.9548,47.2512,0.0],[-55.9543,47.2486,23.657],[-55.9624,47.2462,0.0],[-55.9589,47.2444,55.1532],[-55.9584,47.2409,4.3273],[-55.9525,47.2425,8.0249],[-55.947,47.2469,5.4469],[-55.9517,47.2467,41.6992]]],
[[[-55.9428,47.2507,3.434],[-55.9432,47.2497,0.0],[-55.9412,47.2499,1.5419],[-55.9397,47.253,0.0],[-55.941,47.2526,0.0],[-55.9428,47.2507,3.434]]],
[[[-55.9475,47.253,0.0],[-55.9455,47.2523,4.3115],[-55.9417,47.2554,0.0],[-55.9399,47.2594,0.0],[-55.9434,47.261,0.0],[-55.9493,47.2589,0.0],[-55.9475,47.253,0.0]]],
[[[-55.9772,47.2611,1.0394],[-55.975,47.2614,0.0],[-55.974,47.2628,0.5548],[-55.9772,47.2628,0.619],[-55.9772,47.2611,1.0394]]],
[[[-55.8797,47.3006,0.0],[-55.8864,47.3011,0.0],[-55.8989,47.2981,0.0],[-55.9103,47.2918,0.0],[-55.9124,47.2883,5.0178],[-55.9247,47.2883,18.3888],[-55.9292,47.2858,6.3403],[-55.9364,47.2856,0.0],[-55.94,47.2822,0.0],[-55.9492,47.2803,8.626],[-55.9575,47.2753,1.6415],[-55.9717,47.2701,0.0],[-55.9688,47.2688,33.3043],[-55.9722,47.2653,0.0],[-55.9656,47.2631,0.0],[-55.9555,47.2674,36.0094],[-55.944,47.2697,3.7653],[-55.9323,47.267,0.0],[-55.9077,47.2698,6.2145],[-55.9025,47.2686,0.0],[-55.901,47.266,0.465],[-55.905,47.2617,1.032],[-55.9025,47.2578,0.7635],[-55.8943,47.2601,0.0],[-55.8844,47.259,7.1323],[-55.876,47.2663,1.2835],[-55.8714,47.2667,0.0],[-55.8694,47.2658,0.1025],[-55.8711,47.2614,0.0],[-55.8796,47.2551,0.0],[-55.87,47.2544,2.4235],[-55.8684,47.2558,21.713],[-55.8568,47.2568,2.4782],[-55.8597,47.2607,0.0],[-55.8581,47.2666,0.2773],[-55.8606,47.2686,9.7273],[-55.8525,47.2708,16.3904],[-55.8422,47.2706,22.1585],[-55.8383,47.2725,16.483],[-55.8386,47.2742,0.0],[-55.845,47.275,3.5134],[-55.8478,47.2747,6.4232],[-55.8503,47.2722,0.0],[-55.8686,47.271,0.0],[-55.8695,47.2761,4.3023],[-55.8725,47.278,0.0],[-55.8717,47.2836,0.0],[-55.8746,47.2879,13.5722],[-55.8745,47.2959,5.1777],[-55.8797,47.3006,0.0]]],
[[[-55.869,47.5179,4.2512],[-55.868,47.5199,2.5583],[-55.8694,47.521,2.5521],[-55.876,47.5222,0.0],[-55.8819,47.5203,54.5421],[-55.8845,47.521,0.0],[-55.8882,47.5185,40.1293],[-55.8951,47.5172,0.0],[-55.898,47.5142,5.3986],[-55.8967,47.5115,0.0],[-55.8806,47.5134,0.0],[-55.874,47.5183,7.0234],[-55.869,47.5179,4.2512]]],
[[[-55.7766,47.3724,0.0],[-55.7801,47.372,5.1273],[-55.777,47.3745,0.7111],[-55.7799,47.3748,11.2153],[-55.7936,47.3704,2.105],[-55.7976,47.3683,0.2809],[-55.7982,47.3663,0.0],[-55.7931,47.3636,0.0],[-55.787,47.3642,9.6184],[-55.7778,47.3686,1.0035],[-55.7755,47.3717,0.0],[-55.7766,47.3724,0.0]]],
[[[-55.8494,47.5078,5.8761],[-55.8526,47.5099,1.296],[-55.8557,47.5086,43.8384],[-55.8572,47.5051,0.0],[-55.8535,47.5036,0.0],[-55.8494,47.5078,5.8761]]],
[[[-55.6289,47.5292,29.5204],[-55.6305,47.5335,58.0322],[-55.6333,47.5356,0.0],[-55.6464,47.5308,1.0332],[-55.6492,47.5277,0.0],[-55.6487,47.5263,2.6671],[-55.6547,47.5222,27.4247],[-55.6528,47.5206,13.2843],[-55.6492,47.5233,4.9205],[-55.6451,47.5228,0.0],[-55.6449,47.5196,0.0],[-55.6478,47.5139,6.3806],[-55.6453,47.5119,0.0],[-55.645,47.5075,0.0],[-55.6433,47.5058,3.0836],[-55.6323,47.5116,7.5539],[-55.6279,47.5197,0.0],[-55.6289,47.5292,29.5204]]],
[[[-55.8558,47.5252,0.0],[-55.857,47.5274,0.0],[-55.8607,47.5272,0.0],[-55.868,47.5238,1.9572],[-55.8657,47.5226,3.2069],[-55.8558,47.5252,0.0]]],
[[[-55.5867,47.6516,327.982],[-55.6016,47.6521,262.0858],[-55.6176,47.6555,347.6034],[-55.6419,47.6228,308.9676],[-55.6539,47.6172,232.2299],[-55.6719,47.6161,277.8412],[-55.7121,47.621,77.7613],[-55.7263,47.6163,3.8529],[-55.7284,47.6107,5.6764],[-55.7494,47.5899,3.3595],[-55.7459,47.5885,0.0],[-55.7467,47.5864,29.4392],[-55.7542,47.5822,0.0],[-55.7661,47.5789,0.0],[-55.7723,47.5719,28.2328],[-55.7897,47.5608,0.0],[-55.7918,47.5558,0.0],[-55.8051,47.5491,0.0],[-55.8042,47.5461,0.0],[-55.8014,47.5444,0.7234],[-55.8036,47.5426,0.0],[-55.8167,47.5355,0.0],[-55.8258,47.5324,1.0412],[-55.8328,47.5259,0.0],[-55.8313,47.5236,10.6343],[-55.8392,47.5203,9.4769],[-55.8394,47.5175,1.7097],[-55.8471,47.514,0.0],[-55.8536,47.5131,4.5672],[-55.8528,47.5109,3.5377],[-55.8458,47.5111,12.5845],[-55.8458,47.5089,37.1842],[-55.8436,47.5069,0.0],[-55.8308,47.5119,0.0],[-55.8264,47.5094,0.3177],[-55.8267,47.5069,15.4678],[-55.8518,47.4965,4.2567],[-55.8572,47.4925,0.0],[-55.8662,47.4899,18.9268],[-55.874,47.49,5.9164],[-55.8761,47.4881,4.9581],[-55.8858,47.4861,0.0],[-55.8938,47.4793,6.2809],[-55.9015,47.478,7.9619],[-55.9114,47.4608,1.9869],[-55.9145,47.4602,15.9051],[-55.9224,47.4536,41.9354],[-55.9288,47.4526,0.0],[-55.9315,47.4506,0.0],[-55.9291,47.4458,0.0],[-55.9397,47.4389,0.0],[-55.9343,47.439,67.5914],[-55.9304,47.4354,0.0],[-55.9285,47.4355,15.0982],[-55.9172,47.4477,14.131],[-55.906,47.4561,3.3171],[-55.8907,47.4583,0.0],[-55.8857,47.4647,0.8447],[-55.8789,47.466,5.185],[-55.8733,47.4649,0.0],[-55.8655,47.4684,3.9801],[-55.8725,47.4723,74.9838],[-55.8343,47.4976,121.6954],[-55.7953,47.4954,39.7926],[-55.7933,47.5071,15.723],[-55.7811,47.5231,0.0],[-55.7719,47.5385,0.0],[-55.7608,47.5424,26.4995],[-55.7561,47.5548,10.5729],[-55.748,47.5632,7.7237],[-55.7306,47.5719,0.0],[-55.7262,47.5698,0.0],[-55.7237,47.5715,3.8715],[-55.7231,47.5789,0.0],[-55.7257,47.5817,15.1746],[-55.7262,47.586,5.7195],[-55.7169,47.5922,20.8537],[-55.7143,47.59,5.2779],[-55.7212,47.5842,0.0],[-55.7189,47.5806,11.364],[-55.7222,47.5792,4.2086],[-55.7192,47.5767,0.0],[-55.7206,47.5728,0.0],[-55.7256,47.5683,17.9486],[-55.7309,47.5675,0.0],[-55.747,47.5499,74.7006],[-55.7519,47.5395,0.0],[-55.762,47.5288,0.0],[-55.7703,47.5147,0.0],[-55.7692,47.5131,2.7278],[-55.7719,47.5114,6.2054],[-55.7697,47.5092,0.0],[-55.7708,47.5061,3.4667],[-55.7838,47.4925,24.2682],[-55.7779,47.4867,0.0],[-55.7705,47.4887,0.0],[-55.7672,47.4918,0.0],[-55.7685,47.495,29.9189],[-55.7673,47.4982,0.0],[-55.7619,47.5008,4.9263],[-55.7623,47.4931,0.0],[-55.7593,47.4895,5.5186],[-55.7623,47.4871,0.0],[-55.7672,47.4873,0.0],[-55.7709,47.483,0.0],[-55.7727,47.4765,0.0],[-55.7714,47.475,0.0],[-55.7669,47.4775,3.9385],[-55.7668,47.4731,7.0553],[-55.7693,47.4667,18.9595],[-55.7737,47.4624,7.8965],[-55.7789,47.4531,0.0],[-55.7792,47.4486,0.0],[-55.772,47.4507,0.0],[-55.7686,47.4544,32.549],[-55.7544,47.4579,6.0658],[-55.752,47.4615,12.4571],[-55.7324,47.4665,0.0],[-55.725,47.474,18.8745],[-55.7133,47.4764,1.5642],[-55.7036,47.4847,0.7664],[-55.7102,47.4858,0.0],[-55.7118,47.4922,0.0],[-55.7137,47.4938,0.0],[-55.7144,47.5015,0.0],[-55.7212,47.5043,1.7914],[-55.7263,47.5009,-0.5],[-55.7231,47.5075,3.645],[-55.7182,47.5104,-0.5],[-55.7122,47.5105,5.679],[-55.717,47.505,-0.5],[-55.7153,47.5033,0.9727],[-55.6996,47.5062,6.9279],[-55.6936,47.5114,1.0829],[-55.6911,47.5114,2.672],[-55.7006,47.5022,0.0],[-55.6962,47.5025,28.6131],[-55.6916,47.5002,0.0],[-55.6877,47.5015,0.0],[-55.6839,47.4983,0.0],[-55.6862,47.4945,1.5354],[-55.6853,47.4919,22.8812],[-55.6888,47.4885,6.3291],[-55.6861,47.4836,0.0],[-55.6839,47.4856,47.2833],[-55.6728,47.4875,11.0825],[-55.6699,47.4925,2.3903],[-55.6706,47.4947,2.0504],[-55.6611,47.4936,0.0],[-55.656,47.4974,13.5465],[-55.6549,47.5008,64.5828],[-55.6489,47.5017,0.0],[-55.6478,47.5047,0.0],[-55.6533,47.515,1.5356],[-55.6494,47.515,0.0],[-55.6489,47.5172,4.6606],[-55.6554,47.5184,33.7375],[-55.6611,47.5217,21.7196],[-55.6454,47.5366,10.3169],[-55.6428,47.5422,2.8436],[-55.6419,47.5542,6.6347],[-55.6357,47.5493,14.1659],[-55.6374,47.545,0.0],[-55.6324,47.5441,14.4663],[-55.6272,47.5513,0.0],[-55.6184,47.5573,5.2753],[-55.6101,47.5605,59.3921],[-55.6061,47.5594,2.8483],[-55.5986,47.5619,0.0],[-55.5915,47.575,1.2907],[-55.5809,47.5813,-1.1609],[-55.5806,47.5778,41.0319],[-55.5844,47.5684,0.8394],[-55.5901,47.5611,16.1826],[-55.6089,47.5534,7.3462],[-55.6125,47.5482,12.2248],[-55.6173,47.5482,16.0499],[-55.6302,47.5409,0.0],[-55.631,47.5392,0.0],[-55.6296,47.5372,5.6372],[-55.6219,47.5381,0.0],[-55.624,47.5307,0.0],[-55.6214,47.529,15.8766],[-55.6127,47.5345,0.0],[-55.6122,47.5381,1.2528],[-55.607,47.5378,9.4753],[-55.5988,47.5509,190.27],[-55.5861,47.5622,39.8406],[-55.5502,47.5677,160.4557],[-55.5341,47.5715,204.6993],[-55.5195,47.5773,162.214],[-55.5149,47.5842,186.2224],[-55.5183,47.5996,147.1353],[-55.5311,47.6151,163.2075],[-55.5489,47.6255,150.7188],[-55.5594,47.6405,240.3387],[-55.5613,47.6556,235.711],[-55.5867,47.6516,327.982]]],
[[[-55.7263,47.6163,3.8529],[-55.7269,47.616,12.9911],[-55.7266,47.616,3.8529],[-55.7263,47.6163,3.8529]]]]}}