{"type":"Feature","properties":{"GID_3":"CAN.2.13.22_1","GID_0":"CAN","country":"Canada","GID_1":"CAN.2_1","province":"BritishColumbia","NL_NAME_1":"NA","GID_2":"CAN.2.13_1","county":"FraserValley","NL_NAME_2":"NA","city":"FraserValleyF","VARNAME_3":"NA","NL_NAME_3":"NA","TYPE_3":"RegionalDistrictElectoralArea","ENGTYPE_3":"RegionalDistrictElectoralArea","CC_3":"NA","HASC_3":"NA","name":"Fraser_Valley_F.city"},
"geometry":{"type": "MultiPolygon","coordinates": [[[[-122.7671,49.9327,2210.1099],[-122.7702,49.934,2221.3684],[-122.7752,49.9313,2220.5381],[-122.7948,49.9361,2239.7148],[-122.7946,49.9309,2132.1499],[-122.8,49.9206,2130.604],[-122.8092,49.9183,2167.0986],[-122.8231,49.9193,2112.1724],[-122.8288,49.9179,1879.2415],[-122.8566,49.9181,1983.3953],[-122.8604,49.916,1942.6392],[-122.8694,49.9035,2038.436],[-122.892,49.894,2278.677],[-122.9024,49.8987,2335.3389],[-122.9056,49.9044,2440.0969],[-122.9159,49.9131,2041.2095],[-122.9296,49.9172,2431.9438],[-122.9361,49.9174,2303.9358],[-122.9433,49.9131,2172.8257],[-122.9504,49.9112,2126.1099],[-122.9542,49.9045,2133.3533],[-122.9617,49.9026,2003.1151],[-122.9736,49.8828,2025.7039],[-122.9802,49.8809,2067.9949],[-122.9851,49.8774,1866.5287],[-122.9867,49.873,1804.7832],[-123.002,49.8561,2290.5122],[-122.9958,49.8543,2252.6465],[-122.9886,49.8575,2122.5588],[-122.9846,49.8574,2053.3906],[-122.9747,49.8428,1743.2634],[-122.9637,49.8349,1610.3522],[-122.9236,49.8318,1514.8282],[-122.9149,49.8301,1437.3877],[-122.9005,49.8244,1928.9209],[-122.8861,49.8271,2047.6051],[-122.8789,49.8267,2158.3359],[-122.8705,49.8216,2130.9272],[-122.8719,49.8182,2158.936],[-122.8879,49.8016,2164.9941],[-122.8878,49.7984,2145.0144],[-122.8653,49.7752,2364.896],[-122.869,49.77,2050.0693],[-122.853,49.7556,1724.6887],[-122.8513,49.7502,1669.2058],[-122.8527,49.742,2015.1357],[-122.847,49.7402,1927.2535],[-122.8314,49.7291,1680.1006],[-122.8278,49.7219,1572.4976],[-122.8219,49.7151,1801.2561],[-122.8139,49.7134,1757.6205],[-122.8113,49.7106,1828.3491],[-122.8107,49.7,1477.2988],[-122.8129,49.6975,1606.5841],[-122.8126,49.6957,1656.1022],[-122.8505,49.6712,1766.5654],[-122.852,49.6657,1789.6886],[-122.8294,49.6579,1826.6873],[-122.8283,49.652,1791.5125],[-122.8242,49.6484,1856.8854],[-122.8267,49.6431,1614.8563],[-122.8197,49.636,1464.468],[-122.8195,49.6322,1436.4031],[-122.8143,49.6281,1691.8596],[-122.8076,49.6261,1650.3317],[-122.8101,49.6195,1587.0603],[-122.8267,49.613,1504.6414],[-122.8485,49.6138,1531.7324],[-122.8512,49.6082,1333.7854],[-122.8345,49.5999,1531.3486],[-122.8305,49.5947,1590.3381],[-122.8312,49.5905,1660.1438],[-122.8259,49.5874,1773.6522],[-122.8148,49.5728,1844.2135],[-122.7786,49.5746,1370.3213],[-122.6998,49.5732,1450.4668],[-122.6926,49.5683,1384.1405],[-122.6832,49.5527,1290.1071],[-122.6552,49.5381,1423.5623],[-122.6384,49.5372,1182.6481],[-122.6088,49.5388,0.7276],[-122.609,49.5372,0.0],[-122.5999,49.5264,0.0],[-122.597,49.5166,0.0],[-122.5777,49.4914,0.0],[-122.5588,49.486,0.0],[-122.5354,49.4743,0.0],[-122.5273,49.4563,0.0],[-122.5345,49.4204,0.0],[-122.5795,49.3619,0.0],[-122.5795,49.3565,0.0],[-122.5758,49.3553,85.6896],[-122.5781,49.353,66.6576],[-122.3018,49.3532,77.5],[-122.3009,49.3319,77.5],[-122.2915,49.3003,77.5],[-122.2779,49.2798,77.5],[-122.2744,49.2696,114.748],[-122.2744,49.264,102.0731],[-122.271,49.2638,115.1368],[-122.2698,49.1766,166.4945],[-122.2032,49.1755,323.221],[-122.2024,49.1988,807.136],[-122.1275,49.1983,800.3572],[-122.1151,49.208,1136.3273],[-122.1072,49.2197,1029.0504],[-122.0958,49.2246,1099.8772],[-122.0927,49.2287,1112.5104],[-122.0819,49.2303,979.9614],[-122.07,49.2343,1307.5392],[-122.0729,49.2389,1168.2675],[-122.0623,49.2516,1293.79],[-122.0604,49.2569,1265.9163],[-122.0531,49.2599,1210.1658],[-122.0364,49.2624,1286.9554],[-122.0284,49.267,1050.635],[-122.0187,49.2698,1157.6122],[-122.0153,49.2744,1231.344],[-122.0059,49.2794,1126.0391],[-122.0147,49.28,1291.4042],[-122.0165,49.2833,1219.0149],[-122.0333,49.2933,1146.4783],[-122.0423,49.3011,1086.7515],[-122.0576,49.3063,986.6586],[-122.07,49.3147,1112.384],[-122.077,49.3164,1006.9879],[-122.0843,49.3228,839.4218],[-122.0866,49.3321,986.6649],[-122.0898,49.3347,936.3173],[-122.1029,49.3325,1088.0917],[-122.115,49.3359,1262.0312],[-122.1218,49.3354,1044.7186],[-122.1299,49.3288,734.7899],[-122.1308,49.3199,1020.7203],[-122.1348,49.3137,1046.1106],[-122.1457,49.3133,1024.0699],[-122.1609,49.3215,834.3583],[-122.1666,49.3332,1132.6971],[-122.1654,49.34,1013.0892],[-122.171,49.347,1144.6284],[-122.1698,49.3524,1222.3782],[-122.167,49.3562,1141.0789],[-122.1526,49.3657,1332.3406],[-122.1669,49.3723,1033.7444],[-122.1832,49.3971,935.7397],[-122.1811,49.4031,670.3961],[-122.1724,49.409,954.222],[-122.1704,49.4151,1266.0382],[-122.1648,49.4221,1388.2439],[-122.1581,49.4259,1384.5762],[-122.1496,49.4363,1034.1879],[-122.1421,49.4388,1365.8688],[-122.1392,49.4446,1257.3093],[-122.1464,49.4579,1503.4681],[-122.1445,49.4642,1425.6956],[-122.146,49.4685,1488.1804],[-122.1379,49.4764,1333.1475],[-122.1386,49.4819,1545.6517],[-122.1262,49.4869,1634.7334],[-122.1259,49.4903,1676.7792],[-122.1336,49.5001,1574.7681],[-122.1301,49.5123,1543.2402],[-122.1266,49.5171,1400.8689],[-122.1115,49.5296,1801.7083],[-122.0925,49.5381,1933.0674],[-122.0797,49.5419,1672.5695],[-122.0772,49.5463,1321.449],[-122.0805,49.5595,1927.8347],[-122.0793,49.5639,1887.1338],[-122.0715,49.5723,1665.835],[-122.0699,49.5763,1701.8257],[-122.071,49.5809,1953.3723],[-122.0731,49.5831,2118.3533],[-122.0871,49.5885,1853.2979],[-122.0914,49.5923,1614.0504],[-122.0937,49.5952,1473.2045],[-122.0905,49.6021,1567.5549],[-122.0934,49.6075,1767.0011],[-122.1024,49.6087,1556.302],[-122.1305,49.6014,1435.4993],[-122.1397,49.6011,1544.4573],[-122.1468,49.6029,1665.821],[-122.1545,49.6082,1664.3315],[-122.1576,49.6082,1555.1998],[-122.1643,49.6064,1347.1895],[-122.193,49.5902,1601.375],[-122.2205,49.5872,1012.6472],[-122.2445,49.5873,1864.2246],[-122.2498,49.5906,1767.6569],[-122.2533,49.5996,1735.7843],[-122.2785,49.6035,1479.7338],[-122.2924,49.6107,1620.7394],[-122.2927,49.6197,1385.9634],[-122.2888,49.6311,1458.2863],[-122.2817,49.6438,1961.5377],[-122.2806,49.6503,1803.9757],[-122.2825,49.6576,1968.9324],[-122.288,49.6619,1850.2544],[-122.2966,49.6632,1816.6278],[-122.3196,49.662,1289.0649],[-122.3332,49.6637,1658.0742],[-122.3421,49.6622,1722.4648],[-122.3485,49.6592,1825.4983],[-122.3499,49.6567,1937.5355],[-122.3493,49.6529,1831.6063],[-122.3455,49.6488,1736.1519],[-122.3443,49.6411,1695.2537],[-122.3401,49.6347,1717.8789],[-122.3448,49.6213,1724.9122],[-122.3659,49.6219,1616.7739],[-122.3886,49.6271,1419.7626],[-122.3983,49.634,1293.6219],[-122.4026,49.6401,1001.1952],[-122.4121,49.6412,789.7845],[-122.4455,49.6359,1321.5624],[-122.4542,49.6409,1556.2644],[-122.4554,49.6435,1468.2168],[-122.4541,49.6489,1589.0601],[-122.4613,49.657,1468.48],[-122.4606,49.6648,1739.5149],[-122.4619,49.6674,1845.1084],[-122.475,49.6766,1882.4219],[-122.4719,49.6779,1874.1096],[-122.467,49.6848,1449.979],[-122.4747,49.6944,1611.5416],[-122.4673,49.7062,1751.236],[-122.4572,49.7135,1658.9517],[-122.451,49.7156,1490.8433],[-122.4236,49.7133,1819.2821],[-122.4204,49.7144,1788.9097],[-122.4165,49.7204,1808.3274],[-122.4188,49.7263,1860.7301],[-122.425,49.7255,1580.4268],[-122.4312,49.7337,1821.1179],[-122.43,49.7411,1966.4072],[-122.4235,49.7425,2065.96],[-122.4217,49.7473,2000.6312],[-122.4173,49.7482,2018.8496],[-122.4214,49.7543,2018.3],[-122.4302,49.7578,2095.6497],[-122.443,49.7558,2039.4242],[-122.4466,49.7499,1942.55],[-122.453,49.7499,1905.3574],[-122.4691,49.7669,1670.1274],[-122.4795,49.7724,1498.6487],[-122.4839,49.7779,1437.4993],[-122.5022,49.7792,1282.9446],[-122.509,49.7842,1327.9634],[-122.5158,49.7847,1558.0334],[-122.5196,49.7807,1702.108],[-122.5251,49.7788,1534.7302],[-122.5408,49.781,1856.2412],[-122.5453,49.7838,1796.713],[-122.5505,49.7824,1922.5728],[-122.5836,49.783,2069.0811],[-122.6015,49.7769,2150.1487],[-122.6139,49.778,2223.0781],[-122.6327,49.7746,2086.4014],[-122.6377,49.7755,2121.2244],[-122.6419,49.7817,2015.287],[-122.6463,49.7842,1946.0548],[-122.6477,49.7878,1862.1454],[-122.6469,49.7962,1807.3103],[-122.6362,49.8059,1781.1874],[-122.6408,49.8123,1870.1405],[-122.653,49.8191,2115.9551],[-122.6611,49.8193,2168.564],[-122.6637,49.824,2141.8303],[-122.6506,49.8371,2307.3662],[-122.6333,49.8357,2282.551],[-122.6294,49.8385,2247.2534],[-122.6253,49.8388,2227.9287],[-122.6207,49.8359,2173.3601],[-122.615,49.8353,2171.7063],[-122.6094,49.8385,2127.5862],[-122.6073,49.8429,2059.6338],[-122.6109,49.8488,1803.229],[-122.6111,49.8524,1708.2107],[-122.6072,49.8613,1475.8256],[-122.5981,49.8639,1533.2822],[-122.5905,49.8641,1537.9204],[-122.5786,49.8705,1859.8735],[-122.5781,49.8722,1986.2858],[-122.5864,49.8782,2263.3298],[-122.595,49.879,2258.9727],[-122.6014,49.8764,2070.1733],[-122.6118,49.8751,2015.276],[-122.6266,49.8766,1897.7061],[-122.6389,49.8724,1830.6622],[-122.6458,49.8738,1725.4823],[-122.665,49.8728,1729.7271],[-122.6766,49.8739,1963.0914],[-122.6992,49.8797,2312.9114],[-122.7093,49.8887,2056.9902],[-122.7141,49.891,2010.4327],[-122.7195,49.8921,1791.1448],[-122.7298,49.8905,1705.7362],[-122.7461,49.8914,2211.1992],[-122.7457,49.8964,2153.3838],[-122.7483,49.904,2163.2314],[-122.7449,49.9077,2172.0581],[-122.7512,49.9137,1943.066],[-122.7553,49.9245,1708.7106],[-122.7583,49.9275,2009.4746],[-122.7667,49.9312,2190.6907],[-122.7671,49.9327,2210.1099]]]]}}