{"type": "Feature","bbox": [-113.1215,50.1208,-113.1038,50.1354],"geometry": {"type": "MultiPolygon","coordinates": [[[[-113.1161,50.1208,941.1674],[-113.104,50.1208,941.3503],[-113.1038,50.1354,903.2997],[-113.1215,50.1353,904.738],[-113.1188,50.1291,901.3362],[-113.1205,50.1265,907.0458],[-113.1203,50.1209,940.5013],[-113.1161,50.1208,941.1674]]]]}
,"properties": {"GID_3": "CAN.1.15.4_1","GID_0": "CAN","country": "Canada","GID_1": "CAN.1_1","province": "Alberta","NL_NAME_1": "NA","GID_2": "CAN.1.15_1","county": "DivisionNo.5","NL_NAME_2": "NA","city": "Carmangay","VARNAME_3": "NA","NL_NAME_3": "NA","TYPE_3": "Village","ENGTYPE_3": "Village","CC_3": "NA","HASC_3": "NA","name": "Carmangay.city","area_km2": 1.889312,"hist_schema_id": "Elevation0-9000","hist_area_km2": {"900": 0.231052,"925": 0.747515,"950": 0.910745}}}