{"type": "Feature","bbox": [-72.983,45.5566,-72.9032,45.6129],"geometry": {"type": "MultiPolygon","coordinates": [[[[-72.9032,45.5784,40.2176],[-72.9345,45.6024,32.3341],[-72.9268,45.6076,31.924],[-72.9344,45.609,31.7654],[-72.9387,45.6061,31.87],[-72.9361,45.6035,32.1035],[-72.9434,45.599,31.985],[-72.9621,45.6129,35.1283],[-72.972,45.6089,35.8409],[-72.9689,45.6021,30.6061],[-72.9819,45.5788,30.4796],[-72.983,45.5712,32.514],[-72.9699,45.5602,32.1294],[-72.9588,45.5716,32.0244],[-72.9359,45.5566,32.3376],[-72.9032,45.5784,40.2176]]]]}
,"properties": {"GID_3": "CAN.11.68.2_1","GID_0": "CAN","country": "Canada","GID_1": "CAN.11_1","province": "Québec","NL_NAME_1": "NA","GID_2": "CAN.11.68_1","county": "LesMaskoutains","NL_NAME_2": "NA","city": "Notre-Dame-de-Saint-Hyacinthe","VARNAME_3": "NA","NL_NAME_3": "NA","TYPE_3": "MunicipalitéDeParoisse","ENGTYPE_3": "ParishMunicipality","CC_3": "NA","HASC_3": "NA","name": "Notre-Dame-de-Saint-Hyacinthe.city","area_km2": 21.73894,"hist_schema_id": "Elevation0-9000","hist_area_km2": {"25": 21.47182,"50": 0.26712}}}