{"type":"Feature","properties":{"GID_3":"CAN.11.55.4_1","GID_0":"CAN","country":"Canada","GID_1":"CAN.11_1","province":"Québec","NL_NAME_1":"NA","GID_2":"CAN.11.55_1","county":"LeHaut-Richelieu","NL_NAME_2":"NA","city":"Lacolle","VARNAME_3":"NA","NL_NAME_3":"NA","TYPE_3":"Village","ENGTYPE_3":"Village","CC_3":"NA","HASC_3":"NA","name":"Lacolle.city"},
"geometry":{"type": "MultiPolygon","coordinates": [[[[-73.3616,45.0876,42.9026],[-73.3698,45.0877,48.0505],[-73.3679,45.0966,49.9535],[-73.3719,45.0968,51.0476],[-73.3732,45.092,51.1388],[-73.3786,45.0921,52.2123],[-73.3815,45.0688,47.409],[-73.3676,45.0685,41.0841],[-73.3668,45.0783,42.9449],[-73.3628,45.0774,43.0486],[-73.3627,45.0761,41.5003],[-73.3616,45.0876,42.9026]]]]}}