{"type": "Feature","bbox": [-72.6595,45.6041,-72.4714,45.6736],"geometry": {"type": "MultiPolygon","coordinates": [[[[-72.4966,45.6041,101.5482],[-72.4956,45.6302,118.2234],[-72.4734,45.6303,119.1809],[-72.4714,45.6736,113.9501],[-72.5752,45.6722,114.0661],[-72.5751,45.6591,97.4516],[-72.6516,45.6591,86.0639],[-72.6533,45.6303,67.3241],[-72.6484,45.6252,64.7213],[-72.6502,45.6224,69.5653],[-72.6573,45.6215,68.2139],[-72.6595,45.6194,75.5024],[-72.6573,45.6055,74.839],[-72.4966,45.6041,101.5482]]]]}
,"properties": {"GID_3": "CAN.11.3.1_1","GID_0": "CAN","country": "Canada","GID_1": "CAN.11_1","province": "Québec","NL_NAME_1": "NA","GID_2": "CAN.11.3_1","county": "Acton","NL_NAME_2": "NA","city": "ActonVale","VARNAME_3": "NA","NL_NAME_3": "NA","TYPE_3": "Ville","ENGTYPE_3": "Ville","CC_3": "NA","HASC_3": "NA","name": "Acton_Vale.city","area_km2": 92.03107,"hist_schema_id": "Elevation0-9000","hist_area_km2": {"50": 0.08896,"75": 34.87172,"100": 36.30508,"125": 18.63099,"150": 2.13431}}}