{"type":"Feature","properties":{"GID_3":"CAN.12.15.62_1","GID_0":"CAN","country":"Canada","GID_1":"CAN.12_1","province":"Saskatchewan","NL_NAME_1":"NA","GID_2":"CAN.12.15_1","county":"DivisionNo.6","NL_NAME_2":"NA","city":"Peepeekisis81","VARNAME_3":"NA","NL_NAME_3":"NA","TYPE_3":"RéserveIndienne","ENGTYPE_3":"IndianReserve","CC_3":"NA","HASC_3":"NA","name":"Peepeekisis81.city"},
"geometry":{"type": "MultiPolygon","coordinates": [[[[-103.284,50.9084,605.5616],[-103.4895,50.909,665.6808],[-103.4892,50.8425,628.3828],[-103.285,50.8422,592.923],[-103.284,50.9084,605.5616]]]]}}