{"type":"Feature","properties":{"GID_3":"CAN.11.14.15_1","GID_0":"CAN","country":"Canada","GID_1":"CAN.11_1","province":"Québec","NL_NAME_1":"NA","GID_2":"CAN.11.14_1","county":"Brome-Missisquoi","NL_NAME_2":"NA","city":"Saint-Ignace-de-Stanbridge","VARNAME_3":"NA","NL_NAME_3":"NA","TYPE_3":"MunicipalitéDeParoisse","ENGTYPE_3":"ParishMunicipality","CC_3":"NA","HASC_3":"NA","name":"Saint-Ignace-de-Stanbridge.city"},
"geometry":{"type": "MultiPolygon","coordinates": [[[[-72.9537,45.1499,76.7774],[-72.8953,45.1497,106.7613],[-72.878,45.151,111.0313],[-72.8781,45.2259,100.9425],[-72.9718,45.2246,77.584],[-72.9742,45.1919,78.6452],[-72.9922,45.193,65.2063],[-72.9915,45.15,59.9813],[-72.9537,45.1499,76.7774]]]]}}