{"type":"Feature","properties":{"GID_3":"CAN.2.19.13_1","GID_0":"CAN","country":"Canada","GID_1":"CAN.2_1","province":"BritishColumbia","NL_NAME_1":"NA","GID_2":"CAN.2.19_1","county":"NorthOkanagan","NL_NAME_2":"NA","city":"Priest'sValley6","VARNAME_3":"NA","NL_NAME_3":"NA","TYPE_3":"RéserveIndienne","ENGTYPE_3":"IndianReserve","CC_3":"NA","HASC_3":"NA","name":"Priest's_Valley6.city"},
"geometry":{"type": "MultiPolygon","coordinates": [[[[-119.3451,50.2451,344.7334],[-119.3306,50.2458,346.4423],[-119.3308,50.2485,346.7556],[-119.3484,50.2483,339.0],[-119.3451,50.2451,344.7334]]]]}}