{"type":"Feature","properties":{"GID_3":"CAN.11.6.12_1","GID_0":"CAN","country":"Canada","GID_1":"CAN.11_1","province":"Québec","NL_NAME_1":"NA","GID_2":"CAN.11.6_1","county":"Arthabaska","NL_NAME_2":"NA","city":"Saint-Norbert-d'Arthabaska","VARNAME_3":"NA","NL_NAME_3":"NA","TYPE_3":"Municipalité","ENGTYPE_3":"Municipality","CC_3":"NA","HASC_3":"NA","name":"Saint-Norbert-d'Arthabaska.city"},
"geometry":{"type": "MultiPolygon","coordinates": [[[[-71.6998,46.0629,296.5598],[-71.6885,46.0747,333.2563],[-71.7844,46.1246,212.5673],[-71.7871,46.1233,206.2141],[-71.8171,46.1389,160.4831],[-71.9072,46.1024,149.1614],[-71.8938,46.0953,152.4906],[-71.9164,46.0728,152.1432],[-71.868,46.0472,223.9764],[-71.8553,46.0592,235.948],[-71.8069,46.0323,348.3091],[-71.7603,46.0773,231.9654],[-71.7239,46.0587,392.1002],[-71.7121,46.0693,297.52],[-71.6998,46.0629,296.5598]],
[[-71.8162,46.1016,208.6741],[-71.8246,46.0935,204.5227],[-71.8364,46.0993,188.8738],[-71.8139,46.1202,211.5629],[-71.8034,46.1149,207.1278],[-71.815,46.1044,208.3333],[-71.8139,46.1038,209.4706],[-71.8162,46.1016,208.6741]]]]}}