{"type":"Feature","properties":{"featurecla":"Lake","scalerank":4,"name":"null9","name_abb":null,"name_alt":null,"note":"_untitled_9","delta":null,"dam_name":null,"year":-99,"admin":null,"min_zoom":4.0,"min_label":5.0},
"geometry":{"type": "Polygon","coordinates": [[[-72.678793341059531,81.683804144093273,158.9025],[-72.693511547416122,81.67320703551654,154.4175],[-72.6798236155045,81.67320703551654,154.6784],[-72.6798236155045,81.667025388846767,154.4494],[-72.81699729874785,81.660107831859179,176.7582],[-72.785941883335468,81.649069177091746,154.919],[-72.314812097861235,81.681238970985419,155.1124],[-71.843682312386989,81.713408764879091,155.6354],[-71.372552526912756,81.745578558772763,155.629],[-70.901422741438523,81.77774835266645,155.8287],[-70.430292955964291,81.809918146560122,155.8637],[-69.959163170490044,81.8420879404538,156.0095],[-69.488033385015811,81.874257734347466,155.8307],[-69.431809836733663,81.89294985642033,155.9968],[-69.377499655277859,81.904871603569163,156.0034],[-68.975986985870264,81.920178538180011,159.7483],[-68.95229067363617,81.924446818023412,155.849],[-68.9288887255292,81.93386647009163,155.2868],[-68.921382440287346,81.943286122159847,157.1864],[-69.027795072245439,81.95520786930868,176.8797],[-69.054435025750863,81.954471958990851,176.3485],[-69.047664650826832,81.954471958990851,175.9734],[-69.526024755173736,81.921595165541831,160.3813],[-70.004384859520655,81.888718372092811,156.1373],[-70.48274496386756,81.855841578643791,156.068],[-70.961105068214465,81.822964785194785,155.8527],[-71.43946517256137,81.790087991745764,155.776],[-71.917825276908275,81.757211198296744,155.74],[-72.3961853812552,81.724334404847724,155.575],[-72.8745454856021,81.6914576113987,322.9099],[-72.905895265141623,81.67320703551654,164.9888],[-72.673053240580472,81.686894967428159,154.5405],[-72.678793341059531,81.683804144093273,158.9025]]]}}