{"type": "Feature","bbox": [-121.4965,49.9361,-121.4851,49.9433],"geometry": {"type": "MultiPolygon","coordinates": [[[[-121.4851,49.937,356.7093],[-121.4852,49.9432,311.1528],[-121.496,49.9433,533.7126],[-121.4965,49.9361,572.6289],[-121.4851,49.937,356.7093]]]]}
,"properties": {"GID_3": "CAN.2.13.10_1","GID_0": "CAN","country": "Canada","GID_1": "CAN.2_1","province": "BritishColumbia","NL_NAME_1": "NA","GID_2": "CAN.2.13_1","county": "FraserValley","NL_NAME_2": "NA","city": "Chaumox11","VARNAME_3": "NA","NL_NAME_3": "NA","TYPE_3": "RéserveIndienne","ENGTYPE_3": "IndianReserve","CC_3": "NA","HASC_3": "NA","name": "Chaumox11.city","area_km2": 0.5185325,"hist_schema_id": "Elevation0-9000","hist_area_km2": {"325": 0.0136448,"350": 0.0272899,"375": 0.0955177,"400": 0.0272915,"425": 0.054583,"450": 0.068229,"475": 0.0136462,"500": 0.0545851,"525": 0.040937,"550": 0.0409366,"575": 0.0272901,"600": 0.0545816}}}