{"type":"Feature","properties":{"GID_3":"CAN.12.5.19_1","GID_0":"CAN","country":"Canada","GID_1":"CAN.12_1","province":"Saskatchewan","NL_NAME_1":"NA","GID_2":"CAN.12.5_1","county":"DivisionNo.14","NL_NAME_2":"NA","city":"Love","VARNAME_3":"NA","NL_NAME_3":"NA","TYPE_3":"Village","ENGTYPE_3":"Village","CC_3":"NA","HASC_3":"NA","name":"Love.city"},
"geometry":{"type": "MultiPolygon","coordinates": [[[[-104.1655,53.4894,382.8651],[-104.1739,53.4894,392.8749],[-104.1739,53.4881,390.959],[-104.1668,53.4857,386.6416],[-104.1669,53.4818,392.9438],[-104.1579,53.4822,381.2059],[-104.1609,53.4836,383.9299],[-104.161,53.4894,378.8893],[-104.1655,53.4894,382.8651]]]]}}