{"type": "Feature","bbox": [-79.8883,47.581,-79.7597,47.6677],"geometry": {"type": "MultiPolygon","coordinates": [[[[-79.8882,47.6677,254.5862],[-79.8883,47.581,299.2533],[-79.7597,47.581,193.2724],[-79.7598,47.6534,204.0639],[-79.7807,47.6534,198.3975],[-79.7811,47.6677,206.3682],[-79.8882,47.6677,254.5862]]]]}
,"properties": {"GID_3": "CAN.9.49.19_1","GID_0": "CAN","country": "Canada","GID_1": "CAN.9_1","province": "Ontario","NL_NAME_1": "NA","GID_2": "CAN.9.49_1","county": "Timiskaming","NL_NAME_2": "NA","city": "Kerns","VARNAME_3": "NA","NL_NAME_3": "NA","TYPE_3": "Township","ENGTYPE_3": "Township","CC_3": "NA","HASC_3": "NA","name": "Kerns.city","area_km2": 90.98613,"hist_schema_id": "Elevation0-9000","hist_area_km2": {"175": 0.84335,"200": 29.94651,"225": 12.53278,"250": 46.59101,"275": 0.52904,"300": 0.54344}}}