{"type": "Feature","bbox": [-98.8243,55.7991,-98.8191,55.8019],"geometry": {"type": "MultiPolygon","coordinates": [[[[-98.8243,55.7991,256.6281],[-98.8191,55.7997,271.7305],[-98.8192,55.801,274.0574],[-98.8237,55.8019,263.506],[-98.8243,55.7991,256.6281]]]]}
,"properties": {"GID_3": "CAN.3.14.15_1","GID_0": "CAN","country": "Canada","GID_1": "CAN.3_1","province": "Manitoba","NL_NAME_1": "NA","GID_2": "CAN.3.14_1","county": "DivisionNo.22","NL_NAME_2": "NA","city": "NelsonHouse170C","VARNAME_3": "NA","NL_NAME_3": "NA","TYPE_3": "RéserveIndienne","ENGTYPE_3": "IndianReserve","CC_3": "NA","HASC_3": "NA","name": "Nelson_House170_C.city","area_km2": 0.05958602,"hist_schema_id": "Elevation0-9000","hist_area_km2": {"250": 0.03575146,"275": 0.02383456}}}