{"type":"Feature","properties":{"GID_3":"CAN.11.20.24_1","GID_0":"CAN","country":"Canada","GID_1":"CAN.11_1","province":"Québec","NL_NAME_1":"NA","GID_2":"CAN.11.20_1","county":"Communauté-Urbaine-de-Montréal","NL_NAME_2":"NA","city":"Sainte-Anne-de-Bellevue","VARNAME_3":"NA","NL_NAME_3":"NA","TYPE_3":"Ville","ENGTYPE_3":"Ville","CC_3":"NA","HASC_3":"NA","name":"Sainte-Anne-de-Bellevue.city"},
"geometry":{"type": "MultiPolygon","coordinates": [[[[-73.901,45.4354,28.1563],[-73.9047,45.4412,36.8997],[-73.9046,45.4467,45.3472],[-73.9061,45.4485,46.7632],[-73.9352,45.4372,48.476],[-73.9412,45.4385,38.4595],[-73.9465,45.437,32.7179],[-73.9482,45.4326,58.3505],[-73.9505,45.4338,60.1887],[-73.9579,45.4265,63.6329],[-73.9498,45.4169,38.3004],[-73.9497,45.4133,34.0664],[-73.9548,45.4078,32.0016],[-73.9573,45.4103,29.3501],[-73.961,45.4065,20.0],[-73.9532,45.4025,20.1387],[-73.9346,45.4001,19.5],[-73.93,45.4204,33.9047],[-73.901,45.4354,28.1563]]]]}}