{"type": "Feature","bbox": [-108.3508,52.7091,-108.2778,52.7673],"geometry": {"type": "MultiPolygon","coordinates": [[[[-108.278,52.7336,462.6169],[-108.2779,52.7375,465.8796],[-108.2994,52.7485,467.5692],[-108.306,52.7546,461.875],[-108.3139,52.7546,466.2256],[-108.3347,52.7601,487.8827],[-108.3508,52.7673,462.5],[-108.3508,52.7115,527.4911],[-108.2878,52.7114,465.446],[-108.2778,52.7091,464.4558],[-108.278,52.7336,462.6169]]]]}
,"properties": {"GID_3": "CAN.12.3.4_1","GID_0": "CAN","country": "Canada","GID_1": "CAN.12_1","province": "Saskatchewan","NL_NAME_1": "NA","GID_2": "CAN.12.3_1","county": "DivisionNo.12","NL_NAME_2": "NA","city": "Battleford","VARNAME_3": "NA","NL_NAME_3": "NA","TYPE_3": "Town","ENGTYPE_3": "Town","CC_3": "NA","HASC_3": "NA","name": "Battleford.city","area_km2": 23.62287,"hist_schema_id": "Elevation0-9000","hist_area_km2": {"450": 0.43642,"475": 11.06713,"500": 8.44629,"525": 3.67303}}}