{"type": "Feature","bbox": [-123.889,49.1144,-123.8797,49.1281],"geometry": {"type": "MultiPolygon","coordinates": [[[[-123.8848,49.1231,3.6799],[-123.8889,49.1281,3.2244],[-123.889,49.1145,25.3931],[-123.8797,49.1144,5.3922],[-123.8797,49.118,3.199],[-123.8848,49.1231,3.6799]]]]}
,"properties": {"GID_3": "CAN.2.18.10_1","GID_0": "CAN","country": "Canada","GID_1": "CAN.2_1","province": "BritishColumbia","NL_NAME_1": "NA","GID_2": "CAN.2.18_1","county": "Nanaimo","NL_NAME_2": "NA","city": "NanaimoRiver2","VARNAME_3": "NA","NL_NAME_3": "NA","TYPE_3": "RéserveIndienne","ENGTYPE_3": "IndianReserve","CC_3": "NA","HASC_3": "NA","name": "Nanaimo_River2.city","area_km2": 0.7077016,"hist_schema_id": "Elevation0-9000","hist_area_km2": {"0": 0.3885293,"25": 0.2636622,"50": 0.0555101}}}