{"type":"Feature","properties":{"GID_3":"CAN.2.28.26_1","GID_0":"CAN","country":"Canada","GID_1":"CAN.2_1","province":"BritishColumbia","NL_NAME_1":"NA","GID_2":"CAN.2.28_1","county":"Thompson-Nicola","NL_NAME_2":"NA","city":"KanakaBar1A","VARNAME_3":"NA","NL_NAME_3":"NA","TYPE_3":"RéserveIndienne","ENGTYPE_3":"IndianReserve","CC_3":"NA","HASC_3":"NA","name":"Kanaka_Bar1_A.city"},
"geometry":{"type": "MultiPolygon","coordinates": [[[[-121.5667,50.1075,152.0309],[-121.5628,50.1038,126.483],[-121.5618,50.0995,128.7689],[-121.553,50.0995,386.2824],[-121.5538,50.1106,428.0403],[-121.5603,50.1106,262.9425],[-121.561,50.1071,242.9819],[-121.5667,50.1075,152.0309]]]]}}