{"type":"Feature","properties":{"featurecla":"River","scalerank":10,"rivernum":20500,"dissolve":"20500River","name":"Moisie","name_alt":null,"note":"ID is link back to CEC data","name_full":"Rivire Moisie","min_zoom":6.0,"strokeweig":0.2,"uident":1636901,"min_label":7.0},
"geometry":{"type": "LineString","coordinates": [[-66.120106574603739,50.5079206400982,191.3105],[-66.177113410541239,50.4737409525982,320.9442],[-66.198109504291239,50.400458074994027,37.2521],[-66.228871223041239,50.366725978639863,196.6364],[-66.236154751687067,50.352362371869027,200.5676],[-66.246205207416239,50.3204206400982,87.1417],[-66.243031379291239,50.301581121869027,141.3172],[-66.224680142312067,50.284613348431527,91.5403],[-66.186634894916239,50.277370509889863,20.219],[-66.139881965228739,50.275213934369027,50.3605],[-66.120106574603739,50.270453192181527,41.2777],[-66.1153865225204,50.263861395306527,41.4048],[-66.117543098041239,50.255438543744027,11.287],[-66.134958462624567,50.245062567181527,48.1884],[-66.144642707416239,50.232977606244027,44.4781],[-66.1297908193954,50.214911199994027,42.4113],[-66.123158332416239,50.196966864056527,29.3051]]}}