{"type":"Feature","properties":{"featurecla":"River","scalerank":11,"rivernum":20707,"dissolve":"20707River","name":"null345","name_alt":null,"note":"ID is link back to CEC data","name_full":null,"min_zoom":6.7,"strokeweig":0.2,"uident":1567001,"min_label":7.7},
"geometry":{"type": "LineString","coordinates": [[-68.230946418353739,52.966172593223192,648.8415],[-68.3131404287704,53.031520900514863,615.8222],[-68.322132941791239,53.042263088014863,609.913],[-68.307728644916239,53.057440496869027,604.4987],[-68.277455207416239,53.084499416139863,589.3156]]}}