{"type":"Feature","properties":{"featurecla":"River","scalerank":12,"rivernum":20582,"dissolve":"20582River","name":"Nipissis1","name_alt":null,"note":"ID is link back to CEC data","name_full":"Rivire Nipissis","min_zoom":7.0,"strokeweig":0.2,"uident":1613101,"min_label":8.0},
"geometry":{"type": "LineString","coordinates": [[-65.879953579812067,51.5879987650982,653.9723],[-65.899484829812067,51.594061590619027,704.1326],[-65.924427863666239,51.552679754681527,670.3112],[-65.9356990225204,51.524440822389863,623.295],[-65.960926887103739,51.492254949994027,605.4164],[-65.973378058978739,51.4715436869732,612.0885],[-65.962025519916239,51.447048244264863,638.9261],[-65.9476619131454,51.427313543744027,630.235],[-65.935373501687067,51.4044050150982,760.5434],[-65.9581599600204,51.336371160931527,669.5516],[-65.9794001943954,51.267889715619027,695.599],[-65.978627082416239,51.2337507182232,511.1604],[-66.0106501943954,51.193874416139863,480.1211],[-66.062611457416239,51.139349676556527,569.6012],[-66.117298957416239,51.106024481244027,474.4512],[-66.1708064443954,51.077419338014863,460.0884],[-66.201405402728739,51.064724025514863,566.6234]]}}