{"type":"Feature","properties":{"GID_3":"CAN.11.62.6_1","GID_0":"CAN","country":"Canada","GID_1":"CAN.11_1","province":"Québec","NL_NAME_1":"NA","GID_2":"CAN.11.62_1","county":"LesChutes-de-la-Chaudière","NL_NAME_2":"NA","city":"Saint-Rédempteur","VARNAME_3":"NA","NL_NAME_3":"NA","TYPE_3":"Ville","ENGTYPE_3":"Ville","CC_3":"NA","HASC_3":"NA","name":"Saint-Rédempteur.city"},
"geometry":{"type": "MultiPolygon","coordinates": [[[[-71.2872,46.7054,75.3117],[-71.2918,46.7086,71.4656],[-71.2945,46.7078,69.0417],[-71.298,46.6998,80.7396],[-71.2971,46.6984,78.6878],[-71.3026,46.6937,76.8617],[-71.3073,46.6927,77.468],[-71.2917,46.681399999999996,87.2909],[-71.2774,46.692,75.1794],[-71.2841,46.7068,83.4178],[-71.2872,46.7054,75.3117]]]]}}