{"type":"Feature","properties":{"featurecla":"River","scalerank":12,"rivernum":20208,"dissolve":"20208River","name":"Petitcodiac1","name_alt":null,"note":"ID is link back to CEC data","name_full":"Petitcodiac River","min_zoom":7.0,"strokeweig":0.2,"uident":1744601,"min_label":8.0},
"geometry":{"type": "LineString","coordinates": [[-65.065419074603739,46.039129949994027,66.5549],[-64.993763801166239,46.0660261088482,66.7686],[-64.9169001943954,46.064276434369027,30.5038],[-64.8487849600204,46.076361395306527,37.962],[-64.813059048562067,46.091986395306527,30.0581],[-64.784006314187067,46.1011823588482,10.0773],[-64.764881965228739,46.0872663432232,6.1092]]}}