{"type": "Feature","bbox": [-107.2351,52.1293,-107.2176,52.1398],"geometry": {"type": "MultiPolygon","coordinates": [[[[-107.2242,52.1396,517.918],[-107.2351,52.1398,517.3709],[-107.2348,52.1293,518.3015],[-107.2176,52.1293,518.0213],[-107.2176,52.1365,516.6123],[-107.2237,52.1364,519.6224],[-107.2242,52.1396,517.918]]]]}
,"properties": {"GID_3": "CAN.12.3.2_1","GID_0": "CAN","country": "Canada","GID_1": "CAN.12_1","province": "Saskatchewan","NL_NAME_1": "NA","GID_2": "CAN.12.3_1","county": "DivisionNo.12","NL_NAME_2": "NA","city": "Asquith","VARNAME_3": "NA","NL_NAME_3": "NA","TYPE_3": "Town","ENGTYPE_3": "Town","CC_3": "NA","HASC_3": "NA","name": "Asquith.city","area_km2": 1.0931962,"hist_schema_id": "Elevation0-9000","hist_area_km2": {"525": 1.0931962}}}