{"type":"Feature","properties":{"GID_3":"CAN.1.2.23_1","GID_0":"CAN","country":"Canada","GID_1":"CAN.1_1","province":"Alberta","NL_NAME_1":"NA","GID_2":"CAN.1.2_1","county":"DivisionNo.11","NL_NAME_2":"NA","city":"Legal","VARNAME_3":"NA","NL_NAME_3":"NA","TYPE_3":"Town","ENGTYPE_3":"Town","CC_3":"NA","HASC_3":"NA","name":"Legal.city"},
"geometry":{"type": "MultiPolygon","coordinates": [[[[-113.5829,53.9492,697.793],[-113.5817,53.9501,699.5672],[-113.5829,53.9501,697.793],[-113.5829,53.9566,700.1295],[-113.6067,53.9565,704.83],[-113.6077,53.942,703.3393],[-113.583,53.942,699.9363],[-113.5829,53.9492,697.793]]]]}}