{"type": "Feature","bbox": [-78.2266,60.7792,-78.0521,60.9155],"geometry": {"type": "MultiPolygon","coordinates": [[[[-78.0936,60.9146,1.8924],[-78.0896,60.9146,0.6773],[-78.088,60.913,2.1777],[-78.0917,60.9104,3.4387],[-78.1,60.9104,2.0519],[-78.1042,60.9083,3.0094],[-78.1099,60.9099,2.1593],[-78.1109,60.9047,3.5477],[-78.113,60.9026,3.1105],[-78.1307,60.8974,3.0523],[-78.1391,60.8932,2.6962],[-78.137,60.8901,4.6982],[-78.1339,60.8891,6.1718],[-78.137,60.887,3.0506],[-78.1354,60.8833,3.8584],[-78.138,60.8797,2.8479],[-78.1438,60.8771,3.1456],[-78.1495,60.8766,0.0],[-78.1568,60.8714,4.6074],[-78.1641,60.8703,4.8326],[-78.1672,60.8672,5.5224],[-78.1745,60.8661,4.7773],[-78.1755,60.863,3.7127],[-78.1854,60.8625,0.0],[-78.1932,60.8599,1.4948],[-78.1943,60.8568,0.0],[-78.1995,60.8536,0.0],[-78.1943,60.8495,0.0],[-78.1932,60.8464,0.0],[-78.1901,60.8453,0.0],[-78.1922,60.8401,7.6845],[-78.1979,60.8417,0.0],[-78.2037,60.8391,0.0],[-78.2026,60.8359,3.2261],[-78.2057,60.8349,0.0],[-78.2047,60.8318,2.1804],[-78.2078,60.8307,0.0],[-78.2109,60.8234,3.187],[-78.2141,60.8224,0.0],[-78.213,60.8193,7.0248],[-78.2187,60.8167,16.3099],[-78.2245,60.8161,0.0],[-78.2234,60.813,2.061],[-78.2266,60.812,0.0],[-78.2146,60.8063,0.0],[-78.212,60.8099,9.182],[-78.2089,60.8099,0.0],[-78.2089,60.8068,4.0623],[-78.2109,60.8047,17.5402],[-78.2167,60.8042,1.7001],[-78.2182,60.8026,3.9875],[-78.2068,60.8016,0.0],[-78.2089,60.7984,1.9945],[-78.212,60.7974,0.0],[-78.2109,60.7922,10.4944],[-78.2224,60.7911,4.2926],[-78.225,60.7854,2.4878999999999998],[-78.2224,60.7818,0.0],[-78.2167,60.7792,0.0],[-78.2125,60.7792,0.0],[-78.2083,60.7813,2.7449],[-78.2,60.7813,0.0],[-78.1984,60.7818,0.0],[-78.1995,60.7849,0.0],[-78.1979,60.7854,0.0],[-78.1839,60.7859,0.0],[-78.1797,60.788,0.0],[-78.1786,60.7911,0.0],[-78.175,60.7938,12.0665],[-78.1708,60.7917,0.0],[-78.1667,60.7917,0.0],[-78.1583,60.7958,14.6727],[-78.1542,60.7938,0.0],[-78.1417,60.7938,0.0],[-78.1188,60.8021,0.0],[-78.113,60.8026,0.0],[-78.1042,60.8083,0.0],[-78.0937,60.8083,0.0],[-78.0896,60.8063,0.0],[-78.0833,60.8125,0.0],[-78.0818,60.812,0.0],[-78.0797,60.8068,18.0114],[-78.087,60.8036,0.0],[-78.0901,60.7984,0.0],[-78.0932,60.7974,0.0],[-78.0911,60.7922,0.0],[-78.0687,60.7917,0.0],[-78.062,60.7953,12.7677],[-78.0521,60.798,10.7499],[-78.0645,60.7971,33.0802],[-78.0579,60.9155,16.245],[-78.0936,60.9146,1.8924]]]]}
,"properties": {"GID_3": "CAN.11.84.2_1","GID_0": "CAN","country": "Canada","GID_1": "CAN.11_1","province": "Québec","NL_NAME_1": "NA","GID_2": "CAN.11.84_1","county": "Nord-du-Québec","NL_NAME_2": "NA","city": "AkulivikVillageNordique","VARNAME_3": "NA","NL_NAME_3": "NA","TYPE_3": "VillageNordique","ENGTYPE_3": "VillageNordique","CC_3": "NA","HASC_3": "NA","name": "Akulivik_Village_Nordique.city","area_km2": 83.3307,"hist_schema_id": "Elevation0-9000","hist_area_km2": {"0": 24.37288,"25": 37.13546,"50": 14.61899,"75": 6.01484,"100": 1.07483,"125": 0.1137}}}