{"type": "Feature","bbox": [-125.41854217860509,68.237545180845757,-125.2336815067664,68.324088234222472],"geometry": {"type": "Polygon","coordinates": [[[-125.33597304094467,68.2769899738814,236.3366],[-125.34127159523304,68.27198578372014,243.2097],[-125.35054406523768,68.260505582762022,249.1717],[-125.35584261952606,68.2557957567279,243.2298],[-125.29535079140049,68.238133909100014,236.5738],[-125.25443417772919,68.237545180845757,236.5983],[-125.2336815067664,68.251380294820933,236.8173],[-125.25340390328424,68.283171620551144,258.7649],[-125.28490086488732,68.301716560560465,246.4045],[-125.32699493506715,68.314374218027126,254.5202],[-125.41854217860509,68.324088234222472,250.1222],[-125.39764232557874,68.3161404027899,249.6345],[-125.33597304094467,68.2769899738814,236.3366]]]}
,"properties": {"featurecla": "Lake","scalerank": 9,"name": "null230","name_abb": null,"name_alt": null,"note": "_untitled_104","delta": null,"dam_name": null,"year": -99,"admin": null,"min_zoom": 7.0,"min_label": 8.0,"area_km2": 33.13063,"hist_schema_id": "Elevation0-9000","hist_area_km2": {"225": 18.70716,"250": 14.32929,"275": 0.09418}}}