{"type":"Feature","properties":{"featurecla":"Lake","scalerank":5,"name":"null15","name_abb":null,"name_alt":null,"note":"_untitled_6","delta":null,"dam_name":null,"year":-99,"admin":null,"min_zoom":4.7,"min_label":6.0},
"geometry":{"type": "Polygon","coordinates": [[[-126.08954520640174,67.324133294356187,266.9901],[-126.11235842625445,67.330903669280218,268.963],[-126.17888471898621,67.324133294356187,310.0881],[-126.2276019820265,67.3279600280089,335.1187],[-126.27499460649469,67.337968408331363,313.5137],[-126.33533925255668,67.358868261357713,298.7132],[-126.36050738542644,67.37358646771429,266.9806],[-126.37802205099078,67.392425771850725,255.0],[-126.33578079874738,67.3950750489949,255.0],[-126.27087350871486,67.383300483909636,255.0],[-126.21170631916138,67.380356842638321,255.0],[-126.18565509391023,67.409498891224359,267.7783],[-126.19286701502496,67.421567820436763,271.8773],[-126.20949858820789,67.433636749649168,292.9043],[-126.22774916409006,67.443056401717371,275.684],[-126.24040682155672,67.446883135370086,273.0345],[-126.26115949251951,67.444233858225886,295.4659],[-126.30619720397064,67.4283381953608,287.4929],[-126.32974633414119,67.426572010598,268.9608],[-126.34873282034118,67.431576200759224,265.958],[-126.36624748590552,67.44129021695457,270.9305],[-126.37919950749929,67.454536602675518,268.465],[-126.38435087972411,67.471315357922009,289.3467],[-126.38979661607604,67.4795575534817,270.738],[-126.41364011037371,67.497219401109589,259.0209],[-126.42453158307758,67.515469976991767,294.9109],[-126.45058280832873,67.536664194145231,291.3896],[-126.47972485691477,67.554914770027409,312.1669],[-126.54198286980312,67.570516068765386,255.0],[-126.53447658456126,67.586117367503363,255.0],[-126.54404341869304,67.587294824011877,280.9612],[-126.57612910855039,67.574048438290959,307.1042],[-126.59967823872093,67.568749884002585,309.3457],[-126.67915655304648,67.577286443689417,281.486],[-126.70020358813639,67.574637166545216,265.2579],[-126.7393540170449,67.5640400579685,267.5741],[-126.76113696245264,67.563745693841355,276.1746],[-126.80161202993324,67.576108987180874,279.2433],[-126.82236470089603,67.578463900197931,285.3253],[-126.84355891804951,67.570516068765386,286.08],[-126.72463581068831,67.553148585264609,255.0],[-126.66252497986353,67.535192373509574,255.0],[-126.63132238238758,67.5084052379406,255.0],[-126.61336617063255,67.526655813822771,255.0],[-126.60321060824651,67.534014917001059,255.0],[-126.58981704046201,67.53578110176386,255.0],[-126.59526277681394,67.51900234651734,271.6637],[-126.58599030680929,67.508110873813479,255.0],[-126.5683284591814,67.50310668365222,255.0],[-126.54875324472715,67.502223591270848,255.0],[-126.57421574172403,67.486033564278586,255.0],[-126.64471595017207,67.495453216346817,255.0],[-126.67856782479221,67.488682841422786,264.3576],[-126.63088083619688,67.465428075379378,255.0],[-126.6045352468186,67.45895206458249,255.0],[-126.57612910855039,67.464544982997978,272.0543],[-126.56450172552869,67.471315357922009,255.0],[-126.55876162504961,67.476025183956125,261.8444],[-126.5515497039349,67.477497004591783,255.0],[-126.53447658456126,67.474847727447582,255.0],[-126.52123019884033,67.471315357922009,255.0],[-126.5106330902636,67.466311167760779,255.0],[-126.49355997088995,67.453947874421232,255.0],[-126.50813099518297,67.446000042988686,255.0],[-126.56464890759226,67.446588771242943,261.5391],[-126.58981704046201,67.433931113776282,260.7324],[-126.57583474442326,67.4274551029794,255.0],[-126.55905598917676,67.406849614080187,261.6574],[-126.54875324472715,67.3986074185205,255.0],[-126.53168012535352,67.3959581413763,255.0],[-126.51136900058142,67.395663777249183,255.0],[-126.49444306327135,67.391542679469325,255.0],[-126.4873783242202,67.375647016604233,255.0],[-126.4916466040636,67.36858227755306,255.0],[-126.50106625613182,67.359456989611971,293.087],[-126.51033872613647,67.348271152780967,255.0],[-126.51460700597987,67.334436038805791,255.0],[-126.51519573423414,67.312947457525183,255.0],[-126.51725628312406,67.302350348948437,255.0],[-126.52152456296747,67.28998705560889,260.9847],[-126.5287364840822,67.282039224176344,274.2328],[-126.54080541329459,67.2740913927438,277.8899],[-126.54993070123567,67.265554833056967,262.2735],[-126.54875324472715,67.255252088607364,255.0],[-126.53491813075195,67.2520140832089,255.0],[-126.39538953449154,67.2528971755903,255.0],[-126.36418693701559,67.259078822260079,255.0],[-126.30089864968228,67.28174486004923,255.0],[-126.17020097723582,67.293519425134491,255.0],[-126.08954520640174,67.324133294356187,266.9901]]]}}