{"type": "Feature","bbox": [-71.0231,46.1882,-70.8622,46.2676],"geometry": {"type": "MultiPolygon","coordinates": [[[[-70.9787,46.1903,312.2564],[-70.958,46.2033,400.9495],[-70.9365,46.1882,309.2578],[-70.9322,46.1905,290.9451],[-70.9311,46.1896,280.4678],[-70.9169,46.199,287.6475],[-70.9224,46.2041,281.4536],[-70.9062,46.2143,277.2439],[-70.8941,46.2044,212.8284],[-70.8836,46.2059,219.5278],[-70.8778,46.2087,213.108],[-70.8747,46.2147,278.2084],[-70.8622,46.2258,282.2318],[-70.8742,46.2344,319.3047],[-70.8771,46.2325,303.737],[-70.8954,46.2475,312.3381],[-70.9019,46.244,327.6132],[-70.9171,46.2571,324.6695],[-70.9237,46.2528,328.3081],[-70.9364,46.2676,353.1516],[-70.9678,46.2465,347.801],[-70.9761,46.2542,354.366],[-70.9862,46.2473,328.272],[-70.9895,46.2449,336.8175],[-70.9802,46.2365,326.1456],[-70.9951,46.227,324.3317],[-71.0093,46.2402,349.5048],[-71.0231,46.2312,336.0255],[-70.9787,46.1903,312.2564]]]]}
,"properties": {"GID_3": "CAN.11.90.6_1","GID_0": "CAN","country": "Canada","GID_1": "CAN.11_1","province": "Québec","NL_NAME_1": "NA","GID_2": "CAN.11.90_1","county": "Robert-Cliche","NL_NAME_2": "NA","city": "Saint-Jules","VARNAME_3": "NA","NL_NAME_3": "NA","TYPE_3": "MunicipalitéDeParoisse","ENGTYPE_3": "ParishMunicipality","CC_3": "NA","HASC_3": "NA","name": "Saint-Jules.city","area_km2": 55.51901,"hist_schema_id": "Elevation0-9000","hist_area_km2": {"225": 0.4255,"250": 1.37904,"275": 5.13465,"300": 11.88138,"325": 18.97829,"350": 12.86391,"375": 3.84385,"400": 0.99772,"425": 0.01467}}}