{"type":"Feature","properties":{"GID_3":"CAN.5.11.10_1","GID_0":"CAN","country":"Canada","GID_1":"CAN.5_1","province":"NewfoundlandandLabrador","NL_NAME_1":"NA","GID_2":"CAN.5.11_1","county":"DivisionNo.9","NL_NAME_2":"NA","city":"DivisionNo.9,Subd.C","VARNAME_3":"NA","NL_NAME_3":"NA","TYPE_3":"SubdivisionofUnorganized","ENGTYPE_3":"SubdivisionofUnorganized","CC_3":"NA","HASC_3":"NA","name":"Division_No.9,Subd.C.city"},
"geometry":{"type": "MultiPolygon","coordinates": [[[[-57.1461,50.8806,0.9622],[-57.1431,50.8828,3.2513],[-57.1453,50.8842,0.1965],[-57.1548,50.8811,0.1588],[-57.1544,50.8806,0.1588],[-57.1461,50.8806,0.9622]]],
[[[-57.1331,50.8824,3.5388],[-57.1295,50.885,0.8456],[-57.1349,50.8846,2.0067],[-57.1369,50.8828,1.0473],[-57.1356,50.8808,0.4177],[-57.1331,50.8824,3.5388]]],
[[[-57.2907,50.8884,0.0],[-57.2842,50.8885,0.0],[-57.2818,50.8911,0.3808],[-57.2822,50.8925,0.0],[-57.2872,50.8918,1.0676],[-57.2913,50.8893,0.0],[-57.2907,50.8884,0.0]]],
[[[-57.2767,50.8939,0.5517],[-57.2757,50.9007,0.0],[-57.2784,50.9023,0.0],[-57.2829,50.8989,0.0],[-57.2789,50.8953,0.0],[-57.2789,50.8928,0.0],[-57.2767,50.8939,0.5517]]],
[[[-57.1053,50.9218,0.0],[-57.1046,50.9227,0.0],[-57.1083,50.9238,0.448],[-57.1187,50.9217,1.0245],[-57.1177,50.9199,0.9754],[-57.1128,50.9184,0.0],[-57.1053,50.9218,0.0]]],
[[[-57.1758,50.925,1.9137],[-57.177,50.9263,1.0064],[-57.1817,50.925,3.466],[-57.1842,50.9229,0.4096],[-57.1837,50.919,1.1841],[-57.1767,50.9231,0.0],[-57.1758,50.925,1.9137]]],
[[[-57.1306,50.9239,0.1659],[-57.1275,50.922,0.0],[-57.1238,50.9237,0.0],[-57.1239,50.9258,0.0],[-57.1267,50.9272,0.0],[-57.1306,50.9239,0.1659]]],
[[[-56.9594,51.0275,0.0],[-56.9667,51.0286,0.1928],[-56.9617,51.0264,0.0],[-56.9622,51.0272,0.3204],[-56.9594,51.0275,0.0]]],
[[[-56.9552,51.0291,4.8061],[-56.9568,51.0282,0.0],[-56.9546,51.0263,0.0],[-56.9518,51.0294,0.6726],[-56.9524,51.0319,0.0],[-56.9591,51.0305,0.0],[-56.9574,51.0294,0.3536],[-56.9552,51.0291,4.8061]]],
[[[-56.8789,51.0947,0.0],[-56.8839,51.0975,0.0],[-56.8856,51.0967,0.0],[-56.8846,51.0911,4.2332],[-56.893,51.0845,8.1606],[-56.9011,51.0806,0.0],[-56.9024,51.0778,2.6178],[-56.8991,51.0778,0.9467],[-56.8946,51.082,0.0],[-56.8856,51.0847,3.7405],[-56.8767,51.0922,0.6818],[-56.8789,51.0947,0.0]]],
[[[-56.8761,51.1019,0.0],[-56.875,51.1014,0.0],[-56.8778,51.1031,0.0],[-56.8817,51.1022,0.9119],[-56.88,51.1014,0.0],[-56.8761,51.1019,0.0]]],
[[[-56.7842,51.2284,1.6874],[-56.7828,51.2272,1.6874],[-56.7872,51.2236,0.0],[-56.7761,51.2214,0.0],[-56.7717,51.2219,2.7099],[-56.7717,51.2206,2.7099],[-56.7678,51.2197,0.3875],[-56.7633,51.2217,2.2403],[-56.76,51.2189,0.0],[-56.7511,51.2192,13.6921],[-56.755,51.2169,11.2423],[-56.7656,51.2167,5.0204],[-56.7678,51.2117,1.5279],[-56.7661,51.2097,1.2566],[-56.7689,51.2078,0.0],[-56.7689,51.2061,0.0],[-56.7561,51.2064,1.3572],[-56.7433,51.2094,2.5551],[-56.7389,51.2083,9.6037],[-56.7474,51.2066,9.2187],[-56.7561,51.2025,6.4957],[-56.7589,51.2033,4.0729],[-56.765,51.2011,1.7691],[-56.7672,51.1992,1.7995],[-56.765,51.1967,8.0374],[-56.7689,51.1936,0.0],[-56.7661,51.1911,1.2835],[-56.7683,51.1897,5.5988],[-56.7718,51.1911,0.7181],[-56.7739,51.1903,4.7213],[-56.7756,51.1919,0.0],[-56.77,51.1947,0.0],[-56.7711,51.2003,9.9957],[-56.7744,51.2028,0.0],[-56.7733,51.2042,1.5087],[-56.7772,51.2061,1.0589],[-56.7822,51.2036,2.7233],[-56.7856,51.2039,0.6595],[-56.7875,51.2066,1.0963],[-56.7921,51.2039,1.2092],[-56.7944,51.1972,4.544],[-56.8061,51.1886,3.9813],[-56.8056,51.1842,3.314],[-56.81,51.1836,2.7648],[-56.8071,51.1864,2.261],[-56.8089,51.1875,3.9813],[-56.8084,51.1897,1.8597],[-56.8006,51.1953,4.7385],[-56.8,51.1975,0.0],[-56.8044,51.1958,1.8202],[-56.8144,51.1867,0.348],[-56.8128,51.1858,3.0801],[-56.8133,51.1822,0.5502],[-56.8028,51.1794,9.0862],[-56.8022,51.1731,0.3719],[-56.7983,51.1708,5.8365],[-56.8,51.1689,4.785],[-56.795,51.1692,1.6066],[-56.7967,51.1664,4.2232],[-56.8017,51.1661,1.9719],[-56.8,51.1628,5.2938],[-56.8017,51.1608,1.0655],[-56.7938,51.1583,0.6673],[-56.7903,51.1508,3.6273],[-56.7917,51.1478,1.3165],[-56.7956,51.1464,0.9917],[-56.7939,51.1431,5.6196],[-56.7961,51.1428,2.6598],[-56.7989,51.1394,1.5263],[-56.7989,51.1372,1.7373],[-56.7956,51.1367,1.2651],[-56.7961,51.1344,3.1537],[-56.8067,51.1342,0.9604],[-56.8156,51.1289,0.0],[-56.8272,51.1264,1.4457],[-56.8283,51.1258,0.5044],[-56.8278,51.1225,0.0748],[-56.8322,51.118899999999996,2.7817],[-56.8361,51.1203,2.8878],[-56.8359,51.1272,0.7063],[-56.8344,51.1303,1.3098],[-56.8306,51.1317,0.1548],[-56.8322,51.1328,1.0536],[-56.83,51.1356,1.6988],[-56.8311,51.1361,1.6988],[-56.8356,51.1347,3.8129],[-56.8389,51.1239,1.4962],[-56.8456,51.1222,1.2192],[-56.8461,51.1181,4.8752],[-56.8517,51.1183,9.2285],[-56.8511,51.1206,6.4134],[-56.8544,51.1242,2.652],[-56.8544,51.1267,0.0],[-56.8583,51.1283,0.6804],[-56.8561,51.13,0.0],[-56.8567,51.1311,0.0],[-56.8644,51.1303,1.0053],[-56.8661,51.1264,2.8941],[-56.8739,51.1211,1.4835],[-56.8744,51.1197,0.0],[-56.8706,51.1197,0.0],[-56.8572,51.1236,0.5249],[-56.855,51.1222,6.1455],[-56.8594,51.1203,1.7122],[-56.8622,51.1139,6.5375],[-56.87,51.1117,3.1179],[-56.8739,51.1081,1.7675],[-56.8711,51.1039,4.0799],[-56.8711,51.0983,0.0],[-56.8694,51.0981,5.8337],[-56.8733,51.0942,0.0],[-56.8722,51.0856,3.1101],[-56.8844,51.0794,0.5537],[-56.8817,51.0786,7.4613],[-56.8878,51.0778,0.2993],[-56.8878,51.0764,0.0],[-56.8833,51.0758,2.3694],[-56.8878,51.0725,0.2714],[-56.8894,51.0689,2.6583],[-56.8861,51.0703,2.8223],[-56.885,51.0703,6.1399],[-56.8861,51.0692,2.8223],[-56.8828,51.0692,14.3173],[-56.8867,51.0675,4.7554],[-56.8867,51.0619,4.4609],[-56.8928,51.0639,0.4394],[-56.89,51.0675,0.3987],[-56.8915,51.0684,0.7657],[-56.8989,51.0672,0.3487],[-56.9,51.0633,0.0],[-56.8961,51.0617,3.8027],[-56.8972,51.0611,3.8027],[-56.9106,51.0594,5.2316],[-56.9118,51.0615,1.9265],[-56.9107,51.0636,3.1589],[-56.9078,51.0639,0.0],[-56.9078,51.0658,0.0],[-56.9128,51.0661,1.0819],[-56.9222,51.0606,4.2026],[-56.9222,51.0592,2.556],[-56.9158,51.0581,12.7995],[-56.9047,51.0504,11.9451],[-56.9037,51.0277,1.4615],[-56.8983,51.0269,1.621],[-56.8983,51.0258,1.621],[-56.9089,51.0242,0.8414],[-56.9089,51.0228,3.4203],[-56.9128,51.0211,2.3463],[-56.905,51.0178,4.8172],[-56.9028,51.015,11.5906],[-56.9117,51.0156,0.0],[-56.9211,51.0139,0.6289],[-56.9244,51.0167,0.0],[-56.9272,51.0158,2.5654],[-56.9278,51.0142,2.6427],[-56.9222,51.0125,1.3908],[-56.9228,51.0103,0.356],[-56.9211,51.0092,3.436],[-56.9261,51.0086,6.0648],[-56.9283,51.0061,3.7567],[-56.9261,51.0053,5.4932],[-56.9367,51.0,0.0],[-56.9362,50.9984,4.2964],[-56.9399,50.9965,2.6261],[-56.9378,50.9933,10.0987],[-56.9417,50.9917,8.8008],[-56.9478,50.9923,0.0],[-56.9554,50.9971,0.8465],[-56.9621,50.9991,0.0],[-56.9628,51.0008,0.0],[-56.9683,51.0019,0.7851],[-56.9678,51.0,7.8233],[-56.9739,50.9994,0.8806],[-56.9756,50.9978,4.6055],[-56.9726,50.9965,5.8194],[-56.9739,50.9949,0.7783],[-56.9711,50.9913,2.5934],[-56.9737,50.9899,2.6592],[-56.9711,50.9889,2.6592],[-56.9881,50.9861,2.1019],[-57.0006,51.0008,2.5896],[-57.0105,51.0066,0.0],[-57.0109,51.0092,4.636],[-57.0082,51.0103,0.0],[-57.0103,51.0154,0.0],[-57.0075,51.0204,0.7634],[-57.0083,51.0224,0.0],[-57.0168,51.0273,0.0],[-57.023,51.0256,1.1246],[-57.0222,51.0237,2.7664],[-57.0261,51.0219,3.7542],[-57.0309,51.0232,1.9912],[-57.0417,51.0213,6.4095],[-57.0454,51.0244,0.0],[-57.0548,51.0196,2.049],[-57.0621,51.0201,1.3306],[-57.0618,51.0233,0.3503],[-57.0635,51.0248,4.7001],[-57.0567,51.0328,1.1854],[-57.0604,51.035,3.4383],[-57.0712,51.0298,3.501],[-57.0779,51.0303,7.35],[-57.0907,51.0259,0.7749],[-57.101,51.0204,0.8986],[-57.1042,51.0164,0.0],[-57.0918,51.0188,3.4939],[-57.0793,51.0169,0.3802],[-57.0701,51.0205,1.7708],[-57.0688,51.0196,0.5647],[-57.0706,51.0174,0.0],[-57.0643,51.0167,1.4464],[-57.063,51.0144,0.1477],[-57.0535,51.0134,5.4729],[-57.0523,51.0089,2.4861],[-57.0442,51.0088,1.1263],[-57.0442,51.003,1.0499],[-57.0411,51.0021,4.277],[-57.0445,51.0011,1.0302],[-57.0457,50.9978,4.0085],[-57.0392,50.997,0.7665],[-57.0381,50.9943,0.1174],[-57.034,50.9925,1.7562],[-57.0339,50.9904,0.5181],[-57.0364,50.9875,0.5622],[-57.035,50.9836,5.4252],[-57.0389,50.9744,0.5608],[-57.0356,50.9728,0.5341],[-57.0329,50.9733,4.4716],[-57.0301,50.9705,3.4683],[-57.0125,50.9746,1.9232],[-57.0127,50.973,0.9279],[-57.0096,50.9715,4.2747],[-57.0103,50.9678,2.1093],[-57.0011,50.9627,1.2348],[-57.0006,50.9586,0.1732],[-57.0027,50.9541,0.0],[-57.0008,50.9523,0.7353],[-57.0023,50.9507,2.1371],[-57.0018,50.9462,1.5911],[-56.9956,50.9458,3.9284],[-56.9943,50.9441,2.0413],[-56.9953,50.9425,2.5792],[-56.993899999999996,50.9419,0.0],[-56.9844,50.943,1.8042],[-56.9883,50.9389,0.0],[-56.9928,50.9372,0.0],[-56.9917,50.9367,6.6911],[-56.9971,50.9357,1.4147],[-56.9981,50.9335,5.7224],[-56.9968,50.932,0.5639],[-56.9845,50.9315,0.595],[-56.9681,50.9333,1.0336],[-56.9624,50.931,0.6626],[-56.9563,50.9361,7.3718],[-56.9521,50.9364,0.0],[-56.9505,50.9382,7.7826],[-56.9484,50.9373,18.3765],[-56.9492,50.9359,7.0057],[-56.9566,50.9331,0.0],[-56.9559,50.931399999999996,0.0],[-56.95,50.9297,1.1037],[-56.9436,50.9319,0.8645],[-56.9469,50.9346,0.0],[-56.9404,50.9386,16.5115],[-56.9444,50.9417,2.9369],[-56.9417,50.9419,0.0],[-56.9372,50.9396,29.7305],[-56.9428,50.935,11.0923],[-56.9406,50.9319,52.7992],[-56.952,50.9242,1.0648],[-56.9528,50.9229,3.2725],[-56.9514,50.9203,3.8646],[-56.9556,50.918,0.0],[-56.956,50.9156,0.0],[-56.9598,50.9174,1.8139],[-56.9593,50.9205,0.8594],[-56.9633,50.9239,0.0],[-56.9667,50.9231,1.3376],[-56.9672,50.9214,2.7055],[-56.9826,50.9175,2.1834],[-56.9843,50.9137,2.4097],[-56.9871,50.9118,6.8384],[-56.9896,50.914,0.9982],[-56.9884,50.9158,0.0],[-56.9927,50.9147,0.0],[-56.9922,50.9115,3.2542],[-56.9957,50.9078,5.4457],[-56.993899999999996,50.9058,1.2537],[-56.9973,50.9039,1.3944],[-56.9961,50.9022,9.9366],[-56.9974,50.9019,2.8223],[-56.9973,50.8998,1.1939],[-56.9891,50.8993,2.7549],[-56.9872,50.8983,3.5992],[-56.9889,50.896,0.8155],[-56.9855,50.895,0.0],[-56.9773,50.8979,1.9304],[-56.9694,50.8981,1.915],[-56.9672,50.8947,3.7],[-56.9695,50.8905,2.8091],[-56.9906,50.8778,0.0],[-56.9994,50.8658,2.7989],[-57.0033,50.8647,0.4435],[-57.007,50.8603,13.8113],[-57.0475,50.8341,1.7968],[-57.0315,50.825,178.4544],[-57.0087,50.8241,413.6766],[-56.9704,50.8301,468.4194],[-56.9553,50.8277,487.0818],[-56.9423,50.8171,489.7142],[-56.9047,50.7937,525.7219],[-56.8897,50.7937,523.6804],[-56.8829,50.7976,541.9813],[-56.8652,50.826,579.6287],[-56.8567,50.8313,570.4545],[-56.8422,50.8276,535.6504],[-56.8375,50.8194,520.0181],[-56.8394,50.8108,520.6537],[-56.8521,50.7993,470.891],[-56.8559,50.7925,420.3411],[-56.8486,50.7845,475.4037],[-56.8423,50.7741,411.5683],[-56.8426,50.7692,399.2052],[-56.8452,50.7638,428.8506],[-56.8442,50.7604,428.184],[-56.8178,50.7552,403.1871],[-56.8087,50.7482,466.4878],[-56.8062,50.739,468.4781],[-56.8065,50.7316,493.196],[-56.797,50.726,508.6954],[-56.7805,50.7406,524.6239],[-56.7762,50.7469,516.6589],[-56.7565,50.7505,504.7077],[-56.7629,50.7595,531.1665],[-56.7635,50.7704,497.0494],[-56.7569,50.7817,406.4021],[-56.741,50.7914,432.3785],[-56.7149,50.8002,494.869],[-56.6997,50.8086,362.894],[-56.6982,50.8161,443.4677],[-56.6947,50.8199,443.918],[-56.663,50.8235,381.7808],[-56.6575,50.8292,416.6501],[-56.6604,50.8374,427.6611],[-56.6631,50.8385,441.2906],[-56.6643,50.8422,409.8835],[-56.6612,50.8484,395.284],[-56.6581,50.8497,384.8482],[-56.6567,50.8524,373.2156],[-56.6425,50.8551,352.8827],[-56.6003,50.868899999999996,367.7687],[-56.5781,50.8792,362.9106],[-56.5756,50.8904,410.2562],[-56.5672,50.912,329.3531],[-56.5708,50.9165,306.8163],[-56.5926,50.928,291.9253],[-56.6108,50.928,336.211],[-56.6246,50.9298,257.2458],[-56.6412,50.9377,233.8133],[-56.6346,50.945,298.3521],[-56.6092,50.9482,322.9551],[-56.5921,50.9466,285.8505],[-56.5806,50.9493,285.5092],[-56.5752,50.9545,303.7941],[-56.5742,50.9587,298.0468],[-56.5841,50.9626,277.5275],[-56.6028,50.9658,240.25],[-56.6102,50.9696,255.5206],[-56.6112,50.9761,275.9406],[-56.6089,50.9979,216.8187],[-56.6198,51.0032,194.7909],[-56.6262,51.0112,202.7092],[-56.6286,51.0215,172.2111],[-56.6118,51.0346,217.1361],[-56.5763,51.0506,167.0594],[-56.5026,51.0774,116.9883],[-56.4809,51.0949,88.852],[-56.4625,51.0999,99.7933],[-56.4075,51.1299,93.2613],[-56.3878,51.1485,101.003],[-56.3738,51.1551,98.0727],[-56.3563,51.1573,93.8991],[-56.3318,51.1532,92.2686],[-56.3251,51.1513,95.7825],[-56.2765,51.1278,81.6252],[-56.2616,51.1277,82.0189],[-56.2454,51.1537,75.7442],[-56.1992,51.1502,48.2953],[-56.1758,51.1614,47.0645],[-56.1748,51.1733,52.5653],[-56.2532,51.1978,57.5898],[-56.2609,51.1982,68.2568],[-56.2915,51.1935,65.8294],[-56.3032,51.1947,70.0066],[-56.3087,51.1999,73.8335],[-56.3123,51.2097,72.8754],[-56.3675,51.2046,81.229],[-56.369,51.221,83.2166],[-56.3651,51.2292,90.2227],[-56.3523,51.2452,80.0747],[-56.3494,51.2605,81.6352],[-56.3497,51.2691,83.141],[-56.3292,51.2886,70.6489],[-56.3199,51.3048,63.4545],[-56.313,51.313,62.0908],[-56.2945,51.3163,64.9518],[-56.2808,51.3166,58.8856],[-56.2639,51.331,48.5627],[-56.2318,51.3386,49.4213],[-56.2201,51.3489,45.877],[-56.1954,51.3591,45.54],[-56.1825,51.368899999999996,43.1671],[-56.1552,51.3814,40.7475],[-56.1444,51.3816,38.5327],[-56.1401,51.3916,39.8795],[-56.1174,51.4058,28.1382],[-56.1226,51.4132,36.1824],[-56.1252,51.4316,38.3251],[-56.1237,51.4452,34.9174],[-56.1173,51.4561,37.2621],[-56.1117,51.4614,35.5513],[-56.0945,51.4705,31.5993],[-56.0858,51.4787,29.6957],[-56.0761,51.4936,28.0463],[-56.0676,51.5022,25.0473],[-56.0577,51.51,27.1507],[-56.0499,51.5123,25.1363],[-56.042,51.5175,27.6857],[-56.0295,51.5289,25.5712],[-56.0239,51.536,26.2284],[-56.0164,51.5523,14.2072],[-55.9961,51.5642,12.329],[-55.9828,51.5691,10.3264],[-55.9983,51.5764,2.2645],[-55.9988,51.5784,3.6197],[-56.0172,51.5717,8.363],[-56.0222,51.5717,2.6992],[-56.0217,51.5731,0.0],[-56.0317,51.5725,0.0],[-56.0439,51.5625,1.5148],[-56.0611,51.5542,0.0],[-56.0722,51.5464,2.6529],[-56.0778,51.5439,0.0],[-56.0843,51.5443,3.1061],[-56.0967,51.5372,1.5115],[-56.1078,51.5339,0.0],[-56.1106,51.5317,7.3638],[-56.1378,51.5272,0.3761],[-56.1483,51.52,8.9498],[-56.1517,51.5211,2.5918],[-56.1494,51.5247,1.4003],[-56.1539,51.5236,6.3883],[-56.155,51.5242,1.6152],[-56.1539,51.5253,0.4874],[-56.1606,51.525,5.7363],[-56.1661,51.5222,2.0822],[-56.1733,51.5214,2.9127],[-56.1939,51.515,10.775],[-56.2033,51.5142,0.0],[-56.2367,51.4981,0.0],[-56.243899999999996,51.4922,0.6599],[-56.2556,51.4886,10.8951],[-56.2689,51.4814,1.1248],[-56.2896,51.4741,0.0],[-56.2922,51.4717,7.546],[-56.3172,51.4647,8.1483],[-56.3283,51.4642,0.0],[-56.3478,51.4575,0.0],[-56.3811,51.4392,12.67],[-56.4089,51.4269,6.8709],[-56.4339,51.4128,2.5262],[-56.44,51.4117,3.217],[-56.455,51.4156,0.0],[-56.4628,51.4158,0.9325],[-56.4711,51.4189,0.0],[-56.4861,51.4169,2.2094],[-56.4983,51.4136,5.7491],[-56.5117,51.4072,0.0],[-56.5106,51.4061,11.3047],[-56.5172,51.4039,0.0],[-56.5172,51.4014,4.3971],[-56.5211,51.3992,0.0],[-56.5239,51.3986,4.2678],[-56.5267,51.4006,0.0],[-56.5378,51.3956,1.1161],[-56.5539,51.3944,2.2039],[-56.57,51.3886,8.0599],[-56.5772,51.3839,0.6244],[-56.5867,51.3833,4.6778],[-56.5967,51.3786,7.9567],[-56.6028,51.3775,2.7191],[-56.6039,51.3758,1.3223],[-56.6017,51.3744,2.2273],[-56.6028,51.3736,5.2399],[-56.6122,51.3736,4.4742],[-56.6278,51.3678,6.7822],[-56.6411,51.3658,0.8179],[-56.6456,51.3594,10.8582],[-56.655,51.3556,1.3193],[-56.6583,51.3575,0.0387],[-56.6617,51.355,5.0665],[-56.6683,51.3428,2.8581],[-56.6756,51.3411,2.4656],[-56.68,51.3433,8.8919],[-56.6839,51.3431,8.3479],[-56.6906,51.3397,5.388],[-56.6989,51.3392,1.5367],[-56.7022,51.3358,0.2898],[-56.7022,51.3333,0.0],[-56.6911,51.3319,1.025],[-56.69,51.3286,0.9695],[-56.6911,51.3275,0.9695],[-56.7011,51.3253,5.5491],[-56.7061,51.3283,0.0],[-56.7089,51.3283,6.3915],[-56.7217,51.3256,0.7505],[-56.7222,51.3194,3.9764],[-56.7211,51.3181,0.3331],[-56.7089,51.3133,2.4682],[-56.715,51.3119,5.592],[-56.7233,51.3136,3.8002],[-56.7244,51.3158,0.0],[-56.7261,51.3158,1.1247],[-56.7311,51.3131,2.133],[-56.7422,51.3119,-0.0245],[-56.7206,51.3106,3.7665],[-56.7233,51.3073,0.0],[-56.7142,51.3067,16.8226],[-56.7141,51.3083,17.8736],[-56.72,51.3106,3.7665],[-56.6827,51.3097,16.3629],[-56.7038,51.2916,8.4601],[-56.7294,51.2736,28.8211],[-56.7323,51.2747,30.8455],[-56.732,51.2761,27.9195],[-56.7484,51.2911,0.1863],[-56.7483,51.2894,0.7436],[-56.7506,51.2886,1.4123],[-56.75,51.2858,3.6519],[-56.7528,51.2836,2.368],[-56.7567,51.2833,0.6516],[-56.7517,51.2803,2.7179],[-56.7533,51.2761,1.9498],[-56.7506,51.2753,4.7334],[-56.7511,51.2711,8.864],[-56.7672,51.2611,0.8952],[-56.7828,51.2597,3.1026],[-56.785,51.2569,3.241],[-56.7833,51.2556,3.241],[-56.7844,51.2539,2.6508],[-56.7878,51.2517,5.7833],[-56.7878,51.2494,9.6692],[-56.7904,51.2486,9.7271],[-56.7889,51.2462,10.3014],[-56.7722,51.2353,19.3365],[-56.7753,51.2349,19.3365],[-56.7842,51.2284,1.6874]]],
[[[-56.8143,51.1665,1.2613],[-56.8149,51.1643,0.6698],[-56.8115,51.1646,0.0],[-56.8115,51.1668,0.6118],[-56.8143,51.1665,1.2613]]],
[[[-56.8176,51.1728,0.0],[-56.8138,51.1717,0.0],[-56.8121,51.1736,0.0],[-56.8143,51.1748,2.3969],[-56.8193,51.1739,0.0],[-56.8176,51.1728,0.0]]],
[[[-56.7544,51.2894,0.0],[-56.7594,51.2897,0.7428],[-56.7622,51.2875,0.5811],[-56.7589,51.2881,0.7277],[-56.7589,51.2864,0.2061],[-56.7561,51.2864,0.0],[-56.7544,51.2894,0.0]]],
[[[-56.8372,51.1517,0.0],[-56.8367,51.1531,0.0],[-56.8417,51.1525,0.4053],[-56.8411,51.1517,0.0],[-56.8372,51.1517,0.0]]],
[[[-56.8418,51.1554,1.0048],[-56.8412,51.1538,1.0048],[-56.8385,51.1543,2.1757],[-56.8334,51.1602,0.0],[-56.8273,51.1627,0.0],[-56.8346,51.1635,0.8988],[-56.8346,51.1618,3.6734],[-56.8418,51.1554,1.0048]]],
[[[-56.8196,51.1785,1.898],[-56.819,51.1799,1.4029],[-56.8218,51.1802,7.9766],[-56.8212,51.1832,0.1829],[-56.8234,51.1829,1.3364],[-56.8257,51.1793,1.7973],[-56.8329,51.1821,0.0],[-56.8368,51.1799,0.8979],[-56.8368,51.1785,3.0935],[-56.8429,51.176,3.0229],[-56.8451,51.1727,2.6578],[-56.8418,51.171,0.5819],[-56.8379,51.1715,0.0],[-56.8328,51.1778,0.4512],[-56.8268,51.1757,1.0004],[-56.8229,51.1768,1.6451],[-56.8257,51.1743,0.0],[-56.8223,51.1735,0.0],[-56.8196,51.1785,1.898]]],
[[[-56.7039,51.3297,0.0],[-56.7033,51.3308,0.3536],[-56.7089,51.3303,0.264],[-56.7061,51.3292,0.0],[-56.7039,51.3297,0.0]]],
[[[-56.5712,51.404,0.024],[-56.5679,51.4054,0.0],[-56.5768,51.4029,0.2582],[-56.5807,51.3996,0.0],[-56.5799,51.3994,0.0],[-56.5712,51.404,0.024]]]]}}