{"type":"Feature","properties":{"GID_3":"CAN.11.76.14_1","GID_0":"CAN","country":"Canada","GID_1":"CAN.11_1","province":"Québec","NL_NAME_1":"NA","GID_2":"CAN.11.76_1","county":"Matawinie","NL_NAME_2":"NA","city":"Manawan","VARNAME_3":"NA","NL_NAME_3":"NA","TYPE_3":"RéserveIndienne","ENGTYPE_3":"IndianReserve","CC_3":"NA","HASC_3":"NA","name":"Manawan.city"},
"geometry":{"type": "MultiPolygon","coordinates": [[[[-74.3884,47.2247,418.0],[-74.3981,47.2268,444.168],[-74.4122,47.2197,485.0435],[-74.3712,47.1872,454.935],[-74.3518,47.1955,425.227],[-74.3697,47.2219,418.0],[-74.3727,47.2211,418.0],[-74.3884,47.2247,418.0]]]]}}