{"type": "Feature","bbox": [-55.0866,47.585,-54.5965,47.808],"geometry": {"type": "MultiPolygon","coordinates": [[[[-54.9864,47.5947,0.7239],[-54.9861,47.5986,4.6057],[-54.9914,47.5978,5.3597],[-55.0043,47.5933,25.0134],[-55.0053,47.5911,0.0],[-54.9958,47.5925,47.0722],[-54.9933,47.5908,0.0],[-54.9917,47.5928,14.8682],[-54.9864,47.5931,0.0],[-54.9864,47.5947,0.7239]]],
[[[-54.9961,47.5986,0.0],[-54.9928,47.5986,0.0],[-54.99,47.6025,0.0],[-54.9919,47.6028,3.4961],[-54.9961,47.5986,0.0]]],
[[[-54.8231,47.6578,5.2756],[-54.8239,47.6566,6.1714],[-54.8217,47.6589,0.5821],[-54.8544,47.7395,219.3289],[-54.8614,47.7391,208.569],[-54.8652,47.7366,201.8873],[-54.8841,47.7359,207.9703],[-54.8844,47.7304,211.6522],[-54.8797,47.7242,235.7823],[-54.8821,47.7179,232.994],[-54.8795,47.7132,233.3519],[-54.8773,47.713,241.1321],[-54.8773,47.7057,242.7158],[-54.8805,47.6981,208.159],[-54.888,47.6891,276.2871],[-54.9014,47.6829,319.8802],[-54.9161,47.6833,304.1047],[-54.9294,47.6863,238.1538],[-54.9375,47.6865,225.6502],[-54.9821,47.674,198.032],[-55.0072,47.6691,186.3855],[-55.0198,47.6612,172.211],[-55.0213,47.6498,267.4904],[-55.0293,47.6407,248.41309999999999],[-55.0574,47.6352,249.5816],[-55.0701,47.6203,176.3549],[-55.0799,47.6059,198.6226],[-55.0866,47.5901,0.0],[-55.0775,47.585,0.0],[-55.0592,47.5883,3.7103],[-55.0561,47.5896,12.4892],[-55.0526,47.5946,45.1884],[-55.0478,47.5948,11.256],[-55.0431,47.597,0.0],[-55.0452,47.5987,12.4833],[-55.0469,47.5974,8.8403],[-55.0473,47.5999,3.3047],[-55.0422,47.5988,12.4928],[-55.0387,47.6008,0.0],[-55.0376,47.6024,7.2921],[-55.0407,47.6056,13.9135],[-55.0347,47.6089,17.8381],[-55.0311,47.6028,53.4002],[-55.0275,47.6004,13.2377],[-55.0318,47.5917,0.0],[-55.0271,47.5917,0.0],[-55.0141,47.597,0.0],[-55.0114,47.5956,18.1252],[-55.0046,47.5996,34.5605],[-55.0019,47.6031,4.8954],[-54.993899999999996,47.6069,0.0],[-54.9919,47.6064,7.9858],[-54.9922,47.6044,0.0],[-54.9889,47.6042,10.6486],[-54.9878,47.6067,0.0],[-54.9892,47.6081,7.3467],[-54.9861,47.6119,4.9287],[-54.9903,47.6119,46.4669],[-54.9918,47.6145,0.0],[-54.985,47.6164,0.0],[-54.9808,47.6197,4.1283],[-54.9789,47.6183,1.9705],[-54.9861,47.6086,0.0],[-54.985,47.605,19.3422],[-54.9872,47.6008,13.3697],[-54.9792,47.6008,16.1248],[-54.9822,47.5983,0.0],[-54.9803,47.5964,0.0],[-54.9806,47.5936,0.0],[-54.9775,47.5953,1.8343],[-54.9742,47.5942,9.9146],[-54.9605,47.5989,0.0],[-54.9633,47.6022,4.3305],[-54.9619,47.6039,33.4577],[-54.9597,47.6019,0.0],[-54.9572,47.6022,25.0453],[-54.9494,47.6039,19.5709],[-54.9444,47.6075,17.1118],[-54.9347,47.6089,30.1098],[-54.9317,47.6128,0.0],[-54.9328,47.615,12.7242],[-54.9228,47.6222,20.8982],[-54.9147,47.6311,3.1871],[-54.9114,47.6319,0.0],[-54.9069,47.6294,18.2979],[-54.9172,47.6253,35.9865],[-54.9203,47.6222,0.0],[-54.9183,47.6192,0.0],[-54.9092,47.6186,0.0],[-54.8978,47.6214,0.0],[-54.8944,47.6242,16.2526],[-54.8928,47.6236,0.0],[-54.8996,47.6273,82.6971],[-54.9018,47.626,102.5258],[-54.9087,47.6396,76.7037],[-54.8993,47.6513,162.2952],[-54.894,47.6518,152.4018],[-54.8878,47.6498,21.8179],[-54.8808,47.6447,143.2993],[-54.8777,47.6415,133.9483],[-54.8731,47.631,9.3967],[-54.8692,47.6331,0.0],[-54.8694,47.6353,14.2113],[-54.865,47.64,25.1166],[-54.8583,47.6422,28.8609],[-54.8542,47.6408,3.4624],[-54.8492,47.6425,10.5857],[-54.8472,47.6447,10.5815],[-54.8442,47.6447,3.4241],[-54.8411,47.6481,13.0276],[-54.8353,47.6492,6.2793],[-54.8244,47.6594,4.5235],[-54.8225,47.6589,0.5821],[-54.8231,47.6578,5.2756]]],
[[[-54.727,47.6368,288.0108],[-54.7265,47.6395,314.2318],[-54.7592,47.6507,78.1877],[-54.7647,47.6506,0.0],[-54.7911,47.6386,64.1144],[-54.8039,47.6345,0.0],[-54.8153,47.6275,4.6153],[-54.8203,47.6272,0.0],[-54.8242,47.6247,19.4745],[-54.8344,47.6222,0.0],[-54.8392,47.6181,36.4341],[-54.8486,47.6161,0.0],[-54.8508,47.6133,58.5661],[-54.8592,47.61,0.0],[-54.8642,47.6061,32.1161],[-54.87,47.6058,0.0],[-54.8753,47.6036,0.0],[-54.8761,47.6006,0.0],[-54.8507,47.5992,114.1955],[-54.8033,47.6087,85.2651],[-54.7726,47.6183,230.5063],[-54.7553,47.6178,241.2526],[-54.7419,47.6294,239.0445],[-54.7274,47.6353,235.2122],[-54.727,47.6368,288.0108]]],
[[[-54.8242,47.6567,6.1714],[-54.8244,47.6564,6.1714],[-54.8239,47.6566,6.1714],[-54.8242,47.6567,6.1714]]],
[[[-54.7025,47.808,194.4785],[-54.7469,47.8075,197.7641],[-54.7452,47.7276,145.0533],[-54.7417,47.6772,81.3013],[-54.7356,47.6792,54.2355],[-54.7306,47.6786,0.0],[-54.7247,47.681399999999996,18.9623],[-54.7136,47.6756,4.2909],[-54.6956,47.6836,135.467],[-54.6886,47.6899,135.5725],[-54.6769,47.6836,91.7579],[-54.6573,47.6673,212.9663],[-54.7191,47.6427,236.8234],[-54.7118,47.6359,203.0847],[-54.6941,47.6429,204.5075],[-54.6383,47.6377,180.4221],[-54.626,47.6482,149.6745],[-54.6158,47.6543,154.82],[-54.6013,47.6763,171.6001],[-54.6027,47.6943,148.5195],[-54.5965,47.7006,145.806],[-54.5989,47.7102,153.2387],[-54.609,47.7164,160.6697],[-54.6101,47.7242,151.069],[-54.6154,47.7333,137.5941],[-54.6256,47.7399,135.2408],[-54.6251,47.7501,130.2109],[-54.6556,47.7609,157.3446],[-54.6687,47.7696,154.0965],[-54.6815,47.7795,186.4537],[-54.6831,47.7847,194.2901],[-54.6915,47.7933,205.6287],[-54.6927,47.798,217.5903],[-54.7025,47.808,194.4785]]]]}
,"properties": {"GID_3": "CAN.5.4.11_1","GID_0": "CAN","country": "Canada","GID_1": "CAN.5_1","province": "NewfoundlandandLabrador","NL_NAME_1": "NA","GID_2": "CAN.5.4_1","county": "DivisionNo.2","NL_NAME_2": "NA","city": "DivisionNo.2,Subd.J","VARNAME_3": "NA","NL_NAME_3": "NA","TYPE_3": "SubdivisionofUnorganized","ENGTYPE_3": "SubdivisionofUnorganized","CC_3": "NA","HASC_3": "NA","name": "Division_No.2,Subd.J.city","area_km2": 292.9311,"hist_schema_id": "Elevation0-9000","hist_area_km2": {"0": 2.9582,"25": 4.93,"50": 5.7159,"75": 9.6026,"100": 23.5512,"125": 50.7991,"150": 63.4641,"175": 48.4076,"200": 41.6708,"225": 23.9684,"250": 10.9139,"275": 2.9821,"300": 1.7546,"325": 0.9563,"350": 1.0279,"375": 0.2284}}}