{"type": "Feature","bbox": [-74.9567,48.653,-74.8926,48.6799],"geometry": {"type": "MultiPolygon","coordinates": [[[[-74.9495,48.6799,435.5104],[-74.9557,48.6794,412.0912],[-74.9523,48.6794,419.7444],[-74.9507,48.6766,406.9139],[-74.9556,48.6687,403.0],[-74.9567,48.6634,403.0],[-74.9534,48.6588,403.0],[-74.9479,48.659,415.0379],[-74.9455,48.6562,408.3376],[-74.9421,48.6558,410.2827],[-74.9388,48.6579,419.8807],[-74.9342,48.653,403.0],[-74.9305,48.6696,420.6888],[-74.9277,48.67,414.7661],[-74.9261,48.6652,403.6191],[-74.9082,48.6676,422.176],[-74.9001,48.6737,407.5242],[-74.8926,48.6748,403.0],[-74.8963,48.6785,403.0],[-74.9039,48.6776,404.2318],[-74.9062,48.6795,415.9542],[-74.9495,48.6799,435.5104]]]]}
,"properties": {"GID_3": "CAN.11.58.12_1","GID_0": "CAN","country": "Canada","GID_1": "CAN.11_1","province": "Québec","NL_NAME_1": "NA","GID_2": "CAN.11.58_1","county": "LeHaut-Saint-Maurice","NL_NAME_2": "NA","city": "Obedjiwan28","VARNAME_3": "NA","NL_NAME_3": "NA","TYPE_3": "RéserveIndienne","ENGTYPE_3": "IndianReserve","CC_3": "NA","HASC_3": "NA","name": "Obedjiwan28.city","area_km2": 7.224891,"hist_schema_id": "Elevation0-9000","hist_area_km2": {"400": 1.652255,"425": 4.368589,"450": 1.120051,"475": 0.083996}}}