{"type":"Feature","properties":{"featurecla":"River","scalerank":11,"rivernum":20320,"dissolve":"20320River","name":"Kettle","name_alt":null,"note":"ID is link back to CEC data","name_full":"Kettle River","min_zoom":6.7,"strokeweig":0.15,"uident":1757801,"min_label":7.7},
"geometry":{"type": "LineString","coordinates": [[-118.3038630850204,50.142523504681527,1507.3256],[-118.3163142568954,50.136664129681527,1575.9604],[-118.31916256418705,50.135931707806527,1595.9568],[-118.36506100168705,50.142157293744027,1695.4966],[-118.39891516835372,50.137884832806527,1481.7839],[-118.43944251210372,50.113348699994027,1369.0171],[-118.47984778554122,50.091091213014863,1323.5565],[-118.50011145741622,50.079860744264863,1426.3396],[-118.5274958975204,50.052272853639863,1261.4451],[-118.5985408193954,50.022162176556527,1160.0507]]}}