{"type": "Feature","bbox": [-55.6544,49.9168,-55.5664,49.9861],"geometry": {"type": "MultiPolygon","coordinates": [[[[-55.5667,49.9841,0.0],[-55.5683,49.9825,9.8991],[-55.5722,49.9828,3.1962],[-55.5761,49.9861,0.0],[-55.5919,49.9756,26.9218],[-55.5983,49.9744,7.3923],[-55.6048,49.9691,45.5031],[-55.6078,49.9703,2.3561],[-55.6083,49.9669,1.9003],[-55.6069,49.9656,18.3855],[-55.5955,49.9603,0.0],[-55.5951,49.9575,0.0],[-55.5965,49.9566,0.9271],[-55.6081,49.9633,0.0],[-55.6209,49.9649,24.5206],[-55.6409,49.971,4.5944],[-55.6478,49.9703,79.2608],[-55.6517,49.9747,4.2489],[-55.6538,49.9749,51.8277],[-55.6544,49.9177,185.4815],[-55.6198,49.9278,136.2797],[-55.6106,49.9168,148.9555],[-55.5761,49.9271,109.6713],[-55.5845,49.9389,155.8148],[-55.5664,49.9449,138.7198],[-55.5667,49.9841,0.0]]]]}
,"properties": {"GID_3": "CAN.5.10.33_1","GID_0": "CAN","country": "Canada","GID_1": "CAN.5_1","province": "NewfoundlandandLabrador","NL_NAME_1": "NA","GID_2": "CAN.5.10_1","county": "DivisionNo.8","NL_NAME_2": "NA","city": "LaScie","VARNAME_3": "NA","NL_NAME_3": "NA","TYPE_3": "Town","ENGTYPE_3": "Town","CC_3": "NA","HASC_3": "NA","name": "La_Scie.city","area_km2": 33.15259,"hist_schema_id": "Elevation0-9000","hist_area_km2": {"0": 0.84561,"25": 1.26838,"50": 3.34123,"75": 5.70203,"100": 5.37504,"125": 8.59602,"150": 5.74507,"175": 1.97893,"200": 0.30029}}}