{"type":"Feature","properties":{"GID_3":"CAN.11.45.9_1","GID_0":"CAN","country":"Canada","GID_1":"CAN.11_1","province":"Québec","NL_NAME_1":"NA","GID_2":"CAN.11.45_1","county":"LaVallée-de-la-Gatineau","NL_NAME_2":"NA","city":"Dépôt-Échouani","VARNAME_3":"NA","NL_NAME_3":"NA","TYPE_3":"NonOrganisé","ENGTYPE_3":"Unorganized","CC_3":"NA","HASC_3":"NA","name":"Dépôt-Échouani.city"},
"geometry":{"type": "MultiPolygon","coordinates": [[[[-75.5223,47.7642,416.5211],[-75.5205,47.8463,415.3708],[-75.7249,47.8479,424.8809],[-75.7465,47.8326,415.4357],[-75.7678,47.8205,415.3367],[-75.7749,47.8124,419.1954],[-75.3365,47.5168,302.08],[-75.3216,47.5276,362.9513],[-75.308,47.5451,363.7309],[-75.3086,47.5508,330.2287],[-75.3202,47.5511,355.2892],[-75.331,47.5599,374.1818],[-75.3365,47.5608,368.007],[-75.345,47.5699,361.1168],[-75.3492,47.5704,378.0449],[-75.3538,47.5663,357.5909],[-75.3582,47.5669,370.311],[-75.3591,47.5717,362.0184],[-75.3638,47.5772,360.1801],[-75.3608,47.5835,414.9672],[-75.3624,47.5887,384.1903],[-75.3608,47.598,369.4331],[-75.3544,47.6068,365.7659],[-75.3553,47.609,344.2504],[-75.3606,47.6106,364.235],[-75.3648,47.6181,367.5955],[-75.3704,47.6197,392.3996],[-75.3794,47.6121,405.208],[-75.3809,47.6074,448.1361],[-75.3889,47.6033,389.896],[-75.39,47.5985,373.4888],[-75.3936,47.5948,362.9695],[-75.3936,47.5857,352.8505],[-75.4077,47.5843,389.4432],[-75.4157,47.5861,370.0058],[-75.4205,47.5923,379.8872],[-75.4206,47.6021,382.3922],[-75.4275,47.6089,376.7599],[-75.4233,47.6253,370.4332],[-75.4252,47.6301,400.4971],[-75.4422,47.645,420.1652],[-75.4464,47.6516,461.5389],[-75.4457,47.6578,389.1719],[-75.4483,47.6623,375.3861],[-75.4797,47.6757,420.8763],[-75.4892,47.6871,406.8865],[-75.5008,47.6931,379.6068],[-75.5083,47.6998,392.165],[-75.5138,47.7085,380.2428],[-75.5313,47.7158,387.2418],[-75.5337,47.7188,415.9881],[-75.5298,47.7291,398.8665],[-75.5368,47.7393,389.7665],[-75.5352,47.7458,393.5836],[-75.5456,47.7562,398.3743],[-75.543,47.7649,407.3022],[-75.5223,47.7642,416.5211]]]]}}