{"type":"Feature","properties":{"GID_3":"CAN.2.13.38_1","GID_0":"CAN","country":"Canada","GID_1":"CAN.2_1","province":"BritishColumbia","NL_NAME_1":"NA","GID_2":"CAN.2.13_1","county":"FraserValley","NL_NAME_2":"NA","city":"Ohamil1","VARNAME_3":"NA","NL_NAME_3":"NA","TYPE_3":"RéserveIndienne","ENGTYPE_3":"IndianReserve","CC_3":"NA","HASC_3":"NA","name":"Ohamil1.city"},
"geometry":{"type": "MultiPolygon","coordinates": [[[[-121.6047,49.3465,36.1486],[-121.612,49.3414,26.3984],[-121.6188,49.3322,19.25],[-121.5965,49.3323,57.6755],[-121.5921,49.3369,152.0174],[-121.5923,49.3386,141.6049],[-121.6047,49.3465,36.1486]]]]}}