{"type":"Feature","properties":{"GID_3":"CAN.11.88.12_1","GID_0":"CAN","country":"Canada","GID_1":"CAN.11_1","province":"Québec","NL_NAME_1":"NA","GID_2":"CAN.11.88_1","county":"Rimouski-Neigette","NL_NAME_2":"NA","city":"Saint-Fabien","VARNAME_3":"NA","NL_NAME_3":"NA","TYPE_3":"MunicipalitéDeParoisse","ENGTYPE_3":"ParishMunicipality","CC_3":"NA","HASC_3":"NA","name":"Saint-Fabien.city"},
"geometry":{"type": "MultiPolygon","coordinates": [[[[-68.8928,48.2205,215.9538],[-68.8597,48.2454,233.2264],[-68.8558,48.2436,227.9207],[-68.8495,48.2487,209.4479],[-68.8398,48.2431,198.6312],[-68.7617,48.2887,142.2773],[-68.7523,48.29,147.5301],[-68.7561,48.2922,140.0682],[-68.7513,48.2952,140.0429],[-68.749,48.2939,144.5954],[-68.742,48.2965,149.7548],[-68.7392,48.2946,157.8737],[-68.7367,48.2956,156.9223],[-68.7377,48.2966,156.9223],[-68.7334,48.2975,163.3592],[-68.7384,48.3005,140.8497],[-68.7312,48.3046,131.8341],[-68.805,48.3499,1.1852],[-68.8061,48.3472,0.0],[-68.8403,48.3375,0.0],[-68.8464,48.3339,2.9085],[-68.8542,48.3339,0.0],[-68.8578,48.3311,0.533],[-68.8511,48.3322,21.6927],[-68.8494,48.3306,4.5988],[-68.85,48.3281,10.9649],[-68.8669,48.3172,0.0],[-68.8689,48.3181,0.0],[-68.875,48.315,12.5566],[-68.8795,48.3147,3.6621],[-68.8872,48.3158,0.0],[-68.9472,48.2933,28.7933],[-68.9539,48.29,8.8976],[-68.9539,48.2883,15.0017],[-68.9592,48.2833,6.1702],[-68.9739,48.2722,3.8904],[-68.9274,48.243899999999996,121.7494],[-68.9324,48.241,126.9898],[-68.9381,48.2333,116.7728],[-68.9292,48.2273,184.4912],[-68.9249,48.2301,177.4628],[-68.9198,48.2267,177.4809],[-68.9122,48.2321,176.2179],[-68.8928,48.2205,215.9538]]],
[[[-68.8192,48.3586,51.0702],[-68.8206,48.3594,0.5972],[-68.8269,48.3554,13.3618],[-68.8306,48.3511,0.0],[-68.8275,48.3503,0.0],[-68.8113,48.3537,0.0],[-68.8192,48.3586,51.0702]]]]}}