{"type": "Feature","bbox": [-73.4604,45.533,-73.1649,45.9769],"geometry": {"type": "MultiPolygon","coordinates": [[[[-73.4325,45.5551,37.2903],[-73.4203,45.546,33.706],[-73.4107,45.5527,31.9453],[-73.3901,45.5374,25.376],[-73.3872,45.5418,26.3737],[-73.3751,45.533,27.1719],[-73.3723,45.5392,26.712],[-73.3714,45.5566,26.9513],[-73.3666,45.5689,30.1861],[-73.3619,45.5742,29.4421],[-73.3555,45.5716,37.593],[-73.3555,45.5726,37.5663],[-73.3492,45.5672,31.3044],[-73.3489,45.5711,26.9391],[-73.3385,45.5636,37.0997],[-73.3344,45.5663,33.2751],[-73.3228,45.5577,158.6374],[-73.3206,45.5586,149.7482],[-73.3145,45.5572,167.0957],[-73.3117,45.5683,52.0976],[-73.2916,45.5539,36.1718],[-73.2889,45.5752,29.6994],[-73.2972,45.5808,27.1888],[-73.29,45.5869,28.9846],[-73.276,45.5932,48.4152],[-73.2925,45.6055,52.5579],[-73.2761,45.6276,55.9367],[-73.2749,45.6265,57.1819],[-73.2725,45.6331,54.5553],[-73.2619,45.6388,53.333],[-73.276,45.6496,44.0134],[-73.2631,45.6577,45.2236],[-73.2586,45.6669,57.0324],[-73.2581,45.6747,48.285],[-73.2878,45.6955,49.1126],[-73.284,45.6978,44.0496],[-73.2805,45.6954,44.0028],[-73.2539,45.7166,22.7002],[-73.2395,45.7312,19.8844],[-73.2415,45.733,20.235],[-73.2194,45.7489,31.8112],[-73.262,45.7802,35.9664],[-73.2593,45.7845,25.3091],[-73.2574,45.783,37.9366],[-73.2558,45.7844,31.6361],[-73.2678,45.793,21.1236],[-73.2624,45.7948,21.0448],[-73.2572,45.7913,21.7067],[-73.254,45.7929,21.63],[-73.2582,45.7957,22.1028],[-73.2487,45.8021,20.673],[-73.2458,45.7999,19.337],[-73.2399,45.8043,17.9863],[-73.2421,45.8061,18.182],[-73.2382,45.8103,18.2084],[-73.2268,45.8174,17.6181],[-73.2251,45.816,17.5958],[-73.2089,45.84,21.7734],[-73.194,45.8513,35.5225],[-73.1886,45.8594,37.1667],[-73.1847,45.8619,31.078],[-73.2039,45.8759,29.0537],[-73.1961,45.8844,29.2675],[-73.1914,45.894,34.3292],[-73.1879,45.8935,25.4811],[-73.1881,45.9228,30.995],[-73.1841,45.9419,31.1095],[-73.1804,45.9513,36.7868],[-73.1674,45.9629,38.2643],[-73.1649,45.9688,20.9533],[-73.1756,45.9769,29.9195],[-73.1977,45.9325,25.3757],[-73.223,45.8739,6.7698],[-73.2701,45.8044,20.9912],[-73.3372,45.7597,20.8379],[-73.3865,45.7219,18.3816],[-73.4118,45.6966,17.2444],[-73.4143,45.6721,16.1337],[-73.4227,45.6397,16.4562],[-73.4342,45.6097,10.3972],[-73.4397,45.5969,20.391],[-73.4604,45.577,17.1072],[-73.4325,45.5551,37.2903]]]]}
,"properties": {"GID_2": "CAN.11.48_1","GID_0": "CAN","country": "Canada","GID_1": "CAN.11_1","province": "Québec","NL_NAME_1": "NA","county": "Lajemmerais","VARNAME_2": "NA","NL_NAME_2": "NA","TYPE_2": "RegionalCountyMunicipality","ENGTYPE_2": "RegionalCountyMunicipality","CC_2": "59","HASC_2": "CA.QC.LJ","name": "Lajemmerais.county","area_km2": 311.9491,"hist_schema_id": "Elevation0-9000","hist_area_km2": {"0": 3.2226,"25": 201.1643,"50": 104.7159,"75": 2.5346,"100": 0.0891,"125": 0.0891,"150": 0.0594,"175": 0.0742}}}