{"type": "Feature","bbox": [-76.0372,44.8774,-75.9697,44.9142],"geometry": {"type": "MultiPolygon","coordinates": [[[[-76.0311,44.9044,123.8819],[-76.0301,44.9004,120.9286],[-76.0326,44.8985,119.8702],[-76.0278,44.8941,122.4796],[-76.0323,44.8899,123.5292],[-76.0372,44.88,124.8968],[-76.0353,44.8785,124.6965],[-76.0257,44.8851,127.0972],[-76.016,44.8774,125.7901],[-76.015,44.88,131.0816],[-76.0106,44.8798,128.3353],[-76.0057,44.8833,119.6579],[-76.0093,44.8863,129.6223],[-76.0041,44.8897,114.6114],[-76.0035,44.8918,106.0359],[-75.9962,44.8907,106.5169],[-75.9916,44.8967,117.6713],[-75.9853,44.9009,123.6738],[-75.9815,44.8982,127.9501],[-75.9697,44.9056,116.5075],[-76.0013,44.9041,126.6538],[-75.9986,44.9018,123.5436],[-76.0032,44.8993,121.7614],[-76.0216,44.9142,131.7968],[-76.0326,44.9064,123.3109],[-76.0311,44.9044,123.8819]]]]}
,"properties": {"GID_3": "CAN.9.26.9_1","GID_0": "CAN","country": "Canada","GID_1": "CAN.9_1","province": "Ontario","NL_NAME_1": "NA","GID_2": "CAN.9.26_1","county": "Lanark","NL_NAME_2": "NA","city": "SmithsFalls","VARNAME_3": "NA","NL_NAME_3": "NA","TYPE_3": "Town","ENGTYPE_3": "Town","CC_3": "NA","HASC_3": "NA","name": "Smiths_Falls.city","area_km2": 8.546063,"hist_schema_id": "Elevation0-9000","hist_area_km2": {"100": 0.360482,"125": 8.185581}}}