{"type": "Feature","bbox": [-106.0043,49.6184,-105.9734,49.6406],"geometry": {"type": "MultiPolygon","coordinates": [[[[-105.9998,49.6406,741.5999],[-106.0043,49.6406,743.4951],[-106.003,49.6232,754.9852],[-105.9944,49.6233,755.0761],[-105.9939,49.6184,752.9012],[-105.9872,49.6224,752.6243],[-105.9816,49.6223,748.4917],[-105.9815,49.6257,751.9413],[-105.9747,49.6255,749.2373],[-105.9746,49.6307,740.4412],[-105.9766,49.6326,738.5978],[-105.9734,49.6339,737.09],[-105.9741,49.6373,734.8959],[-105.9816,49.6373,736.3083],[-105.9817,49.6405,736.3687],[-105.9998,49.6406,741.5999]]]]}
,"properties": {"GID_3": "CAN.12.12.2_1","GID_0": "CAN","country": "Canada","GID_1": "CAN.12_1","province": "Saskatchewan","NL_NAME_1": "NA","GID_2": "CAN.12.12_1","county": "DivisionNo.3","NL_NAME_2": "NA","city": "Assiniboia","VARNAME_3": "NA","NL_NAME_3": "NA","TYPE_3": "Town","ENGTYPE_3": "Town","CC_3": "NA","HASC_3": "NA","name": "Assiniboia.city","area_km2": 3.913838,"hist_schema_id": "Elevation0-9000","hist_area_km2": {"725": 0.260894,"750": 3.652944}}}