{"type": "Feature","bbox": [-108.1989,52.9293,-107.7457,53.1914],"geometry": {"type": "MultiPolygon","coordinates": [[[[-107.7459,52.9298,613.5093],[-107.7457,53.0172,652.1334],[-107.7605,53.017,636.351],[-107.759,53.0453,696.5607],[-107.7604,53.1414,743.8024],[-107.7691,53.1414,746.3748],[-107.7762,53.1449,747.673],[-107.784,53.1448,745.2343],[-107.784,53.1481,742.1982],[-107.7601,53.1484,744.4553],[-107.7605,53.1914,760.6108],[-108.198,53.1905,684.8289],[-108.198,53.147,655.5945],[-108.1491,53.1471,635.402],[-108.1488,53.1035,631.3635],[-108.1989,53.1034,638.1576],[-108.1989,53.0166,545.5527],[-108.1812,53.0165,594.7866],[-108.1809,52.9293,559.0962],[-107.7459,52.9298,613.5093]]]]}
,"properties": {"GID_3": "CAN.12.7.49_1","GID_0": "CAN","country": "Canada","GID_1": "CAN.12_1","province": "Saskatchewan","NL_NAME_1": "NA","GID_2": "CAN.12.7_1","county": "DivisionNo.16","NL_NAME_2": "NA","city": "RoundHillNo.467","VARNAME_3": "NA","NL_NAME_3": "NA","TYPE_3": "RuralMunicipality","ENGTYPE_3": "RuralMunicipality","CC_3": "NA","HASC_3": "NA","name": "Round_Hill_No.467.city","area_km2": 832.4045,"hist_schema_id": "Elevation0-9000","hist_area_km2": {"525": 12.1979,"550": 50.5351,"575": 75.0069,"600": 109.1599,"625": 103.4074,"650": 182.5273,"675": 95.1479,"700": 84.2132,"725": 71.8943,"750": 46.8783,"775": 1.4362}}}