{"type": "Feature","bbox": [-96.7851,49.0,-96.2396,49.2677],"geometry": {"type": "MultiPolygon","coordinates": [[[[-96.3761,49.2663,321.2375],[-96.5798,49.2677,304.205],[-96.78,49.2663,285.0542],[-96.7811,49.1782,288.0628],[-96.7851,49.1783,286.8456],[-96.7846,49.0,297.1905],[-96.2477,49.0003,314.3441],[-96.2472,49.178,325.3336],[-96.24,49.178,330.5474],[-96.2396,49.2661,345.9787],[-96.3761,49.2663,321.2375]]]]}
,"properties": {"GID_3": "CAN.3.11.13_1","GID_0": "CAN","country": "Canada","GID_1": "CAN.3_1","province": "Manitoba","NL_NAME_1": "NA","GID_2": "CAN.3.11_1","county": "DivisionNo.1","NL_NAME_2": "NA","city": "Stuartburn","VARNAME_3": "NA","NL_NAME_3": "NA","TYPE_3": "RuralMunicipality","ENGTYPE_3": "RuralMunicipality","CC_3": "NA","HASC_3": "NA","name": "Stuartburn.city","area_km2": 1160.349,"hist_schema_id": "Elevation0-9000","hist_area_km2": {"275": 9.7887,"300": 746.489,"325": 391.0189,"350": 13.0524}}}