{"type": "Feature","bbox": [-117.4725,49.7613,-117.4621,49.7723],"geometry": {"type": "MultiPolygon","coordinates": [[[[-117.4622,49.7629,581.7363],[-117.4626,49.7723,742.7999],[-117.4716,49.7718,533.5],[-117.4725,49.7613,552.3147],[-117.4621,49.7613,579.6645],[-117.4622,49.7629,581.7363]]]]}
,"properties": {"GID_3": "CAN.2.6.21_1","GID_0": "CAN","country": "Canada","GID_1": "CAN.2_1","province": "BritishColumbia","NL_NAME_1": "NA","GID_2": "CAN.2.6_1","county": "CentralKootenay","NL_NAME_2": "NA","city": "Slocan","VARNAME_3": "NA","NL_NAME_3": "NA","TYPE_3": "Village","ENGTYPE_3": "Village","CC_3": "NA","HASC_3": "NA","name": "Slocan.city","area_km2": 0.7395083,"hist_schema_id": "Elevation0-9000","hist_area_km2": {"525": 0.0547728,"550": 0.5067025,"575": 0.136953,"600": 0.0136936,"650": 0.0136934,"675": 0.0136931}}}