{"type": "Feature","bbox": [-121.6639,50.3277,-121.645,50.3463],"geometry": {"type": "MultiPolygon","coordinates": [[[[-121.655,50.3277,202.3191],[-121.6457,50.3278,387.8347],[-121.645,50.3459,597.1082],[-121.6639,50.3463,153.9426],[-121.6591,50.3418,154.76],[-121.655,50.3277,202.3191]]]]}
,"properties": {"GID_3": "CAN.2.28.78_1","GID_0": "CAN","country": "Canada","GID_1": "CAN.2_1","province": "BritishColumbia","NL_NAME_1": "NA","GID_2": "CAN.2.28_1","county": "Thompson-Nicola","NL_NAME_2": "NA","city": "SpintlumFlat3","VARNAME_3": "NA","NL_NAME_3": "NA","TYPE_3": "RéserveIndienne","ENGTYPE_3": "IndianReserve","CC_3": "NA","HASC_3": "NA","name": "Spintlum_Flat3.city","area_km2": 1.894537,"hist_schema_id": "Elevation0-9000","hist_area_km2": {"150": 0.094724,"175": 0.135327,"200": 0.270647,"225": 0.284204,"250": 0.270661,"275": 0.284173,"300": 0.067657,"325": 0.12179,"350": 0.054126,"375": 0.121793,"400": 0.054129,"425": 0.027062,"450": 0.040592,"475": 0.013531,"500": 0.013531,"525": 0.027061,"550": 0.01353}}}