{"type": "Feature","bbox": [-79.6415,47.4594,-79.5106,47.5812],"geometry": {"type": "MultiPolygon","coordinates": [[[[-79.6314,47.5812,262.4179],[-79.6316,47.493,176.0],[-79.6415,47.4931,176.0],[-79.6367,47.4907,176.0],[-79.6317,47.4793,176.0],[-79.6125,47.4648,176.0],[-79.5776,47.4594,176.0],[-79.5607,47.4777,176.0],[-79.5563,47.4911,176.0],[-79.5562,47.504,176.0],[-79.5532,47.5112,176.0],[-79.5474,47.5178,176.0],[-79.5171,47.5332,176.0],[-79.5106,47.5408,176.0],[-79.5114,47.5461,176.0],[-79.5178,47.5583,176.0],[-79.5176,47.5812,182.4086],[-79.6314,47.5812,262.4179]]]]}
,"properties": {"GID_3": "CAN.9.49.15_1","GID_0": "CAN","country": "Canada","GID_1": "CAN.9_1","province": "Ontario","NL_NAME_1": "NA","GID_2": "CAN.9.49_1","county": "Timiskaming","NL_NAME_2": "NA","city": "Harris","VARNAME_3": "NA","NL_NAME_3": "NA","TYPE_3": "Township","ENGTYPE_3": "Township","CC_3": "NA","HASC_3": "NA","name": "Harris.city","area_km2": 91.75059,"hist_schema_id": "Elevation0-9000","hist_area_km2": {"175": 54.83154,"200": 5.62467,"225": 12.59949,"250": 16.27523,"275": 2.41966}}}