{"type": "Feature","bbox": [-96.301367361312444,55.215170560667815,-95.68011187100106,55.400031232506507],"geometry": {"type": "Polygon","coordinates": [[[-95.684380150844476,55.400031232506507,203.117],[-95.773866845492492,55.396793227108049,208.9309],[-95.82552774980411,55.389139759802646,212.1908],[-95.8483409696568,55.376482102335984,212.9604],[-95.867621819983938,55.356759705818149,212.4312],[-95.959169063521884,55.323790923579395,212.9679],[-95.997583582112568,55.303185434680188,212.9948],[-96.023046079109449,55.29994742928173,214.4848],[-96.0332016414955,55.297003788010414,209.5302],[-96.038058649593168,55.291999597849184,200.2171],[-96.048067029915643,55.276398299111207,205.6611],[-96.054395858648974,55.270511016568577,220.3387],[-96.077356260565253,55.263740641644546,211.0052],[-96.1016413010536,55.266095554661604,199.5],[-96.150505746157464,55.27669266323835,223.7252],[-96.194218819036521,55.275220842602693,222.6238],[-96.23086715286442,55.265801190534461,224.7749],[-96.301367361312444,55.235481685439908,221.164],[-96.267368304628747,55.2225296638461,218.8926],[-96.22203622905046,55.215759288922072,199.125],[-96.136817814245845,55.215170560667815,199.5],[-95.8483409696568,55.284051766416638,199.5],[-95.737807239918865,55.288467228323611,207.4923],[-95.704985639743683,55.297003788010414,206.1645],[-95.704985639743683,55.303774162934445,202.4346],[-95.722941851498717,55.304068527061588,206.3092],[-95.755910633737457,55.310838901985619,206.9177],[-95.773278117238235,55.311427630239876,208.4509],[-95.758854275008787,55.325262744215053,199.5],[-95.684380150844476,55.35852589058095,202.3575],[-95.68011187100106,55.369417363284811,202.2128],[-95.688795612751449,55.3897284880569,207.0334],[-95.684380150844476,55.400031232506507,203.117]]]}
,"properties": {"featurecla": "Lake","scalerank": 6,"name": "null44","name_abb": null,"name_alt": null,"note": "_untitled_14","delta": null,"dam_name": null,"year": -99,"admin": null,"min_zoom": 5.0,"min_label": 6.5,"area_km2": 272.7599,"hist_schema_id": "Elevation0-9000","hist_area_km2": {"200": 227.6868,"225": 45.0731}}}