{"type":"Feature","properties":{"featurecla":"Lake","scalerank":5,"name":"Island Lake","name_abb":"Island L.","name_alt":null,"note":null,"delta":null,"dam_name":null,"year":-99,"admin":null,"min_zoom":4.7,"min_label":6.0},
"geometry":{"type": "Polygon","coordinates": [[[-94.039326226369127,53.768665239942806,226.0],[-94.0329973976358,53.773375065976893,233.5311],[-94.021517196677664,53.775729978993951,232.8313],[-94.012391908736589,53.783089082172239,245.7722],[-94.0106257239738,53.791331277731928,242.567],[-94.012391908736589,53.820767690445109,226.0],[-94.004738441431158,53.841961907598574,226.0],[-93.991933601900939,53.858740662845094,226.9747],[-93.98943150682031,53.872870140947413,233.5023],[-94.012391908736589,53.885527798414074,271.3012],[-94.0352051285893,53.889060167939647,272.832],[-94.111592619579952,53.885527798414074,263.796],[-94.126163643872971,53.887588347303989,264.3116],[-94.149712774043508,53.896419271117935,248.3818],[-94.163106341828,53.89936291238925,242.8355],[-94.174439360722573,53.898774184134993,251.2255],[-94.228455178051234,53.888471439685389,254.7453],[-94.27231543299385,53.870220863803212,262.9333],[-94.293509650147328,53.865216673641982,256.7368],[-94.320149603652752,53.866982858404782,257.5101],[-94.368572502565911,53.8819954288885,259.0808],[-94.392121632736433,53.885527798414074,242.2895],[-94.4383368006961,53.878168695235786,243.3191],[-94.513399653114689,53.845494277124175,245.044],[-94.560350731392191,53.837840809818744,243.7515],[-94.5925836033131,53.844022456488517,242.887],[-94.648512787468121,53.872870140947413,239.7884],[-94.692667406537879,53.882584157142759,226.0],[-94.703411697178183,53.890826352702447,226.0],[-94.707679977021584,53.901717825406308,226.0],[-94.704294789559569,53.912903662237312,226.0],[-94.693697680982837,53.921440221924144,226.0],[-94.60877363030535,53.945578080348923,226.0],[-94.594791334266588,53.947049900984581,226.0],[-94.5813977664821,53.950287906383039,226.0],[-94.555935269485218,53.964417384485358,226.0],[-94.543277612018557,53.967655389883816,226.0],[-94.5404811528108,53.970893395282246,228.9426],[-94.550195169006145,53.978252498460535,237.3687],[-94.565943649807693,53.985905965765966,258.8718],[-94.580809038227841,53.989143971164424,248.365],[-94.636149494128588,53.981784867986136,247.4647],[-94.759046517206059,53.981784867986136,226.0],[-94.745947313548712,53.9953256178342,238.6374],[-94.765964074193661,54.0029790851396,226.0],[-94.7895132043642,54.003567813393857,226.8728],[-94.834109369624642,53.9953256178342,253.4017],[-94.82939954359054,53.980018683223335,226.0],[-94.8351396440696,53.968538482265188,238.7903],[-94.843823385819988,53.957647009561327,231.2147],[-94.848386029790532,53.944106259713266,240.3582],[-94.855156404714549,53.934980971772205,234.4978],[-94.87075770345254,53.939690797806293,229.707],[-94.896808928703692,53.953820275908612,239.7136],[-94.910938406806011,53.951465362891554,232.4026],[-94.928894618561046,53.944694987967523,226.0],[-94.944201553171879,53.934980971772205,248.2532],[-94.950824746032353,53.923500770814059,241.0144],[-94.948175468888167,53.908782564457482,234.548],[-94.940963547773435,53.89936291238925,239.9589],[-94.917267235539342,53.885527798414074,233.8248],[-94.949941653650953,53.871103956184612,230.6805],[-94.9652485882618,53.859918119353608,247.6145],[-94.971283052868,53.844611184742774,244.8843],[-94.9639239496897,53.8263606088606,245.0827],[-94.948764197142424,53.8263606088606,253.0293],[-94.931396713641661,53.833719712038885,226.0],[-94.917267235539342,53.837840809818744,226.0],[-94.900341298229264,53.83165916314897,270.4398],[-94.891510374415319,53.819884598063709,244.8269],[-94.884887181554859,53.804872027579989,249.505],[-94.875173165359513,53.790153821223413,232.9719],[-94.86148523344788,53.782794718045125,238.8139],[-94.844117749947117,53.776318707248208,226.0],[-94.833815005497513,53.766015962798605,226.0],[-94.8416156548665,53.749237207552113,232.303],[-94.837788921213786,53.746587930407912,246.1649],[-94.827927722954882,53.741583740246682,230.9554],[-94.815270065488221,53.739228827229624,226.0],[-94.776414000706836,53.749237207552113,226.0],[-94.64174241254409,53.734224637068394,226.0],[-94.535035416458868,53.698312213558324,232.0825],[-94.463504933565872,53.692130566888551,226.0],[-94.451141640226339,53.694485479905609,226.0],[-94.440397349586036,53.70302203959244,226.0],[-94.438631164823249,53.711852963406386,226.0],[-94.437748072441849,53.722744436110247,227.8039],[-94.430094605136418,53.735402093576909,226.0],[-94.415817944970541,53.7454104738994,226.0],[-94.405368018457366,53.744233017390883,239.5285],[-94.394329363689934,53.738640098975367,227.5973],[-94.370044323201569,53.733047180559879,241.0411],[-94.331335440483755,53.717740245949017,226.9446],[-94.32000242158918,53.7147966046777,236.9539],[-94.306461671741118,53.721272615474589,230.3227],[-94.28659209315974,53.735402093576909,226.0],[-94.272168250930278,53.735402093576909,226.0],[-94.245822661552,53.729514811034278,226.0],[-94.231987547576807,53.72804299039862,226.0],[-94.206966596770613,53.733341544686994,259.9748],[-94.162370431510169,53.7565963107304,227.6773],[-94.1385269372125,53.762189229145889,226.0],[-94.032850215572239,53.755124490094744,226.0],[-94.039326226369127,53.768665239942806,226.0]]]}}