{"type": "Feature","bbox": [-96.0921,49.7959,-95.8154,50.1409],"geometry": {"type": "MultiPolygon","coordinates": [[[[-95.8208,50.1326,273.0],[-95.8254,50.125,273.0],[-95.8466,50.1105,275.7449],[-95.8541,50.1107,277.0565],[-95.859,50.1142,274.5527],[-95.8659,50.1158,274.7781],[-95.8619,50.1235,280.3212],[-95.8636,50.1259,274.5356],[-95.8729,50.127,275.2289],[-95.875,50.1344,285.6006],[-95.9026,50.1344,274.7575],[-95.8914,50.136,277.3203],[-95.8885,50.1379,274.5903],[-95.8886,50.1409,278.2841],[-95.8949,50.1381,276.3831],[-95.9133,50.1377,280.2397],[-95.926,50.1404,274.0905],[-95.9328,50.1397,273.9892],[-95.9408,50.1343,276.3861],[-95.9739,50.1332,272.5],[-95.979,50.1353,272.5],[-96.002,50.1318,274.1958],[-96.0173,50.1226,272.7763],[-96.0178,50.1191,255.7853],[-96.0227,50.1185,253.0],[-96.0292,50.1193,277.764],[-96.0439,50.1346,253.0],[-96.0871,50.1345,274.7978],[-96.086,49.8845,291.6075],[-96.092,49.8846,292.7901],[-96.0921,49.7959,284.714],[-95.8156,49.7973,296.3071],[-95.8154,49.8858,291.0759],[-95.8201,49.8858,290.4888],[-95.8208,50.1326,273.0]],
[[-95.9172,50.1351,277.5176],[-95.9118,50.1343,272.5],[-95.9221,50.1343,276.1229],[-95.9196,50.1358,272.5],[-95.9172,50.1351,277.5176]]]]}
,"properties": {"GID_3": "CAN.3.11.15_1","GID_0": "CAN","country": "Canada","GID_1": "CAN.3_1","province": "Manitoba","NL_NAME_1": "NA","GID_2": "CAN.3.11_1","county": "DivisionNo.1","NL_NAME_2": "NA","city": "Whitemouth","VARNAME_3": "NA","NL_NAME_3": "NA","TYPE_3": "RuralMunicipality","ENGTYPE_3": "RuralMunicipality","CC_3": "NA","HASC_3": "NA","name": "Whitemouth.city","area_km2": 714.6876,"hist_schema_id": "Elevation0-9000","hist_area_km2": {"250": 1.9461,"275": 457.6025,"300": 253.7087,"325": 1.4303}}}