{"type":"Feature","properties":{"featurecla":"River","scalerank":10,"rivernum":20919,"dissolve":"20919River","name":"Mikkwa","name_alt":null,"note":"ID is link back to CEC data","name_full":"Mikkwa River","min_zoom":6.0,"strokeweig":0.15,"uident":1534701,"min_label":7.0},
"geometry":{"type": "LineString","coordinates": [[-113.22248287668705,57.505682684369027,664.4472],[-113.19261634022872,57.482041733848192,672.7515],[-113.15428626210372,57.475165106244027,709.8368],[-113.11286373606205,57.446356512494027,719.2554],[-113.0843806631454,57.430853582806527,717.889],[-113.04771887929122,57.427516994264863,761.7349],[-113.01203365793705,57.433050848431527,800.3907],[-113.00377356679122,57.434515692181527,804.939],[-112.9706111318954,57.440293686973192,797.978],[-112.94102942616622,57.432562567181527,789.8959],[-112.92926998606205,57.429470119264863,788.5],[-112.9156794912704,57.420477606244027,788.5],[-112.91539466054122,57.403143621869027,792.0954]]}}