{"type":"Feature","properties":{"featurecla":"River","scalerank":11,"rivernum":20905,"dissolve":"20905River","name":"Richardson1","name_alt":null,"note":"ID is link back to CEC data","name_full":"Richardson River","min_zoom":6.7,"strokeweig":0.2,"uident":1533901,"min_label":7.7},
"geometry":{"type": "LineString","coordinates": [[-111.26573645741622,58.439724025514863,211.5954],[-111.2418513662704,58.412624416139863,213.4429],[-111.24079342356205,58.396673895306527,222.6546],[-111.24510657460372,58.378241278119027,221.4691],[-111.2333064443954,58.354803778119027,224.063],[-111.18879147043705,58.327093817181527,237.558],[-111.11302649647872,58.200384832806527,260.469],[-110.9735408193954,58.074571030723192,263.0378],[-110.8251033193954,57.980332749473192,306.3735],[-110.71369381418705,57.942816473431527,315.7534],[-110.63170325429122,57.918321030723192,321.6945],[-110.55931555897872,57.906765041139863,369.0449],[-110.46178137929122,57.905585028119027,338.0881],[-110.40038001210372,57.896063543744027,351.4841],[-110.27643795481205,57.844916082806527,358.9698],[-110.18146725168705,57.827215887494027,382.5612],[-110.1134333975204,57.809515692181527,395.908],[-110.09630286366622,57.801133530723192,384.9738],[-110.0401912100204,57.765814520306527,466.8333],[-110.03319251210372,57.757879949994027,479.8711],[-110.0152888662704,57.747829494264863,544.5671],[-110.0089412100204,57.744452215619027,520.6653],[-109.91612708241622,57.691758530723192,511.9035],[-109.83055579335372,57.692653713014863,458.1037],[-109.7543025381454,57.710760809369027,464.9199],[-109.70197506418705,57.765814520306527,472.3203],[-109.67096920481205,57.784613348431527,499.7684]]}}