{"type":"Feature","properties":{"featurecla":"Lake Centerline","scalerank":10,"rivernum":21025,"dissolve":"21025Lake Centerline","name":"null1089","name_alt":null,"note":"ID is link back to CEC data","name_full":null,"min_zoom":6.0,"strokeweig":0.2,"uident":1503901,"min_label":7.0},
"geometry":{"type": "LineString","coordinates": [[-111.65550696522872,58.621527410931527,211.1976],[-111.60155188710372,58.617254949994027,207.0],[-111.55467688710372,58.632879949994027,209.1417],[-111.48827063710372,58.644598699994027,207.0],[-111.43358313710372,58.628973699994027,207.0],[-111.38670813710372,58.621161199994027,209.0682],[-111.34190833241622,58.638698634889863,211.8748]]}}