{"type":"Feature","properties":{"featurecla":"Lake Centerline","scalerank":6,"rivernum":230,"dissolve":"230Lake Centerline","name":"null136","name_alt":null,"note":null,"min_zoom":5.0,"strokeweig":0.25,"name_en":null,"min_label":6.0},
"geometry":{"type": "LineString","coordinates": [[-111.0155517578125,58.691180731244117,207.0],[-110.9814453125,58.69013092655662,207.0],[-110.92216796875,58.69513580936912,207.0],[-110.86748046875,58.72150299686912,207.0],[-110.805908203125,58.74103424686912,207.0],[-110.73129882812499,58.76166412968162,207.0],[-110.65903320312499,58.79608795780662,207.0],[-110.48466796875,58.89704010624412,207.0],[-110.42802734375,58.94147369999412,207.0],[-110.353076171875,58.99494049686912,207.0],[-110.263232421875,59.027118231244117,207.0],[-110.157275390625,59.059198309369123,207.0],[-109.96762695312499,59.13873932499412,207.0],[-109.77490234375,59.19989655155662,207.0],[-109.625,59.23663971561912,207.0],[-109.1967041015625,59.316180731244117,207.0],[-109.078173828125,59.30048248905662,207.0],[-108.96420898437499,59.273309637494123,207.0],[-108.82841796875,59.27106354374412,207.0],[-108.42578125,59.316180731244117,207.0],[-108.30029296875,59.312762762494117,207.0],[-108.13818359375,59.316180731244117,207.0],[-107.9239990234375,59.362079168744117,207.0],[-107.83603515624999,59.37201569218162,207.0],[-107.752685546875,59.37738678593162,207.0],[-107.587451171875,59.37738678593162,207.0],[-107.5358154296875,59.36591217655662,207.0],[-107.47734375,59.34979889530662,207.0],[-107.4127685546875,59.336444403119117,207.0],[-107.37333984375,59.325311590619123,207.0],[-107.335498046875,59.31806061405662,207.0],[-107.28159179687499,59.313104559369123,207.0],[-107.238037109375,59.314227606244117,207.0],[-107.07353515625,59.310077215619117,207.0],[-107.01230468749999,59.31122467655662,207.0],[-106.96030273437499,59.310077215619117,207.0],[-106.9186279296875,59.301288153119117,207.0],[-106.8746826171875,59.29474518436912,207.0],[-106.810791015625,59.298211981244123,207.0],[-106.74008789062499,59.29474518436912,207.0],[-106.67734375,59.28436920780662,207.0],[-106.60546875,59.276385809369117,221.6902],[-106.461669921875,59.270282293744117,208.0],[-106.29648437499999,59.270282293744117,208.0],[-106.1435546875,59.279413153119123,208.0],[-106.018310546875,59.27130768436912,208.0]]}}