{"type":"Feature","properties":{"featurecla":"River","scalerank":2,"rivernum":33,"dissolve":"33River","name":"Peace2","name_alt":null,"note":null,"min_zoom":2.1,"strokeweig":0.25,"name_en":"Peace","min_label":3.1},
"geometry":{"type": "LineString","coordinates": [[-113.71347656249999,58.66925690311912,233.7193],[-113.71347656249999,58.66925690311912,233.7193],[-113.71347656249999,58.66925690311912,233.7193],[-113.71347656249999,58.66925690311912,233.7193],[-113.71347656249999,58.66925690311912,233.7193],[-113.698779296875,58.669549871869123,232.3201],[-113.687548828125,58.67536041874412,225.175],[-113.6774169921875,58.68317291874412,230.3353],[-113.6656982421875,58.68976471561912,234.1615],[-113.649951171875,58.693475653119123,238.9176],[-113.5595703125,58.68292877811912,225.1032],[-113.548828125,58.685565496869117,221.5],[-113.521728515625,58.702752996869123,239.2475],[-113.49765625,58.709588934369123,233.9898],[-113.41586914062499,58.710223699994117,232.8247],[-113.39013671875,58.71649811405662,237.2979],[-113.389453125,58.73139069218162,232.3513],[-113.41245117187499,58.76483795780662,240.1832],[-113.387451171875,58.77326080936912,231.1535],[-113.32871093749999,58.766376043744117,230.8161],[-113.30600585937499,58.775409246869117,227.171],[-113.287890625,58.78583405155662,232.2792],[-113.20703125,58.80646393436912,231.4824],[-113.1520263671875,58.80975983280662,221.0],[-113.123291015625,58.81598541874412,221.0],[-113.11083984375,58.82965729374412,221.0],[-113.10869140625,58.83283112186912,221.0],[-113.10400390625,58.83466217655662,221.0],[-113.0992919921875,58.837518621869123,221.0],[-113.09716796875,58.84369537968162,221.0],[-113.09814453125,58.84943268436912,221.0],[-113.1002685546875,58.85224030155662,221.0],[-113.10239257812499,58.854266668744117,221.0],[-113.10336914062499,58.85736725468162,223.549],[-113.10986328125,58.86212799686912,224.6199],[-113.12353515625,58.863788153119117,221.0],[-113.135791015625,58.86835358280662,225.359],[-113.1381103515625,58.88153717655662,227.8966],[-113.1205322265625,58.89386627811912,237.8801],[-113.0875,58.89740631718162,222.5042],[-113.031982421875,58.89520905155662,221.0],[-113.010498046875,58.89972565311912,221.0],[-112.98876953125,58.91058991093162,221.6725],[-112.9178955078125,58.96564362186912,220.0],[-112.88144531249999,59.00165436405662,237.4249],[-112.86020507812499,59.03449127811912,227.0314],[-112.85693359375,59.04230377811912,228.4752],[-112.8531982421875,59.049188543744123,226.3303],[-112.829638671875,59.066522528119123,232.2828],[-112.80791015625,59.101190496869123,239.4626],[-112.794189453125,59.11151764530662,219.5],[-112.717578125,59.132928778119123,217.0],[-112.69638671874999,59.14215729374412,216.5],[-112.6757080078125,59.158319403119123,237.0323],[-112.653564453125,59.16901276249412,254.3871],[-112.62241210937499,59.17243073124412,214.0],[-112.56210937499999,59.16889069218162,213.5],[-112.53964843749999,59.16437409061912,213.5],[-112.51938476562499,59.156366278119123,213.0],[-112.5009765625,59.145282293744117,213.0],[-112.483935546875,59.13141510624412,227.2633],[-112.44223632812499,59.11212799686912,212.0],[-112.34013671875,59.117303778119123,228.2992],[-112.28842773437499,59.11432526249412,231.4888],[-112.19980468749999,59.09357330936912,210.0],[-112.1859619140625,59.083856512494123,231.4406],[-112.17563476562499,59.07184479374412,209.875],[-112.152099609375,59.06598541874412,209.5],[-112.126513671875,59.066424871869117,209.5],[-112.1102783203125,59.07330963749412,209.0],[-112.1102783203125,59.066522528119123,247.6321],[-112.0712890625,59.082391668744123,214.9105],[-112.00537109375,59.100458074994123,209.9506],[-111.9779541015625,59.11151764530662,224.4505],[-111.950927734375,59.11371491093162,214.5137],[-111.9259521484375,59.09381744999412,221.3779],[-111.91875,59.07269928593162,220.2077],[-111.924609375,59.05512116093162,208.4545],[-111.9403564453125,59.04303619999412,214.1797],[-111.9899169921875,59.03558991093162,209.8383],[-112.0118896484375,59.02741119999412,223.3161],[-112.03076171875,59.01471588749412,231.4401],[-112.066162109375,58.98371002811912,214.0916],[-112.0739013671875,58.97418854374412,224.398],[-112.0760986328125,58.96344635624412,208.0],[-112.0704833984375,58.953876043744117,213.4961],[-112.0599853515625,58.94904205936912,228.7707],[-112.048095703125,58.945575262494117,225.4565],[-112.0382568359375,58.939569403119123,214.6817],[-112.01474609374999,58.92975494999412,209.7265],[-111.979541015625,58.92865631718162,208.0],[-111.918505859375,58.936151434369123,219.5531],[-111.89267578124999,58.944452215619123,221.2243],[-111.84409179687499,58.96649811405662,215.8223],[-111.819140625,58.97089264530662,229.2155],[-111.8116943359375,58.96930573124412,216.7147],[-111.80209960937499,58.96503327030662,206.0],[-111.792529296875,58.95941803593162,221.0714],[-111.784716796875,58.95355866093162,232.0667],[-111.773681640625,58.94953034061912,222.8987],[-111.698779296875,58.951532293744123,225.8349],[-111.67431640625,58.949335028119123,230.0571],[-111.65195312499999,58.94220612186912,227.298],[-111.60019531249999,58.905047918744117,210.193],[-111.58232421875,58.900506903119123,206.0888],[-111.561572265625,58.90827057499412,217.4368],[-111.57382812499999,58.927606512494123,223.4844],[-111.56064453124999,58.94660065311912,215.7277],[-111.53598632812499,58.96210358280662,206.0645],[-111.514404296875,58.97089264530662,207.0591],[-111.456591796875,58.980243231244117,205.0],[-111.42919921875,58.988397528119123,205.0],[-111.41074218749999,59.00507233280662,207.7541]]}}