{"type":"Feature","properties":{"featurecla":"River","scalerank":2,"rivernum":33,"dissolve":"33River","name":"Peace1","name_alt":null,"note":null,"min_zoom":2.1,"strokeweig":0.25,"name_en":"Peace","min_label":3.1},
"geometry":{"type": "LineString","coordinates": [[-122.22172851562499,56.021258856244117,738.6567],[-122.23544921875,56.009149481244116,719.6227],[-122.22861328125,55.99091217655662,500.375],[-122.208837890625,55.97565338749412,572.603],[-122.181640625,55.96710846561912,531.6741],[-122.16337890624999,55.957782293744117,520.051],[-122.15300292968749,55.95563385624412,494.6994],[-122.13041992187499,55.95758698124412,571.9591],[-122.10893554687499,55.96185944218162,561.75],[-122.062841796875,55.97675202030662,650.8004],[-122.046728515625,55.979120184369116,706.3187],[-122.02409667968749,55.97882721561912,706.9315],[-122.013427734375,55.97992584843162,607.3416],[-122.00139160156249,55.983661199994117,517.0306],[-121.98076171874999,55.99530670780662,466.5725],[-121.94279785156249,56.02435944218162,646.5114],[-121.835693359375,56.080340887494117,479.2401],[-121.78935546874999,56.11408112186912,465.8439],[-121.763671875,56.128045965619116,646.218],[-121.728271484375,56.139032293744116,519.0768],[-121.62138671874999,56.153924871869116,516.04],[-121.6044921875,56.160907293744117,513.6188],[-121.55729980468749,56.19330475468162,640.6371],[-121.410498046875,56.24103424686912,643.8633],[-121.381201171875,56.24457428593162,644.3404],[-121.35400390625,56.24347565311912,557.6021],[-121.3291015625,56.23944733280662,438.1267],[-121.31650390625,56.23908112186912,441.2602],[-121.30363769531249,56.24140045780662,453.8651],[-121.29252929687499,56.24677155155662,458.6535],[-121.265625,56.26837799686912,486.8349],[-121.25029296874999,56.27423737186912,486.8031],[-121.23210449218749,56.27753327030662,478.8732],[-121.2134765625,56.277606512494117,494.3319],[-121.19719238281249,56.27399323124412,534.3134],[-121.185791015625,56.266961981244116,462.7917],[-121.16650390625,56.24909088749412,418.5],[-121.1548828125,56.242547918744116,427.5592],[-121.13720703125,56.240008856244117,417.5],[-121.09855957031249,56.243524481244116,652.1108],[-121.080078125,56.243036199994116,598.345],[-121.060888671875,56.22504303593162,463.6564],[-121.03264160156249,56.228534246869117,452.6423],[-121.00212402343749,56.23956940311912,637.4327],[-120.97624511718749,56.24469635624412,678.4836],[-120.94921875,56.234637762494117,655.3944],[-120.89934082031249,56.200799871869116,578.9888],[-120.8681640625,56.194598699994117,470.2556],[-120.84416503906249,56.19965241093162,408.4449],[-120.828369140625,56.206903387494116,479.2983],[-120.81499023437499,56.208612371869116,605.0186],[-120.777685546875,56.18256256718162,438.3584],[-120.74931640624999,56.169208074994117,452.7858],[-120.71884765625,56.15949127811912,564.0739],[-120.69230957031249,56.15582916874412,477.5717],[-120.58745117187499,56.15570709843162,619.8711],[-120.548095703125,56.14899323124412,615.5659],[-120.46123046874999,56.12042877811912,594.1445],[-120.29150390625,56.128290106244116,612.8145],[-120.21342773437499,56.12116119999412,615.9275],[-120.17094726562499,56.12213776249412,605.9744],[-120.14067382812499,56.134051824994117,635.5685],[-120.14812011718749,56.134051824994117,634.0273],[-120.118017578125,56.13751862186912,631.2863],[-120.06633300781249,56.152704168744116,557.0585],[-120.041357421875,56.15607330936912,627.3682],[-119.90788574218749,56.149286199994116,508.442],[-119.876220703125,56.15753815311912,605.3236],[-119.82084960937499,56.18500397343162,626.0576],[-119.78813476562499,56.19086334843162,625.6509],[-119.660888671875,56.19086334843162,619.5461],[-119.58916015624999,56.199335028119116,629.1287],[-119.58408203125,56.20233795780662,616.5783],[-119.57080078125,56.21637604374412,621.0728],[-119.565283203125,56.221063543744116,584.3395],[-119.553076171875,56.22406647343162,631.0294],[-119.523681640625,56.22626373905662,592.3494],[-119.513427734375,56.23065827030662,611.6662],[-119.49431152343749,56.24335358280662,625.0217],[-119.47568359375,56.245477606244116,627.0231],[-119.434912109375,56.24091217655662,457.3396],[-119.41318359375,56.243524481244116,445.5298],[-119.394287109375,56.24982330936912,521.8357],[-119.378662109375,56.25849030155662,625.478],[-119.36669921875,56.26825592655662,612.8312],[-119.36669921875,56.26203034061912,612.0799],[-119.347509765625,56.27240631718162,612.3436],[-119.230322265625,56.30878327030662,525.3471],[-119.22265625,56.31293366093162,563.6335],[-119.21623535156249,56.32379791874412,630.4875],[-119.20126953125,56.32599518436912,631.241],[-119.171142578125,56.32233307499412,485.9204],[-119.158447265625,56.31903717655662,363.1091],[-119.13811035156249,56.301874090619116,362.5569],[-119.12646484375,56.294452215619117,362.0],[-119.09599609374999,56.28546784061912,374.4644],[-119.064697265625,56.281366278119116,483.2909],[-119.003271484375,56.28864166874412,629.6378],[-118.97490234374999,56.285663153119117,508.6743],[-118.95451660156249,56.267694403119116,361.4782],[-118.97177734375,56.253045965619116,514.1816],[-118.98430175781249,56.23334381718162,643.3853],[-118.98642578125,56.21112702030662,495.5692],[-118.972509765625,56.188592840619116,612.4434],[-118.89433593749999,56.116961981244117,415.6813],[-118.9462890625,56.083026434369117,638.0605],[-118.95451660156249,56.071893621869116,572.368],[-118.94584960937499,56.047723699994116,544.5649],[-118.92521972656249,56.04218170780662,533.1279],[-118.88005371093749,56.04804108280662,559.5452],[-118.858154296875,56.04132721561912,592.7643],[-118.84440917968749,56.02838776249412,347.5],[-118.82170410156249,55.99652741093162,419.9257],[-118.80576171875,55.98273346561912,385.2156],[-118.78825683593749,55.971698309369117,582.7164],[-118.76953125,55.96356842655662,584.3734],[-118.74968261718749,55.95868561405662,582.2524],[-118.699951171875,55.95282623905662,582.4012],[-118.67509765624999,55.946649481244116,571.6193],[-118.63908691406249,55.92572662968162,348.8371],[-118.404638671875,55.91510651249412,446.4214],[-118.35246582031249,55.92511627811912,570.8398],[-118.318212890625,55.93732330936912,433.0909],[-118.3046875,55.93878815311912,485.9368],[-118.31083984374999,55.93878815311912,460.4437],[-118.28564453125,55.92865631718162,580.6415],[-118.01220703125,55.92755768436912,549.8137],[-117.94597167968749,55.94708893436912,477.1831],[-117.87744140625,55.957147528119116,358.5408],[-117.850439453125,55.97064850468162,370.2202],[-117.80375976562499,56.007098699994117,530.0089],[-117.80375976562499,56.01325104374412,542.6478],[-117.8091796875,56.026239324994116,560.9124],[-117.79301757812499,56.037372137494117,562.4598],[-117.76762695312499,56.04511139530662,564.0137],[-117.707373046875,56.05499909061912,494.3779],[-117.38078613281249,56.19293854374412,483.1685],[-117.34814453125,56.20246002811912,464.2791],[-117.32421875,56.218622137494116,431.4177],[-117.31552734375,56.268426824994116,436.5283],[-117.293798828125,56.316034246869116,501.2755],[-117.28374023437499,56.33234284061912,516.2898],[-117.268310546875,56.34552643436912,478.9494],[-117.22917480468749,56.35614655155662,444.3561],[-117.20859375,56.36591217655662,461.5488],[-117.19694824218749,56.37933991093162,429.6835],[-117.178076171875,56.417840887494116,473.7853],[-117.16704101562499,56.434833074994117,453.1707],[-117.141357421875,56.461688543744117,496.3738],[-117.129248046875,56.477557684369117,489.1561],[-117.119873046875,56.49689362186912,473.2639],[-117.11474609375,56.516131903119117,433.2327],[-117.111328125,56.55573151249412,525.2827],[-117.112890625,56.58966705936912,461.189],[-117.11589355468749,56.592401434369116,458.4324],[-117.12602539062499,56.59870026249412,427.9053],[-117.13713378906249,56.601922918744116,399.667],[-117.14616699218749,56.60040924686912,349.856],[-117.15380859375,56.60162994999412,301.3328],[-117.16081542968749,56.612909246869116,444.406],[-117.15922851562499,56.619012762494116,446.9807],[-117.15361328124999,56.626727606244117,485.0099],[-117.14812011718749,56.636004949994117,487.0332],[-117.14714355468749,56.64704010624412,393.1334],[-117.15092773437499,56.655292059369117,301.3854],[-117.15703124999999,56.65961334843162,295.5],[-117.25639648437499,56.70856354374412,417.8109],[-117.24375,56.723895574994117,473.4248],[-117.22368164062499,56.729999090619117,437.5107],[-117.20109863281249,56.73419830936912,434.1532],[-117.18125,56.74384186405662,311.7112],[-117.19951171874999,56.75531647343162,360.8768],[-117.2154296875,56.75873444218162,494.3435],[-117.252685546875,56.75690338749412,375.4929],[-117.27685546875,56.758807684369117,371.2447],[-117.27702636718749,56.76508209843162,400.5945],[-117.27197265625,56.77667877811912,331.5077],[-117.28679199218749,56.80853912968162,322.1596],[-117.279541015625,56.83454010624412,324.4362],[-117.287109375,56.84967682499412,287.6901],[-117.297705078125,56.85590241093162,375.2389],[-117.31962890624999,56.858661199994117,286.5],[-117.3287109375,56.86334869999412,300.7235],[-117.33251953125,56.871454168744116,452.2938],[-117.329833984375,56.87921784061912,471.262],[-117.32316894531249,56.885028387494117,463.7479],[-117.31474609374999,56.88727448124412,465.3046],[-117.29436035156249,56.88690827030662,450.7308],[-117.28525390625,56.88886139530662,403.1166],[-117.27685546875,56.89411041874412,308.6133],[-117.273291015625,56.900653387494117,354.1367],[-117.273681640625,56.90729401249412,357.3499],[-117.27568359374999,56.912469793744116,408.822],[-117.27685546875,56.914569403119117,450.0454],[-117.248779296875,56.964374090619117,464.8242],[-117.24272460937499,56.98285553593162,424.6857],[-117.23974609375,57.02887604374412,363.2571],[-117.23198242187499,57.05853912968162,373.2172],[-117.228271484375,57.06622955936912,442.694],[-117.222265625,57.07282135624412,434.7487],[-117.2138671875,57.07648346561912,422.8992],[-117.19072265624999,57.08209869999412,338.8574],[-117.18125,57.08649323124412,292.4731],[-117.19157714843749,57.098407293744117,323.0714],[-117.206640625,57.10419342655662,450.8382],[-117.242431640625,57.10639069218162,424.0782],[-117.26408691406249,57.110614324994117,288.5449],[-117.27836914062499,57.12006256718162,429.4644],[-117.27910156249999,57.12946198124412,450.0531],[-117.2017578125,57.147967840619117,453.3382],[-117.147314453125,57.14887116093162,391.9202],[-117.133544921875,57.154803778119117,384.2539],[-117.12541503906249,57.166131903119116,405.7139],[-117.12358398437499,57.17841217655662,421.2194],[-117.12602539062499,57.20563385624412,436.7734],[-117.11967773437499,57.22174713749412,398.665],[-117.09147949218749,57.24127838749412,286.5619],[-117.08505859375,57.253778387494116,354.8379],[-117.09477539062499,57.28424713749412,269.5],[-117.11767578125,57.288836981244117,364.9555],[-117.144775390625,57.290399481244116,269.8953],[-117.16704101562499,57.31183502811912,434.9044],[-117.153125,57.322040106244117,422.5594],[-117.147705078125,57.33722565311912,334.8634],[-117.14519042968749,57.35516998905662,362.1502],[-117.140380859375,57.373895574994116,431.8387],[-117.1314453125,57.389520574994116,434.6639],[-117.11955566406249,57.403583074994117,423.9931],[-117.09189453125,57.42853424686912,416.3651],[-117.05810546875,57.45172760624412,410.7061],[-117.04912109374999,57.46759674686912,326.1043],[-117.05717773437499,57.48993561405662,276.433],[-117.07084960937499,57.497919012494116,411.2247],[-117.140380859375,57.51788971561912,422.7383],[-117.1201171875,57.53754303593162,423.8912],[-117.085693359375,57.545038153119116,430.4454],[-116.98564453124999,57.545184637494117,363.5272],[-116.97197265624999,57.54926178593162,367.7874],[-116.9615234375,57.558856512494117,342.7461],[-116.95817871093749,57.568231512494116,291.4261],[-116.95817871093749,57.57977936405662,270.5652],[-116.96171874999999,57.590936590619116,265.254],[-116.96904296874999,57.59979889530662,359.0962],[-116.99858398437499,57.610956121869116,387.2326],[-117.07333984375,57.61615631718162,334.5652],[-117.10588378906249,57.624042059369117,261.3662],[-117.114990234375,57.64032623905662,364.0862],[-117.07646484374999,57.68280670780662,290.9957],[-117.07890624999999,57.70966217655662,260.5714],[-117.07890624999999,57.70282623905662,274.7003],[-117.08977050781249,57.71405670780662,307.2431],[-117.130615234375,57.739520574994117,270.0826],[-117.136962890625,57.74725983280662,338.0739],[-117.11923828125,57.760126043744116,342.7316],[-117.097021484375,57.76813385624412,328.1153],[-117.073974609375,57.76740143436912,267.2525],[-117.054052734375,57.75433991093162,301.8618],[-117.037939453125,57.746844793744117,292.5458],[-117.02104492187499,57.750995184369117,264.8104],[-117.01474609375,57.76447174686912,263.324],[-117.03044433593749,57.784784246869116,320.479],[-117.05314941406249,57.793963934369117,307.7797],[-117.076513671875,57.793329168744116,324.279],[-117.09916992187499,57.790301824994117,290.0494],[-117.119873046875,57.792254949994117,258.9878],[-117.13811035156249,57.805536199994116,258.8022],[-117.13134765625,57.81891510624412,335.9352],[-117.1109375,57.82916901249412,342.5114],[-117.0884765625,57.83319733280662,342.0779],[-117.06340332031249,57.83466217655662,289.7814],[-117.0458984375,57.84027741093162,264.2809],[-117.041015625,57.85187409061912,262.5122],[-117.054052734375,57.87103912968162,276.3172],[-117.12895507812499,57.91474030155662,257.6668],[-117.16374511718749,57.94354889530662,308.2964],[-117.15397949218749,57.96356842655662,277.7575],[-117.15234375,57.97614166874412,336.4728],[-117.120458984375,58.015643621869117,257.7761],[-117.11240234375,58.034930731244117,267.2515],[-117.10068359375,58.05145905155662,353.428],[-117.073583984375,58.060809637494117,353.9255],[-116.995703125,58.07050202030662,313.4048],[-116.93425292968749,58.10687897343162,335.6515],[-116.90825195312499,58.11517975468162,343.6897],[-116.88330078125,58.117303778119123,346.984],[-116.71232910156249,58.11176178593162,341.0707],[-116.69877929687499,58.10809967655662,343.6647],[-116.6865234375,58.10285065311912,332.6122],[-116.67729492187499,58.096698309369117,340.5128],[-116.667236328125,58.093866278119123,335.4545],[-116.603271484375,58.103631903119123,337.5167],[-116.58171386718749,58.11347077030662,334.1659],[-116.564453125,58.12860748905662,280.8013],[-116.557470703125,58.14789459843162,252.5],[-116.566259765625,58.16510651249412,328.6307],[-116.606689453125,58.18500397343162,275.3477],[-116.61955566406249,58.203143621869117,331.5354],[-116.60734863281249,58.20746491093162,334.0456],[-116.59636230468749,58.215692449994123,322.6544],[-116.5884765625,58.22711823124412,252.0],[-116.58544921875,58.240985418744117,252.0],[-116.5904296875,58.25433991093162,329.0161],[-116.60258789062499,58.256463934369123,332.2737],[-116.66936035156249,58.24677155155662,300.5322],[-116.68955078125,58.24725983280662,274.8651],[-116.70488281249999,58.25433991093162,251.5],[-116.71005859375,58.26544830936912,338.2434],[-116.70512695312499,58.275262762494123,337.1497],[-116.69316406249999,58.282342840619123,335.8595],[-116.67729492187499,58.28510162968162,337.3086],[-116.59912109375,58.28510162968162,330.3223],[-116.5810546875,58.289569403119117,323.2138],[-116.570068359375,58.29621002811912,326.3925],[-116.55998535156249,58.30426666874412,329.7278],[-116.54448242187499,58.313006903119117,334.1434],[-116.530859375,58.317254949994123,319.7842],[-116.512548828125,58.32025787968162,331.6409],[-116.49462890625,58.319598699994117,322.7344],[-116.481787109375,58.313006903119117,326.1916],[-116.47941894531249,58.30341217655662,322.0885],[-116.483154296875,58.291278387494117,250.5],[-116.49609375,58.26459381718162,250.0],[-116.484375,58.26032135624412,255.7898],[-116.469580078125,58.25690338749412,258.1885],[-116.45419921875,58.25556061405662,256.7294],[-116.44084472656249,58.25775787968162,255.4631],[-116.43173828125,58.264911199994117,254.897],[-116.41484374999999,58.28717682499412,296.5851],[-116.404296875,58.29730866093162,291.1046],[-116.388427734375,58.32123444218162,300.976],[-116.3828125,58.32660553593162,311.5293],[-116.373046875,58.32819244999412,272.0554],[-116.255615234375,58.36237213749412,283.6342],[-116.2421875,58.37067291874412,265.6742],[-116.23405761718749,58.387469793744117,277.119],[-116.214208984375,58.39850494999412,279.4638],[-116.16708984375,58.408563543744123,258.7007],[-115.9786865234375,58.42218659061912,261.9617],[-115.9607421875,58.425653387494123,251.4078],[-115.95732421875,58.434344793744117,257.5182],[-115.9584228515625,58.445428778119123,267.9716],[-115.95419921874999,58.45636627811912,277.3632],[-115.932373046875,58.467547918744117,279.2938],[-115.9032470703125,58.471210028119117,285.1837],[-115.844970703125,58.47003815311912,284.0447],[-115.8177978515625,58.46539948124412,284.5783],[-115.796435546875,58.45355866093162,272.316],[-115.75620117187499,58.42218659061912,258.7839],[-115.7373046875,58.41181061405662,252.798],[-115.7147705078125,58.403094793744117,254.5866],[-115.68979492187499,58.397088934369123,247.9265],[-115.6630859375,58.39496491093162,247.6391],[-115.635986328125,58.39948151249412,262.1019],[-115.616015625,58.410516668744123,258.2543],[-115.5983154296875,58.42413971561912,250.6658],[-115.5780517578125,58.436542059369117,246.5005],[-115.567626953125,58.439813543744123,253.0434],[-115.55844726562499,58.440204168744117,257.327],[-115.537109375,58.436542059369117,252.9035],[-115.524658203125,58.43219635624412,258.4804],[-115.492431640625,58.414813543744117,246.3384],[-115.4650146484375,58.411981512494123,262.3734],[-115.299560546875,58.357684637494117,255.8352],[-115.269580078125,58.35394928593162,252.9458],[-115.152880859375,58.36762116093162,246.1063],[-115.0807373046875,58.38580963749412,243.5],[-115.05356445312499,58.388055731244123,246.5002],[-114.9200927734375,58.373797918744117,249.35059999999999],[-114.86796875,58.375995184369117,237.3739],[-114.8243896484375,58.391620184369117,235.9573],[-114.782275390625,58.412225653119123,233.891],[-114.7345458984375,58.42902252811912,232.6818],[-114.64926757812499,58.441669012494117,244.2815],[-114.62900390624999,58.45294830936912,242.8777],[-114.595263671875,58.48041412968162,251.6875],[-114.50180664062499,58.53888580936912,230.7103],[-114.48374023437499,58.545672918744117,242.2723],[-114.477587890625,58.54913971561912,230.4558],[-114.465380859375,58.55267975468162,230.0368],[-114.401416015625,58.55329010624412,241.2616],[-114.28745117187499,58.58942291874412,228.9722],[-114.24345703125,58.619989324994123,238.1944],[-114.1734375,58.64813873905662,242.4701],[-114.1281005859375,58.65924713749412,238.1298],[-113.981005859375,58.66181061405662,226.2716],[-113.959033203125,58.667352606244123,226.1611],[-113.91943359375,58.68585846561912,241.142],[-113.838623046875,58.703387762494117,239.8354],[-113.82333984374999,58.710223699994117,224.2198]]}}