{"type":"Feature","properties":{"featurecla":"River","scalerank":12,"rivernum":22008,"dissolve":"22008River","name":"null882","name_alt":null,"note":"ID is link back to CEC data","name_full":null,"min_zoom":7.0,"strokeweig":0.2,"uident":1503701,"min_label":8.0},
"geometry":{"type": "LineString","coordinates": [[-111.62572180897872,58.923407293744027,211.5556],[-111.62108313710372,58.910508530723192,207.1088],[-111.6212458975204,58.895575262494027,223.5659],[-111.6163630850204,58.881170965619027,217.7816],[-111.60155188710372,58.852362371869027,226.4771],[-111.5936580068954,58.844549871869027,215.274],[-111.5687556631454,58.830104884889863,219.558],[-111.46393795481205,58.787461655723192,213.8013],[-111.41295325429122,58.762396551556527,220.3039],[-111.37987219960372,58.704372463014863,211.7797],[-111.32091223866622,58.669623114056527,215.9927],[-111.31086178293705,58.656765041139863,211.5983]]}}