{"type":"Feature","properties":{"GID_3":"CAN.7.10.5_1","GID_0":"CAN","country":"Canada","GID_1":"CAN.7_1","province":"NovaScotia","NL_NAME_1":"NA","GID_2":"CAN.7.10_1","county":"Inverness","NL_NAME_2":"NA","city":"Whycocomagh2","VARNAME_3":"NA","NL_NAME_3":"NA","TYPE_3":"RéserveIndienne","ENGTYPE_3":"IndianReserve","CC_3":"NA","HASC_3":"NA","name":"Whycocomagh2.city"},
"geometry":{"type": "MultiPolygon","coordinates": [[[[-61.142,45.9402,0.1693],[-61.1422,45.9402,0.1693],[-61.1413,45.9401,0.1693],[-61.142,45.9402,0.1693]]],
[[[-61.1146,45.9589,0.0],[-61.1202,45.9613,0.0],[-61.1224,45.9573,0.0],[-61.1216,45.9536,1.6576],[-61.1178,45.9539,24.8528],[-61.1162,45.9525,5.0943],[-61.1161,45.9494,1.1917],[-61.1082,45.9563,27.4142],[-61.1091,45.958,12.7243],[-61.1146,45.9589,0.0]]],
[[[-61.156,45.9475,186.5295],[-61.1468,45.9466,139.3062],[-61.1458,45.9452,82.4192],[-61.1481,45.9429,37.5001],[-61.1422,45.9402,0.1693],[-61.1453,45.9422,16.0472],[-61.1446,45.943,2.3498],[-61.1262,45.9519,0.0],[-61.1246,45.9552,0.6515],[-61.1248,45.9582,0.1251],[-61.1268,45.9576,4.286],[-61.1313,45.9649,0.7897],[-61.1277,45.9669,0.0],[-61.14,45.9763,10.1382],[-61.1532,45.9894,50.4573],[-61.1733,45.9845,93.2682],[-61.157,45.951,249.4655],[-61.1596,45.9497,213.1333],[-61.156,45.9475,186.5295]]]]}}