{"type":"Feature","properties":{"GID_3":"CAN.5.3.14_1","GID_0":"CAN","country":"Canada","GID_1":"CAN.5_1","province":"NewfoundlandandLabrador","NL_NAME_1":"NA","GID_2":"CAN.5.3_1","county":"DivisionNo.1","NL_NAME_2":"NA","city":"CapeBroyle","VARNAME_3":"NA","NL_NAME_3":"NA","TYPE_3":"Town","ENGTYPE_3":"Town","CC_3":"NA","HASC_3":"NA","name":"Cape_Broyle.city"},
"geometry":{"type": "MultiPolygon","coordinates": [[[[-52.9259,47.0916,0.0],[-52.9184,47.1005,92.7445],[-52.9076,47.1071,153.2749],[-52.9153,47.1123,71.6119],[-52.9143,47.1143,58.1213],[-52.9194,47.1132,58.9544],[-52.9265,47.1086,55.0],[-52.9731,47.1077,144.4796],[-52.9731,47.0993,140.8783],[-52.9692,47.0914,40.6222],[-52.9706,47.0898,77.5033],[-52.9549,47.0707,103.2084],[-52.9496,47.073,112.9583],[-52.9355,47.0714,145.9102],[-52.9268,47.088,12.1114],[-52.9497,47.0889,1.5372],[-52.9526,47.0925,0.0],[-52.9506,47.095,0.0],[-52.9327,47.0951,0.0],[-52.9259,47.0916,0.0]]]]}}