{"type":"Feature","properties":{"GID_3":"CAN.2.13.59_1","GID_0":"CAN","country":"Canada","GID_1":"CAN.2_1","province":"BritishColumbia","NL_NAME_1":"NA","GID_2":"CAN.2.13_1","county":"FraserValley","NL_NAME_2":"NA","city":"Skway5","VARNAME_3":"NA","NL_NAME_3":"NA","TYPE_3":"RéserveIndienne","ENGTYPE_3":"IndianReserve","CC_3":"NA","HASC_3":"NA","name":"Skway5.city"},
"geometry":{"type": "MultiPolygon","coordinates": [[[[-122.0063,49.1653,13.4764],[-121.9958,49.1642,26.5464],[-121.9925,49.1615,7.8292],[-121.9905,49.1618,7.3194],[-121.9866,49.1651,9.5179],[-121.9883,49.1719,10.979],[-121.9874,49.1728,8.3521],[-121.9942,49.1757,14.1145],[-121.9995,49.1746,6.0],[-122.009,49.1694,5.1819],[-122.0094,49.1671,20.9545],[-122.0063,49.1653,13.4764]]]]}}