{"type": "Feature","bbox": [-75.423002916244528,48.261406785436407,-74.057153366353575,48.821287355240827],"geometry": {"type": "Polygon","coordinates": [[[-74.112493822254336,48.368849691839443,403.0],[-74.104398808758219,48.398580468679739,471.6642],[-74.149583702272921,48.40211283820534,431.0213],[-74.248931595179869,48.390632637247194,424.1622],[-74.248931595179869,48.396814283916967,403.0],[-74.23980630723878,48.4018184740782,428.2751],[-74.236862665967465,48.407117028366571,470.1033],[-74.23980630723878,48.4121212185278,433.5462],[-74.248931595179869,48.417419772816174,403.0],[-74.24024785342948,48.427722517265778,403.0],[-74.2293563807256,48.433904163935551,422.8519],[-74.218023361831044,48.438613989969667,403.0],[-74.208014981508555,48.444795636639412,403.0],[-74.1931495930884,48.463634940775847,442.1497],[-74.201686152775224,48.469227859191363,426.2008],[-74.222880369928717,48.463634940775847,430.2795],[-74.245546407717853,48.448033642037871,538.3995],[-74.273952545986049,48.418302865197575,458.9418],[-74.292055939804655,48.407411392493714,418.9579],[-74.310453697750376,48.409766305510743,403.0],[-74.31457479553022,48.418597229324718,403.0],[-74.315310705848049,48.430077430282836,410.6707],[-74.319578985691464,48.440380174732439,432.2032],[-74.334591556175184,48.444795636639412,428.0634],[-74.340478838717814,48.448916734419271,417.2331],[-74.35637450158292,48.474526413479737,403.0],[-74.371828618257339,48.486300978565,431.8439],[-74.376096898100741,48.487772799200656,450.6263],[-74.388018645249574,48.491010804599085,457.7606],[-74.416130419390655,48.502196641430089,444.1885],[-74.428052166539487,48.50985010873552,403.0],[-74.434528177336375,48.519858489058009,403.0],[-74.431731718128631,48.536342880177386,403.0],[-74.400676302716235,48.544879439864189,403.6369],[-74.389490465885231,48.576082037340143,408.0586],[-74.384339093660429,48.579025678611458,413.6449],[-74.385075003978258,48.581086227501373,421.6169],[-74.410831865102281,48.593155156713777,420.769],[-74.421428973679028,48.594332613222321,430.9454],[-74.431290171937931,48.592860792586663,429.8799],[-74.440709824006149,48.588739694806804,416.761],[-74.450718204328624,48.58020313512,416.8962],[-74.455280848299168,48.57078348305177,426.1713],[-74.458813217824741,48.561069466856424,408.2079],[-74.465289228621643,48.55076672240682,415.7994],[-74.480154617041791,48.534576695414586,472.2687],[-74.486041899584421,48.533693603033186,435.4209],[-74.499141103241783,48.533987967160328,403.0],[-74.506058660229371,48.538697793194416,403.0],[-74.513123399280531,48.54988363002542,403.0],[-74.517686043251075,48.563424379873481,453.7209],[-74.517097314996818,48.574904580831628,403.0],[-74.510621304199915,48.5784369503572,403.0],[-74.475444791007689,48.588739694806804,405.9548],[-74.475444791007689,48.595510069730835,408.6267],[-74.550949189616958,48.596981890366493,426.7471],[-74.564342757401448,48.595510069730835,428.4953],[-74.571407496452608,48.586090417662632,419.7095],[-74.573762409469666,48.574610216704485,417.1654],[-74.57744196105881,48.564896200509139,409.2108],[-74.588186251699113,48.560775102729309,403.0],[-74.592896077733215,48.56666238527194,403.0],[-74.589805254398343,48.579614406865716,405.9825],[-74.583182061537869,48.59344952084092,403.0],[-74.57788350724951,48.601691716400609,409.7561],[-74.596281265195231,48.632011221495162,410.6784],[-74.586714431063456,48.668512373259489,403.0],[-74.559191385176646,48.7029529761339,434.9985],[-74.523278961666577,48.725913378050166,411.3877],[-74.500612923877441,48.736804850754027,416.7026],[-74.488249630537908,48.748579415839316,403.0],[-74.4900158153007,48.761237073305978,414.0499],[-74.509591029754958,48.774189094899754,431.0715],[-74.55654210803246,48.782136926332328,403.0],[-74.571407496452608,48.78979039363773,403.0],[-74.564342757401448,48.807746605392765,403.0],[-74.551096371680515,48.814222616189682,403.0],[-74.5550702873968,48.818343713969512,403.0],[-74.567727944863464,48.820698626986569,432.3981],[-74.581415876775083,48.821287355240827,442.051],[-74.587450341381285,48.819226806350912,474.735],[-74.628808501243284,48.810984610791223,425.6691],[-74.636314786485144,48.811278974918366,411.2583],[-74.648678079824677,48.804508599994335,425.0079],[-74.680469405554888,48.798326953324562,413.3838],[-74.6945988836572,48.7942058555447,421.7012],[-74.702252350962638,48.788024208874958,409.1907],[-74.709464272077355,48.780959469823785,429.6658],[-74.7196198344634,48.7753665514083,433.641],[-74.735662679392078,48.774189094899754,403.0],[-74.72874512240449,48.788024208874958,411.9922],[-74.743168964633938,48.793617127290446,410.5358],[-74.751411160193626,48.789496029510616,406.5],[-74.755237893846328,48.778604556806727,409.9857],[-74.755973804164157,48.763591986323036,416.3349],[-74.762008268770359,48.757115975526119,408.0],[-74.776137746872678,48.753289241873404,427.4968],[-74.792327773864926,48.752111785364889,430.5902],[-74.804543885140887,48.752994877746289,426.8923],[-74.833833115790483,48.771245453628438,440.2174],[-74.837954213570328,48.770951089501324,467.1517],[-74.841192218968786,48.755644154890462,413.8878],[-74.8492872324649,48.747401959330773,408.3618],[-74.872836362635439,48.733272481228454,417.6116],[-74.875191275652483,48.728562655194366,411.4978],[-74.875780003906755,48.71708245423622,409.3387],[-74.8790180093052,48.712078264074989,418.1494],[-74.882403196767214,48.711783899947847,403.0],[-74.8910869385176,48.717376818363363,403.0],[-74.8966798569331,48.71884863899902,412.4777],[-74.9027143215393,48.712666992329247,410.324],[-74.909043150272637,48.681758758980408,416.9305],[-74.913752976306739,48.670572922149404,420.6441],[-74.923025446311385,48.666746188496717,406.7686],[-74.939215473303634,48.663213818971116,421.1197],[-74.954669589978039,48.664391275479659,403.0],[-74.961587146965641,48.674399655802119,403.0],[-74.957907595376483,48.686468585014524,403.0],[-74.948782307435408,48.697360057718384,404.1907],[-74.937743652667976,48.706190981532359,411.3792],[-74.92802963647263,48.712078264074989,414.2317],[-74.92802963647263,48.71884863899902,422.2789],[-74.951137220452466,48.715904997727705,434.5893],[-74.969534978398187,48.703541704388158,420.8885],[-75.0030924888912,48.670572922149404,406.4523],[-75.018546605565618,48.693827688192812,409.8422],[-75.023550795726848,48.698537514226928,407.6905],[-75.029438078269479,48.697360057718384,403.0],[-75.03753309176561,48.6926502316843,416.3505],[-75.0457752873253,48.689117862158696,403.6454],[-75.051515387804358,48.691178411048639,403.0],[-75.051956933995058,48.7038360685153,403.0],[-75.043126010181112,48.716788090109077,403.0],[-75.031645809222965,48.727385198685823,407.8804],[-75.023550795726848,48.733272481228454,408.909],[-75.029732442396622,48.739454127898227,417.4465],[-75.061818132253961,48.722381008524593,415.9221],[-75.073592697339237,48.712372628202104,420.321],[-75.085072898297369,48.698537514226928,412.3522],[-75.069618781622964,48.69206150343004,417.0248],[-75.07889125162761,48.682936215488951,425.7516],[-75.116275495773323,48.660858905954058,407.8361],[-75.135850710227587,48.664685639606773,419.6741],[-75.148066821503548,48.664685639606773,415.0871],[-75.136586620545415,48.646729427851739,403.0],[-75.140413354198131,48.624063390062616,435.0575],[-75.171763133737642,48.599042439256408,418.2239],[-75.211207926773284,48.582558048137059,414.2059],[-75.239319700914365,48.585207325281232,409.9268],[-75.254185089334513,48.601986080527723,412.0569],[-75.256392820288,48.605518450053324,419.1919],[-75.259042097432186,48.616998651011443,410.3114],[-75.265518108229088,48.614938102121528,405.96],[-75.276851127123649,48.601691716400609,438.7994],[-75.279647586331407,48.596098797985093,430.4874],[-75.277587037441478,48.589622787188205,423.8616],[-75.2778814015686,48.584029868772717,416.7123],[-75.2874482357004,48.581969319882774,424.9818],[-75.307759360472474,48.582263684009916,415.6443],[-75.316737466349991,48.58020313512,405.1577],[-75.325274026036809,48.574904580831628,407.6401],[-75.3339577677872,48.562835651619224,411.2173],[-75.326745846672466,48.559008917966509,403.0],[-75.258306187114357,48.561363830983566,403.0],[-75.239319700914365,48.559303282093651,403.0],[-75.22224658154073,48.554593456059536,403.0],[-75.232402143926777,48.5375203366859,404.8982],[-75.249916809491111,48.528395048744812,448.4571],[-75.269933570136061,48.527806320490555,408.5041],[-75.2874482357004,48.537225972558758,461.3357],[-75.294954520942255,48.538109064940159,456.4704],[-75.325274026036809,48.52662886398204,415.5847],[-75.3335162215965,48.528395048744812,418.4854],[-75.359420264784092,48.540169613830074,411.6984],[-75.357065351767034,48.522213402075039,403.0],[-75.35838999033912,48.514265570642493,417.1896],[-75.406812889252279,48.479530603640967,412.7157],[-75.417262815765454,48.467756038555706,427.8382],[-75.42153109560887,48.4548040169619,406.1837],[-75.423002916244528,48.427722517265778,403.0],[-75.418145908146855,48.424484511867348,403.0],[-75.403869247980964,48.434787256316952,416.6039],[-75.381203210191828,48.457453294106074,416.1378],[-75.369281463043,48.465989853792905,403.0],[-75.352502707796489,48.472465864589793,411.1934],[-75.382380666700357,48.385628447085963,419.2703],[-75.372961014632139,48.376503159144875,403.0],[-75.354268892559276,48.395636827408424,405.8446],[-75.326745846672466,48.46481239728439,403.0],[-75.304815719201159,48.486300978565,403.0],[-75.2861235971283,48.467461674428563,413.7553],[-75.294512974751555,48.4453843648937,430.282],[-75.331455672706582,48.409766305510743,420.2137],[-75.325274026036809,48.403584658841,403.0],[-75.308936816981,48.409766305510743,418.1795],[-75.294218610624426,48.407117028366571,403.0],[-75.27066948045389,48.396814283916967,423.8762],[-75.260219553940715,48.395931191535567,403.0],[-75.232107779799634,48.39946356106114,420.8006],[-75.2154762066167,48.403584658841,404.57],[-75.192810168827563,48.4156535880534,403.0],[-75.187364432475619,48.417419772816174,411.0342],[-75.179416601043073,48.413298675036344,426.0706],[-75.177208870089586,48.406233935985171,424.0573],[-75.176914505962458,48.39946356106114,440.0862],[-75.174412410881828,48.396814283916967,439.5012],[-75.159252658334552,48.402995930586741,419.2897],[-75.152482283410521,48.4138874032906,404.1021],[-75.154837196427579,48.42625069663012,403.0],[-75.166906125639969,48.437730897588267,403.0],[-75.181624331996559,48.438319625842524,437.4597],[-75.1986974513702,48.433904163935551,426.0772],[-75.212091019154684,48.434787256316952,425.933],[-75.2154762066167,48.451566011563443,403.0],[-75.208705831692669,48.461280027758789,403.0],[-75.195312263908178,48.467461674428563,403.0],[-75.179858147233773,48.472760228716936,404.4955],[-75.166906125639969,48.47894187538671,410.7582],[-75.151452008965563,48.49984172841306,413.9779],[-75.156309017063236,48.519269760803724,445.4042],[-75.169849766911284,48.538992157321559,416.5479],[-75.1805940575516,48.560775102729309,414.1096],[-75.1271669684772,48.551355450661077,403.0],[-75.100674197035346,48.551944178915363,403.0],[-75.085072898297369,48.5681342059076,404.8533],[-75.101115743226046,48.572255303687427,403.995],[-75.113331854502007,48.578142586230058,407.6228],[-75.117452952281852,48.586679145916889,404.2294],[-75.109505120849292,48.598453711002151,403.0],[-75.1030291100524,48.602574808782009,403.0],[-75.097583373700459,48.602280444654866,403.0],[-75.093903822111315,48.598748075129294,405.2069],[-75.090371452585742,48.582558048137059,403.0],[-75.085661626551627,48.582263684009916,403.0],[-75.079921526072567,48.586384781789747,403.0],[-75.0750645179749,48.588739694806804,403.0],[-75.056666760029159,48.589034058933947,403.0],[-75.042978828117541,48.590800243696719,403.0],[-75.031351445095837,48.595804433857978,407.7128],[-75.0198712441377,48.605518450053324,417.7172],[-74.99573338571291,48.634954862766477,409.6694],[-74.981456725547019,48.644963243088966,412.8403],[-74.975127896813689,48.633188678003705,418.0556],[-74.976452535385789,48.619059199901386,423.1499],[-74.983958820627635,48.588150966552547,411.8443],[-74.988815828725308,48.574904580831628,406.3398],[-74.996469296030739,48.559597646220766,403.7012],[-75.002945306827641,48.552532907169621,403.0],[-75.023550795726848,48.540169613830074,403.0],[-75.036061271129952,48.52986686938047,406.66],[-75.0440091025625,48.519858489058009,403.0],[-75.047541472088085,48.513382478261093,403.0],[-75.052840026376458,48.498664271904516,440.4496],[-75.057697034474131,48.492482625234743,453.7794],[-75.07094342019505,48.486300978565,446.576],[-75.0871334471873,48.48482915792934,443.0789],[-75.11980786529891,48.486300978565,429.614],[-75.1150980392648,48.473054592844051,427.9471],[-75.112890308311307,48.420657778214633,479.9877],[-75.110829759421392,48.4138874032906,483.788],[-75.107003025768677,48.407411392493714,450.2648],[-75.105384023069462,48.4009353816968,403.0],[-75.109505120849292,48.393870642645652,411.9749],[-75.117011406091152,48.389160816611536,404.2505],[-75.121279685934567,48.388572088357279,403.0],[-75.123781781015182,48.386217175340221,403.0],[-75.125989511968669,48.376503159144875,429.6028],[-75.12481205546014,48.367083507076671,403.0],[-75.114067764819836,48.357958219135583,427.4174],[-75.112890308311307,48.348538567067379,424.1306],[-75.123193052760925,48.344711833414664,413.3012],[-75.130257791812085,48.33941327912629,426.4232],[-75.133348615146957,48.331759811820859,433.296],[-75.137028166736116,48.31674724133714,409.1118],[-75.144092905787275,48.306444496887536,413.2137],[-75.149244278012077,48.296141752437933,419.3268],[-75.146447818804319,48.280834817827071,416.1042],[-75.127314150540769,48.261406785436407,415.322],[-75.111565669739221,48.282012274335614,403.0],[-75.092432001475657,48.348538567067379,403.0],[-75.079774344009,48.378858072161933,403.0],[-75.078744069564038,48.392693186137109,403.0],[-75.088752449886513,48.406822664239428,421.963],[-75.094051004174887,48.421540870596033,403.0],[-75.086103172742327,48.438613989969667,408.1381],[-75.064614591461719,48.465106761411505,403.0],[-75.057255488283431,48.454215288707644,403.0],[-75.052987208440015,48.433315435681294,418.9777],[-75.051515387804358,48.390632637247194,403.0],[-75.054017482884973,48.380918621051848,404.615],[-75.062701224635362,48.362079316915413,409.6361],[-75.064614591461719,48.351776572465809,418.0914],[-75.0603463116183,48.346772382304579,418.7098],[-75.050779477486529,48.340296371507691,403.0],[-75.0392992765284,48.335292181346432,403.0],[-75.029732442396622,48.335292181346432,403.0],[-75.031057080968708,48.370910240729387,403.0],[-75.02369797779042,48.387983360103021,403.0],[-74.99617493190361,48.383273534068906,414.0728],[-74.990876377615237,48.375914430890617,403.0],[-74.990287649360965,48.366494778822414,403.0],[-74.986608097771821,48.35854694738984,403.0],[-74.9720370734788,48.35530894199141,405.3631],[-74.96232305728347,48.354720213737124,403.0],[-74.95525831823231,48.352954028974352,419.2166],[-74.9505484921982,48.348832931194494,403.0],[-74.947899215054008,48.341768192143348,414.484],[-74.943778117274164,48.350304751830151,403.0],[-74.940834476002848,48.361490588661155,414.8855],[-74.939657019494319,48.3729707896193,424.6945],[-74.941717568384249,48.383273534068906,406.0],[-74.948046397117579,48.394165006772766,452.8544],[-74.95393367966021,48.395636827408424,475.5821],[-74.9621758752199,48.392693186137109,506.5686],[-74.97571662506796,48.390632637247194,436.9188],[-74.986460915708264,48.395931191535567,413.8273],[-75.000884757937712,48.418891593451832,417.0548],[-75.0095684996881,48.424190147740205,423.8739],[-75.0250226163625,48.425073240121606,403.0],[-75.030321170650879,48.428311245520064,405.025],[-75.029732442396622,48.444795636639412,403.0],[-75.017369149057089,48.480413696022367,403.0],[-74.939951383621462,48.464223669030105,412.6071],[-74.913752976306739,48.492482625234743,418.9669],[-74.92802963647263,48.499253000158774,418.4209],[-74.935241557587347,48.484240429675054,404.7763],[-74.948046397117579,48.478058783005309,426.1706],[-74.9626174214106,48.479236239513824,435.1325],[-74.975127896813689,48.486300978565,420.732],[-74.9776299918943,48.491599532853371,437.4078],[-74.981162361419891,48.50896701635412,427.3621],[-74.985725005390435,48.516620483659551,452.7151],[-74.988815828725308,48.5245683150921,413.019],[-74.985577823326864,48.532516146524671,403.4488],[-74.975127896813689,48.546939988754104,403.0],[-74.960851236647812,48.5784369503572,403.0],[-74.950842856325323,48.594626977349435,403.0],[-74.941717568384249,48.601691716400609,409.2277],[-74.927440908218358,48.595215705603721,403.0],[-74.93303382663386,48.580497499247116,403.0],[-74.954669589978039,48.554593456059536,403.0],[-74.936860560286576,48.561952559237824,409.9443],[-74.906982601382708,48.587267874171147,403.0],[-74.893147487407518,48.595510069730835,418.9887],[-74.87077581374551,48.598159346875036,440.9875],[-74.86577162358428,48.587856602425404,454.4846],[-74.872836362635439,48.55076672240682,440.2955],[-74.8626808002494,48.533104874778928,414.0601],[-74.839131670078856,48.5245683150921,403.0],[-74.811902988319176,48.519564124930866,420.3003],[-74.790855953229268,48.513676842388236,403.0],[-74.777020839254078,48.500136092540174,425.3529],[-74.763774453533159,48.47894187538671,421.6975],[-74.75376607321067,48.457453294106074,426.8486],[-74.7441992390789,48.403290294713855,482.786],[-74.735662679392078,48.38121298517899,445.7236],[-74.721974747480459,48.376503159144875,413.8232],[-74.717117739382786,48.390043908992936,443.8209],[-74.721974747480459,48.461868756013047,435.0689],[-74.7252127528789,48.468933495064221,440.0001],[-74.731100035421534,48.474526413479737,455.702],[-74.734190858756421,48.479530603640967,426.2469],[-74.72874512240449,48.486300978565,417.7686],[-74.722710657798288,48.488361527454913,403.0],[-74.719031106209144,48.486006614437855,406.4222],[-74.70784526937814,48.466578582047163,462.877],[-74.70740372318744,48.457453294106074,442.5558],[-74.7088755438231,48.448916734419271,431.5142],[-74.708286815568826,48.437730897588267,463.9222],[-74.703576989534724,48.427428153138663,446.9669],[-74.690036239686663,48.406822664239428,403.0],[-74.687092598415347,48.40034665344254,403.0],[-74.699308709691323,48.376208795017732,562.5004],[-74.701516440644809,48.365906050568128,525.1363],[-74.700044620009152,48.35530894199141,549.3062],[-74.695481976038607,48.348244202940236,432.2505],[-74.68694541635179,48.347655474685979,414.1326],[-74.6735518485673,48.35530894199141,417.5258],[-74.668106112215355,48.36355113755107,405.2599],[-74.660452644909938,48.396814283916967,421.1385],[-74.672963120313028,48.414181767417716,403.0],[-74.664132196499082,48.429194337901436,404.5347],[-74.6485308977611,48.439202718223925,418.512],[-74.639994338074288,48.44126326711384,410.1967],[-74.635578876167315,48.428605609647178,405.6635],[-74.624981767590569,48.416831044561917,422.1146],[-74.598488996148717,48.396814283916967,403.0],[-74.591571439161129,48.403584658841,430.3336],[-74.604376278691348,48.42301269123169,403.0],[-74.5908355288433,48.436553441079724,414.0314],[-74.569346947562678,48.435964712825466,403.0],[-74.551390735807658,48.397697376298368,415.9678],[-74.535495072942538,48.384156626450306,403.0],[-74.502820654830927,48.3626680451697,408.0453],[-74.485305989266593,48.346183654050321,461.3591],[-74.482362347995277,48.33853018674489,417.2123],[-74.48177361974102,48.324695072769714,420.6602],[-74.485011625139464,48.313214871811567,447.097],[-74.499435467368912,48.293492475293732,434.6877],[-74.502820654830927,48.283778459098414,480.7654],[-74.493989731016981,48.268765888614695,405.1273],[-74.47426733449916,48.2799517254457,410.1851],[-74.453220299409239,48.302912127361964,403.0],[-74.440709824006149,48.3217514314984,426.1405],[-74.451748478773581,48.335880909600718,433.7064],[-74.45999067433327,48.3626680451697,413.8738],[-74.468674416083658,48.376503159144875,418.0528],[-74.482067983868149,48.386511539467364,459.3352],[-74.510915668327044,48.4000522893154,408.4325],[-74.523278961666577,48.409766305510743,407.9533],[-74.530049336590608,48.421540870596033,403.0],[-74.537261257705339,48.44126326711384,403.0],[-74.539910534849511,48.463634940775847,403.0],[-74.533287341989052,48.482474244912282,413.3064],[-74.514006491661931,48.4948375382518,403.0],[-74.490162997364266,48.4957206306332,403.0],[-74.464700500367371,48.48895025570917,403.0],[-74.440709824006149,48.47894187538671,426.1218],[-74.383897547469729,48.437730897588267,405.8307],[-74.349015398404632,48.427133789011521,403.0],[-74.34386402617983,48.416831044561917,433.0243],[-74.341950659353472,48.40535084360377,474.3419],[-74.338418289827885,48.396814283916967,488.5477],[-74.329293001886811,48.392398822009994,403.0],[-74.3060382358434,48.387100267721621,403.0],[-74.297354494093028,48.383273534068906,405.6222],[-74.285727111071324,48.370615876602244,471.3465],[-74.261000524392259,48.3329372683294,436.8825],[-74.256437880421714,48.317924697845683,455.7181],[-74.254524513595371,48.307033225141794,453.2102],[-74.250109051688383,48.308799409904594,403.0],[-74.245399225654282,48.3173359695914,404.92],[-74.242161220255838,48.327933078168144,403.0],[-74.244221769145753,48.333820360710774,403.0],[-74.248637231052726,48.342945648651863,403.0],[-74.251728054387613,48.352954028974352,403.0],[-74.248931595179869,48.3626680451697,403.0],[-74.2297979269163,48.371793333110759,403.0],[-74.2013917886481,48.3729707896193,403.0],[-74.149730884336492,48.368849691839443,419.9651],[-74.127506392738056,48.3617849527883,403.0],[-74.1048403549489,48.348538567067379,558.1946],[-74.08143840684194,48.340296371507691,390.0],[-74.057153366353575,48.348538567067379,423.6481],[-74.071430026519465,48.352365300720066,461.6628],[-74.112493822254336,48.368849691839443,403.0]],
[[-74.605259371072748,48.733272481228454,449.4814],[-74.629544411561113,48.696771329464127,419.0475],[-74.636314786485144,48.691178411048639,412.0191],[-74.650885810778163,48.687351677395924,440.2645],[-74.651621721095992,48.678226389454835,403.0],[-74.639994338074288,48.657620900555628,424.6135],[-74.627631044734756,48.642608330071909,450.4861],[-74.627336680607627,48.63348304213082,420.5515],[-74.660011098719238,48.626123938952531,404.5761],[-74.669283568723884,48.618176107519986,410.2109],[-74.6679589301518,48.611111368468812,436.1749],[-74.65309354173165,48.6090508195789,405.7259],[-74.666339927452569,48.603163537036266,443.9858],[-74.690477785877363,48.596687526239378,422.2028],[-74.701516440644809,48.588739694806804,417.2155],[-74.710347364458755,48.59344952084092,405.5523],[-74.722269111607588,48.596393162112236,433.2528],[-74.734190858756421,48.595510069730835,414.1564],[-74.742433054316109,48.588739694806804,448.8495],[-74.740519687489751,48.582263684009916,529.1766],[-74.732719038120763,48.574904580831628,431.3219],[-74.718442377954872,48.564307472254882,403.0],[-74.67811449253783,48.522802130329325,415.2285],[-74.670313843168842,48.501902277302975,436.2827],[-74.66472092475334,48.491305168726228,414.3909],[-74.662660375863425,48.482474244912282,439.4178],[-74.670461025232413,48.47894187538671,405.2571],[-74.675023669202957,48.482179880785139,411.3872],[-74.6945988836572,48.506612103337062,403.0],[-74.763921635596716,48.569017298289,403.0],[-74.773341287664934,48.583146776391317,403.0],[-74.77716802131765,48.598453711002151,403.0],[-74.772016649092834,48.620531020537044,403.0],[-74.759358991626172,48.632011221495162,403.0],[-74.742580236379666,48.640842145309108,403.0],[-74.725359934942475,48.653794166902912,403.0],[-74.690477785877363,48.687057313268781,403.0],[-74.625423313781269,48.735921758372655,403.0],[-74.605259371072748,48.746224502822258,403.0],[-74.605259371072748,48.733272481228454,449.4814]],
[[-74.612029745996779,48.767418719975723,414.4429],[-74.6373450609301,48.753583606000547,405.5965],[-74.812344534509876,48.701481155498243,414.0616],[-74.84487177055793,48.698537514226928,403.0],[-74.828976107692824,48.72120355201605,403.0],[-74.798067874343985,48.735333030118369,403.0],[-74.763185725278888,48.741220312661028,404.7933],[-74.735662679392078,48.739454127898227,406.6646],[-74.730511307167276,48.7438695898052,403.0],[-74.715057190492857,48.752994877746289,403.0],[-74.699750255882009,48.753289241873404,406.211],[-74.660894191100638,48.774777823154039,415.6586],[-74.65309354173165,48.777427100298212,411.6932],[-74.64470416410839,48.7753665514083,403.0],[-74.605259371072748,48.777132736171069,403.0],[-74.591571439161129,48.774189094899754,403.0],[-74.596281265195231,48.769773632992781,403.0],[-74.6006967271022,48.768007448230009,423.1971],[-74.612029745996779,48.767418719975723,414.4429]]]}
,"properties": {"featurecla": "Reservoir","scalerank": 5,"name": "Réservoir Gouin","name_abb": "Rs. Gouin","name_alt": null,"note": null,"delta": null,"dam_name": null,"year": 1918,"admin": null,"min_zoom": 4.7,"min_label": 6.0,"area_km2": 1650.299,"hist_schema_id": "Elevation0-9000","hist_area_km2": {"400": 1179.316,"425": 391.49,"450": 59.111,"475": 13.561,"500": 4.879,"525": 1.365,"550": 0.465,"575": 0.113}}}