{"type": "Feature","bbox": [-128.1154,55.0761,-128.0193,55.1113],"geometry": {"type": "MultiPolygon","coordinates": [[[[-128.0645,55.1069,181.7897],[-128.0653,55.1113,197.9801],[-128.1129,55.1096,281.0349],[-128.1154,55.0761,265.3855],[-128.0193,55.0786,295.0177],[-128.0207,55.1071,249.3441],[-128.0643,55.1057,181.7897],[-128.0645,55.1069,181.7897]]]]}
,"properties": {"GID_3": "CAN.2.15.9_1","GID_0": "CAN","country": "Canada","GID_1": "CAN.2_1","province": "BritishColumbia","NL_NAME_1": "NA","GID_2": "CAN.2.15_1","county": "Kitimat-Stikine","NL_NAME_2": "NA","city": "Gitwangak1","VARNAME_3": "NA","NL_NAME_3": "NA","TYPE_3": "RéserveIndienne","ENGTYPE_3": "IndianReserve","CC_3": "NA","HASC_3": "NA","name": "Gitwangak1.city","area_km2": 20.83221,"hist_schema_id": "Elevation0-9000","hist_area_km2": {"150": 0.02426,"175": 7.83661,"200": 2.55994,"225": 3.55518,"250": 2.12353,"275": 1.74745,"300": 1.20138,"325": 0.80085,"350": 0.43687,"375": 0.14564,"400": 0.1335,"425": 0.19419,"450": 0.07282}}}