{"type": "Feature","bbox": [-76.2548,44.306399999999996,-75.8464,44.638],"geometry": {"type": "MultiPolygon","coordinates": [[[[-76.0095,44.3437,75.3933],[-75.9948,44.3475,73.5],[-75.9695,44.3443,85.4645],[-75.9726,44.3448,90.0323],[-75.9739,44.3487,75.7756],[-75.9552,44.3537,113.2241],[-75.9475,44.3634,73.5996],[-75.9605,44.3624,84.9944],[-75.9671,44.3663,73.5],[-75.9736,44.3643,73.5],[-75.9815,44.3588,73.5],[-75.9963,44.3563,81.9466],[-75.9996,44.3542,83.6893],[-76.001,44.3503,73.5],[-76.0187,44.3432,73.5],[-76.0095,44.3437,75.3933]]],
[[[-75.9173,44.3916,74.7027],[-75.9121,44.398,85.3383],[-75.9173,44.3979,84.6742],[-75.9293,44.3886,77.5078],[-75.9317,44.3846,82.5124],[-75.9272,44.3842,73.5],[-75.9173,44.3916,74.7027]]],
[[[-75.8879,44.4102,73.5],[-75.8885,44.4072,73.5],[-75.8985,44.4039,73.5],[-75.9118,44.3899,82.3857],[-75.9103,44.3875,76.6974],[-75.9053,44.3892,73.5],[-75.8979,44.3972,76.0747],[-75.8773,44.4044,82.3172],[-75.8646,44.4162,76.8221],[-75.8464,44.4251,74.9943],[-75.8538,44.4364,73.5],[-75.8593,44.4342,73.5],[-75.8615,44.4311,73.5],[-75.8672,44.4308,73.5],[-75.8711,44.4255,73.5],[-75.8823,44.4223,73.5],[-75.8837,44.4204,73.5],[-75.881,44.4166,73.5],[-75.8873,44.4132,73.5],[-75.8879,44.4102,73.5]]],
[[[-76.2348,44.3193,86.187],[-76.2344,44.3167,87.419],[-76.2279,44.3216,82.7509],[-76.2223,44.3229,82.6748],[-76.2196,44.3219,80.7088],[-76.2141,44.3137,73.5],[-76.2056,44.312,73.5],[-76.1998,44.306399999999996,73.5],[-76.1831,44.3188,87.1847],[-76.1855,44.3421,96.0645],[-76.1739,44.3438,95.7701],[-76.169,44.343,97.645],[-76.1678,44.3448,99.8151],[-76.1639,44.3453,100.016],[-76.144,44.3456,101.9187],[-76.1419,44.3326,83.6717],[-76.115,44.3414,84.1932],[-76.1089,44.341,74.8902],[-76.1014,44.3482,93.1144],[-76.0932,44.3519,87.1871],[-76.0799,44.353,78.0178],[-76.0567,44.3493,85.4557],[-76.0479,44.3506,91.7347],[-76.0308,44.3608,91.9095],[-76.0171,44.367,99.4246],[-76.003,44.3694,101.1886],[-75.9787,44.37,101.4952],[-75.9652,44.375,110.423],[-75.9527,44.3773,102.3533],[-75.941,44.3843,115.5445],[-75.925,44.3981,107.2621],[-75.9105,44.4061,74.6084],[-75.9098,44.4084,80.0843],[-75.916,44.409,95.4797],[-75.8797,44.4435,99.2198],[-75.9564,44.5397,101.7712],[-76.0006,44.5194,99.3295],[-76.0131,44.6134,138.2899],[-76.0329,44.638,117.1622],[-76.0956,44.6,112.6603],[-76.2548,44.498,116.5773],[-76.2484,44.4559,121.0861],[-76.2399,44.3755,108.1749],[-76.2355,44.3521,100.3871],[-76.2348,44.3193,86.187]]]]}
,"properties": {"GID_3": "CAN.9.27.8_1","GID_0": "CAN","country": "Canada","GID_1": "CAN.9_1","province": "Ontario","NL_NAME_1": "NA","GID_2": "CAN.9.27_1","county": "LeedsandGrenville","NL_NAME_2": "NA","city": "LeedsandtheThousandIslands","VARNAME_3": "NA","NL_NAME_3": "NA","TYPE_3": "Township","ENGTYPE_3": "Township","CC_3": "NA","HASC_3": "NA","name": "Leedsandthe_Thousand_Islands.city","area_km2": 636.1661,"hist_schema_id": "Elevation0-9000","hist_area_km2": {"75": 97.5542,"100": 389.3341,"125": 131.2445,"150": 17.6706,"175": 0.3477,"200": 0.0151}}}