{"type": "Feature","bbox": [-114.6051,49.0001,-112.4085,50.4117],"geometry": {"type": "MultiPolygon","coordinates": [[[[-112.8151,49.558,910.5519],[-112.8594,49.5753,888.5178],[-112.8651,49.5797,917.0834],[-112.8686,49.5866,852.9662],[-112.8723,49.5875,852.5049],[-112.8813,49.5862,853.5613],[-112.8894,49.5887,856.1569],[-112.9247,49.6111,916.1669],[-112.9257,49.6152,926.7026],[-112.912,49.6154,841.3315],[-112.9052,49.6175,840.6154],[-112.9006,49.6288,922.6357],[-112.9097,49.628,839.4382],[-112.9132,49.6254,835.8503],[-112.9185,49.6258,839.6346],[-112.9227,49.6299,840.9694],[-112.9323,49.6304,885.536],[-112.9334,49.6326,925.8511],[-112.9294,49.6384,842.8597],[-112.9358,49.643,843.0358],[-112.9324,49.6435,840.7203],[-112.9357,49.6484,842.4048],[-112.9314,49.6539,840.0],[-112.9324,49.6564,841.377],[-112.9441,49.6585,842.4338],[-112.9433,49.6547,844.5522],[-112.938,49.6565,844.4991],[-112.936,49.6553,847.255],[-112.9406,49.6464,846.6272],[-112.9461,49.6503,844.7256],[-112.9453,49.6541,845.8329],[-112.9489,49.6571,847.8519],[-112.9541,49.6562,847.5008],[-112.9639,49.6645,854.7968],[-112.9762,49.6711,846.0824],[-112.9956,49.6771,890.5801],[-112.9985,49.6797,901.4916],[-112.9987,49.6833,908.1245],[-112.9908,49.6937,854.965],[-112.9938,49.7034,919.5056],[-112.9895,49.7099,857.0182],[-112.9905,49.7121,856.143],[-113.0013,49.7176,923.6052],[-112.9998,49.7212,880.401],[-112.983,49.7335,868.8234],[-112.9879,49.738,866.1743],[-112.9972,49.7406,866.6361],[-113.0116,49.7488,864.0609],[-113.0317,49.7484,929.4275],[-113.0379,49.7512,934.0934],[-113.0406,49.7547,933.8439],[-113.0381,49.7636,919.6531],[-113.0397,49.7672,879.4383],[-113.0432,49.769,879.812],[-113.0579,49.7699,898.3098],[-113.0655,49.7778,883.7603],[-113.07,49.7794,881.213],[-113.0946,49.7798,895.4357],[-113.1053,49.7825,893.4076],[-113.1106,49.7797,885.6029],[-113.1173,49.7801,947.9537],[-113.1254,49.7864,925.5499],[-113.1358,49.7912,920.2885],[-113.15,49.7937,919.9642],[-113.1623,49.7931,905.5089],[-113.1878,49.7881,930.2147],[-113.1941,49.7898,939.6132],[-113.208,49.8079,945.2524],[-113.2337,49.8302,950.9012],[-113.2396,49.8402,951.7189],[-113.2407,49.847,943.6833],[-113.2307,49.8571,932.4314],[-113.2308,49.8734,959.1325],[-113.2328,49.8734,955.4484],[-113.2327,49.9099,963.1459],[-113.2759,49.91,966.2275],[-113.2778,50.0775,966.0067],[-113.2768,50.1356,930.7014],[-113.2827,50.1376,930.2704],[-113.2924,50.1371,951.6477],[-113.3006,50.141,954.5228],[-113.3103,50.1428,954.4231],[-113.3189,50.1497,961.1964],[-113.3182,50.155,955.9],[-113.3242,50.1589,960.3124],[-113.3208,50.1616,957.8774],[-113.312,50.1625,940.6218],[-113.3147,50.1666,961.1785],[-113.3096,50.1704,948.5384],[-113.3107,50.1723,954.0488],[-113.3215,50.1737,958.5147],[-113.3228,50.1763,960.702],[-113.3168,50.1809,959.3164],[-113.3193,50.1843,961.5441],[-113.3294,50.1877,964.8508],[-113.3322,50.1932,965.8121],[-113.3383,50.1968,966.1163],[-113.3449,50.1978,950.573],[-113.3499,50.1966,942.489],[-113.3534,50.1932,966.9446],[-113.3585,50.1932,968.4038],[-113.3687,50.2009,970.7059],[-113.3805,50.2049,971.0954],[-113.3909,50.2065,965.0957],[-113.3941,50.2084,965.9955],[-113.3987,50.2196,956.686],[-113.4022,50.2217,963.1241],[-113.4066,50.2212,966.8302],[-113.4113,50.2301,965.9969],[-113.4113,50.237,964.0],[-113.4161,50.2379,964.0],[-113.4216,50.2358,968.5985],[-113.4255,50.2394,969.3199],[-113.4222,50.2435,964.0],[-113.4437,50.2489,965.2334],[-113.4495,50.2524,972.3516],[-113.4555,50.2633,970.332],[-113.4639,50.2702,966.1539],[-113.4598,50.2706,964.0],[-113.4602,50.2722,964.0],[-113.4671,50.2755,967.6071],[-113.4748,50.2836,979.5255],[-113.4741,50.2872,971.9149],[-113.4702,50.2869,964.0],[-113.4692,50.2882,964.0],[-113.4742,50.2939,976.9355],[-113.472,50.3029,964.0],[-113.4784,50.305,970.2394],[-113.4841,50.3032,981.8302],[-113.4879,50.3061,983.0932],[-113.4866,50.3106,964.0],[-113.4909,50.3107,968.1023],[-113.4938,50.3072,974.2189],[-113.5009,50.3092,974.9055],[-113.507,50.3148,976.9941],[-113.5129,50.3157,978.6559],[-113.5152,50.3187,979.1262],[-113.5127,50.3222,974.8499],[-113.5143,50.3251,972.8287],[-113.5181,50.3256,967.703],[-113.5238,50.3226,975.1857],[-113.5351,50.3291,1000.827],[-113.5344,50.3323,988.6746],[-113.5288,50.3336,967.4907],[-113.5291,50.3355,973.5547],[-113.5324,50.3369,977.0694],[-113.5327,50.3427,971.9531],[-113.5417,50.3499,975.3198],[-113.5478,50.3516,995.6557],[-113.5488,50.3609,973.3938],[-113.561,50.3651,1003.0232],[-113.5632,50.3736,992.6404],[-113.5676,50.3785,998.7379],[-113.5717,50.3922,998.1658],[-113.5696,50.3955,988.0917],[-113.5641,50.3941,977.4047],[-113.5612,50.3964,977.9799],[-113.5735,50.4048,991.2027],[-113.5723,50.4075,995.025],[-113.565,50.4117,979.0302],[-113.8269,50.4115,1032.7788],[-113.8266,50.3985,1028.7731],[-113.9997,50.3983,1117.9148],[-114.0036,50.3964,1109.3379],[-114.2081,50.3972,1224.7507],[-114.2078,50.3096,1390.0493],[-114.0701,50.3101,1247.5626],[-114.0685,50.1936,1273.7812],[-114.0001,50.1938,1399.1227],[-113.9997,50.0057,1323.6238],[-114.0009,50.0009,1259.0879],[-114.0017,49.8426,1519.1967],[-114.2321,49.8431,1339.797],[-114.2349,49.846,1344.2981],[-114.2443,49.8472,1354.7073],[-114.2466,49.8522,1306.6572],[-114.2532,49.8492,1365.3903],[-114.2593,49.8587,1351.139],[-114.2702,49.8554,1344.105],[-114.2756,49.8553,1338.0555],[-114.2817,49.8588,1360.2715],[-114.2893,49.8522,1350.5288],[-114.2946,49.8522,1350.6893],[-114.3144,49.859,1352.2632],[-114.323,49.8645,1359.241],[-114.3263,49.8721,1372.7325],[-114.3285,49.8736,1370.8462],[-114.3393,49.8735,1402.5253],[-114.3401,49.8006,1631.252],[-114.3175,49.8005,1523.5249],[-114.3175,49.5823,1539.2711],[-114.2948,49.5823,1522.1127],[-114.2948,49.5677,1369.5212],[-114.3175,49.5677,1344.1016],[-114.3173,49.5515,1213.2178],[-114.3119,49.5527,1213.9824],[-114.2949,49.5515,1200.2502],[-114.295,49.5386,1407.168],[-114.3468,49.5387,1454.452],[-114.3465,49.524,1563.7733],[-114.3401,49.524,1624.0288],[-114.3397,49.5133,1797.6096],[-114.3494,49.5166,1677.6951],[-114.36279999999999,49.5144,1600.7992],[-114.3753,49.5079,1729.9049],[-114.3833,49.5111,1814.7366],[-114.3926,49.5002,1843.725],[-114.3991,49.4974,1727.1702],[-114.4074,49.497,1842.2556],[-114.409,49.498,1868.7324],[-114.4087,49.5039,1893.9119],[-114.4114,49.5129,1946.8635],[-114.419,49.5147,1917.9702],[-114.4315,49.524,1800.4673],[-114.4342,49.5328,1976.6278],[-114.4371,49.5327,1945.0276],[-114.4475,49.5225,1776.1248],[-114.4522,49.5206,1733.2711],[-114.4608,49.5215,1796.9431],[-114.4667,49.5179,1876.9869],[-114.4722,49.5173,1905.3971],[-114.4773,49.5201,1874.8213],[-114.4821,49.5344,1902.6348],[-114.4879,49.5354,1856.4093],[-114.4918,49.5404,1906.2778],[-114.4979,49.5428,1813.3611],[-114.4992,49.5515,1859.8522],[-114.5032,49.5546,1796.9681],[-114.5045,49.5631,1908.0695],[-114.5012,49.5686,2037.7056],[-114.506,49.5729,1912.2665],[-114.5089,49.574,1783.0254],[-114.515,49.5726,1706.0156],[-114.5358,49.5614,1942.7225],[-114.5541,49.5559,2126.7253],[-114.5695,49.5584,2582.8069],[-114.573,49.557,2529.3127],[-114.574,49.5506,2297.8901],[-114.5721,49.5483,2454.3955],[-114.5742,49.5464,2465.4949],[-114.5698,49.537,2407.873],[-114.5732,49.5326,2321.2896],[-114.5727,49.5247,2570.3052],[-114.5774,49.5213,2622.8633],[-114.5832,49.5202,2710.436],[-114.5826,49.518,2608.7075],[-114.585,49.5125,2447.2815],[-114.5965,49.5019,2536.9502],[-114.5929,49.4932,2439.4285],[-114.5971,49.4909,2576.2356],[-114.5936,49.4841,2353.0054],[-114.5955,49.4801,2390.7563],[-114.5935,49.4714,2540.1167],[-114.5939,49.4694,2450.8433],[-114.5994,49.4666,2544.9475],[-114.5984,49.4548,2359.666],[-114.6034,49.4528,2544.075],[-114.5989,49.4498,2462.3711],[-114.5984,49.4454,2378.9873],[-114.6029,49.4436,2303.2358],[-114.6051,49.4389,2347.7153],[-114.5986,49.4339,2265.9836],[-114.6008,49.428,2271.1157],[-114.6008,49.4247,2412.6807],[-114.5966,49.4201,2357.4412],[-114.5984,49.4126,2321.363],[-114.592,49.4049,2465.9934],[-114.5906,49.3961,2449.1372],[-114.5865,49.3923,2228.2551],[-114.5734,49.3896,2185.3672],[-114.5761,49.3867,2065.3467],[-114.5681,49.3801,2311.1802],[-114.5669,49.3769,2325.6162],[-114.5477,49.3773,2203.4924],[-114.5366,49.3796,2029.8296],[-114.5263,49.3751,2203.6418],[-114.5318,49.3718,2128.4185],[-114.5241,49.3621,2052.8875],[-114.5247,49.3574,2031.0715],[-114.5166,49.3545,2190.1919],[-114.5069,49.3566,2234.3545],[-114.501,49.3528,2163.4333],[-114.4957,49.3525,2153.9841],[-114.4876,49.3473,2096.272],[-114.4826,49.3375,2222.9321],[-114.4817,49.3292,2306.6196],[-114.4789,49.3268,2448.4175],[-114.4922,49.3222,2409.3069],[-114.4921,49.3138,2297.6091],[-114.485,49.3107,2326.0403],[-114.4776,49.3124,2303.407],[-114.4713,49.3067,2097.1726],[-114.4668,49.3044,2078.5435],[-114.4612,49.3041,2076.3008],[-114.454,49.2981,2219.8359],[-114.4512,49.2926,2339.5933],[-114.4468,49.2884,2505.5732],[-114.4512,49.2804,2339.0872],[-114.449,49.2766,2194.5991],[-114.4494,49.2673,2335.3877],[-114.4479,49.2644,2460.3003],[-114.4397,49.2646,2455.5493],[-114.4297,49.2613,2181.2009],[-114.4145,49.2622,2155.6335],[-114.4093,49.2597,1933.8284],[-114.3935,49.2572,2100.0925],[-114.3877,49.2516,2204.8298],[-114.3814,49.2508,2246.231],[-114.3799,49.2482,2425.8271],[-114.3836,49.2462,2318.1392],[-114.4027,49.2416,2400.0391],[-114.4029,49.2327,2326.6094],[-114.4011,49.2278,2277.7249],[-114.4058,49.2253,2365.5679],[-114.3939,49.2194,2562.5681],[-114.4021,49.2133,2572.1013],[-114.399,49.2104,2386.55],[-114.3868,49.205,2323.4304],[-114.3773,49.2029,2256.5825],[-114.3662,49.2037,2315.1089],[-114.3609,49.2021,2247.1885],[-114.3589,49.1984,2161.8059],[-114.3556,49.1966,2144.3774],[-114.3456,49.1936,2188.8413],[-114.3396,49.196,2214.5518],[-114.3369,49.1994,2277.8911],[-114.3184,49.2,2383.5166],[-114.3105,49.192,2105.7898],[-114.301,49.1908,2242.333],[-114.2901,49.186,2260.0083],[-114.2885,49.1831,2281.9292],[-114.2894,49.1804,2219.4419],[-114.2873,49.178,2173.873],[-114.2799,49.178,2050.9346],[-114.2694,49.181,2088.6733],[-114.2571,49.177,2200.0576],[-114.2467,49.1873,2148.533],[-114.2405,49.1847,2094.8452],[-114.2347,49.1854,2085.2966],[-114.2305,49.1893,2253.134],[-114.2215,49.1891,2196.0288],[-114.2192,49.1849,2116.5066],[-114.2171,49.1841,2087.8962],[-114.2127,49.1734,2185.6133],[-114.204,49.1698,2146.2139],[-114.1953,49.169,2152.3469],[-114.1749,49.1636,2295.2158],[-114.1662,49.1567,2363.9597],[-114.1613,49.1548,2395.2458],[-114.1619,49.1517,2346.5547],[-114.1491,49.1437,2230.9832],[-114.1655,49.1371,2122.457],[-114.1661,49.1356,2228.5364],[-114.1579,49.1237,2308.8215],[-114.1498,49.1181,2231.3503],[-114.1491,49.1074,2082.604],[-114.1534,49.1032,2219.6411],[-114.1533,49.0996,2234.2952],[-114.14,49.0872,2332.7759],[-114.1329,49.0826,2487.8938],[-114.1299,49.0782,2345.7742],[-114.1161,49.0739,2282.2173],[-114.1072,49.0651,2202.7466],[-114.0968,49.0599,2233.9993],[-114.0896,49.0585,2308.1602],[-114.0813,49.0598,2477.6777],[-114.0766,49.0537,2432.6843],[-114.0639,49.0455,2366.0107],[-114.0623,49.0375,1991.1714],[-114.0571,49.028,1805.4978],[-114.0542,49.0267,1806.9948],[-114.0591,49.0184,1924.7234],[-114.0724,49.005,2387.2698],[-114.0719,49.0024,2392.9827],[-114.069,49.0001,2276.5024],[-112.4096,49.0001,1278.3579],[-112.4085,49.1735,1176.0488],[-112.6954,49.174,1244.5164],[-112.6959,49.3342,1142.9454],[-112.7518,49.334,1143.4238],[-112.752,49.4495,964.4529],[-112.7623,49.4493,963.1617],[-112.7631,49.5233,935.421],[-112.7796,49.5233,936.1699],[-112.7795,49.5524,910.1327],[-112.8131,49.5518,883.1742],[-112.8151,49.558,910.5519]]]]}
,"properties": {"GID_2": "CAN.1.13_1","GID_0": "CAN","country": "Canada","GID_1": "CAN.1_1","province": "Alberta","NL_NAME_1": "NA","county": "DivisionNo.3","VARNAME_2": "NA","NL_NAME_2": "NA","TYPE_2": "CensusDivision","ENGTYPE_2": "CensusDivision","CC_2": "03","HASC_2": "CA.AB.TR","name": "Division_No.3.county","area_km2": 13911.29,"hist_schema_id": "Elevation0-9000","hist_area_km2": {"825": 0.4,"850": 5.16,"875": 18.15,"900": 43.03,"925": 157.04,"950": 615.19,"975": 947.51,"1000": 940.77,"1025": 750.39,"1050": 583.53,"1075": 514.04,"1100": 604.49,"1125": 664.62,"1150": 606.29,"1175": 655.11,"1200": 559.03,"1225": 535.06,"1250": 605.45,"1275": 641.14,"1300": 572.83,"1325": 498.54,"1350": 438.79,"1375": 342.14,"1400": 287.78,"1425": 222.93,"1450": 198.91,"1475": 175.6,"1500": 157.32,"1525": 140.32,"1550": 119.74,"1575": 101.15,"1600": 87.44,"1625": 77.85,"1650": 72.61,"1675": 64.71,"1700": 58.02,"1725": 53.54,"1750": 49.7,"1775": 47.08,"1800": 45.38,"1825": 42.85,"1850": 40.5,"1875": 38.96,"1900": 38.27,"1925": 38.25,"1950": 36.82,"1975": 34.84,"2000": 34.72,"2025": 35.26,"2050": 32.49,"2075": 29.91,"2100": 28.52,"2125": 25.98,"2150": 24.84,"2175": 23.59,"2200": 21.62,"2225": 19.06,"2250": 17.66,"2275": 15.39,"2300": 13.98,"2325": 11.58,"2350": 9.41,"2375": 8.4,"2400": 6.58,"2425": 5.68,"2450": 4.13,"2475": 3.4,"2500": 2.57,"2525": 1.9,"2550": 1.51,"2575": 1.21,"2600": 0.86,"2625": 0.49,"2650": 0.31,"2675": 0.31,"2700": 0.17,"2725": 0.11}}}