{"type": "Feature","bbox": [-74.3964,45.3396,-74.2303,45.443],"geometry": {"type": "MultiPolygon","coordinates": [[[[-74.3225,45.443,163.726],[-74.3253,45.4316,142.419],[-74.3542,45.4258,99.2141],[-74.3575,45.4135,71.2547],[-74.3933,45.4177,77.9946],[-74.3964,45.4049,70.0111],[-74.2583,45.3396,54.4104],[-74.2448,45.388,65.3159],[-74.243,45.3877,65.3313],[-74.2303,45.43,63.5541],[-74.3225,45.443,163.726]]]]}
,"properties": {"GID_3": "CAN.11.99.19_1","GID_0": "CAN","country": "Canada","GID_1": "CAN.11_1","province": "Québec","NL_NAME_1": "NA","GID_2": "CAN.11.99_1","county": "Vaudreuil-Soulanges","NL_NAME_2": "NA","city": "Sainte-Marthe","VARNAME_3": "NA","NL_NAME_3": "NA","TYPE_3": "Municipalité","ENGTYPE_3": "Municipality","CC_3": "NA","HASC_3": "NA","name": "Sainte-Marthe.city","area_km2": 79.75196,"hist_schema_id": "Elevation0-9000","hist_area_km2": {"50": 30.02306,"75": 31.54391,"100": 8.06687,"125": 5.9523,"150": 1.90445,"175": 1.99359,"200": 0.26779}}}