{"type":"Feature","properties":{"GID_2":"CAN.11.69_1","GID_0":"CAN","country":"Canada","GID_1":"CAN.11_1","province":"Québec","NL_NAME_1":"NA","county":"LesMoulins","VARNAME_2":"NA","NL_NAME_2":"NA","TYPE_2":"RegionalCountyMunicipality","ENGTYPE_2":"RegionalCountyMunicipality","CC_2":"64","HASC_2":"CA.QC.MU","name":"Les_Moulins.county"},
"geometry":{"type": "MultiPolygon","coordinates": [[[[-73.6459,45.698,15.8147],[-73.6284,45.6923,13.2536],[-73.6142,45.6947,9.7484],[-73.6009,45.6918,9.3119],[-73.5818,45.6946,4.5],[-73.563,45.7008,11.9434],[-73.525,45.7019,4.0471],[-73.5022,45.7084,7.5319],[-73.495,45.7088,3.0],[-73.4871,45.7121,3.0],[-73.4884,45.7176,12.836],[-73.4926,45.7205,9.5916],[-73.493,45.7185,9.2217],[-73.4981,45.7221,10.6078],[-73.4978,45.7263,13.0204],[-73.5007,45.7288,11.6847],[-73.5006,45.7355,17.3864],[-73.5157,45.7435,20.6972],[-73.5201,45.749,37.7321],[-73.5295,45.7542,28.0769],[-73.5261,45.7937,16.4323],[-73.5504,45.7943,22.827],[-73.5493,45.8176,23.2636],[-73.5786,45.8213,60.1704],[-73.5791,45.8171,53.5106],[-73.5897,45.8176,62.6613],[-73.59,45.8131,53.1097],[-73.5944,45.812,56.007],[-73.6183,45.7964,63.0077],[-73.6449,45.8142,61.3827],[-73.6512,45.8057,70.6549],[-73.6515,45.7985,55.1361],[-73.6705,45.7867,56.9425],[-73.6873,45.7948,57.9673],[-73.7009,45.7974,66.9784],[-73.6985,45.8045,62.4387],[-73.7419,45.806,71.6486],[-73.7483,45.81,65.8613],[-73.7634,45.8117,78.1112],[-73.7629,45.8147,72.4097],[-73.7691,45.8164,70.6227],[-73.7706,45.8099,78.6066],[-73.7766,45.8098,71.3273],[-73.7804,45.8157,65.1656],[-73.7973,45.8268,74.4525],[-73.8065,45.8209,80.4557],[-73.824,45.8169,74.5438],[-73.7317,45.7541,65.6101],[-73.7505,45.7501,72.1531],[-73.745,45.7327,49.0324],[-73.7512,45.7327,50.8731],[-73.7516,45.731,49.928],[-73.7563,45.7311,51.4251],[-73.7741,45.7249,51.8271],[-73.7836,45.7249,56.5853],[-73.7954,45.7284,53.6866],[-73.8068,45.7281,65.6365],[-73.8149,45.731,55.6521],[-73.8596,45.7304,66.6656],[-73.7825,45.6797,69.2629],[-73.7756,45.6839,67.0145],[-73.7719,45.6816,64.9108],[-73.7671,45.6856,63.6059],[-73.7582,45.6798,49.5696],[-73.7565,45.6807,55.574],[-73.7466,45.6702,22.2253],[-73.7282,45.6807,18.7563],[-73.7097,45.6817,19.5763],[-73.6992,45.6851,14.0302],[-73.6883,45.6924,10.0],[-73.6834,45.6919,27.9177],[-73.6831,45.6885,23.0866],[-73.6803,45.6865,20.3993],[-73.6663,45.6871,24.3696],[-73.6542,45.6915,20.5174],[-73.6459,45.698,15.8147]]]]}}