{"type":"Feature","properties":{"GID_3":"CAN.11.94.6_1","GID_0":"CAN","country":"Canada","GID_1":"CAN.11_1","province":"Québec","NL_NAME_1":"NA","GID_2":"CAN.11.94_1","county":"Sept-Rivières--Caniapiscau","NL_NAME_2":"NA","city":"Lac-Juillet","VARNAME_3":"NA","NL_NAME_3":"NA","TYPE_3":"NonOrganisé","ENGTYPE_3":"Unorganized","CC_3":"NA","HASC_3":"NA","name":"Lac-Juillet.city"},
"geometry":{"type": "MultiPolygon","coordinates": [[[[-63.7126,54.625,551.1779],[-63.7253,54.6518,561.0555],[-63.7238,54.6598,546.6733],[-63.744,54.6699,522.5897],[-63.7631,54.6737,509.7522],[-63.7681,54.6831,513.9247],[-63.7597,54.6856,536.3418],[-63.7689,54.6998,533.8801],[-63.8039,54.7167,530.792],[-63.803,54.7256,547.3385],[-63.8328,54.7364,530.3795],[-63.8607,54.7527,507.222],[-63.8797,54.755,492.9789],[-63.8845,54.7585,490.5],[-63.8958,54.7601,493.7593],[-63.8897,54.7684,492.5278],[-63.924,54.7784,491.2053],[-63.9101,54.7885,492.9642],[-63.8908,54.7888,517.3275],[-63.9037,54.8011,509.0441],[-63.8718,54.8005,494.0839],[-63.869,54.807,491.349],[-63.848,54.8072,502.0872],[-63.8482,54.8124,496.0868],[-63.8296,54.8126,496.6886],[-63.8172,54.8169,496.2493],[-63.8181,54.8289,493.4106],[-63.8279,54.8473,505.6084],[-63.849,54.8626,520.4813],[-63.8422,54.871,513.9224],[-63.8527,54.8761,533.7007],[-63.8522,54.8851,523.7368],[-63.838,54.8831,545.7273],[-63.8462,54.8948,610.3948],[-63.829,54.9011,646.8561],[-63.8377,54.9145,602.0562],[-63.8127,54.9194,596.519],[-63.7996,54.9261,573.7205],[-63.8241,54.9343,586.7902],[-63.8298,54.9421,564.9542],[-63.8205,54.948,618.6766],[-63.7917,54.9559,624.8555],[-63.7843,54.9478,614.1931],[-63.7519,54.9423,527.7822],[-63.716,54.9255,552.9305],[-63.6964,54.9253,514.9357],[-63.6938,54.91,523.3828],[-63.6849,54.9046,535.7286],[-63.6613,54.9,548.7218],[-63.6635,54.9105,556.2622],[-63.6458,54.9056,533.5494],[-63.6307,54.9092,513.9097],[-63.6196,54.8995,532.0758],[-63.5914,54.8966,509.917],[-63.6044,54.9079,519.5368],[-63.6123,54.9199,505.6553],[-63.6045,54.9263,506.4958],[-63.5836,54.9238,507.5837],[-63.5779,54.93,507.9403],[-63.602,54.9393,508.3043],[-63.596,54.9458,512.3444],[-63.6113,54.9489,513.8864],[-63.5991,54.9514,508.9596],[-63.5975,54.9594,507.2497],[-63.6125,54.969,510.5424],[-63.611,54.977,506.9917],[-63.5869,54.9738,508.5802],[-63.5732,54.9788,517.1448],[-63.5763,54.9881,513.7467],[-63.5575,54.9899,512.9025],[-63.5576,54.9999,530.7083],[-66.2594,54.9997,555.0486],[-66.2505,54.9954,580.2639],[-66.2477,54.9852,538.7973],[-66.2478,54.9783,535.431],[-66.2464,54.9755,537.8436],[-66.2423,54.9745,539.4016],[-66.2395,54.9779,539.8446],[-66.2355,54.9918,557.6076],[-66.2173,54.9845,540.8784],[-66.2149,54.9812,512.2761],[-66.2101,54.9791,506.5544],[-66.197,54.9813,548.3445],[-66.1886,54.9808,534.1095],[-66.1779,54.9754,560.3087],[-66.168,54.973,546.1781],[-66.1628,54.9748,528.4318],[-66.1607,54.979,547.7104],[-66.1616,54.9877,587.7397],[-66.1436,54.9823,558.1724],[-66.137,54.9773,513.4067],[-66.1167,54.9679,554.0103],[-66.0992,54.9543,552.6637],[-66.0877,54.9497,559.4197],[-66.0745,54.9395,579.5024],[-66.0645,54.9291,535.7891],[-66.0484,54.9204,507.02],[-66.0408,54.9191,519.2335],[-66.0373,54.9208,504.6137],[-66.0364,54.9233,504.6879],[-66.0463,54.9328,502.4243],[-66.049,54.9374,506.5785],[-66.0424,54.9406,504.002],[-66.0312,54.9425,515.136],[-66.0234,54.942,540.1984],[-65.9966,54.931,543.9584],[-65.9766,54.931399999999996,538.8896],[-65.9651,54.9298,535.561],[-65.9566,54.9368,534.6111],[-65.946,54.9343,546.2362],[-65.939,54.9362,538.8176],[-65.9305,54.9409,549.5447],[-65.9247,54.9401,556.1],[-65.888,54.9253,572.5839],[-65.8712,54.9235,581.4315],[-65.8498,54.9272,536.2499],[-65.8393,54.9143,526.7293],[-65.8386,54.908,516.5596],[-65.8441,54.9021,512.5901],[-65.8554,54.8962,511.3156],[-65.8572,54.893,510.9592],[-65.8367,54.882,522.8678],[-65.8364,54.8747,553.6915],[-65.8447,54.8615,603.3414],[-65.8531,54.8559,597.605],[-65.8506,54.8508,602.1593],[-65.8383,54.8365,573.8375],[-65.8305,54.8307,551.9498],[-65.787,54.8091,533.2823],[-65.7774,54.8028,527.0222],[-65.7657,54.7892,530.0597],[-65.757,54.7868,523.1183],[-65.743,54.7695,526.8229],[-65.7331,54.7637,520.8126],[-65.7325,54.7591,520.4274],[-65.7136,54.741,527.6286],[-65.716,54.735,525.9279],[-65.7205,54.7316,539.1743],[-65.7062,54.7179,510.2519],[-65.6932,54.7082,519.949],[-65.6901,54.7115,528.4247],[-65.6697,54.7188,512.0013],[-65.6564,54.7276,515.976],[-65.6485,54.7352,538.785],[-65.651,54.7408,538.4333],[-65.651,54.7479,540.3528],[-65.647,54.7532,528.2244],[-65.6321,54.7545,536.8345],[-65.6213,54.7385,521.0855],[-65.6016,54.7378,500.1989],[-65.5971,54.7391,499.1407],[-65.5926,54.743,500.8414],[-65.5621,54.7397,500.1179],[-65.5624,54.7331,493.688],[-65.5574,54.7303,491.9942],[-65.5488,54.7292,499.5961],[-65.5357,54.7301,510.8148],[-65.529,54.7332,498.1147],[-65.504,54.7363,501.4934],[-65.4978,54.7348,500.7249],[-65.4874,54.7285,494.1298],[-65.4634,54.7272,499.5768],[-65.4555,54.7286,504.5148],[-65.4523,54.7322,520.196],[-65.4535,54.7374,555.0928],[-65.4482,54.744,539.5078],[-65.4402,54.7469,537.6537],[-65.4317,54.7463,547.6277],[-65.4291,54.7481,560.8527],[-65.4339,54.7707,500.4268],[-65.4346,54.7842,501.6098],[-65.4486,54.7945,499.9011],[-65.4669,54.8019,505.865],[-65.4737,54.8072,506.9816],[-65.4867,54.8201,522.6427],[-65.4892,54.8275,522.006],[-65.4873,54.8344,521.8726],[-65.4804,54.8382,510.6141],[-65.4693,54.839,510.8574],[-65.4638,54.8412,514.8599],[-65.4615,54.8463,508.4569],[-65.4563,54.8492,509.3734],[-65.4114,54.8418,526.8699],[-65.4137,54.8297,519.717],[-65.4117,54.8231,511.7661],[-65.4075,54.8198,509.9514],[-65.4006,54.8191,502.2538],[-65.3846,54.8299,488.0811],[-65.3733,54.8278,489.3174],[-65.3619,54.8204,482.9498],[-65.3558,54.8188,488.1631],[-65.3454,54.8254,484.7835],[-65.3431,54.829,482.5334],[-65.3384,54.8417,479.87],[-65.3389,54.8459,478.551],[-65.3412,54.8483,478.2428],[-65.3358,54.852,478.3869],[-65.3257,54.8487,475.7538],[-65.3202,54.8428,480.3933],[-65.3049,54.8197,482.5077],[-65.3008,54.8169,481.672],[-65.2964,54.8176,482.0438],[-65.2887,54.8223,480.8078],[-65.288,54.8254,482.9169],[-65.2916,54.834,480.9734],[-65.2911,54.8401,477.9999],[-65.2827,54.8444,491.9409],[-65.2672,54.8484,552.1665],[-65.2425,54.8499,519.7588],[-65.227,54.8491,593.4569],[-65.2169,54.8468,595.96],[-65.2096,54.848,591.4671],[-65.2006,54.8578,552.8552],[-65.1995,54.8623,572.5677],[-65.1996,54.8639,595.9975],[-65.2063,54.8677,620.0516],[-65.201,54.8707,603.8635],[-65.2017,54.8805,586.8241],[-65.1788,54.9053,558.7839],[-65.1736,54.9142,579.9263],[-65.1736,54.9179,580.6066],[-65.1803,54.9309,610.6943],[-65.1729,54.9336,621.0123],[-65.1345,54.9282,603.6373],[-65.1228,54.9414,591.6353],[-65.1223,54.947,588.8677],[-65.1264,54.9615,612.4616],[-65.105,54.9644,601.119],[-65.0858,54.9696,601.2102],[-65.0764,54.9681,633.8352],[-65.0706,54.9536,591.2366],[-65.0481,54.9555,604.9856],[-65.0434,54.9523,613.8169],[-65.0402,54.9437,598.8459],[-65.0177,54.9326,512.5622],[-65.0096,54.931,562.9601],[-64.9719,54.9374,510.3027],[-64.9539,54.9322,504.7554],[-64.9269,54.9213,500.5781],[-64.915,54.92,494.1168],[-64.9123,54.9119,499.6824],[-64.9065,54.9106,503.3409],[-64.9026,54.9016,512.8112],[-64.8897,54.8942,493.8603],[-64.8717,54.8926,518.0588],[-64.8484,54.8763,490.9098],[-64.8469,54.8738,492.13],[-64.8617,54.8549,488.2429],[-64.8584,54.8488,505.6691],[-64.8607,54.8467,500.7206],[-64.8655,54.8467,510.7317],[-64.8666,54.8448,496.4242],[-64.8615,54.841,490.4223],[-64.8568,54.8401,497.7364],[-64.8393,54.846,484.4415],[-64.8373,54.8441,488.656],[-64.8381,54.8403,492.6644],[-64.8301,54.8363,490.0064],[-64.8272,54.837,488.4033],[-64.8248,54.8462,490.9406],[-64.8159,54.849,491.1096],[-64.8007,54.8326,488.9517],[-64.7928,54.8319,485.6397],[-64.7905,54.8341,487.051],[-64.7906,54.8396,487.6671],[-64.7865,54.8431,489.7066],[-64.7782,54.8403,527.6334],[-64.7611,54.8295,484.9691],[-64.7479,54.814,487.0391],[-64.7487,54.8108,485.9281],[-64.7595,54.7997,486.3605],[-64.7698,54.7972,494.6375],[-64.7684,54.7905,515.6869],[-64.7762,54.7881,492.0216],[-64.7653,54.7741,507.0058],[-64.7523,54.7673,498.5272],[-64.772,54.7625,512.6469],[-64.7821,54.7633,511.6205],[-64.7852,54.7539,557.9785],[-64.801,54.7558,577.976],[-64.7781,54.7335,508.8872],[-64.7697,54.7301,520.3307],[-64.7637,54.7292,516.7516],[-64.7349,54.736,555.4972],[-64.7309,54.7256,525.691],[-64.7111,54.723,505.9678],[-64.6994,54.7236,507.6103],[-64.6878,54.726,507.0714],[-64.6847,54.7335,507.5424],[-64.68,54.7357,505.9622],[-64.6503,54.7306,501.4045],[-64.6229,54.7219,501.2051],[-64.6114,54.7264,505.0298],[-64.5976,54.7287,562.8054],[-64.5796,54.7232,533.6979],[-64.5569,54.7137,558.355],[-64.5526,54.7152,548.71],[-64.5505,54.7199,572.2892],[-64.547,54.7231,568.4903],[-64.5307,54.7335,537.5914],[-64.529,54.7375,527.7],[-64.5471,54.7416,536.274],[-64.5548,54.7449,531.1697],[-64.5342,54.7618,520.5873],[-64.5142,54.7513,512.5933],[-64.4748,54.7522,483.8746],[-64.4855,54.771,480.24],[-64.4839,54.7722,475.3236],[-64.4715,54.7703,478.5371],[-64.4733,54.7736,475.3089],[-64.4805,54.7779,473.9187],[-64.4798,54.7842,477.7941],[-64.4925,54.7873,475.063],[-64.4942,54.7894,473.1399],[-64.4928,54.7911,472.5933],[-64.4853,54.7937,481.1636],[-64.4352,54.7879,474.6602],[-64.3975,54.7905,478.0469],[-64.3916,54.7882,478.0469],[-64.3841,54.7802,476.681],[-64.3626,54.7778,484.5507],[-64.3439,54.7726,483.1702],[-64.3066,54.7593,493.4608],[-64.2947,54.7534,543.5747],[-64.2985,54.7481,553.8732],[-64.3008,54.7415,522.139],[-64.2958,54.7355,517.0033],[-64.2882,54.731,586.4444],[-64.2756,54.728,592.074],[-64.2389,54.7291,606.6045],[-64.2342,54.7277,621.4358],[-64.2378,54.7201,593.6493],[-64.2343,54.7175,594.0488],[-64.1965,54.7298,523.2722],[-64.1902,54.728,539.0493],[-64.1849,54.722,527.49],[-64.1776,54.7214,509.7025],[-64.1787,54.717,511.9368],[-64.1878,54.7108,508.9818],[-64.176,54.7012,506.6371],[-64.1782,54.6957,527.6492],[-64.1807,54.6936,538.3881],[-64.1713,54.6907,537.2858],[-64.1586,54.6808,537.7271],[-64.1453,54.6761,546.2048],[-64.1427,54.6735,542.2842],[-64.1456,54.6699,546.4354],[-64.1418,54.667,553.0178],[-64.1062,54.6604,534.9119],[-64.1028,54.6556,524.0228],[-64.1056,54.6458,533.6156],[-64.113,54.6335,529.6254],[-64.1073,54.6132,581.8563],[-64.0984,54.6125,595.7227],[-64.0861,54.623,560.2393],[-64.0799,54.6216,541.0013],[-64.0719,54.617,555.0704],[-64.0543,54.6009,589.4641],[-64.0476,54.6009,598.4307],[-64.0351,54.607,546.4808],[-64.029,54.6049,536.0966],[-64.004,54.6021,587.3716],[-64.0,54.6043,625.8585],[-63.992,54.6049,666.6814],[-63.9849,54.6086,583.5786],[-63.9744,54.6201,623.4781],[-63.9665,54.6193,625.2156],[-63.9343,54.6066,620.7661],[-63.9114,54.6043,572.6098],[-63.8979,54.6007,607.4131],[-63.8998,54.6056,604.3633],[-63.8928,54.6103,565.3335],[-63.8774,54.6129,549.3562],[-63.8734,54.6157,578.7455],[-63.8774,54.619,590.0015],[-63.8701,54.6234,571.7363],[-63.8635,54.6226,568.5904],[-63.8346,54.6299,549.0726],[-63.8308,54.6329,544.7583],[-63.8352,54.637,560.6548],[-63.8344,54.6411,535.4818],[-63.8255,54.6424,532.1619],[-63.8196,54.6407,536.7427],[-63.8134,54.6508,515.3696],[-63.8017,54.649,513.5],[-63.7805,54.6408,552.3664],[-63.7645,54.6374,554.1241],[-63.7428,54.6264,523.4237],[-63.7326,54.6231,514.1448],[-63.7277,54.6271,503.7391],[-63.7126,54.625,551.1779]]]]}}