{"type": "Feature","bbox": [-122.4667,49.1721,-122.4552,49.1743],"geometry": {"type": "MultiPolygon","coordinates": [[[[-122.4667,49.1721,4.0919],[-122.4559,49.1728,2.0203],[-122.4552,49.1741,21.9196],[-122.4666,49.1743,21.5887],[-122.4667,49.1721,4.0919]]]]}
,"properties": {"GID_3": "CAN.2.14.37_1","GID_0": "CAN","country": "Canada","GID_1": "CAN.2_1","province": "BritishColumbia","NL_NAME_1": "NA","GID_2": "CAN.2.14_1","county": "GreaterVancouver","NL_NAME_2": "NA","city": "Whonnock1","VARNAME_3": "NA","NL_NAME_3": "NA","TYPE_3": "RéserveIndienne","ENGTYPE_3": "IndianReserve","CC_3": "NA","HASC_3": "NA","name": "Whonnock1.city","area_km2": 0.1801983,"hist_schema_id": "Elevation0-9000","hist_area_km2": {"0": 0.1524759,"25": 0.0277224}}}