{"type": "Feature","bbox": [-73.1475,46.0759,-73.0015,46.1576],"geometry": {"type": "MultiPolygon","coordinates": [[[[-73.1475,46.0759,9.2849],[-73.135,46.0851,8.4223],[-73.1274,46.0851,4.6221],[-73.1253,46.089,7.4132],[-73.1062,46.1024,5.1806],[-73.0961,46.105,6.4376],[-73.092,46.1096,3.9289],[-73.0915,46.1119,3.0],[-73.0932,46.115,3.6868],[-73.0912,46.1186,6.1295],[-73.0829,46.1252,5.2953],[-73.0333,46.1456,2.5],[-73.0242,46.1453,2.5],[-73.0179,46.1472,2.5],[-73.0015,46.1573,2.5],[-73.0137,46.1576,8.4247],[-73.031,46.1517,7.4185],[-73.0494,46.1482,6.5265],[-73.0629,46.1431,11.5077],[-73.0717,46.1379,6.3672],[-73.0864,46.1359,7.6052],[-73.1086,46.1219,6.8831],[-73.1151,46.1152,6.5733],[-73.1247,46.1114,5.7655],[-73.1307,46.105,4.5181],[-73.1345,46.1046,6.3613],[-73.1399,46.1009,7.9287],[-73.1462,46.0883,4.4295],[-73.1475,46.0759,9.2849]]]]}
,"properties": {"GID_3": "CAN.11.22.2_1","GID_0": "CAN","country": "Canada","GID_1": "CAN.11_1","province": "Québec","NL_NAME_1": "NA","GID_2": "CAN.11.22_1","county": "D'Autray","NL_NAME_2": "NA","city": "LaVisitation-de-l'?le-Dupas","VARNAME_3": "NA","NL_NAME_3": "NA","TYPE_3": "Municipalité","ENGTYPE_3": "Municipality","CC_3": "NA","HASC_3": "NA","name": "La_Visitation-de-l'_le-Dupas.city","area_km2": 16.06335,"hist_schema_id": "Elevation0-9000","hist_area_km2": {"0": 15.22568,"25": 0.83767}}}