{"type": "Feature","bbox": [-124.8556,49.211,-124.7605,49.2752],"geometry": {"type": "MultiPolygon","coordinates": [[[[-124.827,49.2695,14.4839],[-124.8284,49.2734,16.2876],[-124.8504,49.2737,20.8207],[-124.8504,49.2693,19.2111],[-124.8556,49.269,13.5378],[-124.853,49.2661,17.386],[-124.843,49.2608,20.8059],[-124.8324,49.2594,4.9447],[-124.8358,49.2524,11.6852],[-124.8314,49.2516,1.0171],[-124.838,49.2488,0.5639],[-124.8358,49.2433,0.0],[-124.8308,49.2467,0.0],[-124.8278,49.2442,0.6846],[-124.8236,49.2445,0.0],[-124.8146,49.2503,0.0],[-124.8138,49.2567,0.7933],[-124.8121,49.2559,3.0171],[-124.8125,49.2499,2.7195],[-124.8189,49.2461,2.9642],[-124.8161,49.2425,0.0],[-124.8171,49.2353,0.5307],[-124.8128,49.2287,0.0],[-124.8159,49.2223,0.0],[-124.8167,49.215,4.9932],[-124.816,49.2182,1.351],[-124.8048,49.2182,94.5096],[-124.805,49.211,128.7767],[-124.7928,49.211,161.1863],[-124.7929,49.2155,117.6784],[-124.7832,49.2155,210.5107],[-124.7831,49.2378,87.6048],[-124.7614,49.2384,169.9501],[-124.7605,49.2459,159.6852],[-124.7806,49.2456,96.148],[-124.7813,49.251,97.63],[-124.7737,49.2594,70.9314],[-124.7768,49.2582,109.3815],[-124.7772,49.2655,75.378],[-124.7781,49.259,99.3742],[-124.784,49.2587,82.8711],[-124.783,49.2708,68.7235],[-124.786,49.271,70.7273],[-124.7865,49.2735,66.5668],[-124.7999,49.2744,55.192],[-124.8016,49.2717,50.5477],[-124.8012,49.2696,51.3859],[-124.814,49.2694,15.4625],[-124.8172,49.2719,23.9639],[-124.8199,49.2719,17.7918],[-124.8201,49.2752,18.7833],[-124.8228,49.2751,17.7535],[-124.8228,49.2736,14.3661],[-124.8258,49.2736,17.849],[-124.8257,49.2695,16.1517],[-124.8228,49.2695,12.1816],[-124.8228,49.2654,8.0688],[-124.827,49.2695,14.4839]],
[[-124.8226,49.2602,0.5],[-124.8285,49.261,3.7097],[-124.8284,49.2705,15.5989],[-124.8228,49.265,8.0688],[-124.8226,49.2602,0.5]]]]}
,"properties": {"GID_3": "CAN.2.1.22_1","GID_0": "CAN","country": "Canada","GID_1": "CAN.2_1","province": "BritishColumbia","NL_NAME_1": "NA","GID_2": "CAN.2.1_1","county": "Alberni-Clayoquot","NL_NAME_2": "NA","city": "PortAlberni","VARNAME_3": "NA","NL_NAME_3": "NA","TYPE_3": "Cité","ENGTYPE_3": "City","CC_3": "NA","HASC_3": "NA","name": "Port_Alberni.city","area_km2": 22.43556,"hist_schema_id": "Elevation0-9000","hist_area_km2": {"0": 6.4075,"25": 4.30369,"50": 4.31787,"75": 3.01754,"100": 1.73043,"125": 1.20457,"150": 0.5123,"175": 0.49849,"200": 0.44317}}}