{"type":"Feature","properties":{"GID_3":"CAN.7.17.2_1","GID_0":"CAN","country":"Canada","GID_1":"CAN.7_1","province":"NovaScotia","NL_NAME_1":"NA","GID_2":"CAN.7.17_1","county":"Victoria","NL_NAME_2":"NA","city":"Victoria,Subd.B","VARNAME_3":"NA","NL_NAME_3":"NA","TYPE_3":"SubdivisionofCountyMunicipali","ENGTYPE_3":"SubdivisionofCountyMunicipali","CC_3":"NA","HASC_3":"NA","name":"Victoria,Subd.B.city"},
"geometry":{"type": "MultiPolygon","coordinates": [[[[-60.9497,45.9136,6.2131],[-60.9542,45.9147,0.0],[-60.9564,45.9114,0.0],[-60.9528,45.9125,2.3301],[-60.9467,45.9105,0.076],[-60.9474,45.9057,0.0],[-60.9445,45.9065,1.2875],[-60.9419,45.9117,1.5432],[-60.9439,45.9128,0.2889],[-60.9469,45.9117,0.076],[-60.9497,45.9136,6.2131]]],
[[[-60.9367,45.9108,0.0],[-60.9383,45.9119,0.2603],[-60.9393,45.9103,0.0],[-60.9372,45.91,0.0],[-60.9367,45.9108,0.0]]],
[[[-60.9633,45.9142,0.0],[-60.9666,45.9141,1.3029],[-60.9696,45.9107,2.2057],[-60.9653,45.91,0.0],[-60.9597,45.9119,2.3119],[-60.9633,45.9142,0.0]]],
[[[-61.0008,45.9556,8.4156],[-60.9987,45.953,24.7217],[-61.0006,45.9466,34.1991],[-60.9969,45.9436,3.8078],[-60.9925,45.9447,0.0],[-60.9889,45.9478,2.43],[-60.9892,45.9453,0.0],[-60.9856,45.9436,2.0541],[-60.9861,45.9425,2.0541],[-60.9908,45.9433,1.8652],[-60.9935,45.9366,0.752],[-60.9861,45.9374,5.422],[-60.9844,45.9339,1.6948],[-60.9875,45.9328,0.0],[-60.9826,45.9309,1.1254],[-60.9845,45.9301,0.0422],[-60.9845,45.928,0.5809],[-60.9757,45.9259,8.9883],[-60.9834,45.9253,7.7752],[-60.9845,45.9231,2.0916],[-60.9795,45.923,1.9956],[-60.9773,45.9201,0.0],[-60.9741,45.9198,0.2848],[-60.9747,45.9167,0.0],[-60.97,45.9149,0.0],[-60.9674,45.9192,0.6639],[-60.9636,45.9205,9.1271],[-60.9577,45.9197,0.0],[-60.9556,45.9168,0.0],[-60.9512,45.9177,0.0],[-60.9502,45.9186,0.0],[-60.9519,45.9208,10.8595],[-60.9485,45.9249,0.0],[-60.9456,45.9228,0.0],[-60.94,45.9225,0.0],[-60.9464,45.9253,1.0287],[-60.9419,45.9269,2.1322],[-60.9403,45.9336,0.0],[-60.9378,45.9331,0.0],[-60.9389,45.9289,3.3579],[-60.9348,45.9309,4.0596],[-60.9247,45.9299,0.0],[-60.9203,45.9322,7.0368],[-60.9139,45.9311,0.0],[-60.9126,45.9328,1.7087],[-60.9147,45.9338,0.2888],[-60.9146,45.9361,1.1828],[-60.9086,45.9406,1.6939],[-60.915,45.9403,16.7847],[-60.9156,45.9419,0.0],[-60.8989,45.946,2.1512],[-60.8966,45.9462,0.061],[-60.8944,45.9442,0.128],[-60.9077,45.9392,1.4445],[-60.9137,45.9278,3.8489],[-60.9215,45.9259,1.2772],[-60.9336,45.9271,0.0],[-60.9383,45.9248,0.6932],[-60.9332,45.9228,0.8108],[-60.917,45.923,0.884],[-60.9097,45.9194,0.0],[-60.9072,45.9237,0.7584],[-60.9017,45.9256,-0.8768],[-60.9061,45.9261,-1.2147],[-60.9033,45.9272,-1.5],[-60.9051,45.9277,-0.4109],[-60.9031,45.9319,1.5809],[-60.9017,45.9322,6.0544],[-60.9013,45.9298,5.3919],[-60.9024,45.9268,-0.6775],[-60.8917,45.9292,3.0176],[-60.8984,45.9256,-1.3725],[-60.8989,45.9242,-0.2286],[-60.896,45.9231,0.0],[-60.8753,45.9303,0.0],[-60.8692,45.9364,0.8661],[-60.8758,45.9394,6.7946],[-60.8744,45.9442,4.2186],[-60.8708,45.9425,0.2459],[-60.8695,45.9389,0.0],[-60.8667,45.9422,10.5872],[-60.8564,45.9413,0.0],[-60.8338,45.9469,0.0],[-60.8192,45.9441,5.9534],[-60.815,45.9449,0.0],[-60.8131,45.9466,0.0],[-60.811,45.9543,3.65],[-60.8056,45.96,1.5241],[-60.8025,45.9608,0.5263],[-60.8107,45.9687,0.5123],[-60.812,45.9728,1.1843],[-60.8069,45.9775,0.0],[-60.8123,45.9845,5.0166],[-60.8048,45.9947,1.1947],[-60.8049,45.9984,0.0],[-60.806399999999996,45.9997,1.9685],[-60.7822,46.0161,0.0],[-60.7759,46.0238,0.0],[-60.7853,46.0197,7.1892],[-60.7933,46.0228,4.6259],[-60.781,46.0247,0.8389],[-60.7752,46.0294,32.3458],[-60.7694,46.0294,4.5248],[-60.7683,46.0325,23.6872],[-60.7633,46.0369,0.0],[-60.7631,46.0414,5.5399],[-60.7579,46.0474,9.0765999999999991],[-60.7406,46.0576,5.785],[-60.7408,46.0625,24.9723],[-60.7371,46.0672,0.0],[-60.7371,46.0699,0.0],[-60.7422,46.0706,1.855],[-60.7508,46.0765,0.6683],[-60.7552,46.0725,1.8714],[-60.7726,46.07,0.456],[-60.7794,46.0647,3.6446],[-60.7919,46.0589,0.8491],[-60.7964,46.0597,-0.25],[-60.798,46.056399999999996,4.7449],[-60.8097,46.0525,0.0],[-60.82,46.0447,1.3767],[-60.8283,46.0414,1.4121],[-60.83,46.0422,0.0],[-60.8309,46.0403,0.0],[-60.8333,46.041,2.7412],[-60.8308,46.0453,4.5933],[-60.8258,46.0486,0.0],[-60.8239,46.0481,0.0],[-60.8227,46.05,1.429],[-60.8274,46.0528,0.0],[-60.8324,46.0511,0.0],[-60.836,46.0494,3.1075],[-60.8339,46.0478,13.1984],[-60.8365,46.0439,0.0],[-60.8394,46.0428,0.0],[-60.8439,46.0372,3.465],[-60.8494,46.0358,1.1076],[-60.8509,46.0338,0.0],[-60.8492,46.0329,4.8301],[-60.8452,46.0347,1.6391],[-60.8455,46.0328,4.1367],[-60.859,46.0266,1.3614],[-60.8588,46.0239,1.2929],[-60.8647,46.0205,0.0],[-60.8658,46.0181,1.5266],[-60.868,46.0202,3.1732],[-60.8622,46.0244,0.0],[-60.8647,46.0252,2.5242],[-60.8648,46.0266,1.8663],[-60.8591,46.0289,14.7965],[-60.8553,46.0327,2.2944],[-60.86,46.0311,3.2539],[-60.8613,46.0325,7.0194],[-60.8566,46.0329,2.2944],[-60.8522,46.0361,0.0],[-60.8585,46.0355,0.0],[-60.8589,46.0373,13.0871],[-60.8483,46.0414,0.0],[-60.8542,46.0433,1.0494],[-60.8519,46.0464,0.0],[-60.8533,46.0486,2.5517],[-60.8514,46.0505,11.1093],[-60.8444,46.0517,1.7719],[-60.8431,46.0537,2.1628],[-60.8517,46.0536,6.4311],[-60.8485,46.0563,3.2428],[-60.8511,46.0561,0.0],[-60.8538,46.0542,0.9877],[-60.8683,46.0512,0.5811],[-60.8681,46.0544,3.0967],[-60.8664,46.0527,3.0107],[-60.8622,46.0544,0.0],[-60.8661,46.0553,0.8769],[-60.8641,46.0586,5.8479],[-60.8674,46.0583,4.0122],[-60.8797,46.0481,8.9948],[-60.8944,46.0467,2.4185],[-60.8969,46.0449,1.9543],[-60.8973,46.0407,1.6889],[-60.9016,46.0386,2.6789],[-60.9113,46.0381,2.6604],[-60.9122,46.0408,0.0],[-60.9188,46.0411,0.0],[-60.9254,46.0384,0.0],[-60.9236,46.0331,2.8758],[-60.9166,46.0306,0.8952],[-60.8997,46.0377,2.9963],[-60.8985,46.0364,0.0],[-60.9066,46.0277,0.0],[-60.8987,46.0247,1.8784],[-60.8981,46.0228,3.7697],[-60.9149,46.0214,2.7802],[-60.9319,46.0167,6.8442],[-60.9385,46.0109,3.7384],[-60.9377,46.0082,0.9417],[-60.9338,46.0094,5.8925],[-60.936,46.0067,0.0],[-60.9324,46.0064,4.3631],[-60.938,46.0042,0.0],[-60.9376,46.0068,3.4029],[-60.9447,46.0061,1.2373],[-60.9472,46.0077,0.0],[-60.9556,46.0033,-0.0783],[-60.9542,46.0003,5.6735],[-60.9564,46.0008,-0.6003],[-60.9569,46.0028,-0.0783],[-60.9715,45.996,4.6766],[-60.9803,45.9966,1.0761],[-60.9871,45.9892,0.0],[-60.9886,45.9814,0.0],[-60.9867,45.9789,0.0],[-60.9931,45.9764,1.0006],[-60.9915,45.9743,0.9917],[-60.9894,45.9594,0.0],[-60.9856,45.9572,1.4505],[-60.9789,45.9619,2.164],[-60.9767,45.9564,0.0],[-60.9794,45.9545,6.8695],[-60.9833,45.9556,7.5255],[-60.9782,45.9562,7.4633],[-60.9803,45.9594,1.1485],[-60.9906,45.9533,1.5295],[-60.993899999999996,45.9533,3.4698],[-60.9994,45.9575,0.4737],[-61.0008,45.9556,8.4156]]],
[[[-60.8416,46.0508,0.0],[-60.8391,46.0512,1.6992],[-60.839,46.0522,0.0],[-60.8402,46.0524,0.0],[-60.8416,46.0508,0.0]]],
[[[-60.8578,46.0583,1.2702],[-60.8594,46.0577,0.0],[-60.8544,46.0586,0.0],[-60.8556,46.0589,0.0],[-60.8578,46.0583,1.2702]]],
[[[-60.776,46.0716,0.0],[-60.7735,46.0713,1.4798],[-60.7725,46.0718,1.4798],[-60.7741,46.0724,0.0],[-60.776,46.0716,0.0]]],
[[[-60.7503,46.0944,0.0],[-60.7492,46.0919,0.0],[-60.7431,46.0947,0.0],[-60.7419,46.0981,0.0],[-60.7431,46.0981,0.0],[-60.7503,46.0944,0.0]]],
[[[-60.3832,46.2992,40.2412],[-60.3719,46.3122,0.0],[-60.3785,46.31,16.0723],[-60.3806,46.3075,12.8388],[-60.3933,46.305,9.3216],[-60.3981,46.2994,0.0],[-60.4229,46.284,0.0],[-60.4257,46.2781,2.8472],[-60.4325,46.2747,14.6902],[-60.4328,46.2697,20.7376],[-60.4367,46.2647,12.2773],[-60.4539,46.2528,5.4019],[-60.4772,46.2406,10.4537],[-60.4922,46.2258,19.6242],[-60.4947,46.2256,0.0],[-60.5006,46.2169,23.354],[-60.5056,46.2142,0.0],[-60.5078,46.2097,8.3951],[-60.5128,46.2078,6.2909],[-60.5136,46.205,10.4902],[-60.5197,46.2031,4.7828],[-60.5294,46.1967,34.7358],[-60.5444,46.1925,0.0],[-60.5522,46.1875,0.0],[-60.5592,46.1756,0.0],[-60.5675,46.1714,0.0],[-60.5742,46.1569,5.4306],[-60.58,46.1519,6.6921],[-60.5831,46.1461,0.0],[-60.5894,46.1422,0.0],[-60.59,46.1383,6.8315],[-60.5944,46.1325,1.7514],[-60.6156,46.1197,16.6082],[-60.6303,46.1139,0.0],[-60.6469,46.1003,8.427],[-60.6511,46.0989,0.0],[-60.6539,46.1003,0.0],[-60.6533,46.095,0.0],[-60.66,46.0908,1.1545],[-60.6586,46.0856,16.5235],[-60.6669,46.0768,5.3155],[-60.6667,46.0742,6.0397],[-60.6598,46.0716,0.0],[-60.6467,46.0728,5.2004],[-60.6356,46.0775,12.3164],[-60.6289,46.0831,12.4928],[-60.6092,46.0867,0.0],[-60.5976,46.0915,0.1873],[-60.5956,46.0978,16.6239],[-60.5847,46.1031,0.0],[-60.5772,46.1119,2.1258],[-60.5683,46.1183,0.0],[-60.5428,46.1294,10.7938],[-60.5392,46.1297,2.0564],[-60.5303,46.1356,8.2274],[-60.5283,46.1389,0.0],[-60.5292,46.1402,0.0],[-60.5394,46.1344,1.9333],[-60.54,46.1322,0.0],[-60.5436,46.1319,10.2421],[-60.5519,46.1264,2.9816],[-60.5556,46.1261,-0.0534],[-60.5289,46.1478,2.7444],[-60.5,46.1632,0.0],[-60.4833,46.1692,6.233],[-60.4926,46.1794,68.9808],[-60.5059,46.1903,143.9139],[-60.4823,46.2062,142.153],[-60.4685,46.2195,94.2561],[-60.4174,46.2524,104.1821],[-60.4115,46.2631,109.1359],[-60.3956,46.2763,93.8529],[-60.3946,46.2821,84.0654],[-60.3832,46.2992,40.2412]]],
[[[-60.9855,46.0058,8.5140999999999991],[-60.9818,45.9992,3.1039],[-60.9775,45.9994,0.445],[-60.9688,46.005,4.3576],[-60.9674,46.0069,0.0],[-60.9683,46.0106,3.463],[-60.9752,46.0152,1.4602],[-60.9641,46.0225,2.8611],[-60.9644,46.0242,4.9309],[-60.96,46.027,3.7503],[-60.961,46.03,6.41],[-60.9535,46.0331,3.0257],[-60.9533,46.0358,1.3587],[-60.9491,46.0403,0.0],[-60.939,46.045,0.0],[-60.9433,46.0456,2.4074],[-60.9402,46.0503,0.0],[-60.9218,46.0532,0.0],[-60.9215,46.056,0.0],[-60.9232,46.0574,2.7467],[-60.9203,46.0589,10.8869],[-60.9189,46.0581,1.1178],[-60.9206,46.0547,0.0],[-60.9189,46.0542,2.4081],[-60.9128,46.0552,0.0],[-60.9069,46.0592,8.8363],[-60.9066,46.0602,8.8363],[-60.9217,46.0669,59.5919],[-60.9314,46.0701,71.053],[-60.9436,46.0941,219.9241],[-60.9386,46.096,197.4262],[-60.9407,46.0986,206.2866],[-60.9401,46.1029,148.8204],[-60.9324,46.1039,59.9603],[-60.9214,46.0916,10.3581],[-60.9066,46.0814,-0.2956],[-60.9022,46.0834,0.0],[-60.901,46.0869,0.5184],[-60.8838,46.0911,1.5722],[-60.883,46.0942,3.7819],[-60.8786,46.0952,0.0423],[-60.8767,46.0937,0.0],[-60.8705,46.0933,2.572],[-60.8669,46.0903,0.0],[-60.8622,46.0906,1.2751999999999999],[-60.8594,46.0928,0.668],[-60.8621,46.0972,1.8289],[-60.86,46.0992,0.0],[-60.8598,46.1034,0.2455],[-60.8527,46.1036,0.0],[-60.8527,46.1019,2.2917],[-60.8604,46.0973,5.773],[-60.8599,46.0946,0.5454],[-60.8542,46.0944,0.0],[-60.8619,46.0889,0.0],[-60.8616,46.0828,2.0764],[-60.8683,46.0809,0.0],[-60.8741,46.0821,0.0],[-60.8894,46.0747,8.2309],[-60.8912,46.0648,0.0],[-60.881,46.0648,0.0],[-60.8773,46.0662,0.0],[-60.8741,46.0706,3.6546],[-60.876,46.075,4.5577],[-60.8708,46.0769,0.0],[-60.861,46.0789,10.432],[-60.8555,46.0733,0.0],[-60.8513,46.0717,0.0],[-60.84,46.0707,0.092],[-60.8235,46.0758,3.6639],[-60.8051,46.0774,2.1459],[-60.7835,46.0861,1.2736],[-60.7719,46.0878,0.4559],[-60.7602,46.0928,4.3103],[-60.7535,46.0932,0.0],[-60.7535,46.0967,0.5767],[-60.7513,46.0958,2.3445],[-60.7477,46.1003,0.1778],[-60.7402,46.1031,3.3511],[-60.7297,46.1097,1.2897],[-60.7226,46.1181,0.0058],[-60.7133,46.1233,0.0],[-60.7074,46.1298,6.4076],[-60.7041,46.1289,2.2663],[-60.7041,46.1259,6.426],[-60.7006,46.1244,0.0],[-60.7086,46.1222,0.0],[-60.7139,46.1186,1.1956],[-60.7177,46.1131,0.0],[-60.7167,46.1097,7.5198],[-60.7203,46.1,4.3139],[-60.7175,46.0947,0.0],[-60.7153,46.0936,0.0],[-60.6983,46.1022,30.1081],[-60.6812,46.1053,0.0],[-60.6733,46.1128,7.9166],[-60.6644,46.1149,3.6043],[-60.6586,46.1144,2.0938],[-60.6558,46.1167,2.8495],[-60.6489,46.1161,9.9105],[-60.6419,46.12,0.0],[-60.6391,46.1246,5.4556],[-60.6333,46.1252,0.0],[-60.615,46.1347,0.0],[-60.6152,46.1383,0.0],[-60.6237,46.1401,6.8576],[-60.6326,46.1391,0.0],[-60.6379,46.1418,12.5305],[-60.631,46.1397,0.0],[-60.6277,46.1406,2.505],[-60.6292,46.1442,7.3133],[-60.6244,46.1424,6.9356],[-60.6083,46.1444,12.0657],[-60.5894,46.1542,7.1429],[-60.5758,46.1741,35.1663],[-60.5697,46.1783,0.0],[-60.5653,46.1869,37.7882],[-60.5613,46.1894,2.1628],[-60.5443,46.2103,3.6554],[-60.5355,46.2119,0.0],[-60.5336,46.215,0.0],[-60.5299,46.2164,9.8068],[-60.5314,46.2199,3.1952],[-60.5272,46.219,3.0488],[-60.526,46.2203,3.0488],[-60.5274,46.2214,0.0],[-60.5241,46.2242,8.7288],[-60.5185,46.2238,9.6768],[-60.5049,46.2275,5.3054],[-60.5027,46.235,0.0],[-60.4961,46.2396,0.878],[-60.4955,46.2426,20.538],[-60.4888,46.2492,13.6465],[-60.4885,46.2514,11.1406],[-60.4847,46.2511,1.1321],[-60.4852,46.2536,0.9655],[-60.4838,46.2553,0.0],[-60.4822,46.255,0.0],[-60.4719,46.2656,9.5361],[-60.4666,46.2683,0.0],[-60.4603,46.2691,8.6464],[-60.4399,46.2903,0.0],[-60.438,46.2908,2.7418],[-60.4358,46.2869,0.0],[-60.433,46.2861,0.0],[-60.4171,46.2928,0.6348],[-60.4163,46.2944,0.0],[-60.4194,46.3047,6.1736],[-60.4188,46.3147,19.9478],[-60.4169,46.3175,16.904],[-60.4194,46.3278,5.8144],[-60.4142,46.3339,0.0],[-60.4151,46.342,0.0],[-60.4281,46.3461,0.0],[-60.4361,46.3444,10.856],[-60.448,46.3458,1.3437],[-60.4572,46.3425,6.752],[-60.4685,46.3368,0.0],[-60.4763,46.3281,6.8367],[-60.4847,46.3228,0.0],[-60.4863,46.3197,49.5249],[-60.493,46.3147,11.3066],[-60.511,46.3087,52.5772],[-60.5187,46.3021,0.0945],[-60.5308,46.2978,0.4615],[-60.5383,46.2916,0.0],[-60.5455,46.2808,3.1339],[-60.5491,46.2744,0.0],[-60.549,46.2655,0.0],[-60.5572,46.2533,0.0],[-60.564,46.2442,20.457],[-60.5788,46.2314,14.286],[-60.5933,46.21,8.8465],[-60.5992,46.205,19.3625],[-60.5978,46.2103,2.8092],[-60.5985,46.2149,0.0],[-60.6005,46.2169,13.2178],[-60.5966,46.2169,0.0],[-60.5985,46.2203,1.9568],[-60.5941,46.2217,9.3081],[-60.5985,46.2244,1.0464],[-60.6041,46.2228,0.0],[-60.6166,46.2103,22.015],[-60.6208,46.2097,13.918],[-60.6113,46.2192,4.055],[-60.6085,46.225,6.8544],[-60.6091,46.2313,4.6914],[-60.6065,46.2342,5.4144],[-60.6039,46.234,1.7893],[-60.5994,46.2367,0.0],[-60.5966,46.2419,0.0],[-60.5974,46.2456,0.0],[-60.5952,46.2489,0.0],[-60.6035,46.2478,2.4531],[-60.5927,46.2536,0.0],[-60.591,46.2561,0.0],[-60.6178,46.2628,0.2357],[-60.6206,46.2647,0.3713],[-60.618899999999996,46.2661,7.1594],[-60.6127,46.2648,0.0],[-60.6076,46.2672,0.0],[-60.6089,46.2728,6.954],[-60.6122,46.2769,37.4811],[-60.6141,46.2928,7.791],[-60.6231,46.3061,6.028],[-60.6369,46.3151,19.2183],[-60.6603,46.3248,183.9282],[-60.6759,46.323,123.9142],[-60.6802,46.3243,258.1313],[-60.6917,46.3347,104.2775],[-60.7006,46.3399,145.5643],[-60.7112,46.3509,311.2732],[-60.73,46.3569,296.6651],[-60.7482,46.3652,285.8777],[-60.7627,46.3753,388.7974],[-60.7684,46.3845,379.0073],[-60.7669,46.3913,359.156],[-60.7718,46.3945,365.5297],[-60.7754,46.4004,374.4143],[-60.7806,46.4021,384.2673],[-60.8006,46.4026,388.6217],[-60.8072,46.405,396.7492],[-60.8108,46.4107,410.4286],[-60.8111,46.4146,415.6353],[-60.8156,46.4179,419.9669],[-60.8144,46.4222,428.6381],[-60.9795,46.2143,342.3234],[-61.0511,46.1148,242.8449],[-60.9874,46.009,17.6272],[-60.9854,46.0091,6.7218],[-60.9855,46.0058,8.5140999999999991]]],
[[[-60.5311,46.2131,0.0],[-60.5272,46.2121,2.3672],[-60.5239,46.2147,1.5024],[-60.5269,46.215,4.8533],[-60.5311,46.2131,0.0]]],
[[[-60.5003,46.2317,1.977],[-60.499,46.231,1.977],[-60.4963,46.2342,0.0],[-60.5007,46.2333,9.6943],[-60.5003,46.2317,1.977]]],
[[[-60.4934,46.235,0.0],[-60.4955,46.2373,1.1326],[-60.4971,46.2355,0.0],[-60.4947,46.2342,0.0],[-60.4934,46.235,0.0]]],
[[[-60.5419,46.2958,0.8954],[-60.544,46.2982,0.3932],[-60.5449,46.2975,0.3932],[-60.5422,46.2931,0.0],[-60.5428,46.2897,0.0461],[-60.5414,46.2894,0.0],[-60.5406,46.2908,0.2577],[-60.5419,46.2958,0.8954]]],
[[[-60.3928,46.3667,0.0],[-60.39,46.37,4.2737],[-60.4006,46.3625,0.0],[-60.3983,46.3625,4.4121],[-60.3928,46.3667,0.0]]],
[[[-60.3808,46.3789,4.1617],[-60.3767,46.3803,0.0],[-60.3692,46.3889,0.1193],[-60.3747,46.385,8.3812],[-60.3808,46.3789,4.1617]]]]}}