{"type":"Feature","properties":{"GID_3":"CAN.4.12.8_1","GID_0":"CAN","country":"Canada","GID_1":"CAN.4_1","province":"NewBrunswick","NL_NAME_1":"NA","GID_2":"CAN.4.12_1","county":"Sunbury","NL_NAME_2":"NA","city":"Oromocto","VARNAME_3":"NA","NL_NAME_3":"NA","TYPE_3":"Town","ENGTYPE_3":"Town","CC_3":"NA","HASC_3":"NA","name":"Oromocto.city"},
"geometry":{"type": "MultiPolygon","coordinates": [[[[-66.4632,45.858,0.0],[-66.4599,45.8546,15.5224],[-66.4638,45.8524,22.4265],[-66.4603,45.8504,26.6227],[-66.463,45.8486,34.4732],[-66.4665,45.8503,25.5689],[-66.4678,45.8557,0.0],[-66.4718,45.8538,9.4803],[-66.4955,45.8513,11.4494],[-66.5121,45.8521,5.098],[-66.5328,45.8361,13.8158],[-66.5373,45.8307,11.11],[-66.5371,45.829,7.8021],[-66.498,45.8114,14.5586],[-66.4814,45.8304,28.0729],[-66.4635,45.8227,33.0497],[-66.461,45.8265,30.2925],[-66.4644,45.8285,29.9635],[-66.4621,45.8311,48.0981],[-66.4404,45.8272,63.3425],[-66.4405,45.8586,31.0853],[-66.4487,45.8566,24.6104],[-66.4535,45.8627,0.0],[-66.4632,45.858,0.0]]]]}}