{"type": "Feature","bbox": [-109.218,62.6667,-109.0085,62.7757],"geometry": {"type": "MultiPolygon","coordinates": [[[[-109.0774,62.7757,155.0],[-109.218,62.7503,155.0],[-109.1507,62.6667,155.0],[-109.0622,62.6768,155.0],[-109.0085,62.6946,155.0],[-109.0774,62.7757,155.0]]]]}
,"properties": {"GID_3": "CAN.6.1.17_1","GID_0": "CAN","country": "Canada","GID_1": "CAN.6_1","province": "NorthwestTerritories","NL_NAME_1": "NA","GID_2": "CAN.6.1_1","county": "FortSmith","NL_NAME_2": "NA","city": "Reliance","VARNAME_3": "NA","NL_NAME_3": "NA","TYPE_3": "Settlement","ENGTYPE_3": "Settlement","CC_3": "NA","HASC_3": "NA","name": "Reliance.city","area_km2": 79.22912,"hist_schema_id": "Elevation0-9000","hist_area_km2": {"150": 60.26058,"175": 8.49331,"200": 6.47222,"225": 2.92467,"250": 0.92295,"275": 0.15539}}}