{"type": "Feature","bbox": [-69.3562,47.6882,-69.0165,47.8784],"geometry": {"type": "MultiPolygon","coordinates": [[[[-69.1453,47.8577,297.6537],[-69.2588,47.7808,393.337],[-69.2508,47.7754,407.3019],[-69.2808,47.7555,383.4373],[-69.3105,47.7761,268.7997],[-69.3562,47.7449,254.0],[-69.3132,47.7445,288.9968],[-69.3133,47.7142,280.6127],[-69.306,47.7143,276.0527],[-69.3092,47.7124,278.3842],[-69.2716,47.6882,360.5291],[-69.2663,47.6919,351.594],[-69.2887,47.7062,268.1895],[-69.2811,47.7115,276.246],[-69.2589,47.6972,338.6241],[-69.1998,47.739,416.9371],[-69.2027,47.7411,399.4509],[-69.1678,47.7394,430.0111],[-69.1243,47.7679,376.3107],[-69.1088,47.7576,342.3576],[-69.0165,47.8222,254.9407],[-69.0469,47.8421,307.6001],[-69.0396,47.8474,280.6552],[-69.0871,47.8784,301.4778],[-69.1162,47.8576,313.7388],[-69.1306,47.8677,265.1197],[-69.1453,47.8577,297.6537]]]]}
,"properties": {"GID_3": "CAN.11.89.12_1","GID_0": "CAN","country": "Canada","GID_1": "CAN.11_1","province": "Québec","NL_NAME_1": "NA","GID_2": "CAN.11.89_1","county": "Rivière-du-Loup","NL_NAME_2": "NA","city": "Saint-Hubert-de-Rivière-du-Loup","VARNAME_3": "NA","NL_NAME_3": "NA","TYPE_3": "Municipalité","ENGTYPE_3": "Municipality","CC_3": "NA","HASC_3": "NA","name": "Saint-Hubert-de-Rivière-du-Loup.city","area_km2": 198.1123,"hist_schema_id": "Elevation0-9000","hist_area_km2": {"250": 0.4276,"275": 15.7064,"300": 26.8994,"325": 45.641,"350": 51.0578,"375": 32.1301,"400": 17.4418,"425": 6.8409,"450": 1.5251999999999999,"475": 0.3992,"500": 0.0428}}}