{"type": "Feature","bbox": [-78.6438,48.7193,-77.987,49.0004],"geometry": {"type": "MultiPolygon","coordinates": [[[[-78.6436,48.7199,337.3102],[-78.4247,48.7193,325.2885],[-78.4248,48.7636,314.4204],[-78.4077,48.7634,307.158],[-78.4078,48.7925,312.2604],[-78.425,48.7926,313.9614],[-78.425,48.9996,318.9778],[-78.6438,49.0002,324.5648],[-78.6436,48.7199,337.3102]]],
[[[-78.2058,48.8668,301.7421],[-78.2058,48.8642,311.1895],[-77.9878,48.8635,313.7874],[-77.987,49.0004,298.9451],[-78.2063,49.0004,297.6272],[-78.2058,48.8668,301.7421]]]]}
,"properties": {"GID_3": "CAN.11.2.8_1","GID_0": "CAN","country": "Canada","GID_1": "CAN.11_1","province": "Québec","NL_NAME_1": "NA","GID_2": "CAN.11.2_1","county": "Abitibi","NL_NAME_2": "NA","city": "Lac-Chicobi","VARNAME_3": "NA","NL_NAME_3": "NA","TYPE_3": "NonOrganisé","ENGTYPE_3": "Unorganized","CC_3": "NA","HASC_3": "NA","name": "Lac-Chicobi.city","area_km2": 743.795,"hist_schema_id": "Elevation0-9000","hist_area_km2": {"275": 36.4647,"300": 289.5916,"325": 335.2919,"350": 73.0804,"375": 7.2861,"400": 1.6055,"425": 0.4469,"450": 0.0279}}}