{"type": "Feature","bbox": [-108.1851,53.4514,-108.069,53.511],"geometry": {"type": "MultiPolygon","coordinates": [[[[-108.0935,53.4824,708.9091],[-108.0939,53.4973,713.2758],[-108.1186,53.4972,717.5211],[-108.1189,53.4826,705.1516],[-108.141,53.4828,698.8862],[-108.1413,53.4792,699.9019],[-108.1432,53.477,694.917],[-108.1417,53.4755,694.917],[-108.1313,53.4746,699.3252],[-108.1284,53.4643,684.0],[-108.1207,53.4641,687.1255],[-108.1176,53.4694,698.2935],[-108.1118,53.4679,684.9653],[-108.11,53.4645,684.7638],[-108.1141,53.456,684.0],[-108.1119,53.4514,684.0],[-108.1056,53.4543,684.0],[-108.1,53.4638,687.155],[-108.0936,53.4646,693.5906],[-108.0809,53.4711,691.7466],[-108.0785,53.4678,689.0565],[-108.0691,53.4678,695.8367],[-108.069,53.4825,717.4628],[-108.0935,53.4824,708.9091]]],
[[[-108.1679,53.4973,691.2467],[-108.1679,53.4941,687.6273],[-108.1658,53.494,689.9482],[-108.1641,53.4897,696.081],[-108.1654,53.487,688.8616],[-108.1681,53.4865,690.7712],[-108.1685,53.4822,695.0182],[-108.1568,53.4822,693.5954],[-108.1503,53.4852,691.646],[-108.151,53.4831,686.9052],[-108.1483,53.4828,693.7795],[-108.1427,53.4846,697.5608],[-108.1431,53.4973,717.8502],[-108.1679,53.4973,691.2467]]],
[[[-108.1826,53.4988,689.2139],[-108.1851,53.4974,699.761],[-108.168,53.4973,691.2467],[-108.1685,53.511,700.4883],[-108.1738,53.511,699.7964],[-108.1785,53.501,697.6627],[-108.1826,53.4988,689.2139]]]]}
,"properties": {"GID_3": "CAN.12.7.51_1","GID_0": "CAN","country": "Canada","GID_1": "CAN.12_1","province": "Saskatchewan","NL_NAME_1": "NA","GID_2": "CAN.12.7_1","county": "DivisionNo.16","NL_NAME_2": "NA","city": "Saulteaux159A","VARNAME_3": "NA","NL_NAME_3": "NA","TYPE_3": "RéserveIndienne","ENGTYPE_3": "IndianReserve","CC_3": "NA","HASC_3": "NA","name": "Saulteaux159_A.city","area_km2": 14.64859,"hist_schema_id": "Elevation0-9000","hist_area_km2": {"675": 2.234,"700": 10.79997,"725": 1.61462}}}