{"type":"Feature","properties":{"GID_3":"CAN.11.68.6_1","GID_0":"CAN","country":"Canada","GID_1":"CAN.11_1","province":"Québec","NL_NAME_1":"NA","GID_2":"CAN.11.68_1","county":"LesMaskoutains","NL_NAME_2":"NA","city":"Saint-DamaseMunicipalitéDePar","VARNAME_3":"NA","NL_NAME_3":"NA","TYPE_3":"MunicipalitéDeParoisse","ENGTYPE_3":"ParishMunicipality","CC_3":"NA","HASC_3":"NA","name":"Saint-Damase_Municipalité_De_Par.city"},
"geometry":{"type": "MultiPolygon","coordinates": [[[[-73.0726,45.476,381.4289],[-73.04,45.4768,237.9149],[-73.0346,45.4919,82.757],[-73.0079,45.4741,35.2025],[-73.0031,45.4792,33.3163],[-72.9588,45.4747,32.9835],[-72.9628,45.4783,33.9074],[-72.9592,45.4831,33.1967],[-72.9631,45.4865,33.0926],[-72.9614,45.4884,33.1922],[-72.9579,45.503,32.9214],[-72.9522,45.5091,32.3874],[-72.9549,45.5121,32.9103],[-72.954,45.517,32.5389],[-72.9509,45.5185,32.0967],[-72.9493,45.5238,31.6696],[-72.9423,45.5231,31.8587],[-72.9529,45.5323,31.7823],[-72.9648,45.5383,32.2881],[-72.968,45.5472,32.5884],[-72.9781,45.5569,28.0914],[-72.9796,45.5611,27.3658],[-73.0032,45.5632,33.9669],[-73.005,45.5697,41.4315],[-73.0511,45.568,34.9217],[-73.0565,45.5369,35.0944],[-73.0625,45.5384,34.8452],[-73.0791,45.5055,33.9207],[-73.0623,45.4936,236.4698],[-73.0726,45.476,381.4289]],
[[-73.0077,45.5412,34.2763],[-72.9911,45.5303,33.4147],[-72.9946,45.5287,33.2208],[-72.9988,45.5233,33.4456],[-73.0023,45.5112,34.2918],[-73.0202,45.5244,34.7053],[-73.0133,45.538,33.5703],[-73.0077,45.5412,34.2763]]]]}}