{"type": "Feature","bbox": [-64.055,46.9397,-64.0136,46.9642],"geometry": {"type": "MultiPolygon","coordinates": [[[[-64.0232,46.9403,1.9199],[-64.0162,46.9455,11.1731],[-64.0162,46.9517,6.347],[-64.0136,46.9615,13.5942],[-64.0293,46.9642,15.5524],[-64.0392,46.9623,24.062],[-64.055,46.9399,12.0626],[-64.0473,46.9414,6.8838],[-64.0467,46.9398,6.8477],[-64.0372,46.9411,2.6859],[-64.0357,46.9397,6.1547],[-64.0308,46.9428,8.0626],[-64.0232,46.9403,1.9199]]]]}
,"properties": {"GID_3": "CAN.10.2.39_1","GID_0": "CAN","country": "Canada","GID_1": "CAN.10_1","province": "PrinceEdwardIsland","NL_NAME_1": "NA","GID_2": "CAN.10.2_1","county": "Prince","NL_NAME_2": "NA","city": "Tignish","VARNAME_3": "NA","NL_NAME_3": "NA","TYPE_3": "Community","ENGTYPE_3": "Community","CC_3": "NA","HASC_3": "NA","name": "Tignish.city","area_km2": 5.716843,"hist_schema_id": "Elevation0-9000","hist_area_km2": {"0": 1.968519,"25": 3.748324}}}