{"type": "Feature","bbox": [-102.8759,49.6463,-102.864,49.6609],"geometry": {"type": "MultiPolygon","coordinates": [[[[-102.8641,49.6468,613.8364],[-102.864,49.6608,610.6418],[-102.8759,49.6609,611.5187],[-102.8759,49.6463,614.2249],[-102.8641,49.6468,613.8364]]]]}
,"properties": {"GID_3": "CAN.12.10.20_1","GID_0": "CAN","country": "Canada","GID_1": "CAN.12_1","province": "Saskatchewan","NL_NAME_1": "NA","GID_2": "CAN.12.10_1","county": "DivisionNo.1","NL_NAME_2": "NA","city": "Forget","VARNAME_3": "NA","NL_NAME_3": "NA","TYPE_3": "Village","ENGTYPE_3": "Village","CC_3": "NA","HASC_3": "NA","name": "Forget.city","area_km2": 1.427548,"hist_schema_id": "Elevation0-9000","hist_area_km2": {"600": 0.617638,"625": 0.80991}}}