{"type":"Feature","properties":{"GID_3":"CAN.11.79.8_1","GID_0":"CAN","country":"Canada","GID_1":"CAN.11_1","province":"Québec","NL_NAME_1":"NA","GID_2":"CAN.11.79_1","county":"Minganie--Basse-Côte-Nord","NL_NAME_2":"NA","city":"Îles-d'Anticosti","VARNAME_3":"NA","NL_NAME_3":"NA","TYPE_3":"Municipalité","ENGTYPE_3":"Municipality","CC_3":"NA","HASC_3":"NA","name":"Îles-d'Anticosti.city"},
"geometry":{"type": "MultiPolygon","coordinates": [[[[-63.2813,49.3153,0.2493],[-63.2813,49.3181,-0.3237],[-63.2881,49.3242,1.6904],[-63.2892,49.3217,0.6904],[-63.2813,49.3153,0.2493]]],
[[[-63.2967,49.3277,-0.6477],[-63.2998,49.3319,-0.5641],[-63.3017,49.3275,-0.6076],[-63.3038,49.3283,-1.5],[-63.3026,49.3266,-0.4254],[-63.2937,49.326,-0.9304],[-63.295,49.3282,-0.8553],[-63.2967,49.3277,-0.6477]]],
[[[-64.1471,49.9513,4.8413],[-64.1496,49.9523,0.0],[-64.1583,49.9506,0.0],[-64.1762,49.9451,10.0474],[-64.2124,49.9481,7.0425],[-64.2375,49.9467,17.522],[-64.2543,49.9418,8.6434],[-64.2597,49.9373,1.7769],[-64.2669,49.936,2.5476],[-64.2867,49.9395,3.5732],[-64.3026,49.9401,6.6282],[-64.3285,49.9339,0.0],[-64.3534,49.9233,4.8999],[-64.382,49.9244,0.0],[-64.4095,49.9174,0.8333],[-64.4247,49.9175,0.0],[-64.4294,49.9153,12.2907],[-64.4419,49.9158,0.0],[-64.4626,49.9134,4.0431],[-64.4685,49.9093,0.0],[-64.4646,49.9087,13.9545],[-64.4717,49.9055,1.724],[-64.4759,49.9063,0.6681],[-64.4911,49.9015,4.4234],[-64.4964,49.8903,5.4795],[-64.5,49.8889,1.3764],[-64.5067,49.8894,0.9707],[-64.5172,49.8829,5.5538],[-64.5201,49.8778,0.0],[-64.5208,49.8685,0.7683],[-64.5238,49.864,0.0],[-64.5128,49.8562,4.2328],[-64.5004,49.851,6.6344],[-64.456,49.8396,4.568],[-64.4438,49.8277,0.7736],[-64.4417,49.8227,0.0],[-64.4234,49.809,2.119],[-64.4197,49.8023,5.3114],[-64.4149,49.7991,0.0],[-64.3915,49.7932,0.0],[-64.3805,49.7925,9.9366],[-64.3786,49.7959,0.0],[-64.3799,49.7998,20.6665],[-64.3845,49.803,10.3426],[-64.387,49.8091,0.0],[-64.3927,49.8126,3.3169],[-64.3916,49.8181,1.7537],[-64.3971,49.8198,1.4884],[-64.3943,49.8204,0.1961],[-64.3905,49.8253,1.0794],[-64.3929,49.8296,1.2174],[-64.3862,49.8313,4.1463],[-64.3745,49.8303,0.3965],[-64.3731,49.8289,3.4399],[-64.3754,49.8268,8.5901],[-64.3748,49.8253,0.8015],[-64.3694,49.8255,4.6194],[-64.3543,49.8219,0.0],[-64.353,49.8208,0.0],[-64.3547,49.8182,0.3239],[-64.3455,49.812,0.0],[-64.3303,49.8089,6.4365],[-64.3282,49.8061,0.0],[-64.3288,49.8025,0.0],[-64.3267,49.7973,0.0],[-64.3278,49.7923,2.8023],[-64.3211,49.783,1.4404],[-64.315,49.7793,6.3798],[-64.2831,49.7673,2.2857],[-64.2785,49.7615,1.3552],[-64.268,49.7565,0.0],[-64.263,49.7579,3.1303],[-64.2499,49.7537,0.3691],[-64.2477,49.7515,0.4602],[-64.2383,49.7507,3.1872],[-64.2344,49.7482,0.0],[-64.2274,49.7482,0.7136],[-64.223,49.7502,0.4687],[-64.2205,49.7459,4.5904],[-64.216,49.7443,2.3216],[-64.1974,49.7382,0.4017],[-64.1949,49.7404,0.0],[-64.1916,49.7387,0.0],[-64.1863,49.7396,5.8003],[-64.1805,49.7346,0.0],[-64.1774,49.7362,0.0],[-64.1777,49.7379,7.12],[-64.1681,49.7371,7.5177],[-64.1643,49.7388,14.014099999999999],[-64.1435,49.7299,0.0],[-64.1252,49.7275,9.2779],[-64.1106,49.7207,0.7403],[-64.1015,49.7193,7.9835],[-64.0959,49.7161,1.3336],[-64.0648,49.7109,2.8901],[-64.0607,49.7122,11.5934],[-64.0556,49.7169,1.0374],[-64.0431,49.7074,6.1426],[-64.0389,49.7058,3.0279],[-64.0152,49.704,10.814],[-64.0121,49.7021,3.461],[-64.0,49.7008,5.5512],[-63.9916,49.6975,6.0543],[-63.9821,49.6973,9.6794],[-63.9622,49.685,0.0],[-63.9446,49.6779,0.9627],[-63.9247,49.675,2.6377],[-63.92,49.6728,2.5412],[-63.9109,49.6645,1.8733],[-63.8961,49.6603,0.0],[-63.8803,49.6525,0.0],[-63.8619,49.6456,11.4818],[-63.8433,49.6428,11.3398],[-63.8267,49.6369,0.2959],[-63.8047,49.618899999999996,6.9019],[-63.7936,49.6133,0.0],[-63.7917,49.6086,0.0],[-63.7881,49.6075,8.6882],[-63.7706,49.59,0.0],[-63.7419,49.5767,0.0],[-63.735,49.5706,15.7977],[-63.6967,49.5561,2.2945],[-63.6844,49.5464,1.4805],[-63.6606,49.5361,12.5693],[-63.6533,49.5297,0.0],[-63.6475,49.5203,0.0],[-63.6414,49.5181,3.7995],[-63.6342,49.5125,24.1164],[-63.6313,49.5031,0.7255],[-63.6206,49.4959,3.3359],[-63.6165,49.4825,0.0],[-63.6141,49.4791,0.0],[-63.6109,49.4786,0.0],[-63.6132,49.4692,0.0],[-63.6204,49.4606,0.0],[-63.6146,49.4499,0.0],[-63.5969,49.4305,19.123],[-63.5776,49.413,0.7491],[-63.575,49.4086,4.0358],[-63.5748,49.4022,7.0134],[-63.5769,49.3967,15.7656],[-63.5893,49.3926,3.6219],[-63.5969,49.3943,0.0],[-63.5978,49.3928,0.9851],[-63.5963,49.3911,1.3925],[-63.5853,49.3866,0.0],[-63.5756,49.3847,0.0],[-63.5722,49.3886,0.0],[-63.5686,49.39,3.3395],[-63.556,49.387,0.4667],[-63.5506,49.3839,1.7709],[-63.54,49.3837,0.0],[-63.5347,49.38,0.0],[-63.5106,49.3758,17.2055],[-63.5039,49.3725,7.1289],[-63.4931,49.3722,6.5839],[-63.49,49.37,0.0],[-63.4886,49.3708,9.9878],[-63.4839,49.3686,0.0],[-63.4663,49.3661,6.4736],[-63.4464,49.3592,3.6596],[-63.4261,49.3575,5.1254],[-63.4139,49.3533,1.9629],[-63.4061,49.3486,0.0],[-63.385,49.3431,4.9729],[-63.3814,49.34,0.0],[-63.3731,49.34,3.9692],[-63.3667,49.3353,0.0],[-63.3606,49.335,0.9527],[-63.3572,49.3369,0.0],[-63.355,49.3328,0.3027],[-63.3467,49.3294,0.4729],[-63.3378,49.3233,0.0],[-63.33,49.3213,0.5929],[-63.32,49.3244,1.7325],[-63.3089,49.3236,0.0],[-63.3078,49.3258,-0.587],[-63.3242,49.3272,-0.0167],[-63.3206,49.3281,0.4355],[-63.3156,49.3328,-0.5108],[-63.3089,49.3361,2.3899],[-63.3053,49.3356,4.7329],[-63.2997,49.3333,2.1741],[-63.2966,49.3291,5.6607],[-63.2939,49.3286,-0.8553],[-63.2791,49.3187,0.5427],[-63.2761,49.3133,2.0527],[-63.2772,49.3117,0.3034],[-63.2753,49.3103,0.3448],[-63.2756,49.3081,0.602],[-63.2696,49.3017,0.0],[-63.2644,49.3033,0.9763],[-63.2556,49.3003,3.2358],[-63.2528,49.2972,2.1802],[-63.2489,49.2964,0.0],[-63.2461,49.2903,0.3835],[-63.2419,49.2881,1.5356],[-63.237,49.2813,3.6472],[-63.2304,49.278,4.056],[-63.225,49.2776,0.6852],[-63.2219,49.2739,2.6992],[-63.2161,49.2742,10.6009],[-63.2081,49.2703,0.0],[-63.2022,49.27,3.9743],[-63.1869,49.2622,4.9159],[-63.1831,49.2586,0.6366],[-63.1644,49.2567,2.1818],[-63.1578,49.2525,0.6726],[-63.1469,49.2497,0.599],[-63.1472,49.2519,1.6759],[-63.1433,49.2517,2.1855],[-63.1411,49.25,0.9711],[-63.1422,49.2483,0.1631],[-63.1353,49.2458,0.1234],[-63.1153,49.2422,9.2277],[-63.1108,49.2397,0.5115],[-63.1072,49.235,0.4235],[-63.0997,49.2319,0.0],[-63.085,49.2292,6.1566],[-63.0808,49.23,10.7055],[-63.0753,49.2256,2.3842],[-63.0692,49.2267,2.2169],[-63.0636,49.225,0.0],[-63.0569,49.2264,2.8247],[-63.0369,49.2197,0.3628],[-63.0336,49.2211,4.9389],[-63.0261,49.2161,2.0462],[-63.0153,49.2128,0.0],[-63.0103,49.2136,0.8783],[-63.0053,49.2108,4.3303],[-62.9933,49.2092,24.3059],[-62.9761,49.2036,0.0],[-62.9642,49.2036,0.1478],[-62.9539,49.2014,2.1057],[-62.9378,49.1953,1.1363],[-62.9344,49.1908,3.0449],[-62.9144,49.1889,2.7914],[-62.8992,49.1908,6.8421],[-62.8811,49.1872,9.5774],[-62.8769,49.185,0.0],[-62.8534,49.1849,1.2444],[-62.8119,49.1728,3.1584],[-62.7942,49.1653,0.0],[-62.7836,49.1656,10.3799],[-62.7717,49.1606,12.9455],[-62.7581,49.1581,0.0],[-62.7289,49.1547,0.0],[-62.7204,49.1562,2.8117],[-62.7086,49.1531,1.6642],[-62.6798,49.1497,0.693],[-62.6772,49.1511,2.4027],[-62.6744,49.1489,2.5718],[-62.6761,49.1478,0.5118],[-62.6742,49.1464,0.442],[-62.6621,49.1462,1.5511],[-62.6558,49.1433,0.0],[-62.6477,49.1453,0.0],[-62.6281,49.1436,0.0],[-62.6066,49.1453,0.2641],[-62.6037,49.1437,2.632],[-62.6039,49.1419,0.0],[-62.5878,49.1375,3.9435],[-62.5789,49.1361,0.0],[-62.5731,49.1375,4.7617],[-62.5617,49.1336,0.0],[-62.5494,49.135,0.0],[-62.5453,49.1367,0.0],[-62.5421,49.1424,2.7963],[-62.5386,49.1408,0.0],[-62.5361,49.1425,1.2286],[-62.5389,49.1394,1.2514],[-62.5392,49.1344,0.5396],[-62.5292,49.1325,2.4283],[-62.5206,49.1342,2.2178],[-62.5153,49.1311,0.0],[-62.5097,49.1317,0.1625],[-62.5086,49.1336,0.4603],[-62.5026,49.1305,1.1548],[-62.4969,49.1322,2.2347],[-62.493899999999996,49.13,3.199],[-62.4964,49.1267,1.9808],[-62.4947,49.1222,0.0],[-62.4928,49.1214,0.7094],[-62.4836,49.1228,0.0],[-62.48,49.1289,1.9235],[-62.4639,49.12,0.2254],[-62.4506,49.1178,1.9401],[-62.4386,49.1097,1.5487],[-62.41,49.105,0.0],[-62.3953,49.1056,7.8856],[-62.3878,49.0994,1.7079],[-62.3778,49.0967,0.0],[-62.3645,49.0974,2.3853],[-62.3509,49.0951,0.2308],[-62.3283,49.0881,0.2257],[-62.3197,49.0875,4.6321],[-62.3158,49.0858,3.3859],[-62.3188,49.0858,0.3684],[-62.3179,49.0851,0.0],[-62.3078,49.0812,0.1432],[-62.3139,49.0846,1.2415],[-62.3095,49.0839,0.7749],[-62.3053,49.0792,1.0494],[-62.2931,49.0784,0.2473],[-62.2897,49.0764,0.4264],[-62.2731,49.0731,1.7869],[-62.2658,49.0675,6.6331],[-62.2506,49.0626,0.0],[-62.2494,49.0628,0.0],[-62.2514,49.0642,0.2683],[-62.2484,49.0679,0.5502],[-62.2447,49.0642,2.9172],[-62.2453,49.0622,0.7343],[-62.21,49.0703,0.0],[-62.2095,49.073,1.1756],[-62.1997,49.0722,8.3278],[-62.1956,49.0703,0.0],[-62.1844,49.0731,0.9693],[-62.1786,49.0703,0.0],[-62.1653,49.0717,0.0],[-62.1625,49.0736,0.6449],[-62.1569,49.0714,1.3821],[-62.1508,49.0714,0.5767],[-62.1322,49.0739,2.8749],[-62.1156,49.0708,0.7717],[-62.1119,49.0728,1.8986],[-62.1006,49.0728,0.912],[-62.0889,49.0761,2.0203],[-62.0827,49.0761,0.0],[-62.0708,49.0728,0.3731],[-62.0675,49.0678,0.0],[-62.0661,49.0683,0.351],[-62.0674,49.0739,0.5259],[-62.0831,49.0769,0.0],[-62.0906,49.0769,1.8816],[-62.0914,49.0797,5.4797],[-62.0861,49.0839,1.2027],[-62.0839,49.0836,0.0],[-62.0822,49.0794,0.3767],[-62.0774,49.0765,0.3188],[-62.0756,49.0761,0.6386],[-62.0725,49.0792,2.9815],[-62.0692,49.0786,0.2986],[-62.0647,49.0694,0.5184],[-62.0533,49.0764,-0.1447],[-62.0586,49.0781,2.2665],[-62.0567,49.0792,1.4889],[-62.0525,49.0769,-0.1447],[-62.0542,49.0731,0.674],[-62.04,49.0719,0.0],[-62.0292,49.0675,1.6819],[-62.0203,49.0683,1.0069],[-62.0153,49.0671,3.0022],[-62.0103,49.0692,0.4387],[-62.005,49.075,2.6203],[-61.9967,49.0767,1.0104],[-61.9901,49.0742,2.7729],[-61.9747,49.0733,0.5712],[-61.9633,49.0678,1.2538],[-61.9585,49.0672,0.998],[-61.9431,49.0697,0.0],[-61.9347,49.0733,0.5844],[-61.9331,49.0756,1.6735],[-61.9295,49.0751,0.0897],[-61.9078,49.0816,0.5232],[-61.8911,49.0742,1.6608],[-61.8824,49.0757,2.4841],[-61.8742,49.0744,0.9194],[-61.8658,49.0708,1.3677],[-61.8437,49.0709,0.4286],[-61.8373,49.0695,0.8552],[-61.8333,49.0719,-0.0926],[-61.8302,49.0718,-0.219],[-61.8295,49.0679,2.2997],[-61.8346,49.0686,0.2788],[-61.8295,49.0636,0.0],[-61.826,49.063,0.0],[-61.8174,49.0673,0.0],[-61.8148,49.0745,0.3133],[-61.812,49.0769,0.2443],[-61.7969,49.0786,0.0],[-61.7869,49.0767,0.0],[-61.7755,49.0856,8.2668],[-61.7701,49.0872,1.632],[-61.7494,49.0886,0.0],[-61.7428,49.0876,0.4646],[-61.7355,49.09,0.2868],[-61.7217,49.0876,0.4214],[-61.7203,49.0894,1.1237],[-61.7174,49.0891,1.3912],[-61.7176,49.087,0.1609],[-61.7114,49.0825,0.8829],[-61.7053,49.0825,0.6017],[-61.7006,49.0844,2.6233],[-61.7,49.0869,0.6126],[-61.7039,49.0922,0.0],[-61.7133,49.0933,4.733],[-61.7139,49.0978,8.5999],[-61.71,49.1,0.0],[-61.7088,49.1035,3.7247],[-61.7007,49.1121,4.9571],[-61.6946,49.1168,0.0],[-61.6782,49.1245,7.3646],[-61.6772,49.1286,0.0],[-61.6685,49.134,0.0],[-61.6687,49.1394,0.0],[-61.6736,49.1439,0.0],[-61.6839,49.1484,0.0],[-61.6938,49.1493,0.0],[-61.6991,49.1517,19.4055],[-61.7036,49.1605,0.0],[-61.7116,49.1704,0.0],[-61.7113,49.1768,3.8251],[-61.7148,49.181,0.0],[-61.7181,49.195,0.0],[-61.7207,49.1985,2.582],[-61.7275,49.2041,2.2635],[-61.7356,49.2075,2.2787],[-61.7446,49.2064,8.2432],[-61.7499,49.2086,16.9505],[-61.7548,49.213,2.6229],[-61.7562,49.2206,0.0],[-61.7635,49.2333,0.0],[-61.7784,49.2412,0.0],[-61.7907,49.2433,3.733],[-61.8049,49.2551,7.7353],[-61.806399999999996,49.2587,1.4203],[-61.8058,49.2622,0.63],[-61.8003,49.2689,0.0],[-61.8036,49.2775,0.4388],[-61.8092,49.28,2.8998],[-61.8192,49.2811,4.0035],[-61.8295,49.2799,8.2878],[-61.8442,49.2819,1.0277],[-61.8449,49.2847,2.9234],[-61.8419,49.289,1.7407],[-61.8389,49.2888,3.909],[-61.8284,49.2944,6.5021],[-61.8341,49.3038,0.0],[-61.8326,49.3132,6.3347],[-61.8463,49.3154,15.4138],[-61.8614,49.3225,0.0],[-61.8675,49.3226,8.3313],[-61.8761,49.3253,23.0325],[-61.8862,49.3323,0.8054],[-61.8875,49.3396,0.0],[-61.8915,49.3435,8.3607],[-61.8957,49.3521,0.0],[-61.9099,49.3535,2.0899],[-61.9284,49.3492,6.2129],[-61.9431,49.3505,0.0],[-61.9481,49.3491,0.0],[-61.9517,49.3459,0.0],[-61.9678,49.3446,10.8678],[-61.9751,49.3493,0.0],[-61.977,49.3565,18.0985],[-61.9734,49.3639,0.0],[-61.977,49.3676,3.1944],[-62.0003,49.3714,8.161],[-62.0061,49.3706,6.0086],[-62.0147,49.3728,10.9029],[-62.0278,49.3819,12.0521],[-62.0406,49.3867,13.8951],[-62.0628,49.3869,18.0349],[-62.0789,49.3778,18.4491],[-62.0922,49.3778,8.5327],[-62.1119,49.3842,0.0],[-62.1214,49.3928,0.6644],[-62.1306,49.3969,33.0334],[-62.1358,49.4019,33.8654],[-62.1428,49.4039,0.0],[-62.1469,49.4039,0.0],[-62.1511,49.4008,5.6743],[-62.1639,49.3964,11.9401],[-62.1781,49.3964,6.9725],[-62.1847,49.3986,11.1777],[-62.1931,49.4053,8.0908],[-62.2131,49.4108,7.9692],[-62.2208,49.4178,0.0],[-62.243899999999996,49.4203,0.4497],[-62.2506,49.4267,6.785],[-62.2494,49.4297,4.2329],[-62.2508,49.4347,10.3016],[-62.2489,49.4397,13.4079],[-62.2519,49.446,24.7213],[-62.253,49.4552,0.0],[-62.2628,49.4583,17.7471],[-62.2753,49.46,52.2495],[-62.2886,49.4681,11.2218],[-62.2975,49.4672,0.0],[-62.3069,49.4642,0.0],[-62.3183,49.4667,13.6278],[-62.3236,49.4697,0.7072],[-62.3289,49.4761,13.452],[-62.3254,49.4835,0.0],[-62.3342,49.4842,12.1981],[-62.3489,49.4908,27.9858],[-62.3725,49.4894,11.7733],[-62.3878,49.4842,2.6201],[-62.3981,49.4856,1.7025],[-62.4153,49.4942,6.0143],[-62.4186,49.4983,8.6634],[-62.4206,49.5019,0.3826],[-62.415,49.5094,18.5436],[-62.4317,49.5089,16.8767],[-62.4367,49.5111,1.045],[-62.4417,49.5186,1.1144],[-62.4412,49.5217,60.1072],[-62.4373,49.5267,24.5556],[-62.4514,49.5272,0.0],[-62.4606,49.5331,14.7145],[-62.4617,49.5358,3.5407],[-62.4589,49.5394,5.7882],[-62.4447,49.5431,0.0],[-62.442,49.546,7.1351],[-62.4744,49.5567,18.9787],[-62.4772,49.5589,5.8458],[-62.4789,49.5664,29.7044],[-62.4828,49.5697,22.264],[-62.4903,49.5736,75.5587],[-62.5017,49.5744,44.0199],[-62.5081,49.5772,0.0],[-62.5119,49.5822,7.9411],[-62.5134,49.5882,49.8778],[-62.5242,49.5914,28.7139],[-62.5472,49.5939,3.2037],[-62.5533,49.5978,7.5714],[-62.5623,49.6079,0.0],[-62.5706,49.6078,15.6738],[-62.5775,49.605,28.5295],[-62.5983,49.6158,0.0],[-62.6256,49.6203,65.7419],[-62.6367,49.6186,30.6049],[-62.6431,49.6206,7.6718],[-62.6531,49.6292,2.7761],[-62.6658,49.6325,2.9819],[-62.6692,49.6411,0.0],[-62.6858,49.6425,4.9997],[-62.6894,49.6442,4.5043],[-62.6956,49.6556,0.0],[-62.7003,49.6597,0.0],[-62.7244,49.6603,89.5432],[-62.7608,49.6578,6.8783],[-62.7703,49.6622,0.0],[-62.775,49.6658,12.1952],[-62.7772,49.6706,1.3029],[-62.7847,49.675,8.2648],[-62.7997,49.6794,10.3649],[-62.8053,49.6831,7.8261],[-62.8475,49.6897,4.6112],[-62.8492,49.6906,9.7652],[-62.8533,49.7017,10.398],[-62.8847,49.7014,24.9427],[-62.8986,49.705,28.4726],[-62.9158,49.705,32.8387],[-62.9258,49.7083,16.2957],[-62.9353,49.7172,22.46],[-62.9342,49.7228,7.5275],[-62.9372,49.7281,12.4044],[-62.945,49.7328,6.92],[-63.0021,49.7333,4.9577],[-63.0074,49.7369,6.1947],[-63.0076,49.7426,2.9276],[-63.0111,49.7508,0.0],[-63.0142,49.7526,3.2174],[-63.0257,49.7543,0.0],[-63.0512,49.7533,11.0606],[-63.057,49.7555,2.8265],[-63.0631,49.7615,0.3581],[-63.0759,49.7633,16.6365],[-63.0814,49.7671,0.0],[-63.1281,49.7726,5.2685],[-63.1411,49.7753,25.1028],[-63.1537,49.7821,0.0],[-63.2163,49.7904,52.9797],[-63.2274,49.7941,2.9991],[-63.2428,49.796,13.4344],[-63.257,49.8012,5.0906],[-63.2915,49.8059,10.6454],[-63.3091,49.8118,2.5997],[-63.3113,49.8105,3.0784],[-63.3294,49.8128,9.4884],[-63.3799,49.8266,13.0825],[-63.4208,49.8296,9.5145],[-63.4808,49.8383,15.7638],[-63.5507,49.8413,13.2181],[-63.5756,49.8476,4.6668],[-63.5931,49.8503,22.8503],[-63.6105,49.8484,15.9052],[-63.6237,49.8487,24.6514],[-63.6428,49.8525,0.0],[-63.6643,49.8534,16.9305],[-63.6768,49.8557,0.9397],[-63.7031,49.8645,3.9012],[-63.7431,49.8724,0.0],[-63.759,49.8732,9.9019],[-63.7839,49.8717,15.1824],[-63.8289,49.8809,0.0],[-63.854,49.8797,6.1106],[-63.8701,49.8765,12.6077],[-63.8922,49.8848,10.7082],[-63.9208,49.8862,13.5933],[-63.9421,49.8983,23.4221],[-63.9546,49.9026,5.048],[-63.9677,49.9136,0.0],[-63.9764,49.9146,23.2565],[-63.988,49.9192,0.0],[-64.0113,49.9196,11.1911],[-64.024,49.9256,1.3189],[-64.0477,49.9307,0.0],[-64.0538,49.9309,2.1597],[-64.0769,49.9263,7.7132],[-64.105,49.9391,0.0],[-64.1471,49.9513,4.8413]]]]}}