{"type":"Feature","properties":{"GID_3":"CAN.12.4.17_1","GID_0":"CAN","country":"Canada","GID_1":"CAN.12_1","province":"Saskatchewan","NL_NAME_1":"NA","GID_2":"CAN.12.4_1","county":"DivisionNo.13","NL_NAME_2":"NA","city":"Kerrobert","VARNAME_3":"NA","NL_NAME_3":"NA","TYPE_3":"Town","ENGTYPE_3":"Town","CC_3":"NA","HASC_3":"NA","name":"Kerrobert.city"},
"geometry":{"type": "MultiPolygon","coordinates": [[[[-109.1226,51.9324,660.4791],[-109.1347,51.9324,666.6437],[-109.1347,51.9398,668.111],[-109.1473,51.9397,675.7812],[-109.1478,51.9326,676.146],[-109.159,51.9325,683.8267],[-109.1587,51.9107,709.7562],[-109.1362,51.9108,697.1396],[-109.1361,51.9033,696.8877],[-109.123,51.9033,695.1158],[-109.1226,51.9324,660.4791]]]]}}