{"type": "Feature","bbox": [-75.6417,45.7043,-75.4894,45.846],"geometry": {"type": "MultiPolygon","coordinates": [[[[-75.4894,45.7066,145.2914],[-75.4971,45.7522,270.8845],[-75.5,45.7916,265.1784],[-75.5106,45.846,324.891],[-75.5411,45.8434,170.5],[-75.5584,45.8393,313.2894],[-75.6417,45.8332,178.8597],[-75.631,45.8155,164.3348],[-75.615,45.8056,136.9462],[-75.6044,45.7825,133.7154],[-75.5964,45.7759,148.4039],[-75.5896,45.7671,131.0],[-75.5909,45.7628,143.9731],[-75.5822,45.7594,138.2635],[-75.5795,45.7564,133.3716],[-75.5814,45.7442,145.725],[-75.5923,45.728,146.5318],[-75.5909,45.7218,149.9196],[-75.5865,45.718,167.7567],[-75.5666,45.7152,136.5192],[-75.5516,45.7078,141.4606],[-75.5385,45.7076,135.3107],[-75.5291,45.7043,131.4281],[-75.4894,45.7066,145.2914]]]]}
,"properties": {"GID_3": "CAN.11.63.5_1","GID_0": "CAN","country": "Canada","GID_1": "CAN.11_1","province": "Québec","NL_NAME_1": "NA","GID_2": "CAN.11.63_1","county": "LesCollines-de-l'Outaouais","NL_NAME_2": "NA","city": "Notre-Dame-de-la-Salette","VARNAME_3": "NA","NL_NAME_3": "NA","TYPE_3": "Municipalité","ENGTYPE_3": "Municipality","CC_3": "NA","HASC_3": "NA","name": "Notre-Dame-de-la-Salette.city","area_km2": 117.01021,"hist_schema_id": "Elevation0-9000","hist_area_km2": {"125": 2.50007,"150": 13.66859,"175": 16.94184,"200": 19.17812,"225": 19.7423,"250": 20.74727,"275": 13.86912,"300": 7.53951,"325": 2.52778,"350": 0.29561}}}