{"type": "Feature","bbox": [-58.7275,48.5511,-58.6251,48.6119],"geometry": {"type": "MultiPolygon","coordinates": [[[[-58.6777,48.6119,1.5865],[-58.6864,48.6047,0.8696],[-58.6867,48.6002,10.7152],[-58.6908,48.5917,6.0288],[-58.7033,48.5739,5.621],[-58.7103,48.5681,5.0501],[-58.7131,48.5619,20.8422],[-58.7239,48.5597,0.1374],[-58.7222,48.5578,25.0472],[-58.7275,48.5553,0.1325],[-58.7197,48.5556,21.6337],[-58.7039,48.5511,6.9743],[-58.6953,48.5536,0.0],[-58.684,48.5539,6.6168],[-58.677,48.5661,91.8647],[-58.6634,48.5707,139.4468],[-58.6506,48.5782,93.9692],[-58.6366,48.5933,145.3778],[-58.6251,48.6013,153.3087],[-58.6537,48.6016,262.179],[-58.6777,48.6119,1.5865]]]]}
,"properties": {"GID_3": "CAN.5.6.10_1","GID_0": "CAN","country": "Canada","GID_1": "CAN.5_1","province": "NewfoundlandandLabrador","NL_NAME_1": "NA","GID_2": "CAN.5.6_1","county": "DivisionNo.4","NL_NAME_2": "NA","city": "PortauPortEast","VARNAME_3": "NA","NL_NAME_3": "NA","TYPE_3": "Town","ENGTYPE_3": "Town","CC_3": "NA","HASC_3": "NA","name": "Portau_Port_East.city","area_km2": 19.97367,"hist_schema_id": "Elevation0-9000","hist_area_km2": {"0": 0.68732,"25": 2.60904,"50": 2.06226,"75": 1.27658,"100": 1.09417,"125": 0.99593,"150": 0.92573,"175": 1.0099,"200": 0.7995,"225": 0.92572,"250": 0.8696,"275": 1.15012,"300": 1.33249,"325": 1.38843,"350": 2.52432,"375": 0.32256}}}