{"type": "Feature","bbox": [-122.2887,49.6999,-121.0859,50.1267],"geometry": {"type": "MultiPolygon","coordinates": [[[[-121.5456,50.0525,132.7963],[-121.5655,50.0526,757.2579],[-121.5906,50.05,1534.2994],[-121.6102,50.0423,1753.9659],[-121.6266,50.0513,1583.4363],[-121.6358,50.054,1597.6046],[-121.6375,50.0591,1617.9442],[-121.6415,50.0586,1612.0128],[-121.6539,50.0613,1693.4678],[-121.656,50.0638,1732.6836],[-121.6617,50.0654,1743.6392],[-121.6551,50.0717,1877.0299],[-121.6581,50.0761,1841.9622],[-121.6585,50.0799,1839.6654],[-121.6627,50.0814,1908.02],[-121.6762,50.0787,1735.3871],[-121.682,50.079,1778.0056],[-121.6873,50.076,1836.1204],[-121.7031,50.0753,1813.3743],[-121.7052,50.0766,1810.3783],[-121.7073,50.0822,1884.949],[-121.715,50.0866,2025.7451],[-121.7375,50.0883,1817.1851],[-121.7538,50.0927,2070.3799],[-121.7782,50.0887,1910.4601],[-121.794,50.0904,2100.1272],[-121.8015,50.0855,2256.7312],[-121.8085,50.0837,2469.8232],[-121.8232,50.0813,2270.0107],[-121.8296,50.0788,2089.1938],[-121.8368,50.0791,1972.7227],[-121.8483,50.0766,2070.6079],[-121.8497,50.0756,2070.6079],[-121.8488,50.0734,2025.3821],[-121.8531,50.0691,2094.5562],[-121.8488,50.0627,2262.4919],[-121.8561,50.0578,1996.369],[-121.8512,50.0531,2207.0911],[-121.8559,50.0508,2211.936],[-121.8587,50.0467,2387.7637],[-121.8632,50.0471,2387.5737],[-121.873,50.0519,2247.7207],[-121.896,50.05,2107.7969],[-121.9006,50.0534,2228.116],[-121.9041,50.0525,2295.2625],[-121.9106,50.0551,2403.4243],[-121.9129,50.0635,2350.2908],[-121.9201,50.0721,2499.7668],[-121.925,50.0723,2548.6533],[-121.9282,50.0746,2528.1646],[-121.9351,50.0745,2672.8789],[-121.936,50.0776,2625.845],[-121.9398,50.0792,2577.916],[-121.9482,50.0787,2454.9177],[-121.9509,50.0799,2496.3911],[-121.9524,50.083,2439.7947],[-121.9508,50.0887,2510.0059],[-121.9536,50.091,2601.2683],[-121.9565,50.0911,2638.6279],[-121.9596,50.085,2502.1379],[-121.9647,50.0829,2487.8879],[-121.9726,50.0838,2317.8643],[-121.9813,50.0804,2580.4338],[-121.9905,50.0822,2529.9961],[-121.9925,50.0847,2504.8457],[-121.9978,50.0847,2525.0081],[-122.0013,50.0879,2617.741],[-122.0048,50.0879,2559.1011],[-122.0057,50.0858,2553.9971],[-122.0105,50.0845,2524.3547],[-122.0238,50.0862,2502.2998],[-122.0316,50.0943,2506.7207],[-122.0399,50.0956,2420.4849],[-122.0423,50.0991,2259.6133],[-122.0522,50.1046,2339.9175],[-122.0571,50.1097,2163.2676],[-122.0564,50.1151,2094.1833],[-122.0675,50.1216,2129.3718],[-122.0662,50.1229,1978.4229],[-122.0702,50.1267,2208.9014],[-122.0838,50.1213,2206.3164],[-122.096,50.1251,2152.24],[-122.0991,50.1246,2209.2793],[-122.1033,50.1222,2151.405],[-122.1065,50.1166,2112.1648],[-122.1143,50.1134,2252.9014],[-122.1164,50.1076,2328.219],[-122.1311,50.1126,2372.9658],[-122.1459,50.11,2310.373],[-122.1507,50.1115,2348.3774],[-122.1532,50.1148,2387.0654],[-122.17,50.1132,2396.2781],[-122.1787,50.1098,2577.0151],[-122.2045,50.111,2351.3743],[-122.2109,50.109,2405.9246],[-122.2222,50.1111,2404.9407],[-122.2298,50.1108,2476.583],[-122.2387,50.1027,2107.499],[-122.2444,50.0942,2179.0818],[-122.2543,50.0922,2021.7795],[-122.2744,50.0844,1697.8896],[-122.2787,50.0779,1941.709],[-122.279,50.0694,1859.7317],[-122.2878,50.0627,2001.135],[-122.2887,50.06,1974.3297],[-122.2883,50.0518,2152.4614],[-122.272,50.0489,2086.4082],[-122.2599,50.0436,1730.3679],[-122.2546,50.0356,1780.8693],[-122.2556,50.0243,1940.9469],[-122.2602,50.0172,2082.7795],[-122.2572,50.0106,2127.5608],[-122.2605,50.0033,2079.4502],[-122.2487,49.9849,2264.8982],[-122.2484,49.9799,2190.4304],[-122.2639,49.9752,2228.884],[-122.2703,49.9633,2109.5061],[-122.2391,49.9411,2100.405],[-122.2365,49.9371,2138.2729],[-122.2345,49.9263,1959.2064],[-122.2257,49.9203,1926.1393],[-122.2072,49.9125,2107.6294],[-122.19,49.9109,2092.9741],[-122.1805,49.9083,1913.0981],[-122.163,49.9095,1751.4216],[-122.1587,49.907,1518.9375],[-122.1459,49.8914,1855.3727],[-122.1367,49.8862,1854.9753],[-122.1303,49.8737,1864.052],[-122.1043,49.8485,2102.4343],[-122.0964,49.8463,2055.5347],[-122.0918,49.8409,2009.3206],[-122.0785,49.8379,2029.5933],[-122.0694,49.8316,1961.2859],[-122.0614,49.8357,1629.2373],[-122.0521,49.8377,1737.6016],[-122.043,49.8357,1965.1025],[-122.0493,49.8294,1820.818],[-122.0469,49.8225,2010.9651],[-122.0392,49.817,1995.1434],[-122.0196,49.816,2058.124],[-122.0118,49.8187,2086.5698],[-121.9918,49.8199,2165.4939],[-121.9875,49.832,1937.2419],[-121.9685,49.8362,2041.9163],[-121.966,49.8382,2034.3601],[-121.965,49.8406,1983.0665],[-121.9667,49.8441,1961.6301],[-121.9724,49.8495,2181.0598],[-121.9652,49.8587,2042.8547],[-121.9602,49.8601,2015.8363],[-121.9478,49.8556,1963.4777],[-121.941,49.8563,1740.1091],[-121.9313,49.8601,1748.0392],[-121.9295,49.8649,1775.6678],[-121.9264,49.8677,1838.2068],[-121.9143,49.8699,1662.4814],[-121.9091,49.8731,1610.2246],[-121.9056,49.8735,1670.7994],[-121.8976,49.8709,1624.3512],[-121.8878,49.8715,1494.4791],[-121.8757,49.8698,1481.3794],[-121.8708,49.872,1282.9878],[-121.8692,49.8776,1525.9973],[-121.8579,49.88,1475.8862],[-121.835,49.87,1619.1522],[-121.8365,49.8672,1594.4867],[-121.8453,49.8605,1702.9276],[-121.844,49.8586,1628.9945],[-121.8287,49.8539,1342.0934],[-121.8169,49.8549,1704.8888],[-121.8131,49.8534,1717.1909],[-121.8042,49.8445,1728.209],[-121.7932,49.8405,1749.1864],[-121.787,49.8441,1704.1136],[-121.7851,49.8509,1602.5919],[-121.7779,49.8551,1485.3335],[-121.7803,49.8609,1757.8344],[-121.7754,49.8681,1722.5168],[-121.7691,49.8719,1846.5684],[-121.7607,49.8715,1833.9924],[-121.7554,49.864,1621.4325],[-121.7584,49.8518,1635.7965],[-121.7566,49.8502,1504.1808],[-121.7416,49.8507,1222.2075],[-121.729,49.8485,1897.3679],[-121.7254,49.8415,1880.8085],[-121.7281,49.8367,1997.0073],[-121.7272,49.8353,1943.0327],[-121.7126,49.8232,1962.8673],[-121.7138,49.8212,2023.3903],[-121.7296,49.8156,1903.5056],[-121.7312,49.8126,2053.3008],[-121.7318,49.8027,1795.0563],[-121.7291,49.7974,1662.6443],[-121.7202,49.7917,1694.6091],[-121.7097,49.7933,1880.5908],[-121.7053,49.7911,1634.8533],[-121.7043,49.7854,1775.2766],[-121.7081,49.7796,1839.6152],[-121.7047,49.7738,1734.0284],[-121.7077,49.771,1719.5242],[-121.7133,49.7702,1744.7878],[-121.7148,49.7643,1826.6438],[-121.7113,49.7586,1714.7112],[-121.7117,49.7517,1679.884],[-121.7088,49.7466,1535.3737],[-121.7337,49.7351,1788.072],[-121.7174,49.7273,1291.7129],[-121.6994,49.7151,1304.8839],[-121.6974,49.7054,1446.0139],[-121.7011,49.701,1718.1292],[-121.5107,49.7024,1478.9348],[-121.1441,49.6999,1837.4452],[-121.1498,49.7061,1849.5474],[-121.155,49.709,1950.2185],[-121.1551,49.7159,1988.3237],[-121.1573,49.7176,2009.1801],[-121.1618,49.7174,2014.5859],[-121.1674,49.7222,1982.9194],[-121.1724,49.7221,1926.7769],[-121.174,49.7239,1894.8357],[-121.1779,49.7236,1929.5114],[-121.1855,49.7266,1879.3585],[-121.1913,49.7326,1752.0236],[-121.1935,49.7362,1728.0857],[-121.1931,49.741,1741.6241],[-121.198,49.7434,1878.4971],[-121.1952,49.7473,1814.626],[-121.1971,49.7549,1747.2076],[-121.2006,49.7579,1860.6283],[-121.2033,49.7659,1791.0892],[-121.2107,49.7702,1670.3995],[-121.2118,49.7795,1676.6321],[-121.2064,49.784,1634.0464],[-121.2023,49.7909,1652.0668],[-121.1877,49.7988,1807.5151],[-121.1832,49.8057,1795.7544],[-121.1873,49.81,1715.5706],[-121.1881,49.8133,1763.8887],[-121.18,49.8221,1946.3638],[-121.1636,49.823,1853.0278],[-121.1549,49.8216,1789.7045],[-121.1454,49.8259,1666.8411],[-121.1185,49.8265,1470.3835],[-121.1089,49.8294,1499.3805],[-121.1029,49.8333,1463.8804],[-121.1027,49.8352,1452.0356],[-121.1167,49.8462,1416.272],[-121.0912,49.8565,1407.4451],[-121.0859,49.8547,1423.5133],[-121.0881,49.8595,1390.9585],[-121.0924,49.8628,1388.0782],[-121.0972,49.8733,1393.3098],[-121.107,49.867,1464.0028],[-121.1182,49.8673,1352.8708],[-121.1304,49.8623,1296.8778],[-121.1431,49.8604,1372.067],[-121.1601,49.8603,1360.5447],[-121.1724,49.8626,1333.2845],[-121.1736,49.8668,1143.0166],[-121.1714,49.8741,1312.3236],[-121.1641,49.8819,1402.0735],[-121.1573,49.8862,1461.6035],[-121.1585,49.8883,1469.5269],[-121.1677,49.8864,1493.441],[-121.1711,49.8837,1500.8552],[-121.1813,49.8837,1466.3845],[-121.1959,49.8874,1520.77],[-121.2079,49.8947,1699.0409],[-121.2199,49.8951,1737.6104],[-121.226,49.891,1677.2034],[-121.2304,49.8828,1681.4371],[-121.2351,49.8832,1598.1158],[-121.2402,49.8801,1706.7972],[-121.2602,49.8768,1719.0095],[-121.263,49.8719,1708.014],[-121.2652,49.8713,1708.9812],[-121.2857,49.8728,1746.3177],[-121.3009,49.8846,1490.0344],[-121.3116,49.8831,1560.2971],[-121.3175,49.8833,1820.7618],[-121.3197,49.8848,1857.1343],[-121.321,49.8872,1894.823],[-121.3163,49.8939,1880.4087],[-121.3198,49.8982,1774.9359],[-121.3239,49.8999,1819.7244],[-121.3234,49.9014,1867.7891],[-121.3192,49.903,1712.2997],[-121.3151,49.9073,1813.5142],[-121.3154,49.9122,1922.6232],[-121.3125,49.9132,1821.5935],[-121.2995,49.9117,1679.8065],[-121.2935,49.9141,1894.2491],[-121.2891,49.9186,1843.426],[-121.2862,49.9273,1892.5095],[-121.2861,49.9408,1895.1398],[-121.2879,49.9455,1853.731],[-121.2823,49.9523,1791.5435],[-121.2841,49.9579,1878.9385],[-121.2832,49.96,1888.2258],[-121.2687,49.9626,1988.4855],[-121.2673,49.9641,2002.51],[-121.2709,49.9688,2030.9683],[-121.271,49.9731,2057.1865],[-121.2684,49.9742,2154.4685],[-121.2684,49.976,2152.2051],[-121.2772,49.9829,2186.2493],[-121.2775,49.9847,2229.6174],[-121.2726,49.987,2169.7156],[-121.2728,49.9889,2062.0293],[-121.2807,49.9921,2025.4465],[-121.2833,49.9956,1959.099],[-121.2921,50.0003,2018.9275],[-121.2919,50.0024,2017.1724],[-121.2878,50.0049,2062.6155],[-121.2874,50.008,2091.6936],[-121.29,50.0114,2109.5962],[-121.3015,50.0173,2103.8159],[-121.3032,50.0209,2147.5791],[-121.3176,50.0284,2032.3702],[-121.3207,50.0325,2049.0693],[-121.3246,50.0333,2075.4297],[-121.3278,50.038,2062.24],[-121.3227,50.044,1976.752],[-121.3239,50.0464,1991.9485],[-121.316,50.0503,1920.825],[-121.3148,50.0527,1872.8778],[-121.5408,50.0524,305.5648],[-121.5385,50.0514,273.4925],[-121.5368,50.0451,231.5622],[-121.5333,50.0441,449.1073],[-121.5333,50.0387,257.1302],[-121.5353,50.0386,206.4447],[-121.5456,50.0525,132.7963]],
[[-121.4725,49.9805,528.3394],[-121.4723,49.9679,421.528],[-121.4775,49.9678,385.5785],[-121.478,49.9746,410.1882],[-121.4982,49.9723,297.0817],[-121.4985,49.9788,324.9406],[-121.4937,49.9801,333.4634],[-121.4989,49.9849,308.3725],[-121.4723,49.9836,560.9605],[-121.4725,49.9805,528.3394]],
[[-121.4321,49.8306,138.1895],[-121.4346,49.8411,105.3964],[-121.4309,49.8388,137.9365],[-121.4265,49.839,185.5702],[-121.4298,49.8377,186.5154],[-121.4302,49.8349,220.3215],[-121.425,49.834,417.8393],[-121.4243,49.8225,438.875],[-121.4313,49.8227,96.5],[-121.4321,49.8306,138.1895]],
[[-121.4476,49.9095,145.7378],[-121.4494,49.9095,102.6102],[-121.45,49.9127,158.2621],[-121.4391,49.9126,293.3807],[-121.439,49.9096,222.6489],[-121.4476,49.9095,145.7378]],
[[-121.4851,49.937,356.7093],[-121.4965,49.9361,572.6289],[-121.496,49.9433,533.7126],[-121.4852,49.9432,311.1528],[-121.4851,49.937,356.7093]],
[[-121.508,49.9901,222.3447],[-121.5102,49.9899,158.1177],[-121.5097,49.9983,210.2445],[-121.5113,50.004,236.6354],[-121.5166,50.0091,210.0768],[-121.5048,50.0093,431.0724],[-121.5049,50.0147,495.5655],[-121.5024,50.0144,514.001],[-121.5035,49.9905,301.5798],[-121.508,49.9901,222.3447]],
[[-121.4822,49.9642,307.1907],[-121.4823,49.9597,294.9717],[-121.4875,49.9598,263.9976],[-121.4874,49.965,329.3716],[-121.4822,49.9642,307.1907]],
[[-121.4846,49.9573,237.8429],[-121.4649,49.9313,137.3649],[-121.4835,49.9316,408.0754],[-121.4837,49.9516,175.147],[-121.4858,49.9576,237.8429],[-121.4846,49.9573,237.8429]],
[[-121.4464,49.8678,125.1949],[-121.4441,49.8623,141.0182],[-121.458,49.8623,348.765],[-121.4584,49.8801,261.9473],[-121.4464,49.879,149.1862],[-121.4464,49.8678,125.1949]]]]}
,"properties": {"GID_3": "CAN.2.13.17_1","GID_0": "CAN","country": "Canada","GID_1": "CAN.2_1","province": "BritishColumbia","NL_NAME_1": "NA","GID_2": "CAN.2.13_1","county": "FraserValley","NL_NAME_2": "NA","city": "FraserValleyA","VARNAME_3": "NA","NL_NAME_3": "NA","TYPE_3": "RegionalDistrictElectoralArea","ENGTYPE_3": "RegionalDistrictElectoralArea","CC_3": "NA","HASC_3": "NA","name": "Fraser_Valley_A.city","area_km2": 2343.642,"hist_schema_id": "Elevation0-9000","hist_area_km2": {"75": 1.439,"100": 6.64,"125": 3.813,"150": 5.672,"175": 6.242,"200": 6.406,"225": 7.116,"250": 6.404,"275": 8.384,"300": 14.6,"325": 18.287,"350": 13.363,"375": 12.846,"400": 12.18,"425": 12.835,"450": 12.522,"475": 13.0,"500": 13.562,"525": 16.908,"550": 14.531,"575": 15.352,"600": 16.556,"625": 19.204,"650": 18.975,"675": 19.547,"700": 19.804,"725": 21.553,"750": 22.524,"775": 23.838,"800": 24.437,"825": 27.279,"850": 28.29,"875": 28.877,"900": 30.588,"925": 30.205,"950": 30.166,"975": 32.68,"1000": 33.09,"1025": 34.523,"1050": 36.108,"1075": 36.315,"1100": 36.721,"1125": 37.17,"1150": 38.389,"1175": 39.083,"1200": 40.245,"1225": 41.036,"1250": 45.049,"1275": 46.69,"1300": 48.037,"1325": 47.422,"1350": 50.018,"1375": 50.821,"1400": 51.202,"1425": 51.129,"1450": 51.126,"1475": 50.88,"1500": 52.585,"1525": 52.495,"1550": 50.497,"1575": 49.797,"1600": 48.972,"1625": 48.589,"1650": 46.044,"1675": 44.705,"1700": 42.616,"1725": 40.345,"1750": 37.111,"1775": 35.837,"1800": 33.189,"1825": 32.122,"1850": 29.106,"1875": 26.101,"1900": 23.427,"1925": 21.884,"1950": 20.002,"1975": 18.513,"2000": 15.648,"2025": 14.679,"2050": 11.911,"2075": 10.873,"2100": 9.181,"2125": 7.451,"2150": 6.701,"2175": 5.216,"2200": 4.507,"2225": 3.921,"2250": 2.995,"2275": 2.518,"2300": 1.973,"2325": 1.81,"2350": 1.388,"2375": 1.361,"2400": 1.225,"2425": 0.816,"2450": 1.048,"2475": 0.585,"2500": 0.599,"2525": 0.571,"2550": 0.422,"2575": 0.218,"2600": 0.177,"2625": 0.109,"2650": 0.041,"2675": 0.068}}}