{"type":"Feature","properties":{"GID_3":"CAN.1.11.7_1","GID_0":"CAN","country":"Canada","GID_1":"CAN.1_1","province":"Alberta","NL_NAME_1":"NA","GID_2":"CAN.1.11_1","county":"DivisionNo.1","NL_NAME_2":"NA","city":"Redcliff","VARNAME_3":"NA","NL_NAME_3":"NA","TYPE_3":"Town","ENGTYPE_3":"Town","CC_3":"NA","HASC_3":"NA","name":"Redcliff.city"},
"geometry":{"type": "MultiPolygon","coordinates": [[[[-110.801,50.0527,663.7341],[-110.7834,50.0555,688.7925],[-110.7777,50.0545,658.4794],[-110.7667,50.049,668.9943],[-110.7668,50.0622,731.0007],[-110.7554,50.0622,725.3885],[-110.7554,50.0685,726.5527],[-110.7438,50.0628,722.8378],[-110.7455,50.0662,721.506],[-110.7555,50.0709,731.696],[-110.7554,50.084,740.5305],[-110.7857,50.084,740.9637],[-110.7785,50.08,746.6923],[-110.7884,50.084,740.7736],[-110.8011,50.084,739.7382],[-110.801,50.0527,663.7341]]]]}}