{"type": "Feature","bbox": [-65.3862,46.61,-64.8674,46.8057],"geometry": {"type": "MultiPolygon","coordinates": [[[[-65.3862,46.6101,83.6201],[-65.2448,46.61,84.072],[-65.1977,46.6426,68.4781],[-65.1916,46.6444,70.0087],[-65.1812,46.6388,58.6719],[-65.1749,46.6401,61.6916],[-65.1736,46.6372,58.8246],[-65.1675,46.6384,65.2822],[-65.1681,46.6398,60.5065],[-65.16,46.6412,64.0593],[-65.1621,46.6456,62.2205],[-65.1572,46.6468,55.8351],[-65.1579,46.6492,59.8272],[-65.1425,46.6569,55.6022],[-65.1323,46.6591,64.7441],[-65.1149,46.6586,56.5688],[-65.1149,46.6625,53.3304],[-65.1092,46.6624,49.5372],[-65.1092,46.6667,50.8086],[-65.0908,46.6679,49.4562],[-65.0928,46.6759,56.7471],[-65.0662,46.6963,55.7671],[-65.0504,46.6984,46.4117],[-65.0521,46.7018,51.2603],[-65.0496,46.7022,49.6398],[-65.0472,46.6979,46.4023],[-65.0193,46.7009,33.2045],[-65.0149,46.6912,29.0761],[-65.0117,46.6921,29.2325],[-65.0098,46.6882,30.8457],[-65.0026,46.6895,31.5011],[-65.0044,46.6954,29.2344],[-64.9873,46.703,37.9118],[-64.9889,46.7063,38.9735],[-64.9689,46.7019,20.3044],[-64.9692,46.7046,26.0607],[-64.9709,46.7051,23.7632],[-64.9692,46.7067,28.3708],[-64.9773,46.7205,29.5595],[-64.9728,46.7246,34.2467],[-64.9788,46.7363,4.1876],[-64.9812,46.7365,3.8173],[-64.9837,46.7339,4.4547],[-64.9832,46.7302,2.1439],[-64.9963,46.7278,3.5713],[-64.9992,46.7223,0.0],[-65.0094,46.7183,17.6277],[-65.0203,46.7181,0.8876],[-65.0169,46.7203,-0.0231],[-65.0056,46.7228,3.4144],[-65.0041,46.7258,4.1826],[-65.0,46.7258,7.7768],[-64.9978,46.7299,1.2183],[-64.989,46.7315,1.1778],[-64.9823,46.741,2.9418],[-64.9965,46.75,32.3564],[-64.9926,46.7523,32.5956],[-64.9805,46.7443,10.7871],[-64.9764,46.7444,4.3057],[-64.9714,46.7483,4.6614],[-64.9696,46.7472,10.1743],[-64.9673,46.7492,6.3537],[-64.9575,46.7506,0.2375],[-64.9569,46.7531,1.622],[-64.9544,46.7511,0.786],[-64.94,46.7522,3.4953],[-64.9386,46.7536,5.6859],[-64.9394,46.7558,2.3908],[-64.945,46.7567,4.1752],[-64.9419,46.7587,6.2021],[-64.9394,46.7567,2.3908],[-64.9385,46.7582,2.9086],[-64.9256,46.7603,0.0],[-64.9286,46.7619,5.569],[-64.9268,46.7631,0.0],[-64.9192,46.7606,0.1363],[-64.9172,46.7614,0.043],[-64.915,46.7644,1.9211],[-64.915,46.7714,3.3855],[-64.9077,46.776,0.0006],[-64.909,46.7789,0.4243],[-64.9042,46.7789,0.0],[-64.9062,46.7829,0.0],[-64.9131,46.7897,0.0458],[-64.9065,46.7923,0.6273],[-64.9057,46.7967,0.0],[-64.908,46.8018,0.1723],[-64.9667,46.7891,21.0694],[-64.9746,46.8043,15.1424],[-64.9809,46.7993,22.704],[-64.9803,46.7982,23.6477],[-64.9861,46.797,22.6211],[-64.9851,46.7943,27.5985],[-64.9886,46.791,29.3975],[-64.9868,46.7898,29.8685],[-64.9868,46.7877,33.1648],[-64.9935,46.7826,37.0521],[-65.0288,46.7755,24.562],[-65.0298,46.7739,28.6162],[-65.0363,46.7781,19.1881],[-65.052,46.775,19.7158],[-65.0522,46.7712,31.1708],[-65.07,46.7672,30.0535],[-65.3862,46.6101,83.6201]]],
[[[-64.869008150064687,46.773682535575674,0.0],[-64.8697,46.7722,0.0],[-64.8674,46.7714,0.0],[-64.869008150064687,46.773682535575674,0.0]]],
[[[-64.9165,46.73,9.3038],[-64.9138,46.7314,0.0],[-64.9144,46.735,0.021],[-64.9118,46.7402,0.0],[-64.9127,46.7444,1.9386],[-64.9094,46.7426,0.0073],[-64.9096,46.7379,1.1957],[-64.9079,46.7346,0.2318],[-64.8884,46.7456,0.0],[-64.8947,46.7463,-0.0518],[-64.8996,46.7449,0.0546],[-64.9021,46.7475,-0.0295],[-64.8987,46.7487,0.0],[-64.8991,46.7506,-0.2791],[-64.8967,46.7539,0.0887],[-64.8969,46.7507,0.0],[-64.8954,46.7498,0.0],[-64.8869,46.7513,0.0],[-64.8797,46.7611,2.4131],[-64.8801,46.7681,0.0058],[-64.8866,46.7746,0.1263],[-64.8874,46.7785,0.0],[-64.8967,46.7794,0.0],[-64.8994,46.7781,0.5459],[-64.9103,46.7689,1.0422],[-64.915,46.758,0.8393],[-64.9186,46.7563,0.8681],[-64.9237,46.7581,5.4343],[-64.9269,46.7576,3.8616],[-64.9286,46.7517,9.6924],[-64.9287,46.7554,0.0],[-64.9303,46.7571,0.0],[-64.9353,46.7559,0.0],[-64.9361,46.7531,3.1128],[-64.9402,46.7512,14.7781],[-64.9613,46.7482,3.183],[-64.9707,46.7447,2.4691],[-64.9679,46.7366,21.2054],[-64.9626,46.7315,23.2936],[-64.9506,46.736,19.779],[-64.9412,46.7166,11.6093],[-64.9165,46.73,9.3038]]],
[[[-64.8908,46.8057,1.5285],[-64.8903,46.8022,0.0],[-64.8847,46.794,-0.2108],[-64.88,46.7908,0.0],[-64.8823,46.7894,0.0],[-64.8722,46.7797,0.0],[-64.8706,46.7797,0.9066],[-64.8706,46.7831,0.0],[-64.8737,46.7879,0.4615],[-64.8828,46.7978,0.2864],[-64.8839,46.8008,0.0],[-64.8908,46.8057,1.5285]]],
[[[-64.869008150064687,46.773682535575674,0.0],[-64.869,46.7737,0.0],[-64.869043373494,46.77373253012049,0.0],[-64.869008150064687,46.773682535575674,0.0]]],
[[[-64.8705,46.7758,0.0],[-64.8758,46.7783,0.0],[-64.8753,46.7764,0.172],[-64.871,46.7752,0.0],[-64.869043373494,46.77373253012049,0.0],[-64.8705,46.7758,0.0]]]]}
,"properties": {"GID_3": "CAN.4.5.15_1","GID_0": "CAN","country": "Canada","GID_1": "CAN.4_1","province": "NewBrunswick","NL_NAME_1": "NA","GID_2": "CAN.4.5_1","county": "Kent","NL_NAME_2": "NA","city": "Saint-Louis","VARNAME_3": "NA","NL_NAME_3": "NA","TYPE_3": "Parish","ENGTYPE_3": "Parish","CC_3": "NA","HASC_3": "NA","name": "Saint-Louis.city","area_km2": 258.1222,"hist_schema_id": "Elevation0-9000","hist_area_km2": {"0": 23.9676,"25": 66.6032,"50": 107.4775,"75": 59.1273,"100": 0.9466}}}