{"type": "Feature","bbox": [-71.6814,46.8546,-71.4847,46.9869],"geometry": {"type": "MultiPolygon","coordinates": [[[[-71.4847,46.8786,174.4661],[-71.5138,46.8987,161.236],[-71.5104,46.9012,162.6932],[-71.6327,46.9869,295.2807],[-71.6814,46.9544,284.685],[-71.6714,46.9509,304.0957],[-71.6566,46.9487,363.6158],[-71.6572,46.9588,397.8087],[-71.6547,46.9605,353.6299],[-71.6437,46.9613,284.5775],[-71.6379,46.9648,273.9462],[-71.6334,46.9618,260.8516],[-71.6336,46.9606,260.8516],[-71.6297,46.9601,270.5689],[-71.6122,46.9486,271.2965],[-71.614,46.9476,270.232],[-71.5974,46.9367,289.9774],[-71.6113,46.9272,219.9311],[-71.6082,46.9188,192.2704],[-71.6201,46.9097,229.3388],[-71.615,46.9062,165.9699],[-71.6055,46.9129,165.3777],[-71.6042,46.9101,160.6077],[-71.6062,46.9109,163.0215],[-71.608,46.9078,161.1848],[-71.5895,46.8957,209.2869],[-71.5922,46.8937,169.7553],[-71.548,46.8635,151.2682],[-71.5427,46.8632,152.3963],[-71.5305,46.8546,172.8201],[-71.5043,46.8591,211.0659],[-71.5099,46.8632,200.9627],[-71.4847,46.8786,174.4661]]]]}
,"properties": {"GID_3": "CAN.11.39.9_1","GID_0": "CAN","country": "Canada","GID_1": "CAN.11_1","province": "Québec","NL_NAME_1": "NA","GID_2": "CAN.11.39_1","county": "LaJacques-Cartier","NL_NAME_2": "NA","city": "Shannon","VARNAME_3": "NA","NL_NAME_3": "NA","TYPE_3": "Municipalité","ENGTYPE_3": "Municipality","CC_3": "NA","HASC_3": "NA","name": "Shannon.city","area_km2": 64.84057,"hist_schema_id": "Elevation0-9000","hist_area_km2": {"150": 2.98537,"175": 27.98802,"200": 9.99379,"225": 7.00877,"250": 4.96601,"275": 4.05281,"300": 3.67643,"325": 2.61998,"350": 0.95566,"375": 0.44893,"400": 0.1448}}}