{"type":"Feature","properties":{"GID_3":"CAN.2.2.51_1","GID_0":"CAN","country":"Canada","GID_1":"CAN.2_1","province":"BritishColumbia","NL_NAME_1":"NA","GID_2":"CAN.2.2_1","county":"Bulkley-Nechako","NL_NAME_2":"NA","city":"YeKooChe3","VARNAME_3":"NA","NL_NAME_3":"NA","TYPE_3":"RéserveIndienne","ENGTYPE_3":"IndianReserve","CC_3":"NA","HASC_3":"NA","name":"Ye_Koo_Che3.city"},
"geometry":{"type": "MultiPolygon","coordinates": [[[[-125.0583,54.5967,748.9068],[-125.0709,54.5972,685.4044],[-125.066,54.6,688.8672],[-125.0833,54.6004,717.8774],[-125.0829,54.5894,759.8036],[-125.0583,54.5895,831.7324],[-125.0583,54.5967,748.9068]]]]}}