{"type": "Feature","bbox": [-65.7504,45.2918,-65.0824,45.6145],"geometry": {"type": "MultiPolygon","coordinates": [[[[-65.5289,45.3225,0.0444],[-65.5292,45.3236,0.0444],[-65.5321,45.3228,0.0],[-65.531,45.3218,0.0],[-65.5276,45.3225,0.0],[-65.5289,45.3225,0.0444]]],
[[[-65.1191,45.6145,271.06],[-65.3742,45.5362,315.2234],[-65.7504,45.4263,115.2145],[-65.6478,45.2918,0.0],[-65.6311,45.2943,7.3106],[-65.6124,45.3024,18.9907],[-65.6007,45.3043,11.267],[-65.5914,45.3087,0.0],[-65.5841,45.3073,12.1693],[-65.5818,45.3046,0.0],[-65.5782,45.3043,10.3929],[-65.5542,45.3129,0.0],[-65.5548,45.3179,27.583],[-65.5528,45.3194,10.3971],[-65.5442,45.3202,0.0],[-65.5345,45.3238,4.8471],[-65.5374,45.3292,0.0],[-65.5441,45.3318,0.4754],[-65.5439,45.3389,0.3906],[-65.5397,45.3489,1.5537],[-65.5467,45.3495,12.9747],[-65.5502,45.347,15.092],[-65.5514,45.3402,3.3372],[-65.5596,45.3388,24.0946],[-65.5611,45.342,27.2928],[-65.5597,45.3458,32.503],[-65.5607,45.3489,46.111],[-65.5532,45.3543,61.933],[-65.5441,45.3555,45.4903],[-65.5359,45.3631,31.7966],[-65.5309,45.3613,8.5898],[-65.5327,45.3553,0.0],[-65.5254,45.3572,1.1229],[-65.5222,45.3555,5.2141],[-65.5167,45.3555,0.0],[-65.5155,45.3567,0.0],[-65.5163,45.3594,8.1992],[-65.505,45.3659,11.91],[-65.4892,45.3684,0.0],[-65.4728,45.3734,0.0],[-65.4628,45.3805,15.8936],[-65.4589,45.3806,20.8951],[-65.4555,45.3829,0.0],[-65.4528,45.3887,0.0],[-65.452,45.3967,9.5761],[-65.4503,45.3983,18.978],[-65.4331,45.4056,36.3181],[-65.4121,45.4115,0.0],[-65.4038,45.4177,0.0],[-65.3982,45.4169,0.0],[-65.3941,45.4198,0.0],[-65.3874,45.4205,0.0],[-65.3826,45.4257,33.9455],[-65.3683,45.4259,0.0],[-65.3689,45.4289,11.5665],[-65.3581,45.4324,9.3256],[-65.3473,45.4415,6.1017],[-65.3439,45.4424,0.0],[-65.3422,45.4483,0.0],[-65.3093,45.4572,12.8665],[-65.2925,45.4678,13.0228],[-65.2858,45.468,0.0],[-65.2832,45.4699,9.582],[-65.2741,45.4693,1.0675],[-65.2702,45.4726,7.948],[-65.2561,45.4734,0.0],[-65.2444,45.4797,0.4145],[-65.2405,45.4797,0.0],[-65.2324,45.4847,2.9392],[-65.2255,45.4855,11.6949],[-65.208,45.4929,3.3393],[-65.203,45.4926,14.9952],[-65.1889,45.4872,0.0],[-65.1864,45.49,25.2199],[-65.1875,45.4911,0.0],[-65.1928,45.4903,2.1813],[-65.1947,45.4931,2.0],[-65.1936,45.4955,6.971],[-65.1728,45.5079,3.2629],[-65.1515,45.5105,47.4927],[-65.1435,45.5171,75.6542],[-65.1325,45.5221,35.0835],[-65.1142,45.5245,17.5888],[-65.0978,45.5233,0.0],[-65.0938,45.5255,4.6259],[-65.0824,45.5267,0.0],[-65.1191,45.6145,271.06]]]]}
,"properties": {"GID_3": "CAN.4.11.3_1","GID_0": "CAN","country": "Canada","GID_1": "CAN.4_1","province": "NewBrunswick","NL_NAME_1": "NA","GID_2": "CAN.4.11_1","county": "SaintJohn","NL_NAME_2": "NA","city": "SaintMartins","VARNAME_3": "NA","NL_NAME_3": "NA","TYPE_3": "Parish","ENGTYPE_3": "Parish","CC_3": "NA","HASC_3": "NA","name": "Saint_Martins.city","area_km2": 633.0729,"hist_schema_id": "Elevation0-9000","hist_area_km2": {"0": 6.9818,"25": 12.2604,"50": 30.5574,"75": 39.2743,"100": 36.5077,"125": 29.6279,"150": 37.9828,"175": 55.6961,"200": 69.5777,"225": 93.1534,"250": 83.2176,"275": 58.6281,"300": 43.1357,"325": 25.609,"350": 9.7189,"375": 1.144}}}