{"type":"Feature","properties":{"featurecla":"River","scalerank":11,"rivernum":21195,"dissolve":"21195River","name":"Gataga1","name_alt":null,"note":"ID is link back to CEC data","name_full":"Gataga River","min_zoom":6.7,"strokeweig":0.2,"uident":1472201,"min_label":7.7},
"geometry":{"type": "LineString","coordinates": [[-126.93858801991622,58.611883856244027,890.0215],[-126.8954158193954,58.583034572389863,854.386],[-126.8282771475204,58.559597072389863,890.48],[-126.7884822256454,58.536485093223192,731.3831],[-126.6788630850204,58.531073309369027,1130.1724],[-126.62140865793705,58.505723374473192,881.7341],[-126.5292048818954,58.477321681764863,1043.3994],[-126.47215735585372,58.464911199994027,1011.7683],[-126.4676814443954,58.463934637494027,1070.6278],[-126.46442623606205,58.462469793744027,1004.2042],[-126.37018795481205,58.421087957806527,827.8823],[-126.29906165272872,58.405300197389863,1004.9432],[-126.25890051991622,58.397975978639863,875.0295],[-126.16901607981205,58.378607489056527,944.5204],[-126.11827551991622,58.350531317181527,890.7593],[-126.02574622304122,58.309434311973192,882.1844],[-125.8800349600204,58.250433660931527,914.7223],[-125.7621150381454,58.199733791139863,860.1292],[-125.6581111318954,58.188503322389863,1015.4666],[-125.53258216054122,58.183946030723192,1147.4828],[-125.47581946522872,58.168076890098192,1111.1978],[-125.45685787668705,58.149278061973192,1001.511],[-125.43272864491622,58.143906968223192,1423.1584]]}}