{"type":"Feature","properties":{"featurecla":"River","scalerank":11,"rivernum":21281,"dissolve":"21281River","name":"Kechika2","name_alt":null,"note":"ID is link back to CEC data","name_full":"Kechika River","min_zoom":6.7,"strokeweig":0.2,"uident":1449901,"min_label":7.7},
"geometry":{"type": "LineString","coordinates": [[-127.58470618397872,59.185085353639863,673.7264],[-127.5631404287704,59.165472723431527,662.1248],[-127.5209041006454,59.134059963014863,592.6425],[-127.47948157460372,59.110378322389863,753.8471],[-127.45677649647872,59.093125718223192,823.5139],[-127.38097083241622,59.006130275514863,621.3041],[-127.33433997304122,58.973944403119027,601.6565],[-127.24156653554122,58.874090887494027,684.8179],[-127.18610592356205,58.801133530723192,677.6016],[-127.13585364491622,58.754339910931527,809.8392],[-127.08873450429122,58.724473374473192,1016.3727],[-127.0213923818954,58.664984442181527,756.6116],[-126.93858801991622,58.611883856244027,890.0215]]}}