{"type":"Feature","properties":{"featurecla":"River","scalerank":12,"rivernum":21225,"dissolve":"21225River","name":"Kechika","name_alt":null,"note":"ID is link back to CEC data","name_full":"Kechika River","min_zoom":7.0,"strokeweig":0.15,"uident":1470201,"min_label":8.0},
"geometry":{"type": "LineString","coordinates": [[-126.47419186106205,58.188788153119027,903.916],[-126.44066321522872,58.163112697389863,850.5712],[-126.35081946522872,58.079860744264863,905.433],[-126.3214412100204,58.057074285931527,935.9214],[-126.29308020741622,58.035020249473192,955.7025],[-126.24339759022872,57.990179754681527,1026.4877],[-126.24913489491622,57.969549871869027,1100.984],[-126.2760310537704,57.956000067181527,1317.9106],[-126.29381262929122,57.955023504681527,1269.8163],[-126.32990475168705,57.952988999473192,1330.3337],[-126.36237545481205,57.937770900514863,1736.9003]]}}