{"type": "Feature","bbox": [-104.9172,50.6981,-104.5,51.1831],"geometry": {"type": "MultiPolygon","coordinates": [[[[-104.7988,51.1392,573.113],[-104.7984,50.9211,572.2025],[-104.9166,50.9211,548.2557],[-104.9166,50.8122,544.4763],[-104.9045,50.8123,548.4019],[-104.9043,50.8013,545.4799],[-104.9167,50.8009,542.2288],[-104.9172,50.7975,532.8714],[-104.9141,50.7918,528.0336],[-104.8966,50.7826,528.0388],[-104.8935,50.7825,536.774],[-104.8933,50.7748,488.5],[-104.9142,50.7874,502.1128],[-104.9165,50.7878,493.5014],[-104.9167,50.7822,488.5],[-104.879,50.7613,488.5],[-104.8669,50.7398,490.2148],[-104.846,50.7152,490.3139],[-104.8364,50.7106,490.512],[-104.8353,50.7086,489.2888],[-104.822,50.7073,490.6646],[-104.811,50.6993,491.8289],[-104.8056,50.6981,492.8648],[-104.7995,50.7019,492.9103],[-104.7836,50.7025,492.6598],[-104.7752,50.7086,490.9686],[-104.7673,50.7109,490.1636],[-104.7525,50.7115,490.036],[-104.7477,50.7176,489.2729],[-104.7358,50.7221,489.327],[-104.7292,50.7268,488.7927],[-104.7072,50.7333,488.1582],[-104.7045,50.7411,488.1915],[-104.6987,50.7413,487.8823],[-104.6968,50.7488,487.8392],[-104.6898,50.7558,487.2427],[-104.6785,50.7628,487.0702],[-104.6618,50.7689,486.4951],[-104.661,50.7769,486.2088],[-104.6569,50.7812,486.3651],[-104.6515,50.7818,486.3385],[-104.6413,50.7906,499.7139],[-104.6264,50.7953,486.0639],[-104.6011,50.7954,485.4466],[-104.5938,50.8003,485.0869],[-104.5746,50.8047,484.9001],[-104.5648,50.8115,485.0242],[-104.5593,50.8133,484.4734],[-104.5366,50.812,484.1718],[-104.5088,50.8161,483.7469],[-104.5,50.8148,483.3351],[-104.501,50.9211,552.6552],[-104.5193,50.9211,560.238],[-104.5191,51.0957,570.85],[-104.5205,51.1249,579.2988],[-104.5191,51.1828,596.6855],[-104.6588,51.1831,562.9593],[-104.6594,51.1392,562.1294],[-104.7988,51.1392,573.113]],
[[-104.7817,50.7105,500.5015],[-104.7902,50.7075,497.4572],[-104.801,50.7071,510.3308],[-104.8019,50.7026,492.1589],[-104.8116,50.7027,490.4344],[-104.8121,50.707,491.9879],[-104.8143,50.7085,492.1383],[-104.814,50.7102,506.565],[-104.7891,50.7103,524.9831],[-104.7849,50.7125,528.5347],[-104.778,50.7133,511.9251],[-104.778,50.7116,495.9657],[-104.7817,50.7105,500.5015]],
[[-104.7053,50.932,588.5234],[-104.7053,50.9283,589.1088],[-104.7173,50.9285,588.7517],[-104.7171,50.9427,581.2469],[-104.7053,50.9426,584.4754],[-104.7053,50.932,588.5234]]]]}
,"properties": {"GID_3": "CAN.12.15.47_1","GID_0": "CAN","country": "Canada","GID_1": "CAN.12_1","province": "Saskatchewan","NL_NAME_1": "NA","GID_2": "CAN.12.15_1","county": "DivisionNo.6","NL_NAME_2": "NA","city": "LonglaketonNo.219","VARNAME_3": "NA","NL_NAME_3": "NA","TYPE_3": "RuralMunicipality","ENGTYPE_3": "RuralMunicipality","CC_3": "NA","HASC_3": "NA","name": "Longlaketon_No.219.city","area_km2": 1040.225,"hist_schema_id": "Elevation0-9000","hist_area_km2": {"475": 9.2181,"500": 18.271,"525": 7.6293,"550": 422.397,"575": 566.2237,"600": 16.4859}}}