{"type": "Feature","bbox": [-80.6704,45.476,-79.5209,46.2139],"geometry": {"type": "MultiPolygon","coordinates": [[[[-80.2108,45.5013,223.1878],[-80.1874,45.5075,237.292],[-80.2081,45.5492,220.5763],[-80.2628,45.5351,225.9499],[-80.2618,45.5003,208.7995],[-80.3175,45.5016,200.2989],[-80.3046,45.476,204.0877],[-80.2108,45.5013,223.1878]]],
[[[-80.6701,45.8409,179.8925],[-80.6704,45.8397,175.4409],[-80.6632,45.8396,189.8724],[-80.6504,45.842,187.9911],[-80.6435,45.8468,193.0395],[-80.632,45.8515,198.6079],[-80.6036,45.8594,208.8902],[-80.6062,45.8614,199.9074],[-80.6184,45.8625,191.996],[-80.6516,45.8482,176.1863],[-80.6628,45.8468,181.3202],[-80.6692,45.8438,174.9436],[-80.6701,45.8409,179.8925]]],
[[[-80.5769,45.6419,173.9826],[-80.5662,45.6463,178.8964],[-80.5535,45.6484,184.1936],[-80.5385,45.6561,175.0],[-80.5342,45.6547,176.7235],[-80.5361,45.652,175.0],[-80.5055,45.6611,192.8572],[-80.5059,45.6793,188.3114],[-80.4656,45.6981,195.9335],[-80.4656,45.6708,188.4985],[-80.4192,45.6837,199.9414],[-80.3974,45.65,206.4115],[-80.358,45.6604,213.6772],[-80.2809,45.6823,227.9019],[-80.2982,45.7142,209.3112],[-80.2721,45.7199,213.496],[-79.8909,45.8254,288.0757],[-79.7595,45.8603,319.3753],[-79.6921,45.738,312.8088],[-79.5209,45.7844,367.2864],[-79.5644,45.8618,338.9745],[-79.5877,45.9054,316.7801],[-79.586,45.9058,322.5309],[-79.6067,45.9429,335.2018],[-79.6066,45.9498,277.2544],[-79.6035,45.9552,303.8378],[-79.6158,45.9557,323.4432],[-79.6146,45.9574,299.7796],[-79.6167,45.9613,261.3615],[-79.6388,46.0006,250.1294],[-79.6582,46.0307,232.9509],[-79.6823,46.0743,305.494],[-79.6125,46.0935,295.345],[-79.6624,46.1831,195.4404],[-79.6615,46.2139,193.0],[-79.7989,46.2063,193.0],[-79.8251,46.2064,193.0],[-79.8461,46.204,193.0],[-79.8506,46.2028,193.0],[-79.8492,46.2013,193.0],[-79.8651,46.1968,193.0],[-79.8739,46.1966,193.0],[-79.8781,46.1927,193.0],[-79.8877,46.189,193.0],[-79.8907,46.186,199.044],[-79.8964,46.1851,194.3545],[-79.9011,46.1803,211.2984],[-79.9095,46.1809,213.5269],[-79.9144,46.1779,193.0],[-79.9235,46.1772,193.0],[-79.943,46.1689,193.0],[-79.9474,46.1693,193.0],[-79.9573,46.1667,193.0],[-79.9588,46.1635,193.0],[-79.968,46.1586,193.0],[-79.9864,46.1526,193.0],[-79.9985,46.1462,193.0],[-80.0076,46.1441,193.0],[-80.0177,46.1453,197.3974],[-80.0264,46.1508,193.0],[-80.0323,46.1522,195.2737],[-80.0557,46.1497,195.8392],[-80.066,46.1477,193.0],[-80.0655,46.1462,211.5707],[-80.0983,46.1512,194.351],[-80.0975,46.1456,194.0],[-80.1029,46.1448,216.321],[-80.1485,46.1482,203.6154],[-80.1589,46.1502,198.0537],[-80.1601,46.1475,209.7784],[-80.1567,46.1444,219.279],[-80.1412,46.1408,198.3706],[-80.1418,46.1369,197.7069],[-80.1558,46.1356,197.0179],[-80.1707,46.1368,221.4524],[-80.1715,46.1347,210.994],[-80.1552,46.131,199.0],[-80.1451,46.1325,220.5459],[-80.1233,46.1289,215.5154],[-80.1049,46.128,205.2365],[-80.1021,46.1304,209.5625],[-80.1031,46.1319,206.9377],[-80.0836,46.1259,202.1401],[-80.072,46.1173,198.4754],[-80.0979,46.1158,198.7415],[-80.125,46.1179,193.5],[-80.1418,46.1155,193.5],[-80.162,46.1106,205.3868],[-80.1726,46.1066,200.9666],[-80.1783,46.1027,193.5],[-80.1653,46.1022,211.2639],[-80.1644,46.1004,193.6758],[-80.1664,46.0976,189.077],[-80.1523,46.0919,186.0],[-80.1396,46.0906,186.0],[-80.144,46.0875,193.8387],[-80.1428,46.082,186.0],[-80.1822,46.0804,186.0],[-80.1876,46.0785,186.0],[-80.1866,46.0686,219.3508],[-80.1896,46.0599,201.7989],[-80.2019,46.0615,201.9949],[-80.2086,46.0581,201.0104],[-80.2101,46.0547,190.6247],[-80.2091,46.0513,212.9946],[-80.246,46.0438,213.3458],[-80.2499,46.0442,204.1597],[-80.3025,46.0265,216.3088],[-80.3099,46.0257,209.0814],[-80.3095,46.0287,199.9456],[-80.3129,46.0318,190.2035],[-80.3303,46.0313,205.7678],[-80.3419,46.0284,189.8018],[-80.3433,46.026,183.6225],[-80.3615,46.0242,206.0119],[-80.4233,46.0316,208.9096],[-80.4551,46.0329,199.7359],[-80.4758,46.0301,206.7372],[-80.4799,46.0316,186.9818],[-80.4915,46.0304,179.5],[-80.4963,46.0281,191.9636],[-80.5098,46.0311,179.5],[-80.5161,46.0295,210.3638],[-80.5232,46.0246,182.3585],[-80.5315,46.0245,208.7802],[-80.5384,46.022,179.5],[-80.5435,46.024,215.5363],[-80.5521,46.0195,189.4251],[-80.5522,46.0179,208.0687],[-80.5818,46.0143,204.503],[-80.5599,45.9119,192.7358],[-80.5617,45.912,194.1008],[-80.563,45.9077,180.3393],[-80.5549,45.8888,199.3501],[-80.5354,45.8889,192.111],[-80.5353,45.8876,185.6889],[-80.5535,45.8817,177.5],[-80.5566,45.8783,193.698],[-80.5617,45.8767,190.8791],[-80.56,45.849,190.0359],[-80.6699,45.7968,176.1242],[-80.6656,45.7969,175.1468],[-80.6597,45.7921,173.5],[-80.6505,45.7925,182.8756],[-80.6471,45.7901,185.5159],[-80.6481,45.7853,180.672],[-80.6542,45.7819,178.1776],[-80.6539,45.7722,173.5],[-80.6379,45.7426,179.4509],[-80.6487,45.7338,180.9968],[-80.6478,45.7317,173.5],[-80.6447,45.7309,173.5],[-80.6386,45.7348,178.5129],[-80.6359,45.7347,173.5],[-80.6352,45.7321,177.4788],[-80.6416,45.7305,174.9247],[-80.6448,45.7279,179.4549],[-80.6434,45.7251,176.8142],[-80.6365,45.7252,176.8012],[-80.6236,45.7299,179.9096],[-80.6256,45.7265,175.3041],[-80.6358,45.7221,175.2372],[-80.6365,45.7198,177.5214],[-80.6344,45.7182,179.1765],[-80.6258,45.7193,180.7035],[-80.6229,45.7178,179.6395],[-80.6292,45.7129,173.5],[-80.6214,45.7074,173.5],[-80.6139,45.7069,178.9561],[-80.6076,45.6985,173.5],[-80.59,45.6976,185.2158],[-80.5895,45.6949,181.7397],[-80.5937,45.6909,176.139],[-80.5919,45.6878,178.2408],[-80.578,45.6867,182.3222],[-80.5772,45.6841,181.1254],[-80.5789,45.6823,180.3444],[-80.5919,45.6833,182.8774],[-80.596,45.6809,180.2751],[-80.5995,45.6821,181.4562],[-80.6031,45.6868,178.6799],[-80.6074,45.6868,185.3288],[-80.6081,45.6822,175.2786],[-80.5957,45.6664,176.3787],[-80.5889,45.6621,182.1086],[-80.5765,45.6655,179.6568],[-80.5696,45.671,182.0333],[-80.5608,45.6705,178.9388],[-80.5574,45.6678,181.325],[-80.5659,45.6677,180.5171],[-80.5718,45.6619,181.9921],[-80.5681,45.66,181.6096],[-80.5464,45.6608,179.7818],[-80.5439,45.6591,182.1993],[-80.5477,45.6567,181.2915],[-80.5807,45.6565,176.094],[-80.5829,45.6531,176.5551],[-80.5772,45.6511,179.3266],[-80.5751,45.6481,181.2415],[-80.5769,45.6419,173.9826]],
[[-80.0826,46.0968,188.8655],[-80.085,46.0916,190.407],[-80.0802,46.0883,229.5865],[-80.0702,46.0879,240.3928],[-80.0387,46.102,220.0447],[-80.0257,46.1001,228.2169],[-80.015,46.1057,218.2391],[-80.0062,46.1044,224.4118],[-80.0,46.0985,207.1847],[-79.994,46.0957,220.2515],[-79.938,46.0832,226.8517],[-79.9134,46.0761,204.3689],[-79.9229,46.0702,238.9678],[-79.9336,46.0674,219.1835],[-79.9356,46.0586,216.5],[-79.9333,46.0565,227.4853],[-79.933,46.0535,214.9484],[-79.9398,46.0512,218.2569],[-79.9431,46.0469,214.0],[-79.9455,46.0478,232.1429],[-79.9454,46.0458,214.0],[-79.9473,46.0446,217.6743],[-79.9486,46.0455,230.4392],[-79.9479,46.0444,217.6743],[-79.9523,46.0429,214.0],[-79.957,46.0433,225.2718],[-79.9741,46.0382,216.5956],[-79.9852,46.0385,233.7747],[-79.9919,46.0328,230.3853],[-80.0048,46.0324,215.9221],[-80.0212,46.025,214.0],[-80.0331,46.0243,212.0],[-80.0342,46.0221,234.2308],[-80.0377,46.0258,239.5598],[-80.0488,46.0298,221.4959],[-80.0566,46.0251,211.2635],[-80.109,46.0312,211.8641],[-80.112799999999993,46.0306,213.7935],[-80.1636,46.0426,218.5125],[-80.1927,46.0458,214.91],[-80.2044,46.0502,226.9912],[-80.2033,46.0504,230.7285],[-80.2052,46.0555,201.8135],[-80.2023,46.0586,212.8062],[-80.1776,46.0553,228.9233],[-80.1695,46.0571,219.6425],[-80.1517,46.0569,208.3743],[-80.1501,46.0605,214.1027],[-80.1645,46.0626,201.4488],[-80.1753,46.0667,200.503],[-80.1748,46.0738,214.1201],[-80.168,46.0717,235.3907],[-80.1454,46.0724,196.7951],[-80.1444,46.0771,214.2189],[-80.1468,46.0787,200.9777],[-80.1412,46.0804,205.6479],[-80.1408,46.0822,186.0],[-80.1429,46.0874,193.0503],[-80.1341,46.0908,188.4064],[-80.1335,46.0936,195.2953],[-80.1291,46.0954,202.2083],[-80.1417,46.0918,186.0],[-80.1483,46.0927,212.9618],[-80.1499,46.0967,193.5737],[-80.1577,46.0962,188.3889],[-80.1432,46.1021,201.4028],[-80.1445,46.103,194.0718],[-80.1608,46.0976,196.0333],[-80.1657,46.0981,189.077],[-80.1516,46.1036,206.8266],[-80.1504,46.1074,193.2482],[-80.1489,46.1055,195.0618],[-80.1497,46.1038,192.5],[-80.1427,46.1045,207.0444],[-80.1508,46.1087,193.2482],[-80.154,46.107,193.1679],[-80.1525,46.1048,193.6243],[-80.1675,46.1024,213.7213],[-80.1775,46.1032,193.5],[-80.1738,46.1057,202.9021],[-80.1614,46.1103,200.4845],[-80.1583,46.1099,193.5],[-80.1585,46.1083,203.4479],[-80.1515,46.1112,195.5094],[-80.1495,46.1102,198.7477],[-80.1377,46.1155,193.5],[-80.1265,46.1148,193.5],[-80.1237,46.1115,199.5275],[-80.1252,46.1161,194.664],[-80.1229,46.1169,200.9737],[-80.1,46.1149,201.6296],[-80.0702,46.1165,200.1876],[-80.0748,46.1213,203.4346],[-80.0742,46.1224,209.5763],[-80.0842,46.1268,202.1401],[-80.1036,46.1327,199.2431],[-80.1068,46.1377,216.5729],[-80.1049,46.1412,207.2096],[-80.0845,46.1396,207.5594],[-80.0794,46.1375,209.3293],[-80.0752,46.1328,225.7836],[-80.0719,46.1324,227.7919],[-80.0626,46.1415,226.3466],[-80.0497,46.1457,221.2175],[-80.0197,46.1455,193.0],[-80.0144,46.1414,193.0],[-80.0124,46.1335,193.0],[-80.0177,46.1287,206.0877],[-80.0104,46.1255,198.7382],[-80.0093,46.1233,200.5663],[-80.0223,46.1133,214.1947],[-80.0244,46.1152,198.7847],[-80.0333,46.1158,194.5154],[-80.0484,46.1091,186.0],[-80.0566,46.1007,186.0],[-80.0648,46.0973,186.0],[-80.0718,46.0967,186.0],[-80.0658,46.1026,212.2073],[-80.0787,46.0978,194.7933],[-80.0817,46.0985,189.7578],[-80.0826,46.0968,188.8655]],
[[-80.5352,45.9835,182.553],[-80.5258,45.9831,196.0158],[-80.525,45.9558,201.1768],[-80.5661,45.9547,205.0302],[-80.5677,45.9914,188.6459],[-80.5483,45.9888,177.2746],[-80.5352,45.9835,182.553]],
[[-80.4852,46.027,179.5],[-80.483,46.028,179.5],[-80.4791,46.0269,185.528],[-80.4877,46.0124,184.5057],[-80.4916,46.009,179.5],[-80.5022,46.0085,220.43],[-80.4787,45.994,182.2795],[-80.4813,45.9832,195.0422],[-80.5232,45.9835,185.3255],[-80.5274,45.9885,175.5],[-80.5345,45.9927,188.19],[-80.5392,45.999,181.633],[-80.5386,46.0013,195.9669],[-80.5429,46.0055,196.6547],[-80.5394,46.0065,181.2795],[-80.539,46.0038,179.5],[-80.5345,45.9984,209.4597],[-80.5306,45.998,217.1646],[-80.5237,46.007,205.2885],[-80.5259,46.0128,218.7427],[-80.5249,46.0171,210.648],[-80.5105,46.0159,190.2516],[-80.5107,46.0269,224.6515],[-80.4925,46.0235,224.0081],[-80.4852,46.027,179.5]],
[[-80.399,45.7501,213.4556],[-80.3946,45.7425,185.5],[-80.3989,45.7417,197.0113],[-80.3986,45.726,217.6018],[-80.5223,45.726,191.3238],[-80.5228,45.7688,181.8991],[-80.48,45.7696,199.212],[-80.4662,45.7657,188.6214],[-80.4166,45.7802,213.0583],[-80.399,45.7501,213.4556]]]]}
,"properties": {"GID_3": "CAN.9.37.20_1","GID_0": "CAN","country": "Canada","GID_1": "CAN.9_1","province": "Ontario","NL_NAME_1": "NA","GID_2": "CAN.9.37_1","county": "ParrySound","NL_NAME_2": "NA","city": "ParrySound,Unorganized,Centre","VARNAME_3": "NA","NL_NAME_3": "NA","TYPE_3": "NonOrganisé","ENGTYPE_3": "Unorganized","CC_3": "NA","HASC_3": "NA","name": "Parry_Sound,Unorganized,Centre.city","area_km2": 2921.876,"hist_schema_id": "Elevation0-9000","hist_area_km2": {"175": 110.8,"200": 530.587,"225": 1006.261,"250": 659.481,"275": 218.785,"300": 124.891,"325": 127.695,"350": 115.803,"375": 25.578,"400": 1.994}}}