{"type":"Feature","properties":{"GID_3":"CAN.9.45.2_1","GID_0":"CAN","country":"Canada","GID_1":"CAN.9_1","province":"Ontario","NL_NAME_1":"NA","GID_2":"CAN.9.45_1","county":"Simcoe","NL_NAME_2":"NA","city":"Barrie","VARNAME_3":"NA","NL_NAME_3":"NA","TYPE_3":"Cité","ENGTYPE_3":"City","CC_3":"NA","HASC_3":"NA","name":"Barrie.city"},
"geometry":{"type": "MultiPolygon","coordinates": [[[[-79.7344,44.3188,291.7059],[-79.6976,44.3267,313.0447],[-79.6959,44.3204,312.9205],[-79.6527,44.3301,257.8621],[-79.6538,44.3364,255.7644],[-79.647,44.3379,253.8957],[-79.6478,44.3439,254.1191],[-79.604,44.3538,262.1642],[-79.6056,44.3665,266.7274],[-79.6207,44.3631,267.6725],[-79.6267,44.3828,218.0],[-79.639,44.3813,218.0],[-79.6518,44.3867,218.0],[-79.6458,44.4162,259.85],[-79.6567,44.4173,249.6543],[-79.6561,44.4201,239.8476],[-79.6607,44.4207,227.8859],[-79.6688,44.4182,234.6],[-79.674,44.4212,231.0291],[-79.6831,44.4171,248.4109],[-79.6892,44.4234,245.127],[-79.6963,44.4202,273.0921],[-79.6999,44.4244,258.9869],[-79.7215,44.4146,280.4182],[-79.7199,44.4126,283.3569],[-79.728,44.409,286.3503],[-79.7326,44.4028,297.2371],[-79.7306,44.4002,298.081],[-79.745,44.3936,308.5719],[-79.7418,44.3856,297.8982],[-79.7422,44.382,298.0047],[-79.7448,44.3807,298.0791],[-79.7407,44.376,243.2119],[-79.7419,44.3753,240.846],[-79.7408,44.3734,240.2376],[-79.733,44.3653,244.2479],[-79.7456,44.362,233.562],[-79.7344,44.3188,291.7059]]]]}}