{"type": "Feature","bbox": [-53.2779,47.4652,-53.181,47.5351],"geometry": {"type": "MultiPolygon","coordinates": [[[[-53.2437,47.516,56.0087],[-53.2404,47.5092,78.2725],[-53.2531,47.4978,81.6364],[-53.2668,47.4784,121.5021],[-53.2749,47.4712,107.5],[-53.2779,47.4652,133.8776],[-53.2558,47.481,121.3938],[-53.2461,47.4844,84.9902],[-53.2276,47.4974,81.172],[-53.2203,47.499,64.2448],[-53.2103,47.5048,81.5539],[-53.2032,47.5006,11.0942],[-53.2003,47.502,43.3964],[-53.201,47.5084,0.0],[-53.1858,47.5206,39.0767],[-53.1832,47.525,0.0],[-53.181,47.5351,0.0],[-53.1879,47.5294,55.5427],[-53.2248,47.5127,144.7408],[-53.2437,47.516,56.0087]]]]}
,"properties": {"GID_3": "CAN.5.3.37_1","GID_0": "CAN","country": "Canada","GID_1": "CAN.5_1","province": "NewfoundlandandLabrador","NL_NAME_1": "NA","GID_2": "CAN.5.3_1","county": "DivisionNo.1","NL_NAME_2": "NA","city": "DivisionNo.1,Subd.N","VARNAME_3": "NA","NL_NAME_3": "NA","TYPE_3": "SubdivisionofUnorganized","ENGTYPE_3": "SubdivisionofUnorganized","CC_3": "NA","HASC_3": "NA","name": "Division_No.1,Subd.N.city","area_km2": 11.429745,"hist_schema_id": "Elevation0-9000","hist_area_km2": {"0": 0.272076,"25": 0.458216,"50": 0.572778,"75": 1.661305,"100": 3.222713,"125": 2.349164,"150": 1.618613,"175": 1.27488}}}