{"type": "Feature","bbox": [-126.76,54.3562,-126.5795,54.4422],"geometry": {"type": "MultiPolygon","coordinates": [[[[-126.5797,54.4356,606.8861],[-126.5795,54.4422,599.5693],[-126.5959,54.4324,600.5093],[-126.6294,54.4322,690.5707],[-126.6293,54.4252,642.2726],[-126.6559,54.425,906.0077],[-126.6561,54.4179,770.1702],[-126.681,54.4178,874.8481],[-126.6818,54.4251,901.1914],[-126.7184,54.4249,813.0013],[-126.7185,54.4219,778.0466],[-126.726,54.4219,714.6601],[-126.7262,54.4276,755.2869],[-126.7512,54.4277,609.8198],[-126.7508,54.4195,574.6204],[-126.7526,54.4127,580.3983],[-126.7487,54.41,583.9954],[-126.748,54.3981,623.7451],[-126.7429,54.3932,580.2906],[-126.7482,54.3915,602.473],[-126.7501,54.3866,615.2183],[-126.7452,54.3806,592.0385],[-126.751,54.3756,590.0042],[-126.7597,54.3738,591.0968],[-126.76,54.3674,662.4584],[-126.7353,54.3674,600.6204],[-126.7347,54.3562,703.3869],[-126.6975,54.3564,661.0695],[-126.6974,54.3672,618.3881],[-126.5941,54.3671,764.2892],[-126.5941,54.3883,691.3258],[-126.5795,54.3884,779.3101],[-126.5797,54.4356,606.8861]]]]}
,"properties": {"GID_3": "CAN.2.2.22_1","GID_0": "CAN","country": "Canada","GID_1": "CAN.2_1","province": "BritishColumbia","NL_NAME_1": "NA","GID_2": "CAN.2.2_1","county": "Bulkley-Nechako","NL_NAME_2": "NA","city": "Houston","VARNAME_3": "NA","NL_NAME_3": "NA","TYPE_3": "DistrictMunicipality","ENGTYPE_3": "DistrictMunicipality","CC_3": "NA","HASC_3": "NA","name": "Houston.city","area_km2": 74.38134,"hist_schema_id": "Elevation0-9000","hist_area_km2": {"575": 10.80127,"600": 15.81297,"625": 13.99853,"650": 10.75179,"675": 6.66586,"700": 4.4926,"725": 3.72715,"750": 2.96174,"775": 2.24565,"800": 0.83896,"825": 0.5675,"850": 0.35776,"875": 0.37009,"900": 0.38241,"925": 0.25905,"950": 0.14802}}}