{"type":"Feature","properties":{"GID_3":"CAN.12.5.12_1","GID_0":"CAN","country":"Canada","GID_1":"CAN.12_1","province":"Saskatchewan","NL_NAME_1":"NA","GID_2":"CAN.12.5_1","county":"DivisionNo.14","NL_NAME_2":"NA","city":"ConnaughtNo.457","VARNAME_3":"NA","NL_NAME_3":"NA","TYPE_3":"RuralMunicipality","ENGTYPE_3":"RuralMunicipality","CC_3":"NA","HASC_3":"NA","name":"Connaught_No.457.city"},
"geometry":{"type": "MultiPolygon","coordinates": [[[[-103.7578,53.0591,381.8],[-103.7608,53.0593,381.9855],[-103.7607,53.0648,381.2119],[-103.7634,53.0648,379.3105],[-103.7634,53.0667,377.7526],[-103.7577,53.0682,379.121],[-103.7583,53.1915,360.3346],[-103.8038,53.1914,362.1915],[-103.8067,53.1885,361.4415],[-103.8067,53.1906,363.7675],[-103.8101,53.1914,362.3645],[-104.1959,53.191,387.9601],[-104.1959,53.0164,409.2592],[-104.1797,53.0164,406.8849],[-104.1815,52.9292,439.6142],[-103.7462,52.9292,447.6371],[-103.7467,53.0169,441.0875],[-103.7573,53.0168,433.2584],[-103.7578,53.0591,381.8]],
[[-104.1469,53.0568,397.8979],[-104.1471,53.0522,396.1949],[-104.159,53.0522,399.1682],[-104.1588,53.0602,388.3887],[-104.1467,53.0602,398.4596],[-104.1469,53.0568,397.8979]]]]}}