{"type": "Feature","bbox": [-70.8748,46.1153,-70.7587,46.1959],"geometry": {"type": "MultiPolygon","coordinates": [[[[-70.7839,46.1276,351.1912],[-70.7587,46.1446,323.4252],[-70.7771,46.1614,303.3344],[-70.7754,46.1625,299.3673],[-70.7853,46.1708,248.0665],[-70.8067,46.1732,337.2297],[-70.8123,46.1825,310.3341],[-70.8141,46.182,307.0424],[-70.8154,46.1845,325.6174],[-70.814,46.1851,322.1361],[-70.8148,46.187,326.5641],[-70.8302,46.1762,341.4749],[-70.8538,46.1959,289.9781],[-70.8744,46.1813,338.8116],[-70.8496,46.1592,359.0135],[-70.8628,46.1512,348.9627],[-70.861,46.1495,345.304],[-70.8748,46.1413,371.0226],[-70.8456,46.1153,346.2225],[-70.8323,46.124,331.2384],[-70.8239,46.1165,314.6718],[-70.7925,46.1351,290.9483],[-70.7839,46.1276,351.1912]]]]}
,"properties": {"GID_3": "CAN.11.90.2_1","GID_0": "CAN","country": "Canada","GID_1": "CAN.11_1","province": "Québec","NL_NAME_1": "NA","GID_2": "CAN.11.90_1","county": "Robert-Cliche","NL_NAME_2": "NA","city": "Saint-Alfred","VARNAME_3": "NA","NL_NAME_3": "NA","TYPE_3": "Municipalité","ENGTYPE_3": "Municipality","CC_3": "NA","HASC_3": "NA","name": "Saint-Alfred.city","area_km2": 43.60762,"hist_schema_id": "Elevation0-9000","hist_area_km2": {"250": 0.33773,"275": 6.3308,"300": 10.13555,"325": 16.47994,"350": 9.63348,"375": 0.69012}}}