{"type": "Feature","bbox": [-56.5513,48.8032,-56.5179,48.8229],"geometry": {"type": "MultiPolygon","coordinates": [[[[-56.5285,48.8051,225.4138],[-56.5229,48.8079,232.599],[-56.518,48.8133,227.2348],[-56.5179,48.8171,222.8282],[-56.5225,48.8204,207.0164],[-56.5362,48.8229,153.0],[-56.5435,48.8203,153.0],[-56.5513,48.8126,153.0],[-56.5508,48.8077,169.7118],[-56.5452,48.804,213.3008],[-56.537,48.8032,227.2023],[-56.5285,48.8051,225.4138]]]]}
,"properties": {"GID_3": "CAN.5.8.13_1","GID_0": "CAN","country": "Canada","GID_1": "CAN.5_1","province": "NewfoundlandandLabrador","NL_NAME_1": "NA","GID_2": "CAN.5.8_1","county": "DivisionNo.6","NL_NAME_2": "NA","city": "Millertown","VARNAME_3": "NA","NL_NAME_3": "NA","TYPE_3": "Town","ENGTYPE_3": "Town","CC_3": "NA","HASC_3": "NA","name": "Millertown.city","area_km2": 3.895418,"hist_schema_id": "Elevation0-9000","hist_area_km2": {"150": 0.837665,"175": 0.390924,"200": 0.8377,"225": 1.74535,"250": 0.083778}}}