{"type":"Feature","properties":{"GID_3":"CAN.12.13.27_1","GID_0":"CAN","country":"Canada","GID_1":"CAN.12_1","province":"Saskatchewan","NL_NAME_1":"NA","GID_2":"CAN.12.13_1","county":"DivisionNo.4","NL_NAME_2":"NA","city":"WhiteValleyNo.49","VARNAME_3":"NA","NL_NAME_3":"NA","TYPE_3":"RuralMunicipality","ENGTYPE_3":"RuralMunicipality","CC_3":"NA","HASC_3":"NA","name":"White_Valley_No.49.city"},
"geometry":{"type": "MultiPolygon","coordinates": [[[[-108.8088,49.5237,950.2341],[-108.8087,49.5092,911.1405],[-108.8307,49.5091,928.5589],[-108.8309,49.5119,917.0904],[-108.8368,49.5122,913.8677],[-108.8369,49.5155,917.3652],[-108.8309,49.5138,914.066],[-108.8308,49.5236,947.3471],[-108.851,49.5236,1015.4258],[-108.8511,49.6985,1113.5739],[-109.2576,49.6984,1215.2651],[-109.2576,49.5242,1057.7124],[-109.1671,49.5246,1096.7672],[-109.1673,49.5093,1064.682],[-109.1223,49.5094,1124.4917],[-109.1224,49.2623,973.0519],[-109.0,49.2612,936.5546],[-108.921,49.2628,931.6312],[-108.427,49.2627,965.9833],[-108.4282,49.4368,1028.1244],[-108.427,49.5238,1031.7665],[-108.8088,49.5237,950.2341]]]]}}