{"type":"Feature","properties":{"GID_3":"CAN.12.7.53_1","GID_0":"CAN","country":"Canada","GID_1":"CAN.12_1","province":"Saskatchewan","NL_NAME_1":"NA","GID_2":"CAN.12.7_1","county":"DivisionNo.16","NL_NAME_2":"NA","city":"Shellbrook","VARNAME_3":"NA","NL_NAME_3":"NA","TYPE_3":"Town","ENGTYPE_3":"Town","CC_3":"NA","HASC_3":"NA","name":"Shellbrook.city"},
"geometry":{"type": "MultiPolygon","coordinates": [[[[-106.3747,53.2217,501.1131],[-106.3749,53.228,501.5145],[-106.3943,53.2278,493.9549],[-106.395,53.2253,495.5223],[-106.4069,53.2208,494.6596],[-106.3959,53.2208,500.5325],[-106.3944,53.2136,501.0305],[-106.3823,53.2137,499.985],[-106.3823,53.2181,501.4301],[-106.3695,53.2196,500.7646],[-106.3695,53.2207,502.4266],[-106.3747,53.2217,501.1131]]]]}}