{"type": "Feature","bbox": [-132.0,53.2461,-131.9695,53.2808],"geometry": {"type": "MultiPolygon","coordinates": [[[[-131.9872,53.2469,0.0],[-131.9844,53.248,0.0],[-131.9861,53.2492,0.0],[-131.9894,53.2483,0.0],[-131.9872,53.2469,0.0]]],
[[[-131.9817,53.2559,0.0],[-131.9789,53.2547,0.0],[-131.9744,53.2575,0.0],[-131.9767,53.2586,11.5848],[-131.9817,53.2559,0.0]]],
[[[-131.9997,53.2461,0.0],[-131.9946,53.2478,0.0],[-131.9967,53.2492,14.0251],[-131.9894,53.2547,0.4586],[-131.9906,53.265,0.0],[-131.98,53.2695,0.9158],[-131.9783,53.2728,1.0466],[-131.9705,53.2773,19.3224],[-131.9695,53.2808,6.3308],[-132.0,53.2781,261.082],[-131.9997,53.2461,0.0]]]]}
,"properties": {"GID_3": "CAN.2.24.14_1","GID_0": "CAN","country": "Canada","GID_1": "CAN.2_1","province": "BritishColumbia","NL_NAME_1": "NA","GID_2": "CAN.2.24_1","county": "Skeena-QueenCharlotte","NL_NAME_2": "NA","city": "Skidegate1","VARNAME_3": "NA","NL_NAME_3": "NA","TYPE_3": "RéserveIndienne","ENGTYPE_3": "IndianReserve","CC_3": "NA","HASC_3": "NA","name": "Skidegate1.city","area_km2": 3.360342,"hist_schema_id": "Elevation0-9000","hist_area_km2": {"0": 0.65947,"25": 0.583329,"50": 0.469154,"75": 0.41843,"100": 0.380419,"125": 0.367731,"150": 0.291636,"175": 0.101429,"200": 0.06339,"225": 0.025355}}}