{"type": "Feature","bbox": [-114.1549,51.6499,-114.1156,51.6716],"geometry": {"type": "MultiPolygon","coordinates": [[[[-114.1179,51.6715,1024.0881],[-114.1428,51.6716,1037.2798],[-114.1427,51.6654,1042.8905],[-114.1443,51.6641,1040.3022],[-114.1547,51.6641,1049.5447],[-114.1549,51.6499,1053.9391],[-114.1176,51.6502,1021.8589],[-114.1177,51.6615,1012.0912],[-114.1156,51.6629,1004.818],[-114.1178,51.6638,1004.2126],[-114.1179,51.6715,1024.0881]]]]}
,"properties": {"GID_3": "CAN.1.16.10_1","GID_0": "CAN","country": "Canada","GID_1": "CAN.1_1","province": "Alberta","NL_NAME_1": "NA","GID_2": "CAN.1.16_1","county": "DivisionNo.6","NL_NAME_2": "NA","city": "Didsbury","VARNAME_3": "NA","NL_NAME_3": "NA","TYPE_3": "Town","ENGTYPE_3": "Town","CC_3": "NA","HASC_3": "NA","name": "Didsbury.city","area_km2": 5.326703,"hist_schema_id": "Elevation0-9000","hist_area_km2": {"1000": 0.618064,"1025": 2.091205,"1050": 2.617434}}}