{"type":"Feature","properties":{"featurecla":"River","scalerank":12,"rivernum":20616,"dissolve":"20616River","name":"Magpie Ouest","name_alt":null,"note":"ID is link back to CEC data","name_full":"Rivire Magpie Ouest","min_zoom":7.0,"strokeweig":0.2,"uident":1601701,"min_label":8.0},
"geometry":{"type": "LineString","coordinates": [[-65.659738736062067,51.876044012494027,608.8096],[-65.668324348041239,51.852565822389863,604.0726],[-65.6507869131454,51.828395900514863,593.8687],[-65.6134333975204,51.8030866557232,600.9122],[-65.565988736062067,51.775458074994027,641.0984],[-65.428049282937067,51.680487371869027,681.8561],[-65.354318814187067,51.624457098431527,571.0142],[-65.281198696999567,51.562933660931527,545.5012],[-65.250355598041239,51.528102931764863,551.9061],[-65.242298957416239,51.507879949994027,555.5692],[-65.244455532937067,51.471869207806527,566.9166],[-65.2547908193954,51.426947332806527,581.5296],[-65.253977017312067,51.4048932963482,585.8237],[-65.236887173562067,51.380682684369027,638.2233],[-65.213490363666239,51.3621686869732,618.093],[-65.180490689187067,51.345038153119027,592.6675],[-65.154123501687067,51.331244207806527,585.6827],[-65.102040168353739,51.309515692181527,515.8751],[-65.0658259756454,51.282782293744027,484.4866],[-65.081288215228739,51.223171291139863,435.1633],[-65.080067512103739,51.151312567181527,390.2872],[-65.024525519916239,51.118719793744027,381.2117],[-65.007923957416239,51.0889753275982,524.5966],[-64.9776912100204,51.055121160931527,370.8045],[-64.938832160541239,51.0389264994732,388.7151],[-64.898264126687067,51.043524481244027,489.7713],[-64.832346157937067,51.056179103639863,408.6138],[-64.793283657937067,51.053778387494027,296.8537],[-64.7472224600204,51.0391706400982,305.288]]}}