{"type":"Feature","properties":{"featurecla":"River","scalerank":12,"rivernum":21982,"dissolve":"21982River","name":"Jupiter1","name_alt":null,"note":"ID is link back to CEC data","name_full":"Rivire Jupiter","min_zoom":7.0,"strokeweig":0.2,"uident":1635001,"min_label":8.0},
"geometry":{"type": "LineString","coordinates": [[-63.615589973041239,49.470648504681527,0.0],[-63.598133918353739,49.474676824994027,2.4982],[-63.574330207416239,49.480983791139863,9.6392],[-63.564361131895396,49.496608791139863,84.9104],[-63.570912238666239,49.5386823588482,57.4026],[-63.583159960020396,49.567694403119027,78.0595],[-63.573597785541239,49.586981512494027,93.0658],[-63.553944465228739,49.5999616557232,70.2353],[-63.524322069395396,49.606512762494027,116.269],[-63.482655402728739,49.609808660931527,146.5635],[-63.455515103249567,49.617010809369027,152.9754],[-63.436431444395396,49.6246198588482,132.9574],[-63.414702928770396,49.618679103639863,110.3343],[-63.389068163145396,49.606146551556527,108.4035],[-63.351144986062067,49.599310614056527,145.272],[-63.311756965228739,49.5645612650982,136.9924],[-63.225982225645396,49.5316022807232,198.9645]]}}