{"type": "Feature","bbox": [-111.9728,49.0,-111.9533,49.0085],"geometry": {"type": "MultiPolygon","coordinates": [[[[-111.9728,49.0,1080.2938],[-111.9534,49.0,1051.3134],[-111.9533,49.0065,1050.1675],[-111.9648,49.0067,1067.4984],[-111.9706,49.0085,1062.4154],[-111.9696,49.0026,1073.0267],[-111.9728,49.0025,1072.4755],[-111.9728,49.0,1080.2938]]]]}
,"properties": {"GID_3": "CAN.1.12.7_1","GID_0": "CAN","country": "Canada","GID_1": "CAN.1_1","province": "Alberta","NL_NAME_1": "NA","GID_2": "CAN.1.12_1","county": "DivisionNo.2","NL_NAME_2": "NA","city": "Coutts","VARNAME_3": "NA","NL_NAME_3": "NA","TYPE_3": "Village","ENGTYPE_3": "Village","CC_3": "NA","HASC_3": "NA","name": "Coutts.city","area_km2": 1.0988138,"hist_schema_id": "Elevation0-9000","hist_area_km2": {"1050": 0.3894525,"1075": 0.7093613}}}