{"type": "Feature","bbox": [-76.6086,44.7056,-76.1954,44.9964],"geometry": {"type": "MultiPolygon","coordinates": [[[[-76.5446,44.7407,186.3071],[-76.5318,44.7175,184.2117],[-76.4022,44.7945,180.5318],[-76.2931,44.7056,124.9712],[-76.2817,44.7069,122.0],[-76.2719,44.7121,122.0],[-76.2701,44.715,122.0],[-76.2668,44.7153,122.0],[-76.2566,44.7231,122.0],[-76.2446,44.72,122.0],[-76.2337,44.7348,122.0],[-76.2287,44.7389,122.0],[-76.2317,44.743899999999996,122.0],[-76.2311,44.7529,136.0376],[-76.2252,44.762,135.3333],[-76.2256,44.7655,133.9281],[-76.2239,44.7687,124.5807],[-76.2199,44.7705,122.0],[-76.2191,44.7796,123.7707],[-76.2113,44.7843,142.8226],[-76.2055,44.7909,135.5629],[-76.2059,44.7967,122.0],[-76.2024,44.8072,124.6758],[-76.1954,44.8202,130.1557],[-76.2177,44.839,145.1546],[-76.2241,44.8469,132.1762],[-76.2618,44.8788,138.3713],[-76.2503,44.886,137.9724],[-76.2517,44.8871,137.6779],[-76.2544,44.8854,134.9365],[-76.2624,44.8906,133.768],[-76.2574,44.893,135.7177],[-76.258,44.8956,132.983],[-76.382,44.9964,160.912],[-76.5319,44.903,222.3937],[-76.5339,44.9019,223.7551],[-76.5374,44.9049,224.2233],[-76.6086,44.8578,186.0798],[-76.5446,44.7407,186.3071]]]]}
,"properties": {"GID_3": "CAN.9.26.1_1","GID_0": "CAN","country": "Canada","GID_1": "CAN.9_1","province": "Ontario","NL_NAME_1": "NA","GID_2": "CAN.9.26_1","county": "Lanark","NL_NAME_2": "NA","city": "BathurstBurgessSherbrooke","VARNAME_3": "NA","NL_NAME_3": "NA","TYPE_3": "Township","ENGTYPE_3": "Township","CC_3": "NA","HASC_3": "NA","name": "Bathurst_Burgess_Sherbrooke.city","area_km2": 593.1931,"hist_schema_id": "Elevation0-9000","hist_area_km2": {"125": 31.0344,"150": 262.3742,"175": 164.5061,"200": 114.7302,"225": 20.5482}}}