{"type":"Feature","properties":{"featurecla":"Lake Centerline","scalerank":11,"rivernum":20833,"dissolve":"20833Lake Centerline","name":"Stuart1","name_alt":null,"note":"ID is link back to CEC data","name_full":"Stuart River","min_zoom":6.7,"strokeweig":0.2,"uident":1594501,"min_label":7.7},
"geometry":{"type": "LineString","coordinates": [[-124.75902259022872,54.659694728639863,681.3137],[-124.71678626210372,54.615301824994027,679.0],[-124.62108313710372,54.576239324994027,679.0],[-124.50389563710372,54.533270574994027,679.0],[-124.39061438710372,54.470770574994027,679.0],[-124.33006751210372,54.451239324994027,679.0],[-124.28709876210372,54.437567449994027,679.0],[-124.2420955068954,54.417832749473192,690.5522]]}}