{"type":"Feature","properties":{"featurecla":"River","scalerank":11,"rivernum":20765,"dissolve":"20765River","name":"W. Road (Blackwater)","name_alt":null,"note":"ID is link back to CEC data","name_full":"West Road (Blackwater) River","min_zoom":6.7,"strokeweig":0.2,"uident":1624101,"min_label":7.7},
"geometry":{"type": "LineString","coordinates": [[-125.1307673818954,53.009711004681527,1126.2065],[-125.1229548818954,53.011419989056527,1153.0619],[-125.0255427725204,53.012966213014863,1178.7244],[-124.92601477772872,53.041815496869027,1171.6851],[-124.87413489491622,53.052069403119027,1066.2898],[-124.79841061106205,53.071478582806527,996.5],[-124.67589270741622,53.113796291139863,1022.249],[-124.58405514231205,53.119167384889863,1036.2164],[-124.55138098866622,53.121527410931527,1069.5973],[-124.48155676991622,53.126532293744027,1135.4037],[-124.3790583975204,53.146511134889863,1080.791],[-124.35997473866622,53.150213934369027,1018.5992],[-124.26414954335372,53.185573634889863,1004.2749],[-124.1722712881454,53.199042059369027,1023.1757],[-124.1031794912704,53.219305731244027,1025.3392],[-124.04405676991622,53.238226629681527,1017.5977],[-123.99815833241622,53.244248765098192,975.9668],[-123.94591223866622,53.242539780723192,943.2419],[-123.89256751210372,53.235459702598192,922.7029],[-123.85448157460372,53.216253973431527,889.419],[-123.6964412100204,53.154486395306527,894.7673],[-123.6214900381454,53.147894598431527,890.491],[-123.58726966054122,53.148464259889863,856.4229]]}}