{"type":"Feature","properties":{"featurecla":"River","scalerank":11,"rivernum":20780,"dissolve":"20780River","name":"Chilako","name_alt":null,"note":"ID is link back to CEC data","name_full":"Chilako River","min_zoom":6.7,"strokeweig":0.2,"uident":1616701,"min_label":7.7},
"geometry":{"type": "LineString","coordinates": [[-124.12291419179122,53.529608465619027,919.618],[-123.97142493397872,53.524684963014863,828.9084],[-123.96947180897872,53.524684963014863,823.1504],[-123.93260657460372,53.530585028119027,815.2273],[-123.8851619131454,53.543768621869027,833.7883],[-123.84430904856205,53.555690822389863,831.1926],[-123.7967830068954,53.560370184369027,831.6402],[-123.7543025381454,53.548285223431527,824.1827],[-123.69440670481205,53.518174546348192,807.4797],[-123.65998287668705,53.508978582806527,770.8898],[-123.6275935537704,53.506659246869027,763.4352],[-123.56871497304122,53.516180731244027,778.4325],[-123.4996638662704,53.528998114056527,802.1447],[-123.46882076731205,53.529120184369027,802.2983],[-123.39281165272872,53.519883530723192,772.9176],[-123.3468318350204,53.510321356244027,747.6891],[-123.2550349600204,53.491156317181527,741.5428],[-123.18927975168705,53.460720119264863,716.5792],[-123.1637263662704,53.456610418744027,689.2457],[-123.1495662100204,53.462510483848192,690.5108],[-123.1373591787704,53.483099676556527,671.137],[-123.13923092356205,53.588690496869027,738.3265],[-123.1468806631454,53.629990952598192,706.6214],[-123.12621009022872,53.715399481244027,644.0371],[-123.0919490225204,53.740301824994027,633.5958],[-123.0409236318954,53.760443426556527,697.4243],[-123.0157771475204,53.776922918744027,687.9531],[-122.99176998606205,53.798854884889863,619.5164],[-122.96080481679122,53.836004949994027,618.4837],[-122.96104895741622,53.860419012494027,694.1105],[-122.9772029287704,53.884385483848192,604.215]]}}