{"type": "Feature","bbox": [-104.4278,49.2607,-104.0242,49.5227],"geometry": {"type": "MultiPolygon","coordinates": [[[[-104.4264,49.5227,656.0061],[-104.4261,49.3187,726.8676],[-104.4278,49.2607,757.678],[-104.0244,49.2607,674.1526],[-104.0242,49.5225,594.3078],[-104.4264,49.5227,656.0061]],
[[-104.3043,49.4684,632.6818],[-104.2919,49.4683,629.9506],[-104.2918,49.4647,630.3882],[-104.2861,49.4648,627.1615],[-104.286,49.4574,626.1286],[-104.2918,49.4573,633.1859],[-104.2918,49.4536,637.0178],[-104.3031,49.4538,641.123],[-104.3031,49.457,641.9257],[-104.3056,49.457,644.0189],[-104.3043,49.4684,632.6818]]]]}
,"properties": {"GID_3": "CAN.12.11.23_1","GID_0": "CAN","country": "Canada","GID_1": "CAN.12_1","province": "Saskatchewan","NL_NAME_1": "NA","GID_2": "CAN.12.11_1","county": "DivisionNo.2","NL_NAME_2": "NA","city": "LaurierNo.38","VARNAME_3": "NA","NL_NAME_3": "NA","TYPE_3": "RuralMunicipality","ENGTYPE_3": "RuralMunicipality","CC_3": "NA","HASC_3": "NA","name": "Laurier_No.38.city","area_km2": 847.1685,"hist_schema_id": "Elevation0-9000","hist_area_km2": {"600": 13.6433,"625": 309.3688,"650": 143.5389,"675": 80.2595,"700": 100.6037,"725": 148.2248,"750": 49.5937,"775": 1.9357}}}