{"type":"Feature","properties":{"GID_3":"CAN.9.48.14_1","GID_0":"CAN","country":"Canada","GID_1":"CAN.9_1","province":"Ontario","NL_NAME_1":"NA","GID_2":"CAN.9.48_1","county":"ThunderBay","NL_NAME_2":"NA","city":"Neebing","VARNAME_3":"NA","NL_NAME_3":"NA","TYPE_3":"Township","ENGTYPE_3":"Township","CC_3":"NA","HASC_3":"NA","name":"Neebing.city"},
"geometry":{"type": "MultiPolygon","coordinates": [[[[-89.3371,48.0825,180.5],[-89.3242,48.0824,180.5],[-89.3205,48.0867,201.5347],[-89.3214,48.089,214.0562],[-89.3275,48.0891,216.5708],[-89.3615,48.079,180.5],[-89.3572,48.0752,180.5],[-89.3565,48.0695,180.5],[-89.3381,48.0763,180.5],[-89.341,48.0796,233.6402],[-89.3371,48.0825,180.5]]],
[[[-89.2838,48.1047,208.7486],[-89.286,48.1018,180.5],[-89.2843,48.1002,180.5],[-89.2744,48.1015,180.5],[-89.2487,48.1164,180.5],[-89.2479,48.1187,180.5],[-89.2657,48.1164,201.5026],[-89.2838,48.1047,208.7486]]],
[[[-89.2925,48.1379,180.5],[-89.2898,48.1378,180.5],[-89.2692,48.1457,180.5],[-89.2671,48.1482,180.5],[-89.27,48.1501,194.4318],[-89.2968,48.1402,180.5],[-89.2956,48.1381,180.5],[-89.2925,48.1379,180.5]]],
[[[-89.2617,48.2583,340.279],[-89.2504,48.2699,194.2567],[-89.2572,48.2668,182.0786],[-89.2892,48.2724,304.8469],[-89.2895,48.2753,303.8084],[-89.2946,48.2753,301.5753],[-89.2948,48.2733,289.1001],[-89.3123,48.2758,283.0],[-89.3199,48.2779,298.1245],[-89.3295,48.2885,331.6292],[-89.3367,48.2898,385.0229],[-89.5255,48.2893,291.4077],[-89.5252,48.326,288.1705],[-89.6325,48.3253,390.6219],[-89.6305,48.3004,376.2256],[-89.6366,48.3006,361.1611],[-89.6368,48.2973,334.6213],[-89.6368,48.293,325.5373],[-89.6358,48.2929,377.885],[-89.6366,48.2242,377.5719],[-89.7664,48.2252,409.4304],[-89.7658,48.1588,389.4261],[-89.7018,48.1586,433.8174],[-89.7019,48.1059,524.0508],[-89.7052,48.0917,483.4246],[-89.709,48.0169,323.8578],[-89.6137,48.0165,243.3625],[-89.5514,48.0078,180.5],[-89.5628,48.0032,180.5],[-89.5504,48.0056,180.5],[-89.5462,48.0085,180.5],[-89.5603,48.0113,206.2656],[-89.5585,48.0136,192.3909],[-89.5437,48.0167,180.5],[-89.5373,48.0161,180.5],[-89.5123,48.0199,180.5],[-89.5036,48.0224,180.5],[-89.5032,48.0249,180.5],[-89.5127,48.0256,210.6121],[-89.5193,48.0294,185.6947],[-89.518,48.035,191.0186],[-89.5137,48.0386,187.7156],[-89.4964,48.0384,180.5],[-89.4961,48.0295,180.5],[-89.4931,48.0283,180.5],[-89.4733,48.0306,180.5],[-89.468,48.0332,180.5],[-89.4579,48.0316,180.5],[-89.4554,48.0339,180.5],[-89.4563,48.0428,225.1111],[-89.4662,48.0419,218.7924],[-89.4826,48.048,228.2397],[-89.4795,48.0502,206.9428],[-89.4603,48.0527,180.5],[-89.4539,48.0567,180.5],[-89.4453,48.0588,180.5],[-89.4358,48.0576,180.5],[-89.4187,48.0597,180.5],[-89.4144,48.0635,180.5],[-89.4064,48.0659,180.5],[-89.4074,48.0677,180.5],[-89.4277,48.0693,230.7523],[-89.4319,48.0674,270.7695],[-89.4425,48.0669,180.5],[-89.4458,48.0631,220.3286],[-89.4581,48.0622,222.0313],[-89.464,48.0601,246.2306],[-89.469,48.0609,261.6545],[-89.4634,48.0642,180.5],[-89.4572,48.0652,180.5],[-89.4397,48.0744,180.5],[-89.4393,48.0764,184.8878],[-89.4461,48.0775,192.6167],[-89.4473,48.0791,190.3638],[-89.4455,48.0824,197.6001],[-89.4262,48.085,180.5],[-89.4255,48.0798,180.5],[-89.4239,48.0779,180.5],[-89.4201,48.0778,180.5],[-89.4069,48.0828,180.5],[-89.4005,48.0822,180.5],[-89.3788,48.0864,180.5],[-89.3682,48.094,180.5],[-89.3624,48.0947,180.5],[-89.3506,48.0903,180.5],[-89.3454,48.093,180.5],[-89.3437,48.0986,180.5],[-89.3312,48.1091,184.8916],[-89.356,48.1053,195.9176],[-89.3593,48.1079,202.0095],[-89.358,48.1124,209.0831],[-89.3518,48.1141,180.5],[-89.3466,48.1211,220.1071],[-89.3397,48.1239,180.5],[-89.3348,48.1249,180.5],[-89.3308,48.1241,180.5],[-89.3242,48.1192,180.5],[-89.3211,48.1205,180.5],[-89.3074,48.1334,180.5],[-89.31,48.1364,233.1264],[-89.3201,48.1389,201.727],[-89.3236,48.1429,237.4158],[-89.3133,48.1573,293.0969],[-89.2959,48.1646,180.5],[-89.2911,48.1704,183.5016],[-89.293,48.1735,288.9099],[-89.2996,48.1768,298.5632],[-89.3138,48.1797,195.66],[-89.3158,48.187,192.8052],[-89.3126,48.1952,205.5195],[-89.3059,48.1996,180.5],[-89.2991,48.1996,180.5],[-89.2963,48.195,180.5],[-89.3061,48.1827,180.5],[-89.2932,48.1817,180.5],[-89.2775,48.1888,183.7832],[-89.2738,48.1945,196.9881],[-89.2771,48.2025,190.7872],[-89.2718,48.2232,205.1502],[-89.2737,48.2337,191.434],[-89.2617,48.2583,340.279]]],
[[[-89.1934,48.147,180.5],[-89.1838,48.155,186.8267],[-89.1719,48.1588,180.5],[-89.1624,48.1647,180.5],[-89.1544,48.1664,180.5],[-89.1469,48.1726,191.4508],[-89.1505,48.1752,190.9071],[-89.1961,48.1546,189.9491],[-89.204,48.1471,206.4812],[-89.2114,48.1429,180.5],[-89.2067,48.1414,180.5],[-89.1934,48.147,180.5]]],
[[[-89.2272,48.2216,195.2299],[-89.2281,48.223,193.2889],[-89.2345,48.2246,189.6733],[-89.2414,48.2231,180.5],[-89.252,48.2106,180.5],[-89.2508,48.2014,180.5],[-89.2315,48.2048,180.5],[-89.2255,48.2088,190.6021],[-89.2231,48.2149,183.3353],[-89.2272,48.2216,195.2299]]],
[[[-89.127,48.2034,180.5],[-89.1247,48.2031,180.5],[-89.0631,48.2222,180.5],[-89.0522,48.2274,180.5],[-89.0371,48.2394,180.5],[-89.0352,48.2427,180.5],[-89.0364,48.2453,229.1307],[-89.0479,48.2481,334.4764],[-89.0543,48.2544,212.7671],[-89.0563,48.262,204.2372],[-89.067,48.2651,236.5087],[-89.075,48.2696,197.5328],[-89.0846,48.2689,197.3154],[-89.1031,48.2617,204.5272],[-89.118,48.2652,199.9341],[-89.1242,48.2647,199.8566],[-89.1624,48.2476,180.5],[-89.1758,48.2352,180.5],[-89.1786,48.2275,180.5],[-89.1761,48.2183,180.5],[-89.1683,48.2101,180.5],[-89.1628,48.2107,180.5],[-89.1483,48.2201,180.5],[-89.1438,48.2205,180.5],[-89.1389,48.2169,180.5],[-89.1262,48.2184,180.5],[-89.1232,48.2174,180.5],[-89.1223,48.214,180.5],[-89.1293,48.2055,180.5],[-89.127,48.2034,180.5]]]]}}