{"type":"Feature","properties":{"GID_3":"CAN.8.1.13_1","GID_0":"CAN","country":"Canada","GID_1":"CAN.8_1","province":"Nunavut","NL_NAME_1":"NA","GID_2":"CAN.8.1_1","county":"Baffin","NL_NAME_2":"NA","city":"Qikiqtarjuaq","VARNAME_3":"NA","NL_NAME_3":"NA","TYPE_3":"Hamlet","ENGTYPE_3":"Hamlet","CC_3":"NA","HASC_3":"NA","name":"Qikiqtarjuaq.city"},
"geometry":{"type": "MultiPolygon","coordinates": [[[[-63.7474,67.5234,437.7678],[-63.7443,67.5234,393.6916],[-63.7443,67.5245,408.5429],[-63.7474,67.5245,427.3492],[-63.7474,67.5234,437.7678]]],
[[[-63.7547,67.5411,71.1424],[-63.7625,67.5458,59.6582],[-63.7661,67.5453,113.0704],[-63.7667,67.5437,207.9404],[-63.7661,67.5422,222.1206],[-63.7583,67.5396,232.5889],[-63.7547,67.5411,71.1424]]],
[[[-64.0016,67.4859,0.0],[-63.9979,67.4854,0.0],[-63.9964,67.487,0.0],[-64.0,67.4875,7.3662],[-64.0016,67.4859,0.0]]],
[[[-63.9542,67.6396,0.0],[-63.9641,67.6412,0.0],[-63.9651,67.6339,0.0],[-63.9703,67.6328,0.0],[-63.9703,67.6297,0.0],[-63.9651,67.6266,0.0],[-63.9682,67.6234,0.0],[-63.9604,67.6229,29.2878],[-63.9589,67.6214,40.663],[-63.9682,67.6203,0.0],[-63.9687,67.6083,0.0],[-63.9729,67.6042,0.0],[-63.9734,67.5922,0.0],[-63.9766,67.5911,0.0],[-63.9776,67.588,0.0],[-63.9828,67.587,0.0],[-63.9833,67.5854,0.0],[-63.9807,67.5818,0.0],[-63.9776,67.5807,5.6727],[-63.9807,67.5787,0.0],[-63.9818,67.5734,4.5044],[-63.987,67.5724,0.0],[-63.988,67.5693,4.2726],[-63.9938,67.5667,5.6736],[-64.0062,67.5667,2.2764],[-64.0104,67.5687,0.0],[-64.0245,67.5682,0.0],[-64.0255,67.5651,5.3667],[-64.0286,67.563,0.0],[-64.0255,67.562,4.9293],[-64.0234,67.5589,2.7147],[-64.0271,67.5583,1.2999],[-64.0333,67.5604,0.0],[-64.0354,67.5583,0.0],[-64.0349,67.5547,0.0],[-64.0297,67.5505,0.0],[-64.0391,67.5495,0.0],[-64.0297,67.5463,5.1263],[-64.0391,67.5432,3.6313],[-64.0401,67.5401,0.0],[-64.0437,67.5375,0.0],[-64.0432,67.5359,0.0],[-64.038,67.5349,0.0],[-64.037,67.5318,0.0],[-64.0339,67.5307,0.0],[-64.0318,67.5276,0.0],[-64.0354,67.5271,0.0],[-64.0417,67.5292,0.0],[-64.0474,67.5234,0.0],[-64.0422,67.5224,0.0],[-64.037,67.5151,0.0],[-64.0307,67.5109,67.4395],[-64.0208,67.5104,239.9771],[-64.0125,67.5062,305.4413],[-64.0047,67.5068,287.3422],[-64.0021,67.5104,312.8022],[-63.9958,67.5083,328.8035],[-63.9896,67.5083,328.2117],[-63.9854,67.5104,326.4639],[-63.9792,67.5083,322.789],[-63.975,67.5104,336.1996],[-63.9667,67.5083,387.8208],[-63.9625,67.5104,422.6909],[-63.9562,67.5104,421.5538],[-63.95,67.5083,430.637],[-63.9458,67.5104,359.6053],[-63.9396,67.5083,320.9016],[-63.9354,67.5104,293.325],[-63.9292,67.5104,281.1819],[-63.9229,67.5083,312.2391],[-63.9188,67.5104,285.0017],[-63.9146,67.5083,339.8139],[-63.8958,67.5083,239.5753],[-63.8917,67.5104,221.1407],[-63.8812,67.5062,212.7091],[-63.875,67.5062,201.2101],[-63.8672,67.5026,194.8963],[-63.8724,67.5016,220.9974],[-63.8714,67.4984,288.2811],[-63.8792,67.4958,269.5561],[-63.8854,67.4958,272.0961],[-63.8896,67.4979,287.1902],[-63.8979,67.4979,284.6971],[-63.9062,67.5021,330.6333],[-63.9146,67.5021,321.5103],[-63.9292,67.5062,309.7092],[-63.9354,67.5062,317.9539],[-63.9432,67.5036,336.1682],[-63.9458,67.5,310.1228],[-63.9562,67.5,298.9604],[-63.9604,67.5021,343.8522],[-63.9687,67.5021,307.7072],[-63.9729,67.5042,310.5499],[-63.9807,67.5016,305.9871],[-63.9818,67.4984,292.6391],[-63.9859,67.4964,272.055],[-63.9911,67.4953,246.1226],[-63.9922,67.4922,147.559],[-63.9953,67.4912,91.641],[-63.9953,67.488,28.4772],[-63.9875,67.4896,95.8986],[-63.9833,67.4875,17.3356],[-63.9646,67.4875,10.1869],[-63.9604,67.4896,83.4423],[-63.9542,67.4875,0.0],[-63.95,67.4896,62.0009],[-63.9437,67.4875,0.0],[-63.9396,67.4896,66.7762],[-63.9229,67.4896,78.4805],[-63.9188,67.4875,0.0],[-63.9,67.4875,0.0],[-63.8937,67.4854,0.0],[-63.8896,67.4875,0.0],[-63.8729,67.4875,0.0],[-63.8688,67.4917,39.9859],[-63.8625,67.4896,0.0],[-63.8521,67.4938,28.9541],[-63.8354,67.4958,0.0],[-63.8312,67.4979,10.6813],[-63.8083,67.4979,0.0],[-63.8042,67.5021,196.1488],[-63.8,67.5,71.4423],[-63.7604,67.5,54.6774],[-63.7562,67.4979,0.0],[-63.7479,67.4979,0.0],[-63.7458,67.5,0.0],[-63.7474,67.5036,169.2503],[-63.7422,67.5047,94.6021],[-63.7474,67.5078,243.0621],[-63.7318,67.5089,0.0],[-63.7318,67.5162,0.0],[-63.737,67.5172,221.5215],[-63.738,67.5203,393.643],[-63.7458,67.5208,431.4182],[-63.7562,67.525,324.5094],[-63.7641,67.5224,309.2746],[-63.7667,67.5188,334.9099],[-63.7849,67.5193,297.2786],[-63.7849,67.5224,190.1109],[-63.7755,67.5234,127.3454],[-63.7583,67.5313,0.0],[-63.7458,67.5313,0.0],[-63.7443,67.5328,0.0],[-63.7583,67.5333,10.1195],[-63.7661,67.5359,467.9517],[-63.7609,67.5391,310.5796],[-63.7687,67.5396,472.6795],[-63.7792,67.5437,431.9399],[-63.7854,67.5417,543.6827],[-63.7932,67.5422,513.8163],[-63.7932,67.5453,431.771],[-63.7917,67.5458,397.8935],[-63.775,67.5458,230.8886],[-63.7672,67.5495,47.7867],[-63.7854,67.5542,39.3604],[-63.7932,67.5526,191.9286],[-63.7932,67.5557,39.1636],[-63.7901,67.5578,22.022],[-63.7995,67.5609,19.3118],[-63.8005,67.5641,0.0],[-63.8187,67.5687,6.0771],[-63.8286,67.5693,62.1824],[-63.8328,67.5714,141.5098],[-63.8297,67.5745,7.2572],[-63.8375,67.575,0.0],[-63.8453,67.5776,4.4249],[-63.8464,67.5828,0.0],[-63.8542,67.5833,5.4652],[-63.8583,67.5854,0.0],[-63.8724,67.5859,11.4531],[-63.8734,67.5911,0.0],[-63.8786,67.5922,0.0],[-63.8797,67.5974,0.0],[-63.8911,67.5984,127.4973],[-63.8859,67.6016,12.6365],[-63.8937,67.6042,245.2534],[-63.8964,67.6005,179.6128],[-63.9016,67.6005,260.1509],[-63.9021,67.6083,301.1441],[-63.8984,67.612,80.2158],[-63.9016,67.613,244.142],[-63.9026,67.6162,253.9404],[-63.9078,67.6172,287.9886],[-63.9089,67.6224,256.4489],[-63.9203,67.6255,297.5595],[-63.9151,67.6286,296.1774],[-63.9203,67.6307,264.0937],[-63.9151,67.6328,179.7016],[-63.9396,67.6396,92.1775],[-63.9542,67.6396,0.0]],
[[-64.0307,67.5367,61.0804],[-64.0291,67.5397,68.5983],[-64.0125,67.5437,54.7843],[-64.02,67.5408,68.209],[-64.0307,67.5367,61.0804]],
[[-64.0045,67.5573,10.0529],[-64.0066,67.5621,7.56],[-64.0011,67.5633,6.8907],[-64.0045,67.5573,10.0529]]],
[[[-63.9328,67.6406,202.7327],[-63.9292,67.6396,194.7186],[-63.9276,67.6412,204.7239],[-63.9313,67.6417,216.6141],[-63.9328,67.6406,202.7327]]]]}}