{"type":"Feature","properties":{"GID_3":"CAN.12.5.22_1","GID_0":"CAN","country":"Canada","GID_1":"CAN.12_1","province":"Saskatchewan","NL_NAME_1":"NA","GID_2":"CAN.12.5_1","county":"DivisionNo.14","NL_NAME_2":"NA","city":"MooseRangeNo.486","VARNAME_3":"NA","NL_NAME_3":"NA","TYPE_3":"RuralMunicipality","ENGTYPE_3":"RuralMunicipality","CC_3":"NA","HASC_3":"NA","name":"Moose_Range_No.486.city"},
"geometry":{"type": "MultiPolygon","coordinates": [[[[-103.0267,53.1916,424.8698],[-102.9145,53.1926,486.5872],[-102.938,53.2099,442.8172],[-102.9426,53.2155,414.6133],[-102.9477,53.2182,406.9127],[-102.9524,53.2248,392.5122],[-102.9562,53.2249,390.1095],[-102.96,53.2282,385.8296],[-102.9674,53.2302,391.4072],[-102.9667,53.2318,383.6298],[-102.971,53.2357,376.7784],[-102.9705,53.2412,374.6208],[-102.9738,53.2414,373.4619],[-102.9765,53.2436,370.9037],[-102.9833,53.2514,366.0222],[-102.9822,53.2532,364.4897],[-102.9869,53.2578,362.0486],[-102.981,53.2622,359.2347],[-102.9896,53.2619,360.8967],[-103.0028,53.27,350.2518],[-103.0097,53.2767,344.0328],[-103.0134,53.2846,340.253],[-103.0166,53.2969,331.6364],[-103.0253,53.2964,331.1901],[-103.026,53.366,324.8445],[-103.0356,53.366,320.8223],[-103.0371,53.4516,292.5923],[-103.035,53.7142,279.3673],[-103.0374,53.7787,281.8881],[-103.0403,53.7784,283.6069],[-103.049,53.7817,286.469],[-103.0557,53.7813,287.1844],[-103.0592,53.7779,288.5179],[-103.0645,53.7659,279.9854],[-103.0724,53.7595,284.9559],[-103.1071,53.7387,274.3159],[-103.1144,53.7296,285.5874],[-103.1248,53.7249,302.1357],[-103.149,53.7207,280.1691],[-103.1604,53.7161,299.6414],[-103.2,53.7237,299.1665],[-103.2133,53.7234,295.6409],[-103.2273,53.7147,292.3211],[-103.2432,53.7112,292.8047],[-103.2515,53.7111,290.2357],[-103.2638,53.7155,299.6485],[-103.2752,53.7155,274.5],[-103.2976,53.7092,289.0702],[-103.3174,53.6953,295.2722],[-103.3296,53.69,316.4798],[-103.3662,53.6877,299.9112],[-103.3892,53.6851,316.5226],[-103.3992,53.6823,282.7397],[-103.4045,53.6776,291.4628],[-103.4054,53.6592,312.5],[-103.4112,53.6476,312.5],[-103.4094,53.6449,312.5],[-103.4103,53.6404,312.5],[-103.4169,53.6351,312.5],[-103.4218,53.6342,312.5],[-103.4236,53.6287,312.5],[-103.4282,53.6296,312.5],[-103.4275,53.6274,312.5],[-103.4561,53.625,312.5],[-103.5255,53.6139,312.5],[-103.5262,53.6157,312.5],[-103.5317,53.6176,312.5],[-103.5552,53.6196,312.5],[-103.5606,53.6188,312.5],[-103.5836,53.6216,312.5],[-103.5931,53.618899999999996,312.5],[-103.6274,53.6172,312.5],[-103.6352,53.6141,312.5],[-103.6596,53.6088,312.5],[-103.6768,53.5967,312.5],[-103.6847,53.5879,312.5],[-103.6865,53.5818,312.5],[-103.6872,53.571,312.5],[-103.6798,53.5629,312.5],[-103.6756,53.5489,312.5],[-103.6802,53.5352,312.5],[-103.6905,53.5283,312.5],[-103.7114,53.5242,312.5],[-103.7257,53.5243,312.5],[-103.7252,53.5182,312.5],[-103.701,53.5177,312.5],[-103.701,53.5113,344.2607],[-103.7502,53.511,317.3898],[-103.7501,53.5216,312.5],[-103.755,53.5209,312.5],[-103.7617,53.5125,312.5],[-103.7745,53.5042,312.5],[-103.7743,53.3662,369.1575],[-103.7585,53.3662,367.7763],[-103.7583,53.1915,360.3346],[-103.0267,53.1916,424.8698]],
[[-103.58,53.2878,359.286],[-103.5753,53.2878,358.7058],[-103.5753,53.279,358.963],[-103.5859,53.2782,359.3882],[-103.5875,53.2761,357.5205],[-103.5929,53.2774,358.7547],[-103.5893,53.2789,359.2835],[-103.5942,53.2789,358.3358],[-103.5976,53.283,357.6157],[-103.5984,53.2869,358.0582],[-103.5882,53.2878,359.3539],[-103.58,53.2878,359.286]]]]}}