{"type":"Feature","properties":{"GID_3":"CAN.9.29.10_1","GID_0":"CAN","country":"Canada","GID_1":"CAN.9_1","province":"Ontario","NL_NAME_1":"NA","GID_2":"CAN.9.29_1","county":"Manitoulin","NL_NAME_2":"NA","city":"M'Chigeeng22(WestBay22)","VARNAME_3":"NA","NL_NAME_3":"NA","TYPE_3":"RéserveIndienne","ENGTYPE_3":"IndianReserve","CC_3":"NA","HASC_3":"NA","name":"M'Chigeeng22(West_Bay22).city"},
"geometry":{"type": "MultiPolygon","coordinates": [[[[-82.1768,45.8509,182.2734],[-82.2141,45.8504,221.3373],[-82.2138,45.8324,285.3503],[-82.209,45.8323,282.2321],[-82.2084,45.8142,221.7731],[-82.2133,45.8143,264.0994],[-82.2137,45.7861,198.1111],[-82.205,45.7876,196.9334],[-82.2045,45.79,198.3091],[-82.1996,45.793,196.0],[-82.1999,45.7978,214.5439],[-82.1965,45.8003,196.0],[-82.1829,45.7992,201.3076],[-82.1705,45.7943,210.0038],[-82.1696,45.7916,202.1129],[-82.1714,45.7895,196.0],[-82.1652,45.7901,196.0],[-82.1575,45.7846,196.933],[-82.1547,45.7799,199.2046],[-82.1567,45.7756,196.0],[-82.1544,45.7756,204.3201],[-82.1535,45.7735,200.7724],[-82.154,45.7687,202.8347],[-82.1405,45.7687,235.44],[-82.1411,45.8441,173.5],[-82.1501,45.8346,183.0482],[-82.1529,45.8276,180.2626],[-82.159,45.8272,175.9954],[-82.1607,45.8288,178.877],[-82.1602,45.8368,173.5],[-82.1633,45.8424,173.5],[-82.1677,45.8452,181.3159],[-82.1763,45.8471,173.5],[-82.1768,45.8509,182.2734]]]]}}