{"type":"Feature","properties":{"GID_3":"CAN.12.12.32_1","GID_0":"CAN","country":"Canada","GID_1":"CAN.12_1","province":"Saskatchewan","NL_NAME_1":"NA","GID_2":"CAN.12.12_1","county":"DivisionNo.3","NL_NAME_2":"NA","city":"SuttonNo.103","VARNAME_3":"NA","NL_NAME_3":"NA","TYPE_3":"RuralMunicipality","ENGTYPE_3":"RuralMunicipality","CC_3":"NA","HASC_3":"NA","name":"Sutton_No.103.city"},
"geometry":{"type": "MultiPolygon","coordinates": [[[[-106.4096,49.7862,720.1858],[-106.0059,49.7864,735.4154],[-106.0047,50.0473,665.5],[-106.4131,50.0477,673.7325],[-106.414,49.8733,722.5535],[-106.4096,49.8733,724.1215],[-106.4096,49.7862,720.1858]],
[[-106.206,49.8567,707.9837],[-106.2187,49.8565,706.371],[-106.2187,49.8659,705.8267],[-106.2061,49.8659,704.9763],[-106.206,49.8567,707.9837]],
[[-106.3533,49.8586,726.0444],[-106.3649,49.8586,727.1608],[-106.365,49.8657,727.4526],[-106.3537,49.8657,727.9523],[-106.3533,49.8586,726.0444]]]]}}