{"type":"Feature","properties":{"featurecla":"River","scalerank":6,"rivernum":264,"dissolve":"264River","name":"Winnipeg4","name_alt":null,"note":null,"min_zoom":5.0,"strokeweig":0.2,"name_en":"Winnipeg","min_label":6.0},
"geometry":{"type": "LineString","coordinates": [[-95.988696289062489,50.40350983280662,246.0],[-95.98984375,50.42853424686912,246.8303],[-95.99609375,50.449090887494116,246.0],[-96.009863281249991,50.46637604374412,226.0],[-96.030078124999989,50.47370026249412,249.4607],[-96.0556640625,50.47858307499412,244.8645],[-96.077075195312489,50.49054596561912,237.4799],[-96.115771484374989,50.520282293744117,225.5],[-96.139892578125,50.53021881718162,225.5],[-96.147558593749991,50.53705475468162,226.3368],[-96.150488281249991,50.55158112186912,231.4865],[-96.155029296875,50.562274481244117,225.0],[-96.166259765625,50.569696356244116,227.0251],[-96.1806640625,50.574090887494116,226.9823],[-96.226733398437489,50.581170965619116,230.1425],[-96.251269531249989,50.594745184369117,226.3366],[-96.274267578124991,50.61078522343162,229.2753],[-96.295263671874991,50.624530340619117,223.163]]}}