{"type":"Feature","properties":{"GID_3":"CAN.3.8.11_1","GID_0":"CAN","country":"Canada","GID_1":"CAN.3_1","province":"Manitoba","NL_NAME_1":"NA","GID_2":"CAN.3.8_1","county":"DivisionNo.17","NL_NAME_2":"NA","city":"GrandviewTown","VARNAME_3":"NA","NL_NAME_3":"NA","TYPE_3":"Town","ENGTYPE_3":"Town","CC_3":"NA","HASC_3":"NA","name":"Grandview_Town.city"},
"geometry":{"type": "MultiPolygon","coordinates": [[[[-100.6969,51.1813,432.0934],[-100.7067,51.1821,433.6868],[-100.7067,51.1807,430.2416],[-100.7129,51.1807,436.265],[-100.7127,51.1703,428.6685],[-100.7089,51.1703,435.9039],[-100.7089,51.1652,429.3949],[-100.689,51.1651,433.8241],[-100.6891,51.1813,431.2202],[-100.6969,51.1813,432.0934]]]]}}