{"type":"Feature","properties":{"GID_3":"CAN.1.15.23_1","GID_0":"CAN","country":"Canada","GID_1":"CAN.1_1","province":"Alberta","NL_NAME_1":"NA","GID_2":"CAN.1.15_1","county":"DivisionNo.5","NL_NAME_2":"NA","city":"VulcanCounty","VARNAME_3":"NA","NL_NAME_3":"NA","TYPE_3":"CountyMunicipality","ENGTYPE_3":"CountyMunicipality","CC_3":"NA","HASC_3":"NA","name":"Vulcan_County.city"},
"geometry":{"type": "MultiPolygon","coordinates": [[[[-112.6438,50.1356,855.6531],[-112.6436,50.1935,857.6266],[-112.5536,50.1939,821.5055],[-112.5537,50.2081,819.5861],[-112.5304,50.2081,816.868],[-112.5302,50.2234,810.3031],[-112.528,50.2234,810.2299],[-112.5277,50.2522,825.11],[-112.5248,50.2525,825.8879],[-112.5248,50.2664,839.8185],[-112.4322,50.2664,792.2327],[-112.4322,50.3107,802.1394],[-112.1747,50.3109,760.1332],[-112.1774,50.3197,753.9794],[-112.1745,50.3221,760.7917],[-112.1618,50.324,739.2434],[-112.1578,50.3284,740.4118],[-112.1665,50.3366,734.1371],[-112.1799,50.3427,734.8467],[-112.1843,50.3479,742.6954],[-112.1847,50.3557,748.304],[-112.1786,50.3758,750.7397],[-112.181,50.3876,759.8074],[-112.1729,50.4064,747.8994],[-112.1705,50.4194,738.8905],[-112.174,50.4261,739.5211],[-112.1758,50.4287,739.1633],[-112.1896,50.4371,767.3545],[-112.1955,50.4388,766.874],[-112.2049,50.439,768.3833],[-112.2353,50.433,753.5778],[-112.253,50.4315,751.7197],[-112.2843,50.432,748.2554],[-112.3027,50.4348,749.5167],[-112.3087,50.4385,771.2329],[-112.3066,50.4416,753.798],[-112.2977,50.4445,746.6906],[-112.2955,50.4469,754.1852],[-112.2968,50.4505,756.7999],[-112.3047,50.4535,757.3981],[-112.3175,50.455,753.6436],[-112.3268,50.4592,750.5415],[-112.3372,50.471,757.1277],[-112.3538,50.4813,756.0656],[-112.3631,50.4906,758.3068],[-112.3679,50.5013,750.1925],[-112.3655,50.5097,749.6147],[-112.367,50.5291,782.6329],[-112.3639,50.5355,764.9291],[-112.3533,50.5423,754.4462],[-112.3619,50.547,757.188],[-112.3832,50.5519,784.218],[-112.3941,50.5578,756.2917],[-112.397,50.5614,761.6232],[-112.3971,50.566,763.0005],[-112.3924,50.5734,756.5363],[-112.3722,50.5912,763.9069],[-112.3656,50.6024,780.7452],[-112.3707,50.62,759.5097],[-112.3747,50.6228,814.7666],[-112.3859,50.6159,765.6559],[-112.3934,50.6173,770.7817],[-112.4108,50.6275,789.5632],[-112.4187,50.63,797.6164],[-112.4315,50.6308,810.344],[-112.4653,50.6253,822.8372],[-112.4892,50.631,835.6343],[-112.4981,50.6348,847.9893],[-112.5018,50.6403,848.5005],[-112.5007,50.664,831.1092],[-112.5041,50.6675,821.5408],[-112.5218,50.6694,814.0051],[-112.5287,50.6747,794.7288],[-112.5329,50.6857,838.6634],[-112.5287,50.7034,801.1223],[-112.9123,50.7035,884.0602],[-112.9127,50.6604,876.7637],[-112.9374,50.6604,881.1658],[-112.9361,50.7036,888.163],[-112.9425,50.7038,892.2795],[-112.9426,50.7051,892.2795],[-112.9522,50.7037,903.7798],[-112.9674,50.7176,901.0293],[-112.9938,50.7352,897.9945],[-113.0013,50.7344,900.4037],[-113.0079,50.7394,899.5245],[-113.0159,50.7389,901.9668],[-113.0243,50.7406,900.9351],[-113.0371,50.7387,907.7537],[-113.0615,50.747,906.144],[-113.0884,50.7537,905.2026],[-113.1323,50.7559,879.1025],[-113.1679,50.7612,912.3872],[-113.1783,50.7653,902.9783],[-113.2124,50.7691,904.7295],[-113.2208,50.7742,893.4976],[-113.2261,50.7837,914.1324],[-113.2356,50.79,908.2858],[-113.2359,50.7958,906.095],[-113.2437,50.802,908.6985],[-113.2446,50.8078,907.2046],[-113.2427,50.812,903.7063],[-113.2464,50.8204,913.1136],[-113.2757,50.8316,911.8271],[-113.2817,50.8318,912.3291],[-113.2876,50.8363,910.713],[-113.303,50.8367,910.5383],[-113.3148,50.8396,916.5464],[-113.3215,50.844,903.3951],[-113.3365,50.849,916.0021],[-113.3445,50.848,902.1981],[-113.3484,50.8426,905.0577],[-113.3531,50.8409,894.6747],[-113.3531,50.8284,894.1155],[-113.3555,50.8257,896.6947],[-113.3637,50.8247,897.4299],[-113.3745,50.8201,899.4326],[-113.3813,50.819,903.7994],[-113.3994,50.8194,903.1303],[-113.4218,50.8275,906.587],[-113.4402,50.8281,908.2563],[-113.449,50.8258,913.9961],[-113.4704,50.805,961.4814],[-113.4812,50.799,945.2313],[-113.4902,50.7962,931.2578],[-113.4899,50.5724,1009.9083],[-113.5981,50.572,1019.6625],[-113.5985,50.4517,983.7878],[-113.5889,50.4469,994.77],[-113.5836,50.4464,984.7251],[-113.58,50.4408,981.2414],[-113.5826,50.4367,994.2762],[-113.5766,50.4293,985.7659],[-113.5759,50.4237,990.657],[-113.5656,50.4138,979.124],[-113.5648,50.4108,979.0302],[-113.5723,50.4075,995.025],[-113.5735,50.4048,991.2027],[-113.5612,50.3964,977.9799],[-113.5641,50.3941,977.4047],[-113.5696,50.3955,988.0917],[-113.5717,50.3922,998.1658],[-113.5676,50.3785,998.7379],[-113.5632,50.3736,992.6404],[-113.561,50.3651,1003.0232],[-113.5488,50.3609,973.3938],[-113.5478,50.3516,995.6557],[-113.5417,50.3499,975.3198],[-113.5327,50.3427,971.9531],[-113.5324,50.3369,977.0694],[-113.5291,50.3355,973.5547],[-113.5288,50.3336,967.4907],[-113.5344,50.3323,988.6746],[-113.5351,50.3291,1000.827],[-113.5238,50.3226,975.1857],[-113.5181,50.3256,967.703],[-113.5143,50.3251,972.8287],[-113.5127,50.3222,974.8499],[-113.5152,50.3187,979.1262],[-113.5129,50.3157,978.6559],[-113.507,50.3148,976.9941],[-113.5009,50.3092,974.9055],[-113.4938,50.3072,974.2189],[-113.4909,50.3107,968.1023],[-113.4866,50.3106,964.0],[-113.4879,50.3061,983.0932],[-113.4841,50.3032,981.8302],[-113.4784,50.305,970.2394],[-113.472,50.3029,964.0],[-113.4742,50.2939,976.9355],[-113.4692,50.2882,964.0],[-113.4702,50.2869,964.0],[-113.4741,50.2872,971.9149],[-113.4748,50.2836,979.5255],[-113.4671,50.2755,967.6071],[-113.4602,50.2722,964.0],[-113.4598,50.2706,964.0],[-113.4639,50.2702,966.1539],[-113.4555,50.2633,970.332],[-113.4495,50.2524,972.3516],[-113.4437,50.2489,965.2334],[-113.4222,50.2435,964.0],[-113.4255,50.2394,969.3199],[-113.4216,50.2358,968.5985],[-113.4161,50.2379,964.0],[-113.4113,50.237,964.0],[-113.4113,50.2301,965.9969],[-113.4066,50.2212,966.8302],[-113.4022,50.2217,963.1241],[-113.3987,50.2196,956.686],[-113.3941,50.2084,965.9955],[-113.3909,50.2065,965.0957],[-113.3805,50.2049,971.0954],[-113.3687,50.2009,970.7059],[-113.3585,50.1932,968.4038],[-113.3534,50.1932,966.9446],[-113.3499,50.1966,942.489],[-113.3449,50.1978,950.573],[-113.3383,50.1968,966.1163],[-113.3322,50.1932,965.8121],[-113.3294,50.1877,964.8508],[-113.3193,50.1843,961.5441],[-113.3168,50.1809,959.3164],[-113.3228,50.1763,960.702],[-113.3215,50.1737,958.5147],[-113.3107,50.1723,954.0488],[-113.3096,50.1704,948.5384],[-113.3147,50.1666,961.1785],[-113.312,50.1625,940.6218],[-113.3208,50.1616,957.8774],[-113.3242,50.1589,960.3124],[-113.3182,50.155,955.9],[-113.3189,50.1497,961.1964],[-113.3103,50.1428,954.4231],[-113.3006,50.141,954.5228],[-113.2924,50.1371,951.6477],[-113.2827,50.1376,930.2704],[-113.2768,50.1356,930.7014],[-113.2775,50.0486,971.0738],[-113.1875,50.0485,965.5698],[-113.1875,50.0627,960.6688],[-112.9176,50.0625,998.2615],[-112.9176,50.0773,994.5719],[-112.8133,50.0775,957.7654],[-112.8132,50.1361,947.4741],[-112.6438,50.1356,855.6531]],
[[-113.1457,50.7397,928.967],[-113.1457,50.735,932.7118],[-113.1638,50.7373,940.028],[-113.1638,50.7406,934.3433],[-113.1586,50.7396,936.457],[-113.1585,50.7409,932.9413],[-113.1457,50.7408,925.3962],[-113.1457,50.7397,928.967]],
[[-113.1161,50.1208,941.1674],[-113.1203,50.1209,940.5013],[-113.1205,50.1265,907.0458],[-113.1188,50.1291,901.3362],[-113.1215,50.1353,904.738],[-113.1038,50.1354,903.2997],[-113.104,50.1208,941.3503],[-113.1161,50.1208,941.1674]],
[[-113.144,50.2456,956.4599],[-113.144,50.2324,960.3762],[-113.1458,50.2342,958.1082],[-113.1477,50.2335,960.5444],[-113.155,50.2407,959.2412],[-113.1544,50.2455,962.2575],[-113.144,50.2456,956.4599]],
[[-112.6388,50.3543,869.5803],[-112.6322,50.3402,862.2831],[-112.6398,50.3402,871.0869],[-112.6403,50.346,876.0322],[-112.6514,50.3463,880.7077],[-112.652,50.3542,886.6887],[-112.6388,50.3543,869.5803]],
[[-112.8849,50.5731,886.9659],[-112.8815,50.5731,874.8288],[-112.8718,50.563,879.6736],[-112.8801,50.5644,889.958],[-112.8805,50.5686,882.9189],[-112.888,50.5679,891.7274],[-112.8881,50.5692,889.863],[-112.8847,50.5709,884.9372],[-112.8859,50.5731,886.9659],[-112.8849,50.5731,886.9659]],
[[-112.5443,50.663,849.3615],[-112.5445,50.6589,860.892],[-112.5673,50.659,866.4461],[-112.5673,50.6736,869.2646],[-112.5443,50.6736,843.9023],[-112.5443,50.663,849.3615]],
[[-112.614,50.667,916.9307],[-112.6141,50.6599,927.7946],[-112.6359,50.6601,955.344],[-112.6356,50.6676,950.8654],[-112.6239,50.6674,931.2885],[-112.6239,50.6744,913.0683],[-112.6141,50.6742,908.1288],[-112.614,50.667,916.9307]],
[[-112.8443,50.6895,864.264],[-112.8546,50.6894,865.8104],[-112.8547,50.6951,862.1854],[-112.8439,50.6951,862.728],[-112.8443,50.6895,864.264]],
[[-113.2601,50.8018,915.208],[-113.2598,50.7906,918.043],[-113.2827,50.7905,930.9233],[-113.2828,50.806,924.4885],[-113.2602,50.806,912.9454],[-113.2601,50.8018,915.208]],
[[-113.255,50.411,1053.9535],[-113.2432,50.4111,1052.8778],[-113.2431,50.4054,1048.5706],[-113.2547,50.4053,1045.3357],[-113.2477,50.3977,1037.9229],[-113.2544,50.3977,1050.4093],[-113.2544,50.3844,1045.7279],[-113.2609,50.3844,1051.4868],[-113.2609,50.39,1050.3018],[-113.2778,50.39,1060.078],[-113.2779,50.3958,1047.8403],[-113.2893,50.3957,1043.7947],[-113.2891,50.4121,1046.9592],[-113.2551,50.4123,1055.5203],[-113.255,50.411,1053.9535]]]]}}