{"type":"Feature","properties":{"GID_3":"CAN.11.14.1_1","GID_0":"CAN","country":"Canada","GID_1":"CAN.11_1","province":"Québec","NL_NAME_1":"NA","GID_2":"CAN.11.14_1","county":"Brome-Missisquoi","NL_NAME_2":"NA","city":"Abercorn","VARNAME_3":"NA","NL_NAME_3":"NA","TYPE_3":"Village","ENGTYPE_3":"Village","CC_3":"NA","HASC_3":"NA","name":"Abercorn.city"},
"geometry":{"type": "MultiPolygon","coordinates": [[[[-72.6959,45.015,200.5615],[-72.6326,45.0144,347.2712],[-72.6345,45.0411,243.1433],[-72.6321,45.0546,205.1403],[-72.6333,45.0611,159.6912],[-72.648,45.0614,173.5759],[-72.6496,45.0675,191.1547],[-72.6572,45.0676,196.5834],[-72.6566,45.0648,191.4867],[-72.6638,45.0645,223.3305],[-72.6646,45.0677,233.8012],[-72.6945,45.0682,243.6532],[-72.6959,45.015,200.5615]]]]}}