{"type": "Feature","bbox": [-70.7711,45.9855,-70.6745,46.0892],"geometry": {"type": "MultiPolygon","coordinates": [[[[-70.7285,46.0747,284.9585],[-70.7483,46.0614,266.9567],[-70.7276,46.0456,339.7357],[-70.7604,46.0236,352.4857],[-70.7583,46.0201,365.569],[-70.7699,46.0201,367.338],[-70.7711,45.9884,399.9894],[-70.7497,45.9881,366.9606],[-70.7498,45.9855,370.7977],[-70.6849,45.9876,320.2857],[-70.6864,45.9961,312.9344],[-70.6845,46.0471,282.5886],[-70.6761,46.0655,290.9072],[-70.6768,46.0717,298.4495],[-70.6745,46.0777,304.7728],[-70.68,46.074,304.6901],[-70.6818,46.0769,311.3174],[-70.6903,46.0701,325.0246],[-70.7009,46.0873,296.1353],[-70.7066,46.0892,298.6525],[-70.7285,46.0747,284.9585]]]]}
,"properties": {"GID_3": "CAN.11.9.15_1","GID_0": "CAN","country": "Canada","GID_1": "CAN.11_1","province": "Québec","NL_NAME_1": "NA","GID_2": "CAN.11.9_1","county": "Beauce-Sartigan","NL_NAME_2": "NA","city": "Saint-Jean-de-la-Lande","VARNAME_3": "NA","NL_NAME_3": "NA","TYPE_3": "MunicipalitéDeParoisse","ENGTYPE_3": "ParishMunicipality","CC_3": "NA","HASC_3": "NA","name": "Saint-Jean-de-la-Lande.city","area_km2": 54.67212,"hist_schema_id": "Elevation0-9000","hist_area_km2": {"275": 3.51679,"300": 13.28811,"325": 13.30547,"350": 11.4989,"375": 11.05979,"400": 1.85577,"425": 0.14728}}}