{"type": "Feature","bbox": [-119.6093,49.4226,-119.5151,49.5557],"geometry": {"type": "MultiPolygon","coordinates": [[[[-119.6004,49.4503,338.0],[-119.6003,49.4571,339.4038],[-119.5959,49.4574,339.2812],[-119.5977,49.4508,338.0],[-119.5917,49.4519,338.0],[-119.5858,49.4489,338.0],[-119.5849,49.4408,338.0],[-119.5929,49.4269,338.0],[-119.5878,49.4226,338.0],[-119.5679,49.4239,545.7596],[-119.5685,49.4609,471.007],[-119.5492,49.4608,727.2492],[-119.5483,49.4828,558.5997],[-119.5368,49.4892,651.1966],[-119.5365,49.4968,510.3036],[-119.5156,49.4967,855.4655],[-119.5151,49.5007,872.0879],[-119.5305,49.5006,609.8038],[-119.5302,49.5181,655.8669],[-119.5325,49.5194,670.899],[-119.5414,49.5193,654.1946],[-119.542,49.5406,759.6413],[-119.5472,49.5409,715.0707],[-119.5475,49.5557,783.8156],[-119.5757,49.5554,356.1766],[-119.5717,49.529,339.0],[-119.5801,49.5183,339.0],[-119.581,49.5062,356.3669],[-119.5864,49.5034,360.2883],[-119.5915,49.5061,339.0],[-119.5986,49.5058,339.0],[-119.6093,49.5023,339.0],[-119.6072,49.4866,342.7533],[-119.5976,49.4841,347.1292],[-119.5919,49.4793,349.4832],[-119.5905,49.4704,346.7387],[-119.5913,49.4581,339.5618],[-119.6002,49.4578,339.4038],[-119.5987,49.4762,341.7605],[-119.6052,49.4764,348.631],[-119.6044,49.471,346.1315],[-119.6081,49.4546,341.203],[-119.6069,49.4549,339.7971],[-119.6037,49.4496,338.0],[-119.6004,49.4503,338.0]]]]}
,"properties": {"GID_3": "CAN.2.21.19_1","GID_0": "CAN","country": "Canada","GID_1": "CAN.2_1","province": "BritishColumbia","NL_NAME_1": "NA","GID_2": "CAN.2.21_1","county": "Okanagan-Similkameen","NL_NAME_2": "NA","city": "Penticton","VARNAME_3": "NA","NL_NAME_3": "NA","TYPE_3": "Cité","ENGTYPE_3": "City","CC_3": "NA","HASC_3": "NA","name": "Penticton.city","area_km2": 42.65118,"hist_schema_id": "Elevation0-9000","hist_area_km2": {"350": 10.85725,"375": 3.18202,"400": 4.24155,"425": 4.1721,"450": 3.7317,"475": 2.46497,"500": 1.91437,"525": 1.47339,"550": 1.61097,"575": 1.39039,"600": 1.32148,"625": 1.17005,"650": 1.01861,"675": 0.90852,"700": 0.89475,"725": 0.81219,"750": 0.44052,"775": 0.39925,"800": 0.37172,"825": 0.20653,"850": 0.05508,"875": 0.01377}}}