{"type": "Feature","bbox": [-126.9033,52.2118,-126.553,52.6231],"geometry": {"type": "MultiPolygon","coordinates": [[[[-126.747,52.3932,37.3362],[-126.7387,52.4058,73.9667],[-126.6998,52.4396,126.0639],[-126.691,52.4557,396.1115],[-126.6898,52.4674,174.5703],[-126.6702,52.4922,222.1483],[-126.667,52.5022,338.7158],[-126.6729,52.5278,340.7437],[-126.661,52.5463,317.445],[-126.6518,52.5525,348.5307],[-126.6318,52.5609,427.4775],[-126.5823,52.5748,772.4547],[-126.5633,52.5829,978.7927],[-126.5558,52.5904,1053.2644],[-126.5593,52.6043,1200.7876],[-126.5567,52.6166,1669.015],[-126.553,52.6198,1869.4199],[-126.5736,52.6231,1886.8379],[-126.5936,52.6203,1934.1448],[-126.5843,52.6134,1735.2837],[-126.5832,52.6102,1863.7743],[-126.5855,52.6008,1937.9335],[-126.5993,52.5917,2164.2817],[-126.6213,52.5851,1562.9756],[-126.6275,52.5796,1523.3464],[-126.6445,52.5792,1789.3506],[-126.6471,52.584,1761.1146],[-126.6473,52.5879,1797.0066],[-126.6578,52.5938,1934.4314],[-126.663,52.5926,1939.3785],[-126.6759,52.5953,1793.5887],[-126.6877,52.5949,1877.0295],[-126.6986,52.592,1621.3751],[-126.7083,52.584,1579.7157],[-126.7048,52.5726,1654.3772],[-126.7234,52.5737,1312.6754],[-126.7316,52.5783,1478.1414],[-126.7347,52.5851,1537.7783],[-126.7394,52.5842,1489.0514],[-126.7433,52.5768,1305.8135],[-126.7536,52.5641,1857.5526],[-126.7656,52.5588,1551.131],[-126.7688,52.5528,1668.2975],[-126.7819,52.547,1966.8821],[-126.7856,52.5428,1644.2058],[-126.7832,52.5343,1679.3618],[-126.8271,52.4844,1480.5286],[-126.8681,52.4933,1083.5361],[-126.8757,52.4289,863.8095],[-126.8789,52.3808,22.5773],[-126.87,52.3806,23.894],[-126.8494,52.3878,35.1564],[-126.835,52.3886,0.0],[-126.8267,52.3931,35.9539],[-126.8122,52.3956,21.5299],[-126.7983,52.4,25.6257],[-126.7861,52.3983,16.2765],[-126.7767,52.3949,14.7741],[-126.775,52.3919,0.0],[-126.7806,52.3878,0.0],[-126.7778,52.3861,0.0],[-126.7772,52.3833,0.0],[-126.7828,52.3792,0.0],[-126.78,52.3764,0.0],[-126.7839,52.3733,3.7759],[-126.7929,52.3758,0.0],[-126.8038,52.3763,12.9884],[-126.8202,52.3706,0.0],[-126.8405,52.3699,36.0232],[-126.8548,52.366,0.0],[-126.8672,52.3658,0.0],[-126.8744,52.3622,0.0],[-126.8794,52.3631,10.8524],[-126.8828,52.3614,29.3844],[-126.8856,52.3575,0.0],[-126.8861,52.3546,0.0],[-126.8781,52.3575,135.8605],[-126.8773,52.3255,1251.0747],[-126.9029,52.2925,1391.4368],[-126.9033,52.2879,1315.7521],[-126.9015,52.2838,1218.7198],[-126.8931,52.2758,1256.6523],[-126.8715,52.2497,1291.4247],[-126.8594,52.2473,1524.2526],[-126.8546,52.2419,1759.9613],[-126.847,52.2376,1767.1421],[-126.8317,52.2355,1843.5979],[-126.8231,52.2393,2151.8894],[-126.8163,52.2363,1986.7991],[-126.8122,52.2236,1826.074],[-126.7987,52.2239,1744.9917],[-126.791,52.2222,1937.9441],[-126.7778,52.2231,1910.8656],[-126.7686,52.2179,1573.8483],[-126.764,52.2118,1774.5771],[-126.7461,52.2143,1599.1334],[-126.7445,52.2205,1708.3304],[-126.7553,52.224,1546.2438],[-126.7603,52.231,1508.5798],[-126.7712,52.2326,1373.948],[-126.7724,52.2414,1521.6783],[-126.7709,52.246,1754.0895],[-126.7768,52.2572,1707.0977],[-126.7756,52.2648,1576.705],[-126.7689,52.2687,1743.8458],[-126.7705,52.3124,803.2102],[-126.7613,52.3236,698.1108],[-126.7594,52.3355,564.736],[-126.7553,52.348,418.7289],[-126.7548,52.3606,239.9815],[-126.7561,52.365,190.0179],[-126.7549,52.3665,175.4477],[-126.7679,52.3685,251.1044],[-126.7666,52.3935,72.7111],[-126.747,52.3932,37.3362]]]]}
,"properties": {"GID_3": "CAN.2.5.6_1","GID_0": "CAN","country": "Canada","GID_1": "CAN.2_1","province": "BritishColumbia","NL_NAME_1": "NA","GID_2": "CAN.2.5_1","county": "CentralCoast","NL_NAME_2": "NA","city": "CentralCoastE","VARNAME_3": "NA","NL_NAME_3": "NA","TYPE_3": "RegionalDistrictElectoralArea","ENGTYPE_3": "RegionalDistrictElectoralArea","CC_3": "NA","HASC_3": "NA","name": "Central_Coast_E.city","area_km2": 356.9914,"hist_schema_id": "Elevation0-9000","hist_area_km2": {"0": 2.6402,"25": 1.0612,"50": 1.0612,"75": 1.6303,"100": 1.9535,"125": 2.2381,"150": 1.9148,"175": 2.1733,"200": 2.3546,"225": 2.4965,"250": 2.6899,"275": 2.8711,"300": 3.3098,"325": 3.4393,"350": 3.3226,"375": 3.3745,"400": 3.5818,"425": 3.5681,"450": 3.426,"475": 3.2193,"500": 3.4261,"525": 3.4518,"550": 3.6067,"575": 3.5165,"600": 3.7098,"625": 3.6195,"650": 3.593,"675": 3.9694,"700": 3.9168,"725": 5.0314,"750": 4.4863,"775": 4.6537,"800": 4.6672,"825": 5.2115,"850": 4.9916,"875": 5.4831,"900": 4.9525,"925": 5.4053,"950": 5.6098,"975": 5.4027,"1000": 5.9594,"1025": 6.2174,"1050": 6.6576,"1075": 6.0622,"1100": 6.372,"1125": 6.4369,"1150": 5.9594,"1175": 6.1021,"1200": 6.6055,"1225": 7.0595,"1250": 8.5247,"1275": 6.8669,"1300": 7.3838,"1325": 6.8534,"1350": 7.1132,"1375": 6.9798,"1400": 7.2812,"1425": 6.8277,"1450": 6.5948,"1475": 6.6713,"1500": 6.9171,"1525": 6.2317,"1550": 6.5165,"1575": 5.7655,"1600": 5.8564,"1625": 5.4951,"1650": 4.835,"1675": 4.6143,"1700": 4.4096,"1725": 4.3575,"1750": 4.1107,"1775": 3.5036,"1800": 3.115,"1825": 2.7921,"1850": 2.7551,"1875": 1.8749,"1900": 1.4737,"1925": 1.2924,"1950": 1.1111,"1975": 1.0466,"2000": 0.7755,"2025": 0.6984,"2050": 0.3618,"2075": 0.3097,"2100": 0.284,"2125": 0.2581,"2150": 0.1549,"2175": 0.1807,"2200": 0.0644,"2225": 0.0644,"2250": 0.0258,"2275": 0.0386,"2300": 0.0129,"2325": 0.0258,"2350": 0.0258,"2375": 0.0386,"2400": 0.0258,"2425": 0.0129}}}