{"type": "Feature","bbox": [-109.9968,51.6559,-109.985,51.6629],"geometry": {"type": "MultiPolygon","coordinates": [[[[-109.985,51.6563,695.7233],[-109.9852,51.6629,681.6127],[-109.9968,51.6629,692.7473],[-109.9968,51.6559,703.6361],[-109.985,51.6563,695.7233]]]]}
,"properties": {"GID_3": "CAN.12.4.22_1","GID_0": "CAN","country": "Canada","GID_1": "CAN.12_1","province": "Saskatchewan","NL_NAME_1": "NA","GID_2": "CAN.12.4_1","county": "DivisionNo.13","NL_NAME_2": "NA","city": "Loverna","VARNAME_3": "NA","NL_NAME_3": "NA","TYPE_3": "Village","ENGTYPE_3": "Village","CC_3": "NA","HASC_3": "NA","name": "Loverna.city","area_km2": 0.631316,"hist_schema_id": "Elevation0-9000","hist_area_km2": {"675": 0.0394559,"700": 0.5918601}}}