{"type":"Feature","properties":{"GID_3":"CAN.4.10.8_1","GID_0":"CAN","country":"Canada","GID_1":"CAN.4_1","province":"NewBrunswick","NL_NAME_1":"NA","GID_2":"CAN.4.10_1","county":"Restigouche","NL_NAME_2":"NA","city":"Colborne","VARNAME_3":"NA","NL_NAME_3":"NA","TYPE_3":"Parish","ENGTYPE_3":"Parish","CC_3":"NA","HASC_3":"NA","name":"Colborne.city"},
"geometry":{"type": "MultiPolygon","coordinates": [[[[-66.1843,47.5588,381.1559],[-66.1639,47.564,427.2619],[-66.1627,47.798,283.5899],[-66.1638,47.9664,5.0047],[-66.1667,47.9678,0.2928],[-66.1681,47.9647,8.1816],[-66.1694,47.9675,3.7062],[-66.1744,47.9669,11.0172],[-66.1789,47.9697,7.5184],[-66.1833,47.9697,5.2462],[-66.1847,47.973,0.4691],[-66.1903,47.9719,21.1721],[-66.1925,47.9736,8.3088],[-66.2013,47.9746,1.365],[-66.2133,47.9728,5.8234],[-66.2208,47.9753,4.4877],[-66.2281,47.9756,2.0431],[-66.23,47.9775,0.0],[-66.2328,47.9764,4.7552],[-66.2353,47.9789,0.2034],[-66.2347,47.98,0.2034],[-66.2293,47.9824,0.0],[-66.2353,47.9825,0.0],[-66.2398,47.9804,7.9473],[-66.2467,47.9803,7.1031],[-66.2608,47.9603,67.7307],[-66.2638,47.9617,54.1898],[-66.2661,47.9609,55.5954],[-66.2631,47.9651,51.0435],[-66.2695,47.968,35.1866],[-66.2775,47.9581,77.3228],[-66.2997,47.9647,70.3014],[-66.3047,47.9695,52.6934],[-66.3078,47.9689,45.0421],[-66.3187,47.9727,44.6535],[-66.3277,47.971,47.6405],[-66.3372,47.9715,31.0651],[-66.3412,47.975,50.6912],[-66.3462,47.9749,52.7568],[-66.3505,47.9762,53.039],[-66.3497,47.9775,47.0352],[-66.3718,47.984,36.8494],[-66.3714,47.5153,548.692],[-66.1843,47.5588,381.1559]]],
[[[-66.1892,48.0075,0.2363],[-66.1973,48.0129,0.0],[-66.2,48.0136,2.5679],[-66.2017,48.0122,0.0],[-66.195,48.0086,0.0],[-66.1924,48.0043,0.0],[-66.1881,48.0022,0.0],[-66.1875,47.9997,0.0],[-66.1816,47.9966,0.0],[-66.1764,47.9993,0.0],[-66.1856,48.0,0.0],[-66.182,48.0041,0.6379],[-66.1706,48.0028,0.0],[-66.16,47.9983,0.0],[-66.1512,47.9927,11.8708],[-66.149,47.9892,1.5703],[-66.1448,47.9877,3.0548],[-66.1448,47.9828,0.0796],[-66.1489,47.9791,0.0],[-66.1301,47.9819,0.0],[-66.1192,47.9808,5.4291],[-66.1163,47.9823,0.0],[-66.1184,47.9856,0.0],[-66.1264,47.9878,10.5993],[-66.1316,47.9913,2.8342],[-66.136,47.9969,7.4719],[-66.1442,48.0,5.8521],[-66.18,48.0047,2.1994],[-66.1892,48.0075,0.2363]]]]}}