{"type": "Feature","bbox": [-66.9611,52.842,-66.8296,52.9418],"geometry": {"type": "MultiPolygon","coordinates": [[[[-66.8879,52.9394,526.9574],[-66.8943,52.9361,526.0],[-66.8925,52.9323,526.0],[-66.8953,52.923,527.1472],[-66.8874,52.9016,550.2756],[-66.8647,52.8824,548.3347],[-66.9554,52.8823,541.8229],[-66.9504,52.8702,537.5],[-66.9502,52.8643,537.5],[-66.9594,52.8576,537.5198],[-66.9611,52.8425,537.5],[-66.8296,52.842,540.0],[-66.8527,52.8815,557.1052],[-66.8458,52.8829,551.5375],[-66.8466,52.888,543.9845],[-66.8521,52.9021,554.0912],[-66.8587,52.9134,548.7515],[-66.847,52.9141,552.2294],[-66.8608,52.9398,535.9535],[-66.8635,52.9418,525.5],[-66.8664,52.9377,525.5],[-66.8801,52.9357,530.3992],[-66.8879,52.9394,526.9574]]]]}
,"properties": {"GID_3": "CAN.5.1.21_1","GID_0": "CAN","country": "Canada","GID_1": "CAN.5_1","province": "NewfoundlandandLabrador","NL_NAME_1": "NA","GID_2": "CAN.5.1_1","county": "DivisionNo.10","NL_NAME_2": "NA","city": "Wabush","VARNAME_3": "NA","NL_NAME_3": "NA","TYPE_3": "Town","ENGTYPE_3": "Town","CC_3": "NA","HASC_3": "NA","name": "Wabush.city","area_km2": 48.40858,"hist_schema_id": "Elevation0-9000","hist_area_km2": {"525": 3.17031,"550": 18.15304,"575": 12.2107,"600": 9.67793,"625": 4.21135,"650": 0.69096,"675": 0.29429}}}