{"type":"Feature","properties":{"GID_3":"CAN.12.11.14_1","GID_0":"CAN","country":"Canada","GID_1":"CAN.12_1","province":"Saskatchewan","NL_NAME_1":"NA","GID_2":"CAN.12.11_1","county":"DivisionNo.2","NL_NAME_2":"NA","city":"Goodwater","VARNAME_3":"NA","NL_NAME_3":"NA","TYPE_3":"Village","ENGTYPE_3":"Village","CC_3":"NA","HASC_3":"NA","name":"Goodwater.city"},
"geometry":{"type": "MultiPolygon","coordinates": [[[[-103.6971,49.3967,575.2734],[-103.6972,49.3986,575.2715],[-103.7093,49.3985,578.0929],[-103.7093,49.3927,577.2433],[-103.6969,49.3924,575.6885],[-103.6971,49.3967,575.2734]]]]}}