{"type":"Feature","properties":{"GID_3":"CAN.12.2.15_1","GID_0":"CAN","country":"Canada","GID_1":"CAN.12_1","province":"Saskatchewan","NL_NAME_1":"NA","GID_2":"CAN.12.2_1","county":"DivisionNo.11","NL_NAME_2":"NA","city":"Dundurn","VARNAME_3":"NA","NL_NAME_3":"NA","TYPE_3":"Town","ENGTYPE_3":"Town","CC_3":"NA","HASC_3":"NA","name":"Dundurn.city"},
"geometry":{"type": "MultiPolygon","coordinates": [[[[-106.5025,51.8134,529.3401],[-106.5122,51.8133,528.5862],[-106.5122,51.809,528.9454],[-106.5152,51.8091,527.5779],[-106.5154,51.8069,527.1046],[-106.5122,51.8069,527.5397],[-106.5122,51.8048,525.4234],[-106.5001,51.8052,529.9723],[-106.5,51.809,530.1995],[-106.4979,51.809,530.1995],[-106.4983,51.8128,529.108],[-106.5025,51.8134,529.3401]]]]}}