{"type":"Feature","properties":{"featurecla":"River","scalerank":10,"rivernum":20141,"dissolve":"20141River","name":"Souris4","name_alt":null,"note":"ID is link back to CEC data","name_full":"Souris River","min_zoom":6.0,"strokeweig":0.2,"uident":1794501,"min_label":7.0},
"geometry":{"type": "LineString","coordinates": [[-104.13971920481207,49.8638776713482,570.4622],[-104.07176673085372,49.818793035931527,569.8744],[-104.03502356679122,49.784613348431527,570.3016],[-104.00426184804122,49.765407619264863,569.9711],[-103.96129309804122,49.726752020306527,571.0154],[-103.88243567616622,49.6675886088482,567.573],[-103.83226477772872,49.619330145306527,568.8182],[-103.80109615793707,49.596625067181527,569.219],[-103.75153561106207,49.573919989056527,572.6374],[-103.7298884756454,49.558905340619027,558.8488],[-103.70604407460372,49.521795965619027,570.5946],[-103.62706458241622,49.4830182963482,556.9543],[-103.6087947256454,49.459173895306527,564.5612],[-103.5995173818954,49.4156354838482,573.9583],[-103.5851130850204,49.384588934369027,571.6061],[-103.56843014231207,49.367377020306527,548.9877],[-103.5018611318954,49.324001369264863,560.8785],[-103.17284094960372,49.1912702494732,572.3511],[-103.03844153554122,49.155300197389863,566.895],[-103.01036536366622,49.144069728639863,561.3956],[-102.9981990225204,49.134955145306527,545.3887]]}}