{"type":"Feature","properties":{"featurecla":"River","scalerank":10,"rivernum":20136,"dissolve":"20136River","name":"Souris3","name_alt":null,"note":"ID is link back to CEC data","name_full":"Souris River","min_zoom":6.0,"strokeweig":0.2,"uident":1796001,"min_label":7.0},
"geometry":{"type": "LineString","coordinates": [[-102.9981990225204,49.134955145306527,545.3887],[-102.97728430897872,49.121405340619027,538.6512],[-102.9664607412704,49.118841864056527,552.9128],[-102.93488522043707,49.102850653119027,550.4866],[-102.90168209543707,49.092067775514863,537.4152],[-102.86156165272872,49.085272528119027,553.0735],[-102.81761634022872,49.085516668744027,559.9396],[-102.7313533193954,49.0943464213482,567.5204],[-102.66124426991622,49.1204694682232,570.0206],[-102.62645423085372,49.128363348431527,568.219],[-102.54234778554122,49.121608791139863,564.8876],[-102.43480384022872,49.099636134889863,562.2098],[-102.37755286366622,49.097235418744027,564.5684],[-102.32428951731207,49.1031354838482,565.7104],[-102.29059811106207,49.117621160931527,563.8621],[-102.27106686106207,49.137884832806527,556.9094],[-102.2582087881454,49.225409246869027,575.2542],[-102.24046790272872,49.242132879681527,574.4798],[-102.22862708241622,49.248114324994027,546.3156]]}}