{"type": "Feature","bbox": [-64.9575,48.2062,-64.7085,48.4266],"geometry": {"type": "MultiPolygon","coordinates": [[[[-64.9575,48.3283,171.3756],[-64.7734,48.2062,0.438],[-64.7719,48.2106,0.0],[-64.7754,48.2106,6.6939],[-64.7761,48.2119,6.6939],[-64.7722,48.2148,0.0],[-64.7722,48.2194,0.0],[-64.7602,48.2264,0.0],[-64.7618,48.2281,4.5982],[-64.7581,48.2339,0.8406],[-64.7621,48.2358,0.0],[-64.7625,48.2408,8.8194],[-64.7593,48.2418,0.0],[-64.7594,48.2442,9.1561],[-64.7558,48.2478,0.0],[-64.7561,48.2514,0.0],[-64.754,48.2542,0.8967],[-64.7466,48.257,0.0],[-64.7478,48.2597,0.0],[-64.7392,48.2683,0.0],[-64.7378,48.2731,0.5974],[-64.7414,48.2758,0.5698],[-64.7411,48.2814,4.5069],[-64.7344,48.2819,0.0],[-64.7281,48.2867,4.8234],[-64.7217,48.2856,2.6237],[-64.7136,48.2875,3.6459],[-64.7128,48.29,0.0],[-64.7171,48.2906,5.626],[-64.7177,48.2929,9.0947],[-64.7085,48.2989,11.5697],[-64.7118,48.303,6.9071],[-64.7149,48.3027,12.2571],[-64.7201,48.305,15.5926],[-64.7383,48.3004,29.4512],[-64.7435,48.3022,27.5125],[-64.735,48.3081,42.9587],[-64.7506,48.318,61.2376],[-64.7443,48.3234,50.7359],[-64.7539,48.3292,91.7103],[-64.7416,48.3394,17.9282],[-64.8119,48.4266,319.9074],[-64.9575,48.3283,171.3756]]]]}
,"properties": {"GID_3": "CAN.11.59.4_1","GID_0": "CAN","country": "Canada","GID_1": "CAN.11_1","province": "Québec","NL_NAME_1": "NA","GID_2": "CAN.11.59_1","county": "LeRocher-Percé","NL_NAME_2": "NA","city": "Newport","VARNAME_3": "NA","NL_NAME_3": "NA","TYPE_3": "Municipalité","ENGTYPE_3": "Municipality","CC_3": "NA","HASC_3": "NA","name": "Newport.city","area_km2": 208.6529,"hist_schema_id": "Elevation0-9000","hist_area_km2": {"0": 2.6105,"25": 11.5244,"50": 17.179,"75": 18.9238,"100": 21.7556,"125": 28.6918,"150": 31.5423,"175": 27.5507,"200": 22.615,"225": 13.0941,"250": 5.5489,"275": 3.9146,"300": 2.2809,"325": 1.0555,"350": 0.3659}}}