{"type":"Feature","properties":{"GID_3":"CAN.9.18.6_1","GID_0":"CAN","country":"Canada","GID_1":"CAN.9_1","province":"Ontario","NL_NAME_1":"NA","GID_2":"CAN.9.18_1","county":"Huron","NL_NAME_2":"NA","city":"HuronEast","VARNAME_3":"NA","NL_NAME_3":"NA","TYPE_3":"Town","ENGTYPE_3":"Town","CC_3":"NA","HASC_3":"NA","name":"Huron_East.city"},
"geometry":{"type": "MultiPolygon","coordinates": [[[[-81.4949,43.4164,274.8764],[-81.4449,43.4219,287.9357],[-81.3498,43.5346,317.9359],[-81.2846,43.5063,335.645],[-81.1831,43.6287,353.8239],[-81.1474,43.614,355.5965],[-81.0312,43.7635,378.0587],[-81.1856,43.8264,336.2708],[-81.2444,43.7511,343.2361],[-81.2488,43.7525,343.8356],[-81.2519,43.7487,338.3147],[-81.2546,43.7527,334.94],[-81.2574,43.7503,339.0453],[-81.2527,43.7478,338.3147],[-81.2586,43.7404,344.7699],[-81.2543,43.7384,350.1363],[-81.302,43.6774,350.1587],[-81.3362,43.6913,337.2161],[-81.4369,43.5725,303.7746],[-81.5284,43.6122,294.0428],[-81.5342,43.6057,277.6787],[-81.4994,43.4382,278.8986],[-81.4938,43.4389,285.4932],[-81.4931,43.4352,279.8628],[-81.4984,43.4333,278.1353],[-81.4949,43.4164,274.8764]]]]}}