{"type": "Feature","bbox": [-84.2714,46.5255,-84.2284,46.597],"geometry": {"type": "MultiPolygon","coordinates": [[[[-84.2356,46.5318,178.722],[-84.2367,46.5323,186.6195],[-84.2409,46.5269,180.7484],[-84.2379,46.5255,175.0706],[-84.2341,46.5311,173.5],[-84.2356,46.5318,178.722]]],
[[[-84.2284,46.5956,316.5],[-84.2284,46.5969,316.5],[-84.2423,46.597,309.8193],[-84.2538,46.5811,333.523],[-84.2501,46.5763,240.8456],[-84.257,46.5766,223.513],[-84.2676,46.5655,212.9683],[-84.2651,46.5613,196.7706],[-84.2681,46.5619,201.6271],[-84.2685,46.5542,195.1826],[-84.2703,46.5563,193.758],[-84.2714,46.5541,196.7959],[-84.2696,46.5271,197.8151],[-84.2666,46.5257,195.3568],[-84.2432,46.5358,188.4188],[-84.2462,46.5368,190.1566],[-84.2474,46.5491,197.12],[-84.2385,46.5517,190.2988],[-84.2381,46.5541,190.6871],[-84.2394,46.5543,192.4619],[-84.2359,46.5561,189.7844],[-84.2311,46.5562,188.858],[-84.2312,46.5552,187.3463],[-84.229,46.556399999999996,188.7313],[-84.2284,46.5956,316.5]]]]}
,"properties": {"GID_3": "CAN.9.1.24_1","GID_0": "CAN","country": "Canada","GID_1": "CAN.9_1","province": "Ontario","NL_NAME_1": "NA","GID_2": "CAN.9.1_1","county": "Algoma","NL_NAME_2": "NA","city": "RankinLocation15D","VARNAME_3": "NA","NL_NAME_3": "NA","TYPE_3": "RéserveIndienne","ENGTYPE_3": "IndianReserve","CC_3": "NA","HASC_3": "NA","name": "Rankin_Location15_D.city","area_km2": 15.71514,"hist_schema_id": "Elevation0-9000","hist_area_km2": {"175": 0.21879,"200": 9.72541,"225": 0.75792,"250": 0.61219,"275": 0.30609,"300": 0.24772,"325": 1.19491,"350": 2.3024,"375": 0.34971}}}