{"type":"Feature","properties":{"featurecla":"River","scalerank":10,"rivernum":20141,"dissolve":"20141River","name":"Souris","name_alt":null,"note":"ID is link back to CEC data","name_full":"Souris River","min_zoom":6.0,"strokeweig":0.15,"uident":1794501,"min_label":7.0},
"geometry":{"type": "LineString","coordinates": [[-103.8644099600204,49.860419012494027,593.4821],[-103.91071529856207,49.878241278119027,592.7496],[-104.00055904856207,49.936550197389863,589.0153],[-104.01353919179122,49.947292384889863,584.5148],[-104.08055579335372,49.985419012494027,580.5442],[-104.13410397043707,50.011053778119027,578.3183],[-104.15868079335372,50.0137800150982,576.4432],[-104.19456946522872,50.008734442181527,577.0471],[-104.21898352772872,49.987494207806527,575.7168],[-104.22712154856207,49.954291082806527,572.585],[-104.22248287668707,49.9341901713482,571.2224],[-104.20897376210372,49.909938869264863,570.2612],[-104.13971920481207,49.8638776713482,570.4622]]}}