{"type":"Feature","properties":{"featurecla":"River","scalerank":11,"rivernum":20137,"dissolve":"20137River","name":"Long Cr.","name_alt":null,"note":"ID is link back to CEC data","name_full":"Long Creek","min_zoom":6.7,"strokeweig":0.2,"uident":1797601,"min_label":7.7},
"geometry":{"type": "LineString","coordinates": [[-104.01488196522872,49.332709051556527,613.3766],[-103.94432532460372,49.272894598431527,610.6464],[-103.90379798085372,49.230739650514863,616.8508],[-103.84797115793707,49.201931056764863,611.8228],[-103.69880123606207,49.173163153119027,599.459],[-103.62291419179122,49.1461042338482,594.3074],[-103.46764075429122,49.0447858744732,594.4956],[-103.39525305897872,49.032294012494027,587.9086],[-103.3651423818954,49.018500067181527,581.7557]]}}