{"type":"Feature","properties":{"featurecla":"River","scalerank":11,"rivernum":20184,"dissolve":"20184River","name":"Moose Jaw","name_alt":null,"note":"ID is link back to CEC data","name_full":"Moose Jaw River","min_zoom":6.7,"strokeweig":0.2,"uident":1774701,"min_label":7.7},
"geometry":{"type": "LineString","coordinates": [[-105.26768958241622,50.606634832806527,568.6812],[-105.27782141835372,50.552313543744027,526.3789],[-105.29527747304122,50.516180731244027,535.5082],[-105.32591712147872,50.4888776713482,580.4],[-105.34422766835372,50.476629949994027,581.8196],[-105.38825436106205,50.459906317181527,586.0975],[-105.51292884022872,50.453314520306527,571.9532],[-105.54210364491622,50.4415143900982,579.3684],[-105.55646725168705,50.424505926556527,571.1194],[-105.55540930897872,50.410834051556527,570.6364],[-105.5409236318954,50.397040106244027,546.8566],[-105.4964900381454,50.381293035931527,562.1708],[-105.47118079335372,50.366766668744027,567.9238],[-105.44017493397872,50.340887762494027,567.848],[-105.40876217356205,50.3030866557232,571.4447],[-105.39012610585372,50.293158270306527,568.2901],[-105.3788142568954,50.290961004681527,567.2244],[-105.34532630116622,50.296210028119027,566.1411],[-105.33531653554122,50.299017645306527,566.1636],[-105.29230709543707,50.3087018900982,568.3936],[-105.26756751210372,50.306219793744027,567.7664],[-105.2323298818954,50.304877020306527,569.6381],[-105.17674719960372,50.2969831400982,570.925],[-105.11042232981207,50.278143621869027,573.8597],[-105.07872473866622,50.259222723431527,575.6033],[-105.0126033193954,50.209540106244027,563.8381],[-104.98717200429122,50.193386134889863,564.4483],[-104.90831458241622,50.1551374369732,569.6664],[-104.81712805897872,50.099432684369027,570.228],[-104.67125403554122,50.025213934369027,573.4602]]}}