{"type": "Feature","bbox": [-102.4434,51.1218,-102.0062,51.3873],"geometry": {"type": "MultiPolygon","coordinates": [[[[-102.0062,51.1218,533.1862],[-102.0073,51.3873,521.8572],[-102.4305,51.3871,487.8348],[-102.4304,51.2983,485.6647],[-102.4284,51.2983,485.6647],[-102.4276,51.1954,503.6195],[-102.4434,51.1954,503.7686],[-102.437,51.1938,503.6288],[-102.4276,51.1873,502.8373],[-102.4276,51.1218,512.8619],[-102.0062,51.1218,533.1862]],
[[-102.1827,51.3567,517.3388],[-102.1825,51.3494,512.8115],[-102.1886,51.3494,515.8633],[-102.1885,51.3479,512.709],[-102.1944,51.3472,515.9567],[-102.1944,51.3494,514.9619],[-102.2001,51.3494,513.3188],[-102.2003,51.3569,512.1904],[-102.1827,51.3567,517.3388]],
[[-102.0294,51.291,526.582],[-102.0406,51.2903,529.3578],[-102.0406,51.2981,531.3431],[-102.0299,51.2982,524.8536],[-102.0294,51.291,526.582]]]]}
,"properties": {"GID_3": "CAN.12.18.49_1","GID_0": "CAN","country": "Canada","GID_1": "CAN.12_1","province": "Saskatchewan","NL_NAME_1": "NA","GID_2": "CAN.12.18_1","county": "DivisionNo.9","NL_NAME_2": "NA","city": "WallaceNo.243","VARNAME_3": "NA","NL_NAME_3": "NA","TYPE_3": "RuralMunicipality","ENGTYPE_3": "RuralMunicipality","CC_3": "NA","HASC_3": "NA","name": "Wallace_No.243.city","area_km2": 863.481,"hist_schema_id": "Elevation0-9000","hist_area_km2": {"475": 22.8175,"500": 261.867,"525": 577.7589,"550": 1.0376}}}