{"type": "Feature","bbox": [-100.8794,52.4988,-100.8371,52.5238],"geometry": {"type": "MultiPolygon","coordinates": [[[[-100.8371,52.5238,257.0],[-100.8669,52.5233,259.1393],[-100.8794,52.5116,259.2099],[-100.8792,52.4989,259.1396],[-100.851,52.4988,259.3378],[-100.8518,52.5056,259.1469],[-100.8491,52.5111,258.7291],[-100.8451,52.5133,258.9771],[-100.8477,52.515,258.3775],[-100.8385,52.5211,257.0],[-100.8371,52.5238,257.0]]]]}
,"properties": {"GID_3": "CAN.3.10.19_1","GID_0": "CAN","country": "Canada","GID_1": "CAN.3_1","province": "Manitoba","NL_NAME_1": "NA","GID_2": "CAN.3.10_1","county": "DivisionNo.19","NL_NAME_2": "NA","city": "SwanLake65C","VARNAME_3": "NA","NL_NAME_3": "NA","TYPE_3": "RéserveIndienne","ENGTYPE_3": "IndianReserve","CC_3": "NA","HASC_3": "NA","name": "Swan_Lake65_C.city","area_km2": 5.535713,"hist_schema_id": "Elevation0-9000","hist_area_km2": {"250": 5.509904,"275": 0.02581}}}