{"type":"Feature","properties":{"GID_3":"CAN.3.7.9_1","GID_0":"CAN","country":"Canada","GID_1":"CAN.3_1","province":"Manitoba","NL_NAME_1":"NA","GID_2":"CAN.3.7_1","county":"DivisionNo.16","NL_NAME_2":"NA","city":"RussellTown","VARNAME_3":"NA","NL_NAME_3":"NA","TYPE_3":"Town","ENGTYPE_3":"Town","CC_3":"NA","HASC_3":"NA","name":"Russell_Town.city"},
"geometry":{"type": "MultiPolygon","coordinates": [[[[-101.2715,50.7778,570.3848],[-101.2718,50.7886,575.6583],[-101.2953,50.7884,556.9106],[-101.2947,50.7716,555.3107],[-101.2696,50.7715,567.5589],[-101.2696,50.7733,570.1017],[-101.2714,50.7732,570.9459],[-101.2715,50.7778,570.3848]]]]}}