{"type":"Feature","properties":{"featurecla":"River","scalerank":11,"rivernum":20428,"dissolve":"20428River","name":"Ribstone Cr.","name_alt":null,"note":"ID is link back to CEC data","name_full":"Ribstone Creek","min_zoom":6.7,"strokeweig":0.15,"uident":1700901,"min_label":7.7},
"geometry":{"type": "LineString","coordinates": [[-111.45002193918705,52.2005475932232,739.0571],[-111.42316647043705,52.2049421244732,741.4877],[-111.3729548818954,52.194281317181527,758.0022],[-111.32811438710372,52.1998151713482,753.1125],[-111.30915279856205,52.208034572389863,753.2021],[-111.29564368397872,52.2137311869732,753.9089],[-111.21906490793705,52.217108465619027,749.324],[-111.19041907460372,52.2305768900982,732.1149],[-111.15534420481205,52.251288153119027,711.6379]]}}