{"type":"Feature","properties":{"GID_3":"CAN.11.29.2_1","GID_0":"CAN","country":"Canada","GID_1":"CAN.11_1","province":"Québec","NL_NAME_1":"NA","GID_2":"CAN.11.29_1","county":"L'Amiante","NL_NAME_2":"NA","city":"BlackLake","VARNAME_3":"NA","NL_NAME_3":"NA","TYPE_3":"Ville","ENGTYPE_3":"Ville","CC_3":"NA","HASC_3":"NA","name":"Black_Lake.city"},
"geometry":{"type": "MultiPolygon","coordinates": [[[[-71.417,46.0294,252.026],[-71.4131,46.0275,257.0181],[-71.4034,46.0376,245.3795],[-71.3785,46.0239,271.4318],[-71.3671,46.0342,61.0],[-71.3589,46.0304,348.443],[-71.3525,46.0366,367.9808],[-71.3246,46.0218,350.0936],[-71.3225,46.0252,362.7685],[-71.3193,46.0246,338.1489],[-71.334,46.0329,447.0107],[-71.331,46.0337,445.1797],[-71.3272,46.0316,433.511],[-71.3001,46.056399999999996,445.8374],[-71.3214,46.068,319.773],[-71.3241,46.0672,350.7492],[-71.3717,46.0933,444.0276],[-71.4319,46.0363,245.3008],[-71.417,46.0294,252.026]]]]}}