{"type":"Feature","properties":{"GID_3":"CAN.9.20.50_1","GID_0":"CAN","country":"Canada","GID_1":"CAN.9_1","province":"Ontario","NL_NAME_1":"NA","GID_2":"CAN.9.20_1","county":"Kenora","NL_NAME_2":"NA","city":"TheDalles38C","VARNAME_3":"NA","NL_NAME_3":"NA","TYPE_3":"RéserveIndienne","ENGTYPE_3":"IndianReserve","CC_3":"NA","HASC_3":"NA","name":"The_Dalles38_C.city"},
"geometry":{"type": "MultiPolygon","coordinates": [[[[-94.5445,49.8456,314.5],[-94.5215,49.8509,326.5574],[-94.5069,49.856,324.5652],[-94.505,49.9041,348.242],[-94.4921,49.9045,336.8195],[-94.5312,49.9174,340.6405],[-94.5487,49.9186,314.5],[-94.5484,49.9216,314.5],[-94.5565,49.928,314.5],[-94.5631,49.9306,314.5],[-94.5723,49.9313,324.0673],[-94.5778,49.9341,314.5],[-94.5858,49.9327,317.1447],[-94.5846,49.9309,326.1736],[-94.5856,49.9231,330.4184],[-94.5757,49.928,336.8083],[-94.5712,49.9181,324.3818],[-94.5774,49.9143,314.5],[-94.5736,49.9107,316.7594],[-94.5709,49.8993,318.6375],[-94.5654,49.8905,331.0444],[-94.5677,49.8868,323.8336],[-94.5787,49.8818,318.1291],[-94.5623,49.8735,314.5],[-94.5576,49.8742,323.7252],[-94.5608,49.868899999999996,314.5],[-94.5715,49.8661,318.7768],[-94.5733,49.8604,346.7303],[-94.5702,49.8506,336.2306],[-94.5648,49.8487,331.463],[-94.5529,49.8503,332.9831],[-94.5496,49.8461,319.3053],[-94.5445,49.8456,314.5]]]]}}