{"type":"Feature","properties":{"GID_3":"CAN.5.9.6_1","GID_0":"CAN","country":"Canada","GID_1":"CAN.5_1","province":"NewfoundlandandLabrador","NL_NAME_1":"NA","GID_2":"CAN.5.9_1","county":"DivisionNo.7","NL_NAME_2":"NA","city":"DivisionNo.7,Subd.B","VARNAME_3":"NA","NL_NAME_3":"NA","TYPE_3":"SubdivisionofUnorganized","ENGTYPE_3":"SubdivisionofUnorganized","CC_3":"NA","HASC_3":"NA","name":"Division_No.7,Subd.B.city"},
"geometry":{"type": "MultiPolygon","coordinates": [[[[-53.98,48.8508,0.7688],[-53.9734,48.8553,0.0],[-53.9753,48.856,0.9014],[-53.9795,48.8538,15.9165],[-53.9819,48.8514,0.0],[-53.98,48.8508,0.7688]]],
[[[-53.9631,48.8633,0.0],[-53.957,48.8662,0.0],[-53.958,48.869,0.0],[-53.962,48.868,0.0],[-53.9639,48.8644,1.36],[-53.9631,48.8633,0.0]]],
[[[-53.8044,48.8881,1.2693],[-53.805,48.8897,1.7824],[-53.8119,48.8894,0.5844],[-53.8219,48.8869,4.1455],[-53.8264,48.8847,0.0],[-53.8253,48.8842,1.9088],[-53.8244,48.8847,1.9088],[-53.8242,48.8833,5.7669],[-53.8281,48.8819,6.5761],[-53.8306,48.8833,2.3311],[-53.8358,48.8831,0.3677],[-53.8394,48.8819,0.8599],[-53.8408,48.8797,6.6534],[-53.8486,48.8775,2.2496],[-53.8653,48.8772,0.0],[-53.8664,48.8756,0.2157],[-53.8625,48.8742,0.0],[-53.8636,48.8728,7.101],[-53.8658,48.8739,0.0],[-53.8669,48.8719,0.0],[-53.8554,48.8695,0.5023],[-53.8489,48.8731,4.2971],[-53.8456,48.8726,0.0],[-53.8408,48.8747,3.645],[-53.8331,48.8742,2.1065],[-53.8216,48.8794,6.2125],[-53.8126,48.8815,0.0],[-53.8114,48.8828,0.0],[-53.8136,48.8842,9.9737],[-53.8044,48.8881,1.2693]]],
[[[-53.8017,48.8861,0.0],[-53.7985,48.8882,0.0],[-53.8011,48.8889,0.0],[-53.8031,48.8867,0.0],[-53.8017,48.8861,0.0]]],
[[[-53.8867,48.895,0.0],[-53.8822,48.8978,0.0],[-53.8833,48.8989,0.0],[-53.8936,48.8961,0.0],[-53.8894,48.8939,7.343],[-53.8867,48.895,0.0]]],
[[[-53.7753,48.9469,0.0],[-53.7726,48.9476,0.0],[-53.7736,48.9502,0.0],[-53.7794,48.9478,0.0],[-53.7772,48.9461,0.0],[-53.7753,48.9469,0.0]]],
[[[-53.7914,48.9724,0.0],[-53.796,48.973,1.6533],[-53.8195,48.9694,2.6726],[-53.8326,48.9605,0.0],[-53.8277,48.9553,0.0],[-53.8087,48.9442,13.3781],[-53.7995,48.9463,6.1211],[-53.7937,48.9494,10.0692],[-53.784,48.9477,0.0],[-53.7767,48.9577,4.7947],[-53.7665,48.9561,0.0],[-53.7622,48.958,4.319],[-53.7588,48.9573,7.9284],[-53.7542,48.9605,17.5942],[-53.7463,48.9604,0.0],[-53.7403,48.9636,0.0],[-53.7414,48.965,16.1453],[-53.7558,48.9648,5.397],[-53.7669,48.962,12.9261],[-53.7696,48.9659,0.7147],[-53.7783,48.9656,4.2456],[-53.7774,48.9689,0.0],[-53.7914,48.9724,0.0]]],
[[[-53.8471,48.963,0.8653],[-53.8411,48.9631,3.2787],[-53.8386,48.9661,2.166],[-53.8416,48.9682,1.3216],[-53.8471,48.963,0.8653]]],
[[[-53.7408,48.9203,0.0],[-53.7386,48.92,0.0],[-53.7353,48.924,2.2688],[-53.739,48.9222,2.6492],[-53.7408,48.9203,0.0]]],
[[[-53.7517,48.9236,4.1397],[-53.7556,48.9247,0.0],[-53.7564,48.9217,0.0],[-53.75,48.9222,4.2682],[-53.7481,48.9197,0.0],[-53.7453,48.9225,6.704],[-53.7428,48.9211,0.0],[-53.7381,48.9236,2.4856],[-53.7508,48.9244,3.4156],[-53.7517,48.9236,4.1397]]],
[[[-53.7148,48.9412,1.8304],[-53.7428,48.9403,7.9226],[-53.7644,48.9344,0.0],[-53.7667,48.9322,3.0632],[-53.7644,48.9283,0.0],[-53.7603,48.9261,0.6877],[-53.7522,48.9272,12.7468],[-53.7504,48.9252,3.4156],[-53.7278,48.925,0.0],[-53.7142,48.9328,8.1295],[-53.7086,48.9383,6.5518],[-53.7025,48.9403,0.0],[-53.7148,48.9412,1.8304]]],
[[[-53.7527,48.9744,3.8433],[-53.7565,48.9752,7.8003],[-53.762,48.9732,0.0],[-53.7592,48.9711,0.0],[-53.7506,48.9738,0.0],[-53.7527,48.9744,3.8433]]],
[[[-53.7258,48.9756,4.0648],[-53.7247,48.9764,4.0648],[-53.7258,48.9772,0.0],[-53.7297,48.9758,0.0],[-53.7286,48.9751,0.0],[-53.7258,48.9756,4.0648]]],
[[[-53.7331,48.9919,24.6966],[-53.7338,48.9946,16.1759],[-53.7391,48.993899999999996,0.0],[-53.7437,48.989,7.0156],[-53.743899999999996,48.9919,18.3593],[-53.7464,48.9933,1.2188],[-53.7489,48.9925,1.6427],[-53.7528,48.9878,0.0],[-53.7471,48.9881,9.5546],[-53.7536,48.9839,1.0388],[-53.7447,48.9847,1.1445],[-53.7419,48.9814,10.1827],[-53.7353,48.9824,29.2251],[-53.7308,48.9809,5.9572],[-53.7214,48.9859,5.4954],[-53.7215,48.9883,7.2269],[-53.7272,48.99,7.6406],[-53.7336,48.9864,15.0943],[-53.7311,48.9903,1.8901],[-53.7331,48.9919,24.6966]]],
[[[-53.7283,48.9922,0.0],[-53.7306,48.9931,0.0],[-53.7314,48.9917,3.5194],[-53.7281,48.9906,0.0],[-53.7283,48.9922,0.0]]],
[[[-53.7539,48.9931,1.0396],[-53.7503,48.9936,0.0],[-53.7525,48.9947,3.1011],[-53.755,48.9928,1.0396],[-53.7539,48.9931,1.0396]]],
[[[-53.6888,48.925,0.0],[-53.6862,48.9266,0.0],[-53.6939,48.9261,0.6951],[-53.6956,48.9242,1.2899],[-53.6933,48.9236,0.0],[-53.6888,48.925,0.0]]],
[[[-53.6588,48.9243,0.0],[-53.6536,48.9263,0.0],[-53.6582,48.9285,2.8518],[-53.6604,48.9264,0.2589],[-53.6588,48.9243,0.0]]],
[[[-53.6914,48.9292,0.0],[-53.6933,48.9267,2.2157],[-53.6908,48.9269,4.5971],[-53.6897,48.9289,0.0],[-53.6914,48.9292,0.0]]],
[[[-53.6775,48.9289,0.0],[-53.6772,48.93,0.0],[-53.6794,48.9303,0.6498],[-53.6808,48.9286,0.0],[-53.6783,48.9281,0.0],[-53.6775,48.9289,0.0]]],
[[[-53.7186,48.9156,6.8231],[-53.7156,48.9181,0.0],[-53.7164,48.9192,3.9736],[-53.7228,48.9169,3.836],[-53.7242,48.915,0.0],[-53.7208,48.9147,0.0],[-53.7186,48.9156,6.8231]]],
[[[-53.7097,48.93,3.9486],[-53.7178,48.93,8.2438],[-53.7208,48.9264,8.7291],[-53.7242,48.9256,0.9016],[-53.7228,48.9231,4.982],[-53.7319,48.9231,6.8094],[-53.7344,48.9211,1.7599],[-53.7347,48.9172,1.327],[-53.7333,48.9161,0.0],[-53.7297,48.9175,4.1105],[-53.725,48.9169,0.0],[-53.7117,48.9222,3.4586],[-53.7053,48.9222,0.924],[-53.7019,48.9261,5.4277],[-53.6989,48.9258,6.2332],[-53.6919,48.93,1.8736],[-53.6981,48.9306,0.0],[-53.7025,48.9286,5.8051],[-53.7097,48.93,3.9486]]],
[[[-53.6994,48.9364,0.5199],[-53.7058,48.9375,0.0],[-53.7141,48.931399999999996,6.1755],[-53.7039,48.9328,1.0061],[-53.6992,48.9347,0.6561],[-53.6994,48.9364,0.5199]]],
[[[-53.7092,48.9456,0.0],[-53.7125,48.9469,1.6905],[-53.7169,48.9461,0.0],[-53.7219,48.9431,1.0217],[-53.7122,48.9422,0.0],[-53.7125,48.9444,3.8275],[-53.7075,48.9447,0.5415],[-53.7092,48.9456,0.0]]],
[[[-53.6483,48.9342,0.0],[-53.6525,48.9366,0.0],[-53.6576,48.935,1.1673],[-53.6611,48.932,2.3107],[-53.6539,48.9292,0.0],[-53.6475,48.93,0.0],[-53.6456,48.9333,0.0],[-53.6483,48.9342,0.0]]],
[[[-53.6947,48.9336,0.0],[-53.6931,48.9344,0.0],[-53.6958,48.9356,0.0],[-53.6964,48.9347,0.0],[-53.6947,48.9336,0.0]]],
[[[-53.6602,48.9353,0.0],[-53.658,48.9399,0.0],[-53.6725,48.9374,0.0],[-53.6816,48.933,0.0],[-53.6722,48.9295,0.0],[-53.6653,48.9344,7.6048],[-53.6602,48.9353,0.0]]],
[[[-53.5339,48.9417,6.3232],[-53.5367,48.9417,9.5715],[-53.5363,48.9443,1.0777],[-53.5413,48.9412,1.0073],[-53.5382,48.9379,3.0956],[-53.5335,48.9395,2.5607],[-53.5326,48.9405,0.9789],[-53.5339,48.9417,6.3232]]],
[[[-53.6992,48.9464,0.0],[-53.6983,48.9472,0.6197],[-53.6997,48.9483,0.6197],[-53.7033,48.9472,0.0],[-53.7003,48.9458,0.0],[-53.6992,48.9464,0.0]]],
[[[-53.7168,48.9869,6.4871],[-53.7196,48.9874,0.0],[-53.7201,48.986,3.698],[-53.718,48.9854,0.0],[-53.7168,48.9869,6.4871]]],
[[[-53.7231,48.9914,5.327],[-53.7224,48.99,0.0],[-53.7206,48.9906,18.7887],[-53.7198,48.9937,0.0],[-53.7233,48.9922,3.2582],[-53.7231,48.9914,5.327]]],
[[[-53.7082,48.9944,9.7444],[-53.7088,48.9964,25.9178],[-53.7111,48.9966,23.7531],[-53.7178,48.9944,3.7675],[-53.7192,48.9894,0.0],[-53.7175,48.9886,0.0],[-53.7142,48.9922,12.3243],[-53.7082,48.9944,9.7444]]],
[[[-53.8347,48.9703,2.7307],[-53.8372,48.9714,11.7732],[-53.8408,48.9689,0.0],[-53.8378,48.9678,0.6378],[-53.8347,48.9703,2.7307]]],
[[[-53.8784,48.9726,4.9521],[-53.8761,48.972,0.0],[-53.8754,48.973,7.8724],[-53.8767,48.974,0.0],[-53.8784,48.9726,4.9521]]],
[[[-53.7704,48.9878,0.0],[-53.7679,48.9882,2.3726],[-53.7693,48.9904,5.2479],[-53.7738,48.9888,4.1676],[-53.7726,48.9881,0.0],[-53.7704,48.9878,0.0]]],
[[[-53.8376,49.0154,18.2715],[-53.9064,48.9937,3.7953],[-53.9004,48.9904,0.0],[-53.8961,48.9903,0.0],[-53.8915,48.9853,0.0],[-53.8896,48.9786,1.3335],[-53.8854,48.9755,0.0],[-53.8736,48.9767,0.0],[-53.8676,48.9814,1.9507],[-53.8632,48.9824,9.5635],[-53.8572,48.9811,8.7732],[-53.8522,48.9747,0.0],[-53.8467,48.9739,10.7834],[-53.8371,48.9805,13.2315],[-53.8247,48.9847,8.1413],[-53.8219,48.9806,0.0],[-53.8228,48.9792,0.0],[-53.8183,48.9778,2.8594],[-53.8108,48.9828,0.0],[-53.8102,48.9858,2.8314],[-53.8057,48.9883,2.2259],[-53.7946,48.9847,0.0],[-53.7892,48.9856,5.5211],[-53.7825,48.9906,12.0192],[-53.7781,48.989,6.0693],[-53.7767,48.9914,0.0],[-53.7714,48.9936,0.0],[-53.7722,48.9956,4.836],[-53.7711,48.9967,0.6292],[-53.765,48.9972,0.0],[-53.7658,48.9986,2.3651],[-53.7752,48.9983,7.7848],[-53.775,49.0003,0.0],[-53.7695,48.9995,0.0],[-53.7667,49.0012,0.0],[-53.7724,49.0023,0.0],[-53.7733,49.0039,19.8972],[-53.7675,49.0044,0.0],[-53.7658,49.0064,2.6468],[-53.7486,49.0058,0.4074],[-53.7472,49.0075,0.0],[-53.7531,49.0108,0.6472],[-53.7531,49.0128,0.0],[-53.7553,49.0119,6.9125],[-53.76,49.0147,4.9418],[-53.8376,49.0154,18.2715]]],
[[[-53.7612,48.9961,10.3226],[-53.7631,48.9958,3.1815],[-53.76,48.9947,0.0],[-53.7584,48.9965,0.0],[-53.7593,48.9967,0.0],[-53.7612,48.9961,10.3226]]],
[[[-53.7621,48.9979,6.7414],[-53.764,48.9978,0.0],[-53.7601,48.9972,2.5923],[-53.7606,48.9975,2.5923],[-53.7621,48.9979,6.7414]]],
[[[-53.7411,49.0019,5.9381],[-53.7428,49.0031,0.0],[-53.7574,49.0025,0.0],[-53.7639,49.0,0.0],[-53.7592,48.9984,0.0],[-53.7562,48.9991,8.9568],[-53.7473,48.9952,0.0],[-53.7425,48.9969,3.3985],[-53.7378,48.9956,19.1795],[-53.7225,48.9992,0.0],[-53.732,48.9989,0.0],[-53.7375,49.0027,4.6307],[-53.7411,49.0019,5.9381]]],
[[[-53.7372,49.0153,0.0],[-53.737,49.0165,5.0349],[-53.7414,49.0175,0.0],[-53.7464,49.0161,0.6874],[-53.7442,49.015,0.0],[-53.7372,49.0153,0.0]]],
[[[-54.2502,48.9549,29.5],[-54.2362,48.9509,34.4519],[-54.2311,48.9513,29.416],[-54.2365,48.9453,29.8129],[-54.2356,48.942,28.0],[-54.2087,48.9319,28.0],[-54.2122,48.9261,28.0],[-54.2271,48.9098,24.5],[-54.2337,48.9098,24.5],[-54.2343,48.9122,24.5],[-54.24,48.9107,28.2547],[-54.2411,48.9005,30.6378],[-54.2405,48.8956,29.7113],[-54.2387,48.8935,31.8183],[-54.2309,48.8915,27.1055],[-54.2287,48.8872,36.6146],[-54.2248,48.8864,41.6855],[-54.2158,48.8893,25.165],[-54.2028,48.8878,23.8751],[-54.1924,48.8899,17.5],[-54.1854,48.889,20.7362],[-54.1796,48.8852,27.5456],[-54.1778,48.8763,22.9113],[-54.1712,48.8746,16.5],[-54.1675,48.8764,16.5],[-54.1613,48.8759,16.5],[-54.1602,48.8737,16.5],[-54.1623,48.8721,16.5],[-54.1424,48.8596,14.686],[-54.1364,48.8576,5.5],[-54.1378,48.854,5.5],[-54.1354,48.8513,5.5],[-54.127,48.8514,5.5],[-54.1221,48.8479,9.5458],[-54.0831,48.8478,20.6499],[-54.0818,48.8675,138.666],[-54.0075,48.894,40.5789],[-54.0,48.8936,0.8427],[-53.9986,48.8961,2.5258],[-54.0036,48.9007,0.0],[-54.0028,48.9036,-0.2559],[-53.9945,48.901,1.2077],[-53.9842,48.9009,2.1617],[-53.9685,48.9049,0.7229],[-53.9635,48.9044,2.5568],[-53.9541,48.9093,4.9562],[-53.9547,48.9118,0.4612],[-53.9532,48.9135,4.2292],[-53.9475,48.9144,12.6699],[-53.9364,48.9144,5.5156],[-53.9317,48.9114,0.0],[-53.9244,48.9126,0.9765],[-53.9236,48.9146,6.2631],[-53.9147,48.9108,7.8423],[-53.9142,48.9092,10.2801],[-53.9043,48.9144,9.5709],[-53.8941,48.9143,10.2635],[-53.8906,48.9136,6.9296],[-53.8894,48.9114,0.0],[-53.8858,48.9117,0.0],[-53.8801,48.914,1.0541],[-53.881,48.9168,1.9978],[-53.8783,48.9186,0.0],[-53.8617,48.9164,0.0],[-53.8519,48.9186,0.0],[-53.8134,48.9368,6.599],[-53.8143,48.9391,1.7236],[-53.8177,48.94,8.0705],[-53.8169,48.9442,0.0],[-53.8231,48.9483,3.9236],[-53.8336,48.9453,20.907],[-53.8344,48.9469,9.7678],[-53.8331,48.9494,0.1354],[-53.8344,48.9505,0.0],[-53.842,48.9492,10.5707],[-53.8467,48.9519,8.8162],[-53.8658,48.9547,9.1208],[-53.8661,48.9558,4.968],[-53.8571,48.962,4.1243],[-53.8593,48.9658,5.4546],[-53.8674,48.9708,0.0],[-53.8877,48.9675,6.7496],[-53.8895,48.9687,9.5954],[-53.9013,48.9684,9.3601],[-53.9134,48.9501,61.9619],[-53.9176,48.9484,59.1888],[-53.9237,48.9484,59.6047],[-53.931,48.9449,50.2527],[-53.9448,48.9476,54.8552],[-53.9538,48.9584,15.4984],[-53.9608,48.9559,14.5],[-53.9726,48.9566,24.2422],[-53.9779,48.9613,28.9767],[-53.9674,48.9698,35.5983],[-53.9611,48.9699,14.5],[-53.9562,48.9674,18.9359],[-53.95,48.9668,34.6116],[-53.9425,49.0035,36.402],[-53.9503,49.0065,7.8936],[-53.9716,49.0063,14.3721],[-53.9686,49.0099,46.5178],[-53.9679,49.0192,62.8423],[-53.9695,49.0329,116.3862],[-54.0695,49.0322,80.514],[-54.0692,49.0911,41.7415],[-53.8948,49.0912,47.0],[-53.9166,49.1111,54.6274],[-53.9181,49.1109,51.6935],[-53.926,49.123,75.0193],[-53.9352,49.1287,65.685],[-53.9361,49.133,72.9875],[-53.93,49.1394,73.6736],[-53.9304,49.1425,73.3926],[-53.9487,49.1517,65.5936],[-53.9509,49.1543,68.0316],[-53.9921,49.1526,98.302],[-54.0175,49.1595,69.8252],[-54.0375,49.1619,72.6214],[-54.0667,49.1588,93.0151],[-54.0853,49.1652,64.0123],[-54.0949,49.1652,66.6861],[-54.1046,49.1635,87.7044],[-54.1176,49.1544,88.1457],[-54.1758,49.1436,108.1184],[-54.1981,49.1454,107.7469],[-54.2148,49.1549,107.5387],[-54.2189,49.1549,109.9121],[-54.2319,49.1445,117.4427],[-54.2503,49.1431,106.2248],[-54.257,49.1443,103.5],[-54.2637,49.1487,108.3177],[-54.2821,49.1522,99.8626],[-54.2809,49.1553,99.0],[-54.287,49.1674,99.6343],[-54.2923,49.1712,96.3443],[-54.3002,49.1705,98.6678],[-54.3077,49.1607,95.496],[-54.3133,49.1597,101.7271],[-54.3142,49.1638,97.5215],[-54.3016,49.1862,105.3655],[-54.3078,49.1877,105.1118],[-54.3119,49.1873,110.8291],[-54.3284,49.1793,103.6305],[-54.3415,49.1691,105.0591],[-54.364,49.1656,109.1304],[-54.3887,49.1523,100.1396],[-54.4062,49.1367,107.8209],[-54.4168,49.1212,109.6632],[-54.4181,49.1157,111.5881],[-54.4169,49.1127,105.5309],[-54.4102,49.1078,112.9493],[-54.3863,49.0991,113.1018],[-54.3853,49.0952,114.9371],[-54.3923,49.0861,127.3404],[-54.3937,49.0803,117.5153],[-54.375,49.0555,103.7425],[-54.3592,49.0377,93.5325],[-54.3468,49.0263,100.1374],[-54.3389,49.0102,89.0226],[-54.3412,49.0,51.2272],[-54.341,48.9933,29.5],[-54.3387,48.9943,29.5],[-54.3294,48.9918,29.5],[-54.2989,48.9673,29.5],[-54.2924,48.9638,29.5],[-54.2818,48.9595,29.5],[-54.2668,48.9593,29.5],[-54.2502,48.9549,29.5]]],
[[[-53.7172,49.0256,30.5936],[-53.7153,49.0267,0.0],[-53.7185,49.0278,2.9822],[-53.725,49.0262,6.2085],[-53.7328,49.0264,6.9764],[-53.7361,49.0246,0.0],[-53.7345,49.0236,0.0],[-53.7172,49.0256,30.5936]]],
[[[-53.7036,48.9983,0.0],[-53.7031,48.9994,1.0059],[-53.707,49.0016,0.0],[-53.7092,48.9992,0.0],[-53.7078,48.9981,0.0],[-53.7036,48.9983,0.0]]],
[[[-53.7205,49.0031,0.0],[-53.7189,49.0047,9.4665],[-53.7208,49.0067,14.4982],[-53.7258,49.0044,0.6848],[-53.7221,49.004,27.117],[-53.7205,49.0031,0.0]]],
[[[-53.7047,49.0053,0.0],[-53.702,49.0063,10.1976],[-53.7044,49.0072,0.0],[-53.7107,49.0026,0.0],[-53.7078,49.0031,0.5141],[-53.7047,49.0053,0.0]]],
[[[-53.7052,49.0178,3.3127],[-53.7242,49.0161,7.1502],[-53.7281,49.0131,2.6897],[-53.7247,49.014,0.0],[-53.7198,49.0101,0.0],[-53.7139,49.0094,11.6611],[-53.7028,49.0111,6.3915],[-53.7019,49.0122,0.0],[-53.7052,49.0178,3.3127]]],
[[[-53.6992,48.9956,0.0],[-53.7024,48.9944,4.2268],[-53.7049,48.9963,0.6059],[-53.7055,48.9941,6.8497],[-53.7116,48.9896,0.4095],[-53.7128,48.9861,3.2606],[-53.7058,48.9872,8.798],[-53.7028,48.9844,0.0],[-53.7003,48.9872,13.2371],[-53.7023,48.9901,5.3618],[-53.6978,48.9933,0.0],[-53.6861,48.9925,0.0],[-53.6932,48.9961,3.8318],[-53.6992,48.9956,0.0]]],
[[[-53.6605,49.0227,0.0],[-53.6603,49.0247,0.0],[-53.6622,49.0255,0.0],[-53.67,49.0214,17.7236],[-53.6735,49.0227,0.0],[-53.6761,49.0211,5.9053],[-53.6791,49.024,0.0],[-53.6857,49.024,0.0],[-53.6942,49.0203,2.6784],[-53.6945,49.014,2.8425],[-53.6829,49.0149,0.0],[-53.6797,49.0133,0.0],[-53.6742,49.0166,8.0187],[-53.6706,49.0158,8.0383],[-53.6622,49.0189,5.2779],[-53.6599,49.0204,0.0],[-53.6605,49.0227,0.0]]],
[[[-53.5469,49.0542,0.0],[-53.5467,49.0556,0.0],[-53.5484,49.0555,0.0],[-53.5555,49.0514,6.291],[-53.5531,49.0506,8.0702],[-53.5469,49.0542,0.0]]],
[[[-53.5492,49.0614,0.0],[-53.5522,49.0623,0.0],[-53.5536,49.0611,3.1445],[-53.5526,49.0602,0.0],[-53.5492,49.0614,0.0]]],
[[[-53.8385,49.0748,46.5],[-53.8479,49.0747,47.3195],[-53.8491,49.0296,1.08],[-53.8425,49.0261,0.2804],[-53.8244,49.0261,2.598],[-53.8206,49.0236,0.0],[-53.8,49.0261,3.8787],[-53.7906,49.0233,0.0],[-53.7814,49.0292,13.6671],[-53.7783,49.0282,4.2772],[-53.7858,49.0242,13.7968],[-53.7803,49.0242,3.0609],[-53.7761,49.0261,1.4723],[-53.775,49.0286,0.0],[-53.7686,49.0303,0.0],[-53.7695,49.0348,2.2966],[-53.7586,49.0342,13.9005],[-53.7594,49.0306,8.8491],[-53.7489,49.0305,15.7992],[-53.7498,49.0276,1.9624],[-53.7483,49.0269,0.0],[-53.7403,49.0297,3.2354],[-53.7358,49.0277,9.5998],[-53.72,49.0283,2.9822],[-53.7189,49.0294,5.6858],[-53.7206,49.0311,11.5046],[-53.7197,49.0325,6.2607],[-53.7089,49.0319,0.0],[-53.7019,49.0289,1.8803],[-53.7017,49.0333,4.5754],[-53.6944,49.0314,0.0],[-53.6947,49.0336,0.0],[-53.6924,49.0339,33.9155],[-53.684,49.0311,9.1503],[-53.6784,49.0321,3.5898],[-53.6755,49.0353,1.35],[-53.6728,49.0329,6.6612],[-53.6658,49.0337,0.0],[-53.6612,49.0319,0.0],[-53.655,49.033,14.2426],[-53.6532,49.0355,6.2253],[-53.6501,49.0359,15.4316],[-53.6491,49.0338,2.1491],[-53.6452,49.033,2.5924],[-53.6403,49.0341,4.9327],[-53.6441,49.0387,0.0],[-53.6417,49.0412,1.3278],[-53.6416,49.0451,2.7623],[-53.6398,49.0452,4.5824],[-53.6383,49.0417,0.0],[-53.6406,49.04,0.0],[-53.6407,49.0379,0.0],[-53.6385,49.0361,0.926],[-53.6362,49.0371,17.1368],[-53.6308,49.0344,7.7315],[-53.6248,49.0343,5.1974],[-53.6258,49.0382,11.336],[-53.62,49.0354,0.0],[-53.6187,49.0373,29.5941],[-53.6153,49.0366,0.0],[-53.6111,49.039,37.3256],[-53.6114,49.0365,0.0],[-53.6092,49.0375,25.7018],[-53.6058,49.0352,0.0],[-53.603,49.0367,0.0],[-53.6046,49.0381,4.2568],[-53.5996,49.039,0.0],[-53.5996,49.0402,0.0],[-53.6034,49.0406,15.012],[-53.603,49.0435,1.1925],[-53.6073,49.0457,3.9257],[-53.6076,49.0491,12.3834],[-53.599,49.0506,9.7467],[-53.5956,49.0556,3.9651],[-53.5974,49.0571,11.5923],[-53.5973,49.0638,0.0],[-53.6017,49.0644,16.7961],[-53.5992,49.0716,2.5074],[-53.6037,49.0729,12.0514],[-53.605,49.0778,0.4124],[-53.6114,49.0802,3.59],[-53.6258,49.0794,0.0],[-53.6228,49.082,0.0],[-53.6186,49.0826,0.0],[-53.6185,49.0851,0.0],[-53.6016,49.0875,11.4278],[-53.6445,49.0838,27.939],[-53.7073,49.0754,110.1002],[-53.7094,49.078,89.2176],[-53.8385,49.0748,46.5]]],
[[[-53.5644,49.0621,0.4836],[-53.5592,49.0615,0.3804],[-53.558,49.0635,0.798],[-53.5626,49.0646,0.7504],[-53.5644,49.0621,0.4836]]]]}}