{"type": "Feature","bbox": [-109.0014,52.8036,-108.883,52.9184],"geometry": {"type": "MultiPolygon","coordinates": [[[[-108.883,52.8697,501.3264],[-108.8981,52.8673,502.8064],[-108.9043,52.8788,502.4863],[-108.9131,52.8802,504.1903],[-108.9146,52.8954,506.2845],[-108.9194,52.8983,506.118],[-108.9438,52.9054,508.2953],[-108.9712,52.908,518.452],[-108.9863,52.917,510.0897],[-109.0014,52.9184,509.8444],[-109.0004,52.8038,591.3409],[-108.8831,52.8036,533.2188],[-108.883,52.8697,501.3264]]]]}
,"properties": {"GID_3": "CAN.12.4.35_1","GID_0": "CAN","country": "Canada","GID_1": "CAN.12_1","province": "Saskatchewan","NL_NAME_1": "NA","GID_2": "CAN.12.4_1","county": "DivisionNo.13","NL_NAME_2": "NA","city": "Poundmaker114","VARNAME_3": "NA","NL_NAME_3": "NA","TYPE_3": "RéserveIndienne","ENGTYPE_3": "IndianReserve","CC_3": "NA","HASC_3": "NA","name": "Poundmaker114.city","area_km2": 83.86147,"hist_schema_id": "Elevation0-9000","hist_area_km2": {"500": 9.0827,"525": 43.68856,"550": 12.08759,"575": 7.41353,"600": 11.57627,"625": 0.01281}}}