{"type":"Feature","properties":{"GID_3":"CAN.11.95.11_1","GID_0":"CAN","country":"Canada","GID_1":"CAN.11_1","province":"Québec","NL_NAME_1":"NA","GID_2":"CAN.11.95_1","county":"Témiscamingue","NL_NAME_2":"NA","city":"Latulipe-et-Gaboury","VARNAME_3":"NA","NL_NAME_3":"NA","TYPE_3":"MunicipalitéDeCantonsUnis","ENGTYPE_3":"UnitedCantonsMunicipality","CC_3":"NA","HASC_3":"NA","name":"Latulipe-et-Gaboury.city"},
"geometry":{"type": "MultiPolygon","coordinates": [[[[-79.0957,47.4699,261.0],[-79.0953,47.4619,261.0],[-79.1013,47.4526,272.186],[-79.1,47.4493,268.4409],[-79.0926,47.448,261.0],[-79.0936,47.4421,261.0],[-79.0963,47.4386,261.0],[-79.1067,47.4354,261.0],[-79.1108,47.4319,261.0],[-79.1109,47.4262,261.0],[-79.1132,47.4262,265.8002],[-79.114,47.2754,295.7855],[-78.9306,47.2754,282.0],[-78.933,47.4705,309.2601],[-79.0651,47.4719,292.0887],[-79.0669,47.4983,261.0],[-79.072,47.4944,261.0],[-79.0806,47.4936,261.0],[-79.0825,47.4883,261.0],[-79.083,47.4789,290.1696],[-79.0879,47.4701,262.2532],[-79.0957,47.4699,261.0]]]]}}