{"type":"Feature","properties":{"featurecla":"Lake","scalerank":8,"name":"null162","name_abb":null,"name_alt":null,"note":"_untitled_60","delta":null,"dam_name":null,"year":-99,"admin":null,"min_zoom":6.0,"min_label":7.0},
"geometry":{"type": "Polygon","coordinates": [[[-90.8481247241347,49.923386647221804,434.1913],[-90.791459629661858,49.95900470660473,423.2993],[-90.78395334442,49.9625370761303,424.1402],[-90.776741423305282,49.967246902164419,408.0],[-90.76982386631768,49.972839820579907,408.0],[-90.76364221964792,49.979610195503938,408.0],[-90.825605868409127,49.966658173910162,419.3698],[-90.872851310813772,49.947524505646584,423.9695],[-90.887863881297477,49.944875228502411,421.7099],[-90.903023633844768,49.948407598027984,429.9935],[-90.931576954176535,49.963125804384589,422.7904],[-90.946147978469554,49.966658173910162,421.3813],[-90.955714812601329,49.964303260893104,410.5],[-90.976173119436979,49.954589244697758,432.7856],[-91.0084059913579,49.948996326282241,408.0],[-91.118203810778013,49.911023353882257,422.2521],[-91.139103663804363,49.898365696415595,408.0],[-91.147787405554737,49.880409484660589,431.3502],[-91.152938777779553,49.873050381482273,424.0526],[-91.163977432546986,49.868046191321042,418.0424],[-91.1738386308059,49.861275816397011,415.0979],[-91.175751997632247,49.849206887184607,415.1398],[-91.169864715089616,49.842142148133462,409.4801],[-91.159267606512884,49.838609778607889,443.3945],[-91.107606702201267,49.834783044955174,428.2891],[-91.09288849584469,49.835666137336574,442.9774],[-91.082880115522215,49.839198506862147,429.1704],[-91.06359926519508,49.854211077345866,409.0],[-91.05197188217339,49.8609814522699,434.1196],[-91.017531279298979,49.867457463066785,433.545],[-90.9851512253145,49.888357316093135,420.8775],[-90.898313807810652,49.916027544043516,428.1582],[-90.870349215733143,49.918088092933431,408.0],[-90.8481247241347,49.923386647221804,434.1913]]]}}