{"type":"Feature","properties":{"GID_3":"CAN.11.84.27_1","GID_0":"CAN","country":"Canada","GID_1":"CAN.11_1","province":"Québec","NL_NAME_1":"NA","GID_2":"CAN.11.84_1","county":"Nord-du-Québec","NL_NAME_2":"NA","city":"Mistissini","VARNAME_3":"NA","NL_NAME_3":"NA","TYPE_3":"TerresRéservées","ENGTYPE_3":"LandReserved","CC_3":"NA","HASC_3":"NA","name":"Mistissini.city"},
"geometry":{"type": "MultiPolygon","coordinates": [[[[-73.93,50.4246,377.6365],[-73.8838,50.4222,391.6175],[-73.8801,50.4313,404.1199],[-73.871,50.4435,413.3575],[-73.8708,50.4488,406.192],[-73.8733,50.4566,380.7302],[-73.8773,50.4626,373.5],[-73.8834,50.4634,400.8074],[-73.884,50.4659,419.0145],[-73.8795,50.4718,411.6464],[-73.8713,50.4952,399.8523],[-73.867,50.4977,401.8074],[-73.8619,50.4978,384.9731],[-73.8597,50.5003,383.9129],[-73.8637,50.5072,395.5094],[-73.862,50.5131,383.7738],[-73.8644,50.5164,373.5],[-73.8802,50.515,411.9193],[-73.8771,50.5205,406.9741],[-73.87,50.5277,385.7958],[-73.8599,50.565,395.1567],[-73.8424,50.597,422.998],[-73.8402,50.5988,398.614],[-73.8359,50.5984,391.2326],[-73.8321,50.6034,392.7302],[-73.8307,50.6105,394.8595],[-73.8263,50.6145,397.0994],[-73.8154,50.6171,396.5964],[-73.8134,50.6214,396.3234],[-73.8141,50.6299,382.3063],[-73.8165,50.634,403.6474],[-73.8092,50.6453,393.8989],[-73.8025,50.6509,387.5285],[-73.8027,50.6546,382.2258],[-73.8096,50.6591,400.9816],[-73.8074,50.6611,391.2653],[-73.8017,50.661,381.9495],[-73.7987,50.6637,382.6431],[-73.8024,50.6697,391.4561],[-73.7996,50.6767,390.7192],[-73.7937,50.6789,374.3479],[-73.7994,50.6804,378.6774],[-73.796,50.6849,379.7218],[-73.7976,50.6874,373.5],[-73.8026,50.6896,373.5],[-73.8065,50.6812,373.5],[-73.8138,50.679,373.5],[-73.8205,50.6732,373.5],[-73.8331,50.6567,373.5],[-73.8405,50.6509,373.5],[-73.8451,50.6379,385.4366],[-73.8486,50.6338,382.6988],[-73.8515,50.6334,381.2533],[-73.8499,50.6396,377.4118],[-73.846,50.645,373.5],[-73.8481,50.6487,373.5],[-73.8551,50.6457,373.5],[-73.8592,50.6407,373.5],[-73.8624,50.6334,373.5],[-73.8578,50.6306,373.5],[-73.8621,50.6236,373.5],[-73.8639,50.6147,385.912],[-73.8678,50.6148,392.4344],[-73.8665,50.6214,384.6784],[-73.87,50.6324,373.5],[-73.8764,50.6332,373.5],[-73.8823,50.629,373.5],[-73.8898,50.6115,373.5],[-73.8954,50.6077,373.5],[-73.889,50.6058,376.5761],[-73.8884,50.603,373.5],[-73.8952,50.5953,373.5],[-73.9025,50.5902,373.5],[-73.9041,50.587,373.5],[-73.8955,50.5862,387.9546],[-73.8923,50.5777,373.5],[-73.898,50.5773,373.5],[-73.9017,50.5675,374.6804],[-73.896,50.5672,390.2568],[-73.8947,50.5626,373.5],[-73.8963,50.5581,373.5],[-73.9043,50.5632,373.5],[-73.9101,50.5638,384.9275],[-73.9111,50.5654,381.5272],[-73.9049,50.5756,384.8991],[-73.9073,50.5791,375.7725],[-73.9137,50.5803,373.5],[-73.9195,50.5685,373.5],[-73.9278,50.5671,373.5],[-73.9288,50.56,373.5],[-73.9351,50.5546,373.5],[-73.9306,50.5506,378.1552],[-73.9301,50.5472,373.5],[-73.9325,50.5394,373.5],[-73.9316,50.5346,373.5],[-73.9281,50.5332,373.5],[-73.9328,50.5244,373.5],[-73.9455,50.5184,373.5],[-73.9504,50.513,373.5],[-73.948,50.5111,373.5],[-73.944,50.5113,378.6888],[-73.9356,50.5155,388.869],[-73.9265,50.511,376.2529],[-73.9294,50.5094,373.5],[-73.9348,50.5102,373.5],[-73.937,50.5077,373.5],[-73.9308,50.5019,373.5],[-73.938,50.492,373.5],[-73.9408,50.4854,373.5],[-73.9388,50.481,373.5],[-73.9334,50.4805,380.8899],[-73.9276,50.474,373.5],[-73.9244,50.4748,376.8682],[-73.9168,50.4866,382.4641],[-73.9055,50.4907,389.7667],[-73.8874,50.5053,377.5075],[-73.8875,50.5019,373.5],[-73.8948,50.4894,373.5],[-73.9059,50.4798,373.5],[-73.9061,50.4761,373.5],[-73.9029,50.4758,373.5],[-73.9015,50.474,374.1716],[-73.9057,50.4683,373.5],[-73.9265,50.4566,373.5],[-73.927,50.4543,373.5],[-73.9246,50.4506,373.5],[-73.9204,50.4494,375.9164],[-73.9117,50.4529,397.3766],[-73.9071,50.4514,388.3744],[-73.9104,50.4483,374.4805],[-73.9085,50.4437,381.8333],[-73.9129,50.4412,378.9908],[-73.9141,50.4454,374.5407],[-73.9191,50.4457,373.5],[-73.9256,50.4433,373.5],[-73.9306,50.4356,373.5],[-73.9257,50.4337,373.5],[-73.9244,50.4309,375.581],[-73.9305,50.4283,373.5],[-73.9285,50.4266,379.3974],[-73.93,50.4246,377.6365]]],
[[[-73.3839,50.6565,436.4052],[-73.3809,50.6578,438.4214],[-73.5253,50.6983,459.0242],[-73.4899,50.7574,387.5],[-73.6551,50.8039,373.5],[-73.6583,50.7961,373.5],[-73.6574,50.7936,373.5],[-73.6535,50.7921,385.5225],[-73.6525,50.7898,379.9141],[-73.6633,50.7834,373.5],[-73.6698,50.7659,373.5],[-73.6762,50.7598,373.5],[-73.6727,50.7589,373.5],[-73.6615,50.7662,379.024],[-73.6536,50.7665,380.0508],[-73.6537,50.7647,387.6357],[-73.6607,50.7598,374.4399],[-73.664,50.7516,373.5],[-73.6689,50.7473,373.5],[-73.6816,50.7432,373.5],[-73.6829,50.7469,373.5],[-73.6881,50.7424,373.5],[-73.6995,50.7145,373.5],[-73.697,50.7133,373.5],[-73.6868,50.7257,379.3893],[-73.6805,50.7277,386.1766],[-73.6796,50.7247,384.3819],[-73.6882,50.718,384.0514],[-73.695,50.7096,373.5],[-73.7034,50.7082,373.5],[-73.7065,50.7108,373.5],[-73.7129,50.7106,373.5],[-73.7157,50.7128,373.5],[-73.7187,50.7117,373.5],[-73.7267,50.7011,373.5],[-73.7336,50.6815,373.5],[-73.7374,50.6768,373.5],[-73.7513,50.6713,373.5],[-73.7577,50.6648,373.5],[-73.7635,50.6466,373.5],[-73.7707,50.6472,373.5],[-73.7738,50.6415,373.5],[-73.7779,50.6391,373.5],[-73.7821,50.6325,373.5],[-73.7772,50.6285,379.0787],[-73.7767,50.6237,374.3059],[-73.7818,50.6057,373.5],[-73.7865,50.5974,373.5],[-73.7909,50.5938,381.5073],[-73.793,50.5961,393.8878],[-73.7934,50.6032,379.3509],[-73.7838,50.6181,382.3463],[-73.7857,50.6234,373.5],[-73.7966,50.6197,373.5],[-73.8052,50.6206,373.5],[-73.8072,50.616,379.8439],[-73.8157,50.6102,374.6294],[-73.8147,50.6081,373.5],[-73.8011,50.6079,388.4113],[-73.8005,50.6058,387.9436],[-73.8159,50.597,373.5],[-73.8175,50.5936,373.5],[-73.8161,50.5908,374.6881],[-73.8208,50.5829,373.5],[-73.8166,50.5791,373.5],[-73.8171,50.5766,373.5],[-73.8274,50.5624,373.5],[-73.8322,50.5513,373.5],[-73.824,50.5324,373.5],[-73.818,50.5391,380.595],[-73.8175,50.5353,378.2251],[-73.8198,50.5291,375.5088],[-73.8135,50.5278,376.6064],[-73.8176,50.5217,373.5],[-73.8217,50.5202,373.5],[-73.8244,50.5139,375.5309],[-73.8233,50.5061,373.5],[-73.8257,50.4933,373.5],[-73.8252,50.4871,373.5],[-73.8213,50.4861,377.3651],[-73.8066,50.495,386.8383],[-73.8025,50.4991,393.5162],[-73.799,50.4983,375.3698],[-73.7996,50.4931,373.5],[-73.8063,50.4859,373.5],[-73.8121,50.4764,373.5],[-73.8063,50.4692,376.3429],[-73.8089,50.4662,375.7156],[-73.8141,50.47,373.5],[-73.8199,50.4692,373.5],[-73.8255,50.4725,373.5],[-73.8253,50.4768,373.5],[-73.8282,50.4759,373.5],[-73.8309,50.4712,373.5],[-73.8296,50.468,373.5],[-73.8182,50.4666,375.0581],[-73.8148,50.4634,374.2859],[-73.8181,50.4611,373.5],[-73.8277,50.4613,373.5],[-73.8296,50.4595,373.5],[-73.8308,50.4513,373.5],[-73.841,50.4416,380.4527],[-73.846,50.4342,383.3722],[-73.8489,50.4342,384.9467],[-73.8498,50.437,380.8483],[-73.8395,50.4524,381.8621],[-73.8393,50.4578,377.6475],[-73.844,50.4643,385.6866],[-73.8402,50.4695,373.5],[-73.8423,50.4718,373.5],[-73.848,50.4713,373.5],[-73.8517,50.4681,373.5],[-73.8601,50.4484,373.5],[-73.8565,50.4405,373.5],[-73.8587,50.4376,373.5],[-73.8652,50.4361,373.5],[-73.8737,50.4282,373.5],[-73.8788,50.4185,377.2314],[-73.879,50.4141,376.7893],[-73.8684,50.4119,380.1852],[-73.8619,50.4081,389.3594],[-73.8303,50.4051,394.9443],[-73.8227,50.3968,388.7612],[-73.8187,50.3549,383.772],[-73.7902,50.3427,397.5514],[-73.7703,50.3415,417.9888],[-73.7549,50.344,395.401],[-73.7122,50.3579,383.2201],[-73.681,50.3775,399.3717],[-73.6665,50.3912,400.7679],[-73.6569,50.4153,393.6077],[-73.6505,50.4222,397.7034],[-73.6109,50.4469,410.791],[-73.5477,50.5139,431.27],[-73.5006,50.5499,443.3326],[-73.4832,50.5775,430.7654],[-73.4502,50.6139,425.32],[-73.4332,50.6355,431.1494],[-73.4163,50.648,427.6522],[-73.3839,50.6565,436.4052]]]]}}