{"type": "Feature","bbox": [-73.6269,45.5037,-73.5902,45.5278],"geometry": {"type": "MultiPolygon","coordinates": [[[[-73.6269,45.5166,73.6427],[-73.6176,45.5125,106.7034],[-73.6188,45.5112,106.6993],[-73.6161,45.5084,113.2191],[-73.6187,45.5048,114.1923],[-73.613,45.5106,111.6325],[-73.5951,45.5037,188.0381],[-73.5914,45.5081,218.2341],[-73.5975,45.5132,136.0805],[-73.5992,45.5131,125.9374],[-73.5902,45.5159,84.7594],[-73.6171,45.5278,62.1991],[-73.6269,45.5166,73.6427]]]]}
,"properties": {"GID_3": "CAN.11.20.18_1","GID_0": "CAN","country": "Canada","GID_1": "CAN.11_1","province": "Québec","NL_NAME_1": "NA","GID_2": "CAN.11.20_1","county": "Communauté-Urbaine-de-Montréal","NL_NAME_2": "NA","city": "Outremont","VARNAME_3": "NA","NL_NAME_3": "NA","TYPE_3": "Ville","ENGTYPE_3": "Ville","CC_3": "NA","HASC_3": "NA","name": "Outremont.city","area_km2": 3.773593,"hist_schema_id": "Elevation0-9000","hist_area_km2": {"50": 0.222817,"75": 1.559845,"100": 0.891421,"125": 0.401158,"150": 0.208014,"175": 0.37147,"200": 0.104011,"225": 0.014859}}}