{"type": "Feature","bbox": [-66.3953,45.6341,-66.1382,45.8567],"geometry": {"type": "MultiPolygon","coordinates": [[[[-66.1692,45.8307,2.4044],[-66.1786,45.8335,0.0],[-66.1893,45.8295,32.0647],[-66.1999,45.8354,16.916],[-66.2278,45.8407,6.6151],[-66.2549,45.8567,5.8173],[-66.3213,45.7784,79.2928],[-66.331,45.7694,73.705],[-66.3953,45.692,129.9527],[-66.2576,45.6341,90.1077],[-66.1767,45.7132,67.6136],[-66.1796,45.7209,93.3853],[-66.1778,45.7276,100.8936],[-66.182,45.7288,112.3814],[-66.1843,45.7648,54.1899],[-66.2102,45.7754,30.0815],[-66.2032,45.7831,28.8364],[-66.2106,45.7863,56.7124],[-66.18,45.8226,6.1759],[-66.1382,45.8117,4.3883],[-66.1405,45.8171,0.0],[-66.1612,45.8281,4.318],[-66.1692,45.8307,2.4044]]]]}
,"properties": {"GID_3": "CAN.4.9.7_1","GID_0": "CAN","country": "Canada","GID_1": "CAN.4_1","province": "NewBrunswick","NL_NAME_1": "NA","GID_2": "CAN.4.9_1","county": "Queens","NL_NAME_2": "NA","city": "Gagetown","VARNAME_3": "NA","NL_NAME_3": "NA","TYPE_3": "Parish","ENGTYPE_3": "Parish","CC_3": "NA","HASC_3": "NA","name": "Gagetown.city","area_km2": 237.4866,"hist_schema_id": "Elevation0-9000","hist_area_km2": {"0": 7.3726,"25": 16.0942,"50": 41.484,"75": 48.2083,"100": 63.0781,"125": 48.7781,"150": 12.3676,"175": 0.1037}}}