{"type":"Feature","properties":{"featurecla":"River","scalerank":12,"rivernum":20146,"dissolve":"20146River","name":"Gatineau2","name_alt":null,"note":"ID is link back to CEC data","name_full":"Rivire Gatineau","min_zoom":7.0,"strokeweig":0.2,"uident":1770701,"min_label":8.0},
"geometry":{"type": "LineString","coordinates": [[-75.565256314187067,47.7813581400982,413.8822],[-75.518055793353739,47.732448634889863,395.3057],[-75.505360480853739,47.708319403119027,426.4012],[-75.502064582416239,47.670111395306527,442.4918],[-75.492746548562067,47.651678778119027,455.0812],[-75.463612433978739,47.647487697389863,420.9915],[-75.440907355853739,47.638983465619027,452.7887],[-75.422678189187067,47.624335028119027,370.4332],[-75.4151912100204,47.607855535931527,435.0263],[-75.3673396475204,47.511989650514863,364.6365],[-75.356068488666239,47.4952253275982,299.2743],[-75.348459439187067,47.487372137494027,372.139]]}}