{"type":"Feature","properties":{"featurecla":"River","scalerank":12,"rivernum":21666,"dissolve":"21666River","name":"null705","name_alt":null,"note":"ID is link back to CEC data","name_full":null,"min_zoom":7.0,"strokeweig":0.2,"uident":1285401,"min_label":8.0},
"geometry":{"type": "LineString","coordinates": [[-119.60081946522872,66.99457428593152,166.0467],[-119.55882727772872,67.026638088014863,211.31],[-119.37242591054122,67.05451080936902,249.3595],[-119.3114314443954,67.060410874473192,219.6982],[-119.15575110585372,67.08124420780652,242.6017],[-119.08918209543705,67.10480377811902,257.3504],[-119.07673092356205,67.11603424686902,217.7679],[-119.08348548085372,67.13178131718152,227.6776],[-119.13145911366622,67.17194244999402,256.26],[-119.14972897043705,67.200547593223192,288.7848],[-119.13414466054122,67.22943756718152,296.537],[-119.12775631418705,67.23371002811902,301.4051],[-119.09691321522872,67.24713776249402,334.3262],[-119.04308020741622,67.26483795780652,331.5256],[-118.90428626210372,67.29376862186902,397.329],[-118.83519446522872,67.315537827598192,402.6726],[-118.7882380850204,67.33576080936902,371.986],[-118.77562415272872,67.347031968223192,382.6566],[-118.7711482412704,67.36627838749402,407.8623],[-118.78587805897872,67.408718166139863,418.8838],[-118.76610266835372,67.431911525514863,422.8364],[-118.75300045481205,67.44721100468152,466.7502],[-118.7198787100204,67.46710846561902,426.5757],[-118.73973548085372,67.49567291874402,431.6318],[-118.73717200429122,67.50726959843152,439.8169],[-118.71857662668705,67.522080796348192,447.1614]]}}