{"type":"Feature","properties":{"featurecla":"Lake Centerline","scalerank":6,"rivernum":265,"dissolve":"265Lake Centerline","name":"Back1","name_alt":null,"note":null,"min_zoom":5.0,"strokeweig":0.2,"name_en":"Back","min_label":6.0},
"geometry":{"type": "LineString","coordinates": [[-108.53330078124999,64.56207916874412,374.632],[-108.49301757812499,64.561786199994117,362.9454],[-108.4750244140625,64.56683991093162,363.7031],[-108.45703125,64.57782623905662,351.3079],[-108.4244873046875,64.58905670780662,374.2346],[-108.34946289062499,64.601336981244117,360.392],[-108.324951171875,64.60382721561912,388.9376],[-108.30888671875,64.611102606244117,372.8699],[-108.2814208984375,64.63715241093162,338.5],[-108.26689453125,64.64984772343162,341.6837],[-108.24462890625,64.660419012494117,352.1135],[-108.21484375,64.66791412968162,338.5],[-108.19003906249999,64.67902252811912,338.5],[-108.18027343749999,64.68561432499412,338.5]]}}