{"type":"Feature","properties":{"featurecla":"River","scalerank":9,"rivernum":1011,"dissolve":"1011River","name":"South","name_alt":null,"note":null,"min_zoom":7.1,"strokeweig":0.15,"name_en":"South Nahanni","min_label":8.1},
"geometry":{"type": "LineString","coordinates": [[-129.5504150390625,63.027118231244117,1465.7603],[-129.5672607421875,63.01361725468162,1558.2631],[-129.6171875,62.984735418744123,1233.6281],[-129.63603515625,62.97931549686912,1232.0328],[-129.65642089843749,62.970086981244123,1514.3534],[-129.6638671875,62.94904205936912,1134.6349],[-129.667041015625,62.91107819218162,1092.3483],[-129.63127441406249,62.90082428593162,1088.6788],[-129.61748046875,62.89264557499412,1087.2155],[-129.61865234375,62.88373444218162,1094.0474],[-129.57023925781249,62.86322662968162,1084.0865],[-129.5635986328125,62.85761139530662,1097.1494],[-129.5576171875,62.85101959843162,1070.8142],[-129.549609375,62.84503815311912,1082.245],[-129.5367431640625,62.841571356244117,1063.684],[-129.5411376953125,62.832294012494117,1088.2728],[-129.54045410156249,62.823504949994117,1102.2344],[-129.535400390625,62.81513092655662,1096.9221],[-129.52653808593749,62.80719635624412,1057.58]]}}