{"type":"Feature","properties":{"featurecla":"Lake Centerline","scalerank":10,"rivernum":21638,"dissolve":"21638Lake Centerline","name":"Whitefish4","name_alt":null,"note":"ID is link back to CEC data","name_full":"Whitefish River","min_zoom":6.0,"strokeweig":0.2,"uident":1303101,"min_label":7.0},
"geometry":{"type": "LineString","coordinates": [[-124.7901912100204,65.91327545780652,157.7217],[-124.8385310537704,65.96881744999402,155.5],[-124.8385310537704,66.052110093223192,155.5],[-124.79686438710372,66.135524806764863,155.5],[-124.71873938710372,66.177110093223192,155.5],[-124.6354060537704,66.198024806764863,155.5],[-124.48436438710372,66.223985093223192,155.5],[-124.2760310537704,66.229274806764863,155.5],[-124.06769772043705,66.260524806764863,155.5],[-123.81769772043705,66.255235093223192,155.5],[-123.68748938710372,66.255235093223192,155.5],[-123.59894772043705,66.276149806764863,155.5],[-123.4010310537704,66.338649806764863,155.5],[-123.3385310537704,66.348985093223192,155.5],[-123.14582272043705,66.369899806764863,155.5],[-123.04686438710372,66.364610093223192,155.5],[-122.9635310537704,66.354274806764863,155.5],[-122.82811438710372,66.39069244999402,155.5],[-122.5260310537704,66.37506744999402,155.5],[-122.32811438710372,66.411485093223192,155.5],[-122.25519772043705,66.40631744999402,155.5],[-122.17186438710372,66.40631744999402,155.5],[-122.0416560537704,66.42194244999402,155.5],[-121.84894772043705,66.40631744999402,155.5],[-121.60936438710372,66.37506744999402,155.5],[-121.23436438710372,66.291774806764863,155.5],[-121.07811438710372,66.21881744999402,155.5],[-120.98436438710372,66.145860093223192,155.5],[-120.92707272043705,66.057399806764863,155.5],[-120.84373938710372,66.010524806764863,155.5],[-120.74998938710372,65.948024806764863,155.5],[-120.67967688710372,65.92975494999402,155.5]]}}