{"type":"Feature","properties":{"featurecla":"River","scalerank":11,"rivernum":21417,"dissolve":"21417River","name":"Baillie","name_alt":null,"note":"ID is link back to CEC data","name_full":"Baillie River","min_zoom":6.7,"strokeweig":0.2,"uident":1354501,"min_label":7.7},
"geometry":{"type": "LineString","coordinates": [[-105.77135169179122,64.51117584843152,295.937],[-105.77472897043705,64.549668686973192,322.1916],[-105.78429114491622,64.561143296348192,313.9549],[-105.80650794179122,64.58771393436902,309.5005],[-105.9515681631454,64.70172760624402,314.2594],[-105.9752498037704,64.73871491093152,270.8492],[-105.9725642568954,64.761826890098192,261.5945],[-105.9493708975204,64.77594635624402,253.9985],[-105.92015540272872,64.785183009889863,246.3048],[-105.8998103506454,64.82538483280652,299.3827],[-105.86876380116622,64.850612697389863,285.3397],[-105.83893795481205,64.86871979374402,296.7102],[-105.70470130116622,64.91400787968152,275.2552],[-105.62580318918705,64.92682526249402,268.2975],[-105.6036677725204,64.922390041139863,267.966],[-105.58934485585372,64.91950104374402,273.1016],[-105.52379309804122,64.92169830936902,268.7959],[-105.49689693918705,64.93549225468152,251.8599],[-105.47443600168705,64.94696686405652,218.1999],[-105.42552649647872,64.955349025514863,280.3942],[-105.3727107412704,64.94342682499402,254.8798],[-105.26634680897872,64.89423248905652,245.8246],[-105.26008053293707,64.892930405723192,244.1192],[-105.18586178293707,64.878037827598192,260.2578],[-105.16901607981207,64.88153717655652,249.7127],[-105.11864173085372,64.89191315311902,229.3076],[-104.99885006418707,64.893825588014863,215.4651],[-104.89561926991622,64.87982819218152,221.0108],[-104.80524654856207,64.87225983280652,235.3971],[-104.80162512929122,64.87250397343152,236.3369],[-104.75877844960372,64.88715241093152,213.5773],[-104.70783443918707,64.91681549686902,226.3307],[-104.65648352772872,64.95709869999402,256.2868],[-104.57184811106207,64.97492096561902,188.4805],[-104.5357966787704,64.98956940311902,237.2668],[-104.51866614491622,64.99945709843152,198.611],[-104.52619381418707,65.020046291139863,209.8703],[-104.5585017568954,65.040798244264863,232.8665],[-104.60765540272872,65.095485744264863,204.4645],[-104.6537166006454,65.12482330936902,206.3398]]}}