{"type":"Feature","properties":{"GID_2":"CAN.2.16_1","GID_0":"CAN","country":"Canada","GID_1":"CAN.2_1","province":"BritishColumbia","NL_NAME_1":"NA","county":"KootenayBoundary","VARNAME_2":"NA","NL_NAME_2":"NA","TYPE_2":"RegionalDistrict","ENGTYPE_2":"RegionalDistrict","CC_2":"05","HASC_2":"CA.BC.KB","name":"Kootenay_Boundary.county"},
"geometry":{"type": "MultiPolygon","coordinates": [[[[-117.6814,49.2081,412.0],[-117.6844,49.2081,412.4316],[-117.6756,49.2247,415.6783],[-117.6858,49.2246,531.3067],[-117.6863,49.2283,566.2094],[-117.7019,49.228,781.1854],[-117.7028,49.2652,1090.3879],[-118.1363,49.2639,1251.5364],[-118.1351,49.2685,1279.4957],[-118.138,49.2714,1280.9417],[-118.1444,49.2705,1373.3367],[-118.1559,49.2603,1514.2384],[-118.163,49.2512,1752.8413],[-118.1769,49.2493,1795.5049],[-118.1774,49.2601,1717.7716],[-118.1825,49.2666,1813.3893],[-118.1821,49.2684,1862.7083],[-118.1786,49.2701,1867.6609],[-118.1778,49.2738,1807.7952],[-118.1806,49.2763,1822.8157],[-118.1857,49.2768,1790.21],[-118.1909,49.2798,1794.3295],[-118.1985,49.2792,1749.6182],[-118.1995,49.2845,1557.0636],[-118.206,49.2926,1693.5205],[-118.2099,49.2932,1611.0739],[-118.2062,49.2998,1507.7729],[-118.2089,49.3031,1678.6439],[-118.2119,49.3243,1871.0685],[-118.2219,49.3266,2007.9829],[-118.225,49.3323,1991.6022],[-118.2323,49.3372,1962.3828],[-118.2368,49.3373,2018.6509],[-118.2403,49.3397,2049.4932],[-118.2428,49.3448,2010.0558],[-118.2405,49.3567,2244.4944],[-118.2535,49.3629,2160.3162],[-118.2517,49.3734,2205.7808],[-118.2524,49.3782,2091.4807],[-118.2573,49.3828,2060.5312],[-118.2575,49.3853,2131.5303],[-118.2653,49.3888,2025.7134],[-118.265,49.3952,2018.7554],[-118.2675,49.3988,2054.5625],[-118.2576,49.4039,2005.021],[-118.2606,49.408,1929.4675],[-118.2601,49.4133,1934.6764],[-118.2631,49.4132,1914.2722],[-118.2742,49.4201,1974.6604],[-118.2712,49.4224,1936.7797],[-118.262,49.423,1919.5482],[-118.2608,49.432,1710.9114],[-118.2532,49.445,1891.8917],[-118.26,49.4494,1886.0488],[-118.277,49.4671,1962.5957],[-118.283,49.4684,1966.9167],[-118.2834,49.471,1955.2338],[-118.2807,49.4774,1925.3296],[-118.2848,49.481,1983.061],[-118.2874,49.487,2063.2104],[-118.2875,49.4953,2026.3221],[-118.2759,49.5124,1903.0891],[-118.2736,49.5252,1574.5747],[-118.2655,49.5296,1690.1921],[-118.2644,49.534,1769.5256],[-118.2603,49.5368,1784.0958],[-118.2615,49.5394,1776.5325],[-118.2605,49.5507,1921.1506],[-118.251,49.5524,1945.0847],[-118.2448,49.5616,1770.1583],[-118.2517,49.5932,1745.8867],[-118.25,49.6043,1825.5859],[-118.2535,49.6101,1830.7075],[-118.2543,49.6174,1797.042],[-118.2431,49.6315,1684.9973],[-118.2414,49.636,1666.4187],[-118.2464,49.649,1524.1295],[-118.2525,49.6562,1462.9014],[-118.275,49.6582,1521.6882],[-118.274,49.6651,1581.0748],[-118.279,49.6707,1569.8009],[-118.2775,49.6737,1569.379],[-118.2804,49.6827,1533.7356],[-118.2806,49.6947,1658.5461],[-118.2792,49.6982,1674.4182],[-118.2768,49.6971,1667.6987],[-118.2757,49.6983,1648.0969],[-118.2736,49.7099,1628.8124],[-118.2752,49.714,1499.8521],[-118.2807,49.7144,1465.3431],[-118.283,49.7166,1461.2328],[-118.2808,49.7245,1403.5483],[-118.2854,49.734,1346.3613],[-118.2851,49.743,1416.2179],[-118.2955,49.7446,1464.1625],[-118.3011,49.75,1401.8346],[-118.2996,49.7525,1370.3627],[-118.2918,49.7557,1347.3163],[-118.2875,49.7596,1367.0779],[-118.2887,49.7631,1422.4409],[-118.2926,49.7655,1455.9656],[-118.299,49.7661,1492.2402],[-118.2872,49.7787,1355.3625],[-118.2871,49.7874,1335.9135],[-118.2902,49.7939,1349.6398],[-118.3062,49.7956,1430.4468],[-118.3025,49.799,1427.8375],[-118.3015,49.8057,1413.375],[-118.3028,49.808,1418.7784],[-118.3098,49.8095,1436.8567],[-118.3122,49.8122,1479.8713],[-119.0556,49.8123,1502.0138],[-119.0654,49.7982,1358.6439],[-119.0855,49.799,1215.085],[-119.0996,49.7932,1305.1017],[-119.1157,49.7909,1412.2401],[-119.122,49.7955,1372.9004],[-119.1335,49.7994,1286.0696],[-119.1538,49.7995,1285.1681],[-119.1516,49.7926,1288.9769],[-119.1527,49.764,1279.2507],[-119.1638,49.7639,1279.3979],[-119.1634,49.7579,1279.2908],[-119.1851,49.7583,1277.261],[-119.2014,49.7536,1318.4165],[-119.1982,49.7469,1307.2277],[-119.1996,49.7421,1276.3872],[-119.2067,49.7372,1308.5278],[-119.22,49.7392,1319.4918],[-119.2284,49.7351,1398.282],[-119.2628,49.7447,1595.3815],[-119.269,49.7392,1535.9928],[-119.2717,49.7301,1577.2123],[-119.2865,49.7262,1739.7639],[-119.2958,49.7151,1987.2996],[-119.3233,49.698,2106.259],[-119.326,49.697,2096.4668],[-119.3319,49.6984,2140.4812],[-119.3399,49.6949,2064.7588],[-119.3478,49.6936,2081.7371],[-119.3479,49.6923,2081.7371],[-119.3614,49.6866,1973.6531],[-119.369,49.6796,1997.12],[-119.3756,49.6789,2009.5605],[-119.3717,49.6719,1901.6593],[-119.3728,49.6538,1695.9463],[-119.3596,49.6452,1785.6245],[-119.3498,49.6344,2116.3984],[-119.352,49.6266,2033.9349],[-119.3586,49.618,2003.4404],[-119.3498,49.6068,1914.2371],[-119.3638,49.5959,1980.3142],[-119.3614,49.5939,1967.6542],[-119.3481,49.5931,1952.153],[-119.3483,49.5877,1898.6091],[-119.3464,49.5821,1866.0431],[-119.336,49.5694,1819.2009],[-119.3393,49.5584,1993.1344],[-119.3385,49.5568,1993.2463],[-119.3335,49.556,2000.8662],[-119.3321,49.5478,1940.5548],[-119.328,49.5389,1878.2758],[-119.3227,49.5349,1800.4327],[-119.3219,49.5302,1816.2983],[-119.3113,49.5304,1698.533],[-119.3088,49.5256,1649.9108],[-119.3022,49.5213,1549.5862],[-119.3041,49.5114,1555.2494],[-119.3101,49.5044,1479.6296],[-119.3029,49.5044,1457.1814],[-119.3011,49.5031,1451.2439],[-119.3008,49.3854,1744.0336],[-119.2934,49.3822,1748.7985],[-119.2873,49.3835,1805.2224],[-119.2822,49.3873,1853.38],[-119.2626,49.3819,1857.0115],[-119.252,49.3684,1725.3103],[-119.2525,49.3658,1725.3276],[-119.2589,49.3582,1773.7809],[-119.2612,49.3496,1931.437],[-119.2577,49.3455,1968.3105],[-119.2374,49.34,2025.3738],[-119.2234,49.3413,2079.5708],[-119.2144,49.3441,2102.1162],[-119.2065,49.3413,2042.8817],[-119.2039,49.3399,1988.7192],[-119.2033,49.3373,1982.0675],[-119.2089,49.3236,1922.1853],[-119.1877,49.3152,1804.4602],[-119.1757,49.3087,1943.728],[-119.1872,49.2971,1746.8988],[-119.2134,49.285,1616.0927],[-119.2171,49.28,1586.9878],[-119.2179,49.2743,1551.6528],[-119.2248,49.2572,1498.2888],[-119.2314,49.25,1520.5946],[-119.2307,49.2467,1560.8527],[-119.2375,49.2388,1697.0986],[-119.2205,49.2288,1858.0127],[-119.2137,49.2223,1877.6747],[-119.1992,49.2163,1928.1149],[-119.1819,49.2181,2128.2188],[-119.1778,49.2151,2073.624],[-119.1826,49.2104,1973.0496],[-119.1828,49.2043,2018.8596],[-119.1912,49.1982,2097.2673],[-119.1995,49.1993,1972.1472],[-119.214,49.1979,1853.6904],[-119.22,49.1952,1982.2345],[-119.2239,49.1858,1904.5934],[-119.2357,49.1796,1954.7554],[-119.2424,49.1695,2100.3218],[-119.2548,49.1652,2279.4036],[-119.2571,49.1564,2057.6443],[-119.2613,49.152,1977.0658],[-119.2633,49.1466,1933.3241],[-119.2634,49.1407,1887.9352],[-119.2846,49.1348,1575.2897],[-119.285,49.1335,1581.0306],[-119.2704,49.1157,1540.4451],[-119.2771,49.1104,1426.5524],[-119.2737,49.1005,1488.5962],[-119.2876,49.1007,1387.0208],[-119.292,49.0977,1391.4546],[-119.2898,49.0894,1527.4701],[-119.2907,49.0877,1539.1978],[-119.297,49.0866,1549.3933],[-119.2999,49.082,1617.5333],[-119.3013,49.0735,1475.6127],[-119.3016,49.008,1076.0271],[-119.2952,49.0079,1080.0209],[-119.2949,49.0,1005.4227],[-117.4697,49.0007,984.9249],[-117.4651,49.0882,1469.9609],[-117.521,49.0881,876.9367],[-117.5204,49.1237,628.7686],[-117.5106,49.1236,896.0125],[-117.5102,49.1383,734.9863],[-117.5054,49.1383,904.6102],[-117.5046,49.1577,710.713],[-117.4993,49.158,876.5269],[-117.4993,49.1604,868.8259],[-117.4943,49.1605,1070.6791],[-117.494,49.1639,887.248],[-117.4832,49.1644,908.1398],[-117.4838,49.1709,824.8942],[-117.4719,49.1712,1084.9097],[-117.4718,49.1757,775.7027],[-117.6744,49.1751,1270.0627],[-117.6746,49.208,476.855],[-117.6814,49.2081,412.0]]]]}}