{"type":"Feature","properties":{"GID_3":"CAN.12.7.6_1","GID_0":"CAN","country":"Canada","GID_1":"CAN.12_1","province":"Saskatchewan","NL_NAME_1":"NA","GID_2":"CAN.12.7_1","county":"DivisionNo.16","NL_NAME_2":"NA","city":"BlaineLake","VARNAME_3":"NA","NL_NAME_3":"NA","TYPE_3":"Town","ENGTYPE_3":"Town","CC_3":"NA","HASC_3":"NA","name":"Blaine_Lake.city"},
"geometry":{"type": "MultiPolygon","coordinates": [[[[-106.8756,52.8349,520.8734],[-106.8756,52.8362,521.4965],[-106.8891,52.8345,524.8784],[-106.8891,52.8301,523.6868],[-106.8939,52.8274,522.3729],[-106.8874,52.8273,523.6258],[-106.8875,52.8255,521.9553],[-106.8836,52.8261,521.4003],[-106.8824,52.8242,520.9998],[-106.8868,52.8232,520.3021],[-106.8868,52.8199,518.8182],[-106.8751,52.8201,516.5884],[-106.8751,52.8267,518.0681],[-106.8702,52.8276,517.5513],[-106.8685,52.8347,518.9677],[-106.8756,52.8349,520.8734]]]]}}