{"type": "Feature","bbox": [-73.9574,45.2415,-73.8182,45.3206],"geometry": {"type": "MultiPolygon","coordinates": [[[[-73.8909,45.3137,33.8984],[-73.889,45.3066,41.3564],[-73.8815,45.3063,33.3994],[-73.8817,45.3035,36.6238],[-73.8854,45.3002,33.6449],[-73.8873,45.2866,32.9522],[-73.8949,45.2833,41.7484],[-73.9027,45.2842,39.6849],[-73.9503,45.2781,46.5117],[-73.9508,45.2796,45.9203],[-73.9574,45.2787,42.5913],[-73.9512,45.256,49.2482],[-73.9231,45.2595,40.8195],[-73.9114,45.2711,40.7794],[-73.8976,45.2644,38.2296],[-73.8823,45.2524,40.1892],[-73.8744,45.2647,39.5698],[-73.8443,45.2415,38.7518],[-73.8218,45.2746,39.1487],[-73.8196,45.2754,39.3787],[-73.8195,45.2776,38.2787],[-73.8268,45.2786,39.4174],[-73.8223,45.2833,48.2819],[-73.8243,45.2878,39.419],[-73.8182,45.2988,39.0506],[-73.8324,45.3094,43.7796],[-73.8357,45.3073,38.7761],[-73.8444,45.3144,39.0068],[-73.846,45.314,38.4666],[-73.8366,45.306399999999996,39.3133],[-73.8378,45.3041,39.7169],[-73.8487,45.3125,39.2184],[-73.8538,45.3086,39.2371],[-73.8493,45.3049,50.5158],[-73.8527,45.3028,40.1618],[-73.8591,45.3103,38.982],[-73.8722,45.3206,19.5],[-73.8854,45.3138,35.5005],[-73.8909,45.3137,33.8984]]]]}
,"properties": {"GID_3": "CAN.11.10.1_1","GID_0": "CAN","country": "Canada","GID_1": "CAN.11_1","province": "Québec","NL_NAME_1": "NA","GID_2": "CAN.11.10_1","county": "Beauharnois-Salaberry","NL_NAME_2": "NA","city": "Beauharnois","VARNAME_3": "NA","NL_NAME_3": "NA","TYPE_3": "Ville","ENGTYPE_3": "Ville","CC_3": "NA","HASC_3": "NA","name": "Beauharnois.city","area_km2": 43.32421,"hist_schema_id": "Elevation0-9000","hist_area_km2": {"25": 1.96865,"50": 41.34064,"75": 0.01492}}}