{"type":"Feature","properties":{"featurecla":"River","scalerank":12,"rivernum":20072,"dissolve":"20072River","name":"null216","name_alt":null,"note":"ID is link back to CEC data","name_full":null,"min_zoom":7.0,"strokeweig":0.2,"uident":2119501,"min_label":8.0},
"geometry":{"type": "LineString","coordinates": [[-91.922922329812067,48.377875067181527,377.1821],[-91.849191861062067,48.394354559369027,386.4472],[-91.760080532937067,48.412298895306527,410.0605],[-91.6954646475204,48.430365301556527,391.0999],[-91.595448371478724,48.482692775514863,370.0],[-91.535389777728724,48.504217840619027,398.9161],[-91.476633267312067,48.510565496869027,370.0],[-91.4542537100204,48.5047468119732,383.5],[-91.442372199603724,48.495917059369027,389.0339],[-91.437814907937067,48.488959051556527,391.9789],[-91.419748501687067,48.461371160931527,381.0],[-91.354318814187067,48.457342840619027,410.2916],[-91.339588996478724,48.4500593119732,393.0],[-91.330637173562067,48.436306056764863,418.5672],[-91.285471157937067,48.400946356244027,394.0],[-91.2611384756454,48.3882917338482,394.0],[-91.218576626687067,48.384955145306527,394.0],[-91.1791072256454,48.3733991557232,403.1097],[-91.129221157937067,48.336127020306527,406.5996],[-91.0948787100204,48.323065496869027,446.582],[-91.0426326162704,48.315985418744027,449.398],[-91.001779751687067,48.321112371869027,459.1455],[-90.984364387103724,48.316961981244027,432.506],[-90.9774470693954,48.3099225932232,477.7418],[-91.042795376687067,48.285589910931527,425.0306],[-91.0689998037704,48.273220119264863,462.1581],[-91.070179816791224,48.259792384889863,455.0759],[-91.0636287100204,48.252997137494027,441.5059],[-91.046009894916224,48.211493231244027,453.2777]]}}