{"type":"Feature","properties":{"featurecla":"Lake Centerline","scalerank":11,"rivernum":23270,"dissolve":"23270Lake Centerline","name":"null1356","name_alt":null,"note":null,"name_full":null,"min_zoom":6.7,"strokeweig":0.2,"uident":0,"min_label":7.7},
"geometry":{"type": "LineString","coordinates": [[-92.291859504291224,48.249823309369027,381.7816],[-92.2919001943954,48.2762311869732,373.9008],[-92.2919001943954,48.307318426556527,359.0],[-92.269154426166224,48.338446356244027,374.2682],[-92.240101691791224,48.344671942181527,359.0],[-92.1944880850204,48.344671942181527,359.0],[-92.107411262103724,48.355007228639863,359.0],[-92.080433723041224,48.340521551556527,359.0],[-92.041086392312067,48.301092840619027,359.0],[-92.028635220437067,48.274196681764863,359.0],[-92.0140681631454,48.249294338014863,370.439],[-91.970570441791224,48.236843166139863,374.2696],[-91.943592902728724,48.220241603639863,379.9774],[-91.8876033193954,48.2181257182232,395.9718],[-91.8627009756454,48.193304754681527,401.2504],[-91.812977668353724,48.191229559369027,402.6745],[-91.771555142312067,48.185003973431527,419.2501],[-91.7237849600204,48.170477606244027,378.0],[-91.696359829812067,48.1378034525982,389.8874]]}}