{"type":"Feature","properties":{"featurecla":"Lake Centerline","scalerank":6,"rivernum":263,"dissolve":"263Lake Centerline","name":"Rainy1","name_alt":null,"note":null,"min_zoom":5.0,"strokeweig":0.2,"name_en":"Rainy","min_label":6.0},
"geometry":{"type": "LineString","coordinates": [[-93.381591796875,48.61615631718162,342.6917],[-93.313525390624989,48.63336823124412,335.0],[-93.2822265625,48.634784246869117,335.0],[-93.245214843749991,48.63336823124412,335.0],[-93.154638671874991,48.63580963749412,335.0],[-93.087744140624991,48.63446686405662,342.0839],[-93.01806640625,48.63580963749412,335.0],[-92.97509765625,48.64191315311912,335.0],[-92.946093749999989,48.65070221561912,335.0],[-92.896484375,48.660174871869117,335.0],[-92.843066406249989,48.666864324994116,335.0],[-92.779052734375,48.67804596561912,369.5476]]}}