{"type":"Feature","properties":{"featurecla":"Lake","scalerank":8,"name":"null168","name_abb":null,"name_alt":null,"note":"_untitled_52","delta":null,"dam_name":null,"year":-99,"admin":null,"min_zoom":6.0,"min_label":7.0},
"geometry":{"type": "Polygon","coordinates": [[[-101.03650871035248,61.03386626167952,371.1605],[-101.02620596590288,61.0512337451803,308.0],[-101.0092800285928,61.067718136299675,345.7867],[-100.98749708318506,61.080081429639193,308.0],[-100.96350640682383,61.087146168690367,308.0],[-100.94084036903469,61.086851804563224,314.2121],[-100.91258141283005,61.070956141698133,336.7494],[-100.89918784504556,61.067423772172532,308.0],[-100.8865301875789,61.068012500426818,322.0962],[-100.87828799201921,61.073899782969448,344.539],[-100.87917108440061,61.081847614401994,341.7275],[-100.88549991313394,61.0921503588516,355.1494],[-100.89948220917269,61.108634749970975,308.0],[-100.88167317948123,61.1339500649043,336.9109],[-100.88859073646881,61.164269569998851,354.0726],[-100.90433921727036,61.19694398811049,308.0],[-100.91317014108431,61.228440949713558,344.2862],[-100.92052924426261,61.244042248451535,342.8901],[-100.93701363538197,61.256405541791082,327.9611],[-100.95335084443779,61.258171726553854,315.3769],[-100.96085712967964,61.242276063688763,308.0],[-100.96527259158663,61.227263493205044,308.0],[-100.98396471365947,61.209307281450009,308.0],[-100.98823299350289,61.19429471096629,313.4097],[-100.97115987412926,61.169862488414367,308.0],[-100.96129867587034,61.152200640786475,308.0],[-100.96085712967964,61.1365993420485,311.6945],[-100.97277887682847,61.126296597598866,308.0],[-100.99235409128273,61.118348766166321,308.0],[-101.02914960717419,61.108634749970975,308.0],[-101.04224881083155,61.106868565208174,308.0],[-101.05284591940828,61.106868565208174,308.0],[-101.0627071176672,61.1051023804454,308.0],[-101.07389295449821,61.097743277267114,310.66],[-101.07742532402378,61.09067853821594,316.5504],[-101.07242113386255,61.085968712181824,331.1487],[-101.06550357687495,61.081258886147737,310.5396],[-101.06329584592146,61.073899782969448,308.0],[-101.07183240560828,61.058887212485729,308.0],[-101.10009136181293,61.035043718188064,308.0],[-101.11171874483462,61.0197367835772,308.0],[-101.0975892667323,61.001191843567909,308.0],[-101.0933209868889,60.983529995940017,308.0],[-101.09920826943153,60.96616251243924,308.0],[-101.11510393229663,60.947911936557091,311.3674],[-101.13306014405167,60.93937537687026,317.1388],[-101.14292134231059,60.949678121319863,313.267],[-101.14998608136175,60.968811789583441,337.6424],[-101.15955291549352,60.985590544829932,358.0211],[-101.16750074692608,60.991772191499706,336.8416],[-101.18133586090127,60.999425658805137,318.82],[-101.19458224662219,61.000897479440795,308.0],[-101.20473780900824,60.977642713397387,309.4923],[-101.22357711314466,60.957920316879552,311.3564],[-101.22784539298807,60.947911936557091,318.9909],[-101.23667631680202,60.936726099726087,315.2924],[-101.2569874415741,60.949089393065606,316.6221],[-101.27818165872759,60.970577974346213,317.0563],[-101.29054495206711,60.985590544829932,312.3249],[-101.2591951725276,61.002369300076452,310.0],[-101.24256359934465,61.013849501034571,318.097],[-101.23520449616636,61.0232691531028,318.7645],[-101.22622639028884,61.032394441043863,317.0557],[-101.18486823042684,61.034749354060921,310.0],[-101.17324084740514,61.046523919146182,310.0],[-101.17633167074003,61.059770304867129,315.364],[-101.18869496407956,61.063008310265559,318.1746],[-101.20444344488111,61.058887212485729,311.8544],[-101.2178370126656,61.0503506527989,312.3288],[-101.23432140378496,61.044463370256267,317.6051],[-101.27729856634619,61.04887883216324,316.6258],[-101.293635775402,61.043285913747752,313.2362],[-101.31836236208106,61.018853691195829,310.0],[-101.33322775050121,61.009728403254741,310.0],[-101.3513311443198,61.005607305474882,310.0],[-101.36075079638802,61.009139675000483,310.0],[-101.36987608432909,61.015910049924514,310.0],[-101.37914855433375,61.0206198759586,314.3247],[-101.39739913021592,61.0112002238904,310.0],[-101.40446386926708,61.014732593415971,313.4314],[-101.42448062991203,61.039459180095037,316.4094],[-101.44685230357403,61.081258886147737,336.4],[-101.45156212960813,61.087734896944625,332.4812],[-101.45494731707015,61.09067853821594,331.0667],[-101.45789095834147,61.093622179487255,330.8781],[-101.46112896373991,61.101275646792686,323.0871],[-101.46289514850271,61.109223478225232,321.5841],[-101.46318951262984,61.115405124895005,319.2875],[-101.4642197870748,61.121586771564779,319.0218],[-101.46863524898177,61.128945874743067,310.0],[-101.46304233056627,61.15337809729499,315.9013],[-101.48158727057557,61.165447026507394,313.1238],[-101.50896313439881,61.162797749363193,310.0],[-101.52942144123446,61.142780988718243,310.0],[-101.53207071837865,61.129240238870182,310.0],[-101.52971580536159,61.123352956327551,310.0],[-101.53074607980656,61.118937494420578,310.0],[-101.54369810140035,61.108634749970975,310.0],[-101.57210423966856,61.098920733775628,310.0],[-101.58682244602514,61.091855994724483,311.2724],[-101.59153227205924,61.081258886147737,310.0],[-101.58682244602514,61.075960331859363,310.0],[-101.57754997602049,61.07154486995239,310.0],[-101.56754159569802,61.068601228681075,310.0],[-101.56047685664686,61.067718136299675,310.0],[-101.55429520997708,61.0650688591555,310.0],[-101.55091002251507,61.059181576612843,310.0],[-101.5482607453709,61.0521168375617,321.4947],[-101.54369810140035,61.046523919146182,341.7838],[-101.50454767249184,61.027684615009775,310.0],[-101.49542238455075,61.0197367835772,310.0],[-101.49542238455075,60.978231441651644,310.0],[-101.50410612630114,60.96704560482064,310.0],[-101.52736089234455,60.949678121319863,310.0],[-101.53633899822206,60.937314827980344,317.6642],[-101.46083459961278,60.941730289887317,313.3107],[-101.43390028198024,60.937314827980344,331.9778],[-101.42300880927637,60.932605001946229,317.5996],[-101.41874052943295,60.927895175912141,310.0],[-101.41432506752598,60.92436280638654,310.0],[-101.40284486656785,60.922890985750882,310.0],[-101.39283648624537,60.924951534640826,314.3142],[-101.35869024749809,60.937314827980344,324.1952],[-101.32675173970431,60.9405528333788,316.1952],[-101.31056171271207,60.93937537687026,310.0],[-101.30349697366091,60.933782458454772,311.2905],[-101.30629343286866,60.92524589876794,308.0],[-101.31321098985626,60.917886795589652,308.0],[-101.33087283748415,60.902579860978818,314.901],[-101.34308894876011,60.8866841981137,310.0808],[-101.34323613082368,60.876087089536952,308.0],[-101.33205029399268,60.866961801595863,316.427],[-101.31026734858493,60.854598508256345,318.9042],[-101.32174754954308,60.839585937772625,308.0],[-101.32895947065779,60.83252119872148,308.0],[-101.33705448415392,60.827517008560221,308.0],[-101.34971214162059,60.825456459670306,314.4836],[-101.35986770400662,60.828694465068764,311.1437],[-101.36914017401126,60.833109926975737,315.741],[-101.37870700814305,60.834876111738538,316.7052],[-101.4228616272128,60.819863541254819,308.0],[-101.44214247753992,60.816331171729217,316.4548],[-101.44067065690426,60.827517008560221,313.113],[-101.47187325438023,60.848122497459457,309.5428],[-101.50763849582673,60.838702845391225,308.0],[-101.54428682965461,60.820452269509076,316.3576],[-101.57784434014762,60.813093166330788,311.554],[-101.57784434014762,60.806911519661014,308.0],[-101.56813032395227,60.798669324101326,308.0],[-101.57431197062205,60.792193313304438,308.0],[-101.5882942666608,60.788072215524579,308.0],[-101.60183501650886,60.786306030761807,308.0],[-101.62744469556931,60.787483487270322,313.155],[-101.63715871176466,60.791310220923037,312.3266],[-101.64613681764217,60.800141144736983,322.413],[-101.68793652369487,60.786011666634664,311.0826],[-101.70147727354292,60.779535655837776,308.0],[-101.69765053989022,60.776886378693575,308.0],[-101.68705343131347,60.766583634243972,308.0],[-101.71428211307315,60.751865427887395,308.0],[-101.72797004498477,60.746566873599022,321.4706],[-101.78021967755065,60.740679591056391,308.0],[-101.79847025343281,60.734497944386618,310.9236],[-101.81127509296304,60.725078292318415,310.4512],[-101.77183029992739,60.717130460885869,319.2255],[-101.75755363976151,60.710360085961838,354.0607],[-101.76285219404988,60.697702428495177,313.0952],[-101.75608181912585,60.697702428495177,308.0],[-101.7226714906964,60.6888715046812,334.3539],[-101.54340373727322,60.744800688836222,322.6234],[-101.42345035546707,60.757458346302883,314.4525],[-101.31026734858493,60.792782041558695,329.9844],[-101.23667631680202,60.829871921577279,308.0],[-101.1966427955121,60.836936660628453,317.0245],[-101.16853102137104,60.846356312696656,326.46],[-101.15263535850593,60.847828133332314,337.0292],[-101.14247979611989,60.846356312696656,327.1954],[-101.13026368484392,60.841352122535426,308.0],[-101.11863630182222,60.841057758408283,308.0],[-101.09420407927028,60.850183046349372,320.5476],[-101.05961629433232,60.882268736206726,363.2077],[-101.03606716416178,60.889333475257871,308.0],[-101.01001593891063,60.892277116529186,308.0],[-100.98720271905793,60.901696768597418,326.5879],[-100.97336760508274,60.91847552384391,345.867],[-100.97454506159127,60.944673931158633,329.6739],[-100.98970481413855,60.959686501642352,340.9406],[-101.01266521605481,60.965868148312126,321.3328],[-101.03371225114473,60.976170892761729,327.5998],[-101.04283753908581,61.002369300076452,350.9424],[-101.04151290051372,61.017381870560172,369.5902],[-101.03650871035248,61.03386626167952,371.1605]]]}}