{"type": "Feature","bbox": [-88.742096576571171,66.572032949534758,-88.084781480686161,66.760720355026166],"geometry": {"type": "Polygon","coordinates": [[[-88.577399847441,66.648861986716128,252.9952],[-88.524414304557311,66.650333807351785,253.0622],[-88.502778541213132,66.655337997513016,260.5699],[-88.482320234377482,66.662991464818447,259.308],[-88.432425514828665,66.671528024505278,247.0387],[-88.370609048131016,66.671233660378135,265.2968],[-88.353241564630238,66.66740692672542,302.9255],[-88.266256965062837,66.635615600995209,254.1676],[-88.248595117434931,66.6253128565456,269.7669],[-88.244621201718658,66.618542481621574,326.0687],[-88.244326837591515,66.603235547010712,275.1527],[-88.2422662887016,66.597936992722339,246.334],[-88.233582546951212,66.593521530815366,246.943],[-88.223132620438037,66.5917553460526,247.0674],[-88.15233804786287,66.58969479716265,251.8006],[-88.127611461183818,66.592344074306851,247.4803],[-88.094789861008636,66.599997541612282,252.4097],[-88.089785670847391,66.601763726375054,252.2915],[-88.084781480686161,66.60470736764637,252.3219],[-88.178536455177593,66.632083231469636,408.1762],[-88.232993818696954,66.657692910530074,267.6608],[-88.285390633326386,66.675649122285108,255.9703],[-88.381794884962,66.722158654371924,288.9917],[-88.4068158357682,66.727751572787412,248.221],[-88.43492760990928,66.7239248391347,357.5869],[-88.446260628803842,66.71008972515952,285.2796],[-88.456563373253459,66.693016605785886,326.2446],[-88.482025870250339,66.679770220064967,278.3538],[-88.497479986924759,66.678004035302166,282.7675],[-88.5364832337697,66.679181491810681,253.0744],[-88.550907075999163,66.683302589590539,252.9585],[-88.556205630287522,66.689778600387427,252.9523],[-88.564447825847211,66.720686833736266,265.2198],[-88.574014659978985,66.737171224855615,253.1579],[-88.586230771254961,66.75277252359362,252.9072],[-88.601390523802237,66.760720355026166,275.3709],[-88.619052371430143,66.754244344229278,270.1313],[-88.633623395723149,66.732755762948642,271.26],[-88.627147384926261,66.7162713718293,282.4056],[-88.6131650888875,66.701847529599831,291.8252],[-88.605511621582082,66.686834959116112,287.5494],[-88.6191995534937,66.662991464818447,299.4498],[-88.651432425414626,66.657987274657216,254.8733],[-88.715309441002191,66.6662294702169,284.9093],[-88.697500411310727,66.6515112638603,303.1531],[-88.692643403213054,66.64326906830064,309.3717],[-88.698972231946385,66.634143780359551,295.1823],[-88.715309441002191,66.618248117494431,273.983],[-88.723846000689008,66.607651008917685,270.4773],[-88.742096576571171,66.576742775568874,274.9966],[-88.708097519887474,66.572032949534758,252.6057],[-88.664384447008416,66.590577889544051,252.7939],[-88.622731923019288,66.618248117494431,252.7018],[-88.594914513005335,66.6420916117921,252.7694],[-88.577399847441,66.648861986716128,252.9952]]]}
,"properties": {"featurecla": "Lake","scalerank": 6,"name": "null58","name_abb": null,"name_alt": null,"note": "_untitled_0","delta": null,"dam_name": null,"year": -99,"admin": null,"min_zoom": 5.0,"min_label": 6.5,"area_km2": 150.1152,"hist_schema_id": "Elevation0-9000","hist_area_km2": {"250": 110.38,"275": 26.3902,"300": 10.1871,"325": 1.9311,"350": 0.7391,"375": 0.3279,"400": 0.1598}}}