{"type": "Feature","bbox": [-97.477940777457732,63.15740907480739,-97.11631444727648,63.515355853399512],"geometry": {"type": "Polygon","coordinates": [[[-97.415977128696511,63.2745659974058,123.1924],[-97.4186264058407,63.267206894227513,119.9759],[-97.427457329654644,63.258375970413567,113.0219],[-97.436141071405032,63.255137965015109,121.2521],[-97.4461494517275,63.252783051998051,116.6197],[-97.45895429125774,63.246895769455421,113.1081],[-97.468668307453086,63.236298660878674,112.8275],[-97.4758802285678,63.221286090394955,116.2868],[-97.477940777457732,63.204801699275606,109.9251],[-97.472642223169359,63.191555313554659,109.5406],[-97.462339478719755,63.183018753867856,109.696],[-97.455863467922853,63.17418783005391,113.4139],[-97.4543916472872,63.165651270367078,109.9516],[-97.45895429125774,63.15740907480739,111.2354],[-97.448357182681,63.161824536714363,110.6902],[-97.441145261566277,63.167123091002736,109.5926],[-97.435993889341461,63.17418783005391,109.2816],[-97.431725609498059,63.184784938630628,109.2275],[-97.43054815298953,63.19832568847869,114.8014],[-97.434080522515117,63.208334068801179,110.7393],[-97.435699525214332,63.217459356742268,108.8546],[-97.428193239972472,63.229233921827529,108.9262],[-97.4125919412345,63.234238111988759,109.1537],[-97.372411237881025,63.227467737064728,106.3733],[-97.3596063983508,63.229233921827529,107.4826],[-97.3526888413632,63.245423948819763,108.3237],[-97.35577966469809,63.259847791049225,108.8901],[-97.349745200091888,63.271916720261629,111.6147],[-97.296023746890356,63.28692929074532,105.0],[-97.287928733394239,63.28781238312672,110.2975],[-97.280716812279508,63.285751834236805,109.4656],[-97.277037260690363,63.281336372329832,110.376],[-97.274535165609748,63.276920910422859,111.131],[-97.2708556140206,63.274860361532944,109.884],[-97.256137407664013,63.270444899625971,105.0],[-97.24583466321441,63.260730883430625,109.2902],[-97.236267829082635,63.246895769455421,109.8016],[-97.1756288188935,63.230411378336044,107.7834],[-97.1463395882439,63.226290280556213,105.0],[-97.1300023791881,63.239242302149989,105.0],[-97.134565023158643,63.257198513905024,111.4394],[-97.150460686023749,63.27780400280426,112.234],[-97.169005626033041,63.294582758050751,114.9766],[-97.188728022550862,63.305768594881755,119.9824],[-97.200355405572566,63.327257176162362,114.1074],[-97.205653959860939,63.334910643467794,111.8135],[-97.216251068437671,63.341092290137567,108.5372],[-97.278067535135321,63.366996333325147,128.5039],[-97.289989282284154,63.37553289301195,135.8326],[-97.29514065450897,63.386718729842954,119.89],[-97.291608284983383,63.400848207945273,113.69],[-97.282630179105865,63.411739680649163,105.0],[-97.2704140678299,63.415566414301878,105.0],[-97.257167682108985,63.407618582869304,105.0],[-97.2294974541586,63.397904566673958,106.3007],[-97.11631444727648,63.418215691446051,104.2014],[-97.134123476967943,63.433522626056913,124.5773],[-97.165031710316768,63.441470457489459,123.4897],[-97.225965084633017,63.445002827015031,120.4453],[-97.240388926862479,63.454716843210377,123.1245],[-97.255107133219056,63.497694005771592,103.0],[-97.263790874969445,63.507408021966938,114.7427],[-97.285132274186481,63.513884032763855,102.5],[-97.2997032984795,63.515355853399512,108.5957],[-97.311919409755475,63.5106460273654,109.48779999999999],[-97.318395420552363,63.501226375297193,109.4866],[-97.323693974840737,63.482387071160758,109.0339],[-97.329286893256238,63.472673054965412,111.4504],[-97.370497871054667,63.447357740032089,108.6852],[-97.387865354555444,63.43234516954837,111.4518],[-97.383891438839157,63.418215691446051,110.8292],[-97.3888956290004,63.403497485089474,109.7019],[-97.407293386946137,63.376415985393351,122.0608],[-97.4177433134593,63.339326105374766,110.3783],[-97.4289291502903,63.329906453306563,112.0693],[-97.432167155688759,63.31960370885696,112.1617],[-97.414946854251554,63.297820763449209,111.1638],[-97.414210943933725,63.293405301542236,114.5686],[-97.414505308060853,63.284280013601148,116.4322],[-97.415977128696511,63.2745659974058,123.1924]]]}
,"properties": {"featurecla": "Lake","scalerank": 7,"name": "null104","name_abb": null,"name_alt": null,"note": "_untitled_64","delta": null,"dam_name": null,"year": -99,"admin": null,"min_zoom": 5.7,"min_label": 6.7,"area_km2": 275.7221,"hist_schema_id": "Elevation0-9000","hist_area_km2": {"100": 249.8694,"125": 25.7193,"150": 0.1333}}}