{"type":"Feature","properties":{"featurecla":"Lake","scalerank":8,"name":"null166","name_abb":null,"name_alt":null,"note":"_untitled_54","delta":null,"dam_name":null,"year":-99,"admin":null,"min_zoom":6.0,"min_label":7.0},
"geometry":{"type": "Polygon","coordinates": [[[-98.638029802483643,64.0505098365249,140.4254],[-98.643475538835574,64.0460943746179,143.9763],[-98.6450945415348,64.031376168261318,142.0708],[-98.644505813280531,64.020484695557457,140.0],[-98.635674889466586,63.981039902521815,139.8828],[-98.635380525339457,63.973092071089241,139.6538],[-98.63273124819527,63.96720478854661,142.0411],[-98.624047506444882,63.959551321241207,136.0],[-98.6088877538976,63.954841495207091,136.0],[-98.564438770700718,63.947776756155918,136.0],[-98.555019118632515,63.941889473613287,136.0],[-98.547954379581356,63.934824734562142,138.3204],[-98.501150483367411,63.921578348841223,136.0],[-98.490406192727107,63.915985430425707,136.0],[-98.483488635739519,63.910686876137333,138.2292],[-98.4731858912899,63.897440490416415,150.2794],[-98.468181701128671,63.888315202475326,156.6986],[-98.463913421285255,63.872713903737349,158.5137],[-98.458614866996882,63.86035061039783,156.1965],[-98.458467684933325,63.85770133325363,149.5653],[-98.457143046361224,63.8544633278552,144.2747],[-98.452727584454252,63.849459137693941,140.7613],[-98.446251573657364,63.845043675786968,138.7407],[-98.3965040361721,63.833269110701707,136.0],[-98.356617696945762,63.832091654193192,136.0],[-98.328800286931823,63.837095844354423,136.0],[-98.336600936300812,63.849459137693941,143.5084],[-98.31599544740159,63.867415349448976,145.2642],[-98.291563224849668,63.877129365644322,140.3129],[-98.2672781843613,63.877718093898579,136.0],[-98.247261423716353,63.869475898338891,145.6721],[-98.238577681965964,63.860056246270688,157.2527],[-98.228863665770618,63.840628213879995,155.5667],[-98.222976383227987,63.832091654193192,149.1024],[-98.212968002905512,63.824438186887761,140.0565],[-98.1910378754342,63.812074893548242,143.0411],[-98.182059769556687,63.805598882751326,136.5],[-98.156450090496236,63.77675119829243,142.8651],[-98.139082606995458,63.765565361461427,136.5],[-98.13128195762647,63.777928654800945,155.0555],[-98.1367276939784,63.796473594810237,142.9745],[-98.150562807953591,63.8100143446583,138.2343],[-98.185886503209389,63.828559284667591,146.5178],[-98.163220465420252,63.867120985321861,136.0],[-98.1479135308094,63.883899740568353,146.8327],[-98.127455223973755,63.890964479619527,136.0],[-98.099637813959816,63.895968669780757,136.0],[-98.083300604904011,63.907448870738904,136.0],[-98.071084493628049,63.92305016947688,136.0],[-98.055483194890073,63.938357104087714,137.6558],[-98.0841836972854,63.940123288850515,142.3167],[-98.134078416834228,63.960434413622579,143.3545],[-98.1613070985939,63.965438603783838,145.9771],[-98.169549294153583,63.971914614580726,143.1832],[-98.1798520386032,63.984572272047387,142.0603],[-98.191332239561333,63.993697559988476,154.4621],[-98.2031068046466,63.990165190462875,148.7164],[-98.233573491804719,63.959551321241207,139.6051],[-98.252412795941154,63.94395002250323,150.4206],[-98.2775809288109,63.932469821545084,146.3996],[-98.299363874218656,63.9336472780536,136.0],[-98.314817990893062,63.975741348233441,157.4777],[-98.337631210745769,64.0163635977776,144.211],[-98.336600936300812,64.035202901914033,137.5145],[-98.308930708350431,64.028138162862888,136.0],[-98.276550654365948,64.03490853778689,136.0],[-98.219296831638843,64.062578765737271,138.743],[-98.1966307938497,64.079946249238048,143.0],[-98.189418872734976,64.09760809686594,145.4805],[-98.193834334641949,64.118213585765176,149.2485],[-98.206344810045053,64.144411993079871,147.7327],[-98.211790546396983,64.149710547368244,149.9218],[-98.2203271060838,64.156775286419418,146.034],[-98.2306298505334,64.162662568962048,145.1698],[-98.241079777046579,64.164723117851963,146.929],[-98.2513825214962,64.162073840707791,152.597],[-98.258888806738057,64.15618655816516,152.9033],[-98.260654991500843,64.148238726732586,157.6253],[-98.253737434513241,64.140585259427183,155.8423],[-98.236958679266735,64.1305768791047,149.4117],[-98.222976383227987,64.119096678146548,148.5905],[-98.221357380528758,64.107027748934172,148.2658],[-98.241079777046579,64.096430640357426,150.2309],[-98.23533967656752,64.082889890509364,149.5266],[-98.244170600381466,64.077591336220991,166.9778],[-98.258888806738057,64.079063156856648,138.1057],[-98.271104918014018,64.086127895907822,136.0],[-98.304956792634158,64.113209395603917,136.0],[-98.335717843919412,64.129988150850437,139.502],[-98.366920441395379,64.1288106943419,138.5],[-98.39915331331629,64.1241008683078,143.3083],[-98.432858005872873,64.129988150850437,145.5168],[-98.472008434781372,64.100551738137256,146.1479],[-98.595199821985986,64.121157227036491,143.418],[-98.624047506444882,64.109677026078344,143.6037],[-98.614186308185978,64.092898270831853,141.2312],[-98.595347004049543,64.07258714605976,139.0],[-98.588429447061955,64.055514026686126,139.2326],[-98.614186308185978,64.048154923507838,138.1904],[-98.638029802483643,64.0505098365249,140.4254]]]}}