{"type": "Feature","bbox": [-101.3513311443198,62.252533748004652,-100.73493266210609,62.443281702385974],"geometry": {"type": "Polygon","coordinates": [[[-101.32218909573376,62.3423148067798,266.0],[-101.33705448415392,62.321414953753447,266.0],[-101.3513311443198,62.307579839778271,270.8902],[-101.30070051445315,62.310229116922443,266.0],[-101.25051143077721,62.321120589626332,267.461],[-101.23329112934,62.319648768990675,266.0],[-101.19222733360513,62.295216546438724,266.0],[-101.13997770103927,62.2743166934124,266.0],[-101.11863630182222,62.252533748004652,272.7672],[-101.10023854387649,62.265485769598428,272.7827],[-101.0989139053044,62.282264524844948,285.21],[-101.10745046499122,62.299632008345725,279.8126],[-101.11863630182222,62.314644578829416,266.0],[-101.10421245959277,62.323769866770505,287.46],[-101.11348492959742,62.329362785186021,279.6697],[-101.14527625532763,62.334955703601509,283.0605],[-101.10244627482997,62.359682290280574,272.835],[-101.0515212808362,62.34761336106817,267.4226],[-100.99986037652459,62.322298046134847,266.0],[-100.95467548300988,62.307579839778271,266.0],[-100.92362006759748,62.308168568032528,276.5727],[-100.89609702171067,62.312289665812386,280.6359],[-100.87048734265022,62.321120589626332,269.67],[-100.81735461770296,62.351734458848028,275.6593],[-100.80322513960064,62.355561192500716,266.0],[-100.78674074848126,62.357033013136373,265.5],[-100.73493266210609,62.355561192500716,265.7079],[-100.76436907481926,62.36939630647592,271.8068],[-100.85782968518356,62.396477806172044,273.5867],[-100.93730799950912,62.432684593809228,280.9189],[-101.02767778653853,62.443281702385974,268.9543],[-101.03945235162379,62.441221153496031,266.0],[-101.05284591940828,62.435039506826286,266.0],[-101.08861116085478,62.433273322063485,271.5714],[-101.12349330991989,62.418849479834051,266.0],[-101.16161346438344,62.412962197291392,266.0],[-101.1928160618594,62.416788930944108,271.8744],[-101.19369915424079,62.437394419843343,275.3872],[-101.2165123740935,62.432684593809228,269.207],[-101.244476966171,62.421204392851081,266.0],[-101.2625803599896,62.406191822367362,270.2002],[-101.25507407474775,62.39029615950227,269.1447],[-101.2755323815834,62.372045583620093,266.0],[-101.32218909573376,62.3423148067798,266.0]]]}
,"properties": {"featurecla": "Lake","scalerank": 7,"name": "null73","name_abb": null,"name_alt": null,"note": "_untitled_107","delta": null,"dam_name": null,"year": -99,"admin": null,"min_zoom": 5.7,"min_label": 6.7,"area_km2": 296.3534,"hist_schema_id": "Elevation0-9000","hist_area_km2": {"250": 0.0689,"275": 294.2796,"300": 2.0049}}}