{"type":"Feature","properties":{"GID_3":"CAN.11.21.1_1","GID_0":"CAN","country":"Canada","GID_1":"CAN.11_1","province":"Québec","NL_NAME_1":"NA","GID_2":"CAN.11.21_1","county":"Communauté-Urbaine-de-Québec","NL_NAME_2":"NA","city":"Beauport","VARNAME_3":"NA","NL_NAME_3":"NA","TYPE_3":"Ville","ENGTYPE_3":"Ville","CC_3":"NA","HASC_3":"NA","name":"Beauport.city"},
"geometry":{"type": "MultiPolygon","coordinates": [[[[-71.1408,46.8839,0.0],[-71.1534,46.893,116.1001],[-71.1678,46.8948,131.4442],[-71.1727,46.9007,129.2201],[-71.1791,46.9014,141.4325],[-71.1805,46.9033,133.6011],[-71.1783,46.9067,114.4732],[-71.1711,46.9101,116.3473],[-71.1702,46.9125,132.6269],[-71.2248,46.971,267.5685],[-71.285,46.9406,307.8838],[-71.2218,46.8722,77.6305],[-71.232,46.8671,78.6888],[-71.2343,46.8671,79.9282],[-71.2412,46.874,93.5788],[-71.251,46.8695,92.736],[-71.2325,46.8505,23.2022],[-71.2211,46.8422,9.7547],[-71.2156,46.8468,8.0594],[-71.1957,46.8312,4.8549],[-71.1908,46.8356,0.0],[-71.1978,46.8411,0.0],[-71.1967,46.8422,0.0],[-71.1978,46.8431,0.0],[-71.1947,46.8439,0.0],[-71.1922,46.8489,0.0],[-71.1703,46.8539,0.0],[-71.1617,46.8572,0.0],[-71.1592,46.8597,0.0],[-71.1536,46.8597,0.0],[-71.1514,46.8625,0.0],[-71.155,46.865,0.0],[-71.1461,46.8731,0.0],[-71.145,46.8806,0.6844],[-71.1408,46.8839,0.0]]]]}}