{"type": "Feature","bbox": [-57.5148,49.2205,-57.2562,49.4057],"geometry": {"type": "MultiPolygon","coordinates": [[[[-57.4613,49.2205,86.1002],[-57.2562,49.3697,86.4398],[-57.3455,49.4057,156.3562],[-57.4451,49.3079,222.7154],[-57.5148,49.2729,269.6464],[-57.4974,49.2578,212.7762],[-57.4891,49.2454,166.9118],[-57.4789,49.2418,183.3042],[-57.4738,49.2376,185.7111],[-57.4712,49.2319,138.7186],[-57.4658,49.228,111.2504],[-57.4613,49.2205,86.1002]]]]}
,"properties": {"GID_3": "CAN.5.7.1_1","GID_0": "CAN","country": "Canada","GID_1": "CAN.5_1","province": "NewfoundlandandLabrador","NL_NAME_1": "NA","GID_2": "CAN.5.7_1","county": "DivisionNo.5","NL_NAME_2": "NA","city": "Cormack","VARNAME_3": "NA","NL_NAME_3": "NA","TYPE_3": "Town","ENGTYPE_3": "Town","CC_3": "NA","HASC_3": "NA","name": "Cormack.city","area_km2": 133.6089,"hist_schema_id": "Elevation0-9000","hist_area_km2": {"75": 18.8193,"100": 33.1662,"125": 31.4888,"150": 25.2319,"175": 14.0713,"200": 6.0951,"225": 2.555,"250": 1.3945,"275": 0.5108,"300": 0.2208,"325": 0.0552}}}