{"type":"Feature","properties":{"GID_3":"CAN.12.6.3_1","GID_0":"CAN","country":"Canada","GID_1":"CAN.12_1","province":"Saskatchewan","NL_NAME_1":"NA","GID_2":"CAN.12.6_1","county":"DivisionNo.15","NL_NAME_2":"NA","city":"Albertville","VARNAME_3":"NA","NL_NAME_3":"NA","TYPE_3":"Village","ENGTYPE_3":"Village","CC_3":"NA","HASC_3":"NA","name":"Albertville.city"},
"geometry":{"type": "MultiPolygon","coordinates": [[[[-105.5434,53.3867,487.8028],[-105.5407,53.3864,487.8781],[-105.5419,53.3872,492.4664],[-105.542,53.3934,489.5155],[-105.5302,53.3934,492.2874],[-105.5303,53.3946,496.0606],[-105.5284,53.3946,496.0606],[-105.5303,53.3951,496.0606],[-105.5305,53.4016,498.5735],[-105.5443,53.4017,487.4593],[-105.5445,53.3957,491.906],[-105.5515,53.3952,488.4019],[-105.5454,53.3934,488.8889],[-105.5455,53.3872,490.7758],[-105.5434,53.3867,487.8028]]]]}}