{"type": "Feature","bbox": [-73.1164,45.6001,-72.9962,45.7595],"geometry": {"type": "MultiPolygon","coordinates": [[[[-73.0993,45.6119,33.5844],[-73.0482,45.6001,34.8575],[-73.0448,45.6318,35.0752],[-73.0332,45.6322,36.0506],[-73.0331,45.638,36.0704],[-73.0251,45.652,36.6608],[-73.0223,45.6694,48.7257],[-73.0077,45.6903,34.6017],[-73.0033,45.6998,35.3906],[-73.0039,45.7073,34.6129],[-72.9962,45.7176,34.1757],[-73.0526,45.7595,34.5542],[-73.0737,45.7179,40.9462],[-73.0889,45.7291,34.5257],[-73.094,45.7221,43.5853],[-73.1041,45.7141,42.931399999999996],[-73.115,45.6928,48.8099],[-73.1164,45.6739,48.5455],[-73.1008,45.6606,40.9626],[-73.0993,45.6119,33.5844]]]]}
,"properties": {"GID_3": "CAN.11.68.1_1","GID_0": "CAN","country": "Canada","GID_1": "CAN.11_1","province": "Québec","NL_NAME_1": "NA","GID_2": "CAN.11.68_1","county": "LesMaskoutains","NL_NAME_2": "NA","city": "LaPrésentation","VARNAME_3": "NA","NL_NAME_3": "NA","TYPE_3": "MunicipalitéDeParoisse","ENGTYPE_3": "ParishMunicipality","CC_3": "NA","HASC_3": "NA","name": "La_Présentation.city","area_km2": 94.68715,"hist_schema_id": "Elevation0-9000","hist_area_km2": {"25": 74.33823,"50": 20.34893}}}