{"type":"Feature","properties":{"GID_3":"CAN.9.48.26_1","GID_0":"CAN","country":"Canada","GID_1":"CAN.9_1","province":"Ontario","NL_NAME_1":"NA","GID_2":"CAN.9.48_1","county":"ThunderBay","NL_NAME_2":"NA","city":"Schreiber","VARNAME_3":"NA","NL_NAME_3":"NA","TYPE_3":"Township","ENGTYPE_3":"Township","CC_3":"NA","HASC_3":"NA","name":"Schreiber.city"},
"geometry":{"type": "MultiPolygon","coordinates": [[[[-87.2319,48.7565,180.5],[-87.2321,48.8337,362.136],[-87.2961,48.8344,356.7141],[-87.296,48.7912,180.5],[-87.2944,48.7879,180.5],[-87.3084,48.772,180.5],[-87.3081,48.7678,180.5],[-87.2988,48.7631,180.5],[-87.287,48.7601,180.5],[-87.2662,48.7574,180.5],[-87.2646,48.7591,187.7023],[-87.271,48.7644,272.4477],[-87.2687,48.7669,295.685],[-87.2642,48.7669,252.6403],[-87.2319,48.7565,180.5]]]]}}