{"type": "Feature","bbox": [-55.9006,49.4549,-55.7622,49.5102],"geometry": {"type": "MultiPolygon","coordinates": [[[[-55.7813,49.4889,0.0],[-55.788,49.4919,14.381],[-55.7906,49.4891,4.6872],[-55.795,49.4894,0.0],[-55.7953,49.4878,0.0],[-55.7929,49.4875,0.964],[-55.7957,49.4849,4.096],[-55.8014,49.4853,39.2559],[-55.8081,49.4883,5.2821],[-55.8092,49.4925,10.4119],[-55.7993,49.4898,2.1301],[-55.7951,49.4925,1.5955],[-55.796,49.4935,1.5955],[-55.8202,49.5063,156.7163],[-55.8351,49.5102,86.0178],[-55.9006,49.4806,127.3007],[-55.9003,49.4556,11.5505],[-55.7886,49.4549,7.7083],[-55.7678,49.4642,0.0],[-55.7622,49.4685,5.6667],[-55.7707,49.4686,8.2715],[-55.778,49.4658,0.0],[-55.7967,49.4628,22.0664],[-55.8069,49.4633,13.7543],[-55.8069,49.4651,0.0],[-55.7979,49.4648,1.1171],[-55.7944,49.4658,2.3944],[-55.7927,49.4692,9.1762],[-55.7792,49.4708,8.8947],[-55.7713,49.4752,0.0],[-55.7813,49.4889,0.0]]]]}
,"properties": {"GID_3": "CAN.5.10.51_1","GID_0": "CAN","country": "Canada","GID_1": "CAN.5_1","province": "NewfoundlandandLabrador","NL_NAME_1": "NA","GID_2": "CAN.5.10_1","county": "DivisionNo.8","NL_NAME_2": "NA","city": "Robert'sArm","VARNAME_3": "NA","NL_NAME_3": "NA","TYPE_3": "Town","ENGTYPE_3": "Town","CC_3": "NA","HASC_3": "NA","name": "Robert's_Arm.city","area_km2": 40.14385,"hist_schema_id": "Elevation0-9000","hist_area_km2": {"0": 5.95152,"25": 10.00162,"50": 8.92742,"75": 7.41222,"100": 5.82668,"125": 1.6388,"150": 0.35805,"175": 0.02754}}}