{"type":"Feature","properties":{"GID_3":"CAN.2.19.9_1","GID_0":"CAN","country":"Canada","GID_1":"CAN.2_1","province":"BritishColumbia","NL_NAME_1":"NA","GID_2":"CAN.2.19_1","county":"NorthOkanagan","NL_NAME_2":"NA","city":"NorthOkanaganD","VARNAME_3":"NA","NL_NAME_3":"NA","TYPE_3":"RegionalDistrictElectoralArea","ENGTYPE_3":"RegionalDistrictElectoralArea","CC_3":"NA","HASC_3":"NA","name":"North_Okanagan_D.city"},
"geometry":{"type": "MultiPolygon","coordinates": [[[[-119.0556,49.8123,1502.0138],[-118.6751,49.8126,1405.6047],[-118.6699,50.0954,1677.1785],[-118.6715,50.2236,813.5383],[-118.6949,50.2236,809.8272],[-118.6956,50.2379,717.3879],[-118.7388,50.2381,855.7085],[-118.7391,50.2443,668.3106],[-118.7927,50.2448,875.0249],[-118.7917,50.2704,603.1348],[-118.7872,50.2701,590.6408],[-118.7589,50.2583,478.3868],[-118.7502,50.2591,463.655],[-118.7127,50.2516,475.7241],[-118.6995,50.2513,481.6951],[-118.6969,50.2487,497.7588],[-118.6936,50.25,477.7497],[-118.6829,50.2454,512.1894],[-118.6633,50.2452,500.4682],[-118.6225,50.2588,513.9888],[-118.6177,50.2637,503.4256],[-118.6386,50.2611,629.9084],[-118.6389,50.2677,916.8113],[-118.6929,50.268,1026.9559],[-118.6935,50.4118,931.8802],[-118.6842,50.4115,909.1877],[-118.6843,50.4211,865.5735],[-118.6928,50.421,815.5948],[-118.6945,50.4882,1144.6858],[-119.0013,50.4886,740.1518],[-119.0,50.2666,981.4348],[-119.0343,50.2667,977.4937],[-119.0344,50.2597,934.7673],[-119.0561,50.2598,970.6043],[-119.0564,50.2633,1050.0708],[-119.0792,50.2634,837.8489],[-119.0784,50.2481,574.1384],[-119.0671,50.2483,854.6131],[-119.0671,50.2526,800.4575],[-119.0562,50.2526,917.1919],[-119.0567,50.2415,528.3666],[-119.0659,50.2415,538.5526],[-119.0658,50.236,537.4615],[-119.0696,50.2356,535.3055],[-119.0698,50.2307,602.5068],[-119.0675,50.2282,653.7167],[-119.0692,50.2267,647.3804],[-119.069,50.2235,646.6729],[-119.0804,50.2236,634.1329],[-119.0803,50.2163,681.4652],[-119.1067,50.2161,650.4778],[-119.107,50.2122,752.4499],[-119.1132,50.2122,724.9661],[-119.1133,50.209,740.0319],[-119.1474,50.2093,847.5388],[-119.1473,50.1948,1046.2188],[-119.1533,50.1947,1043.4546],[-119.1531,50.2018,995.5844],[-119.1812,50.202,845.5593],[-119.1815,50.1949,1043.3718],[-119.1925,50.1949,871.3472],[-119.193,50.2019,769.5229],[-119.2038,50.2021,609.7546],[-119.2042,50.1983,838.5715],[-119.2171,50.1983,631.9867],[-119.217,50.1949,795.9777],[-119.2272,50.1949,642.5777],[-119.227,50.1876,904.998],[-119.2214,50.1875,973.4092],[-119.221,50.1802,1217.0146],[-119.2324,50.1802,1155.8676],[-119.233,50.1874,829.2884],[-119.2442,50.1875,766.5094],[-119.2448,50.1842,878.732],[-119.2669,50.1844,656.2174],[-119.2672,50.1881,535.0446],[-119.2722,50.188,487.8774],[-119.2724,50.184,597.1736],[-119.2882,50.1838,446.7941],[-119.2948,50.1809,499.1906],[-119.3016,50.1752,622.3238],[-119.3082,50.1738,459.4625],[-119.3189,50.164,547.7279],[-119.3266,50.1606,561.2304],[-119.3414,50.1581,504.3878],[-119.348,50.1549,392.0],[-119.3439,50.1513,589.8535],[-119.146,50.1512,1410.1537],[-119.1412,50.1388,1385.5588],[-119.1409,50.1193,1377.5239],[-119.15,50.1058,1378.0444],[-119.1651,50.0933,1387.1763],[-119.1693,50.0856,1414.4883],[-119.1728,50.0771,1397.6355],[-119.1668,50.0701,1372.1021],[-119.1775,50.0597,1432.9701],[-119.1772,50.056,1427.6511],[-119.1732,50.0497,1433.9744],[-119.1602,50.0482,1405.5669],[-119.1503,50.0488,1413.5093],[-119.1431,50.0448,1402.4277],[-119.1294,50.0459,1344.0498],[-119.1052,50.0449,1342.7677],[-119.0966,50.0518,1361.5857],[-119.0939,50.0523,1365.4668],[-119.0821,50.0456,1347.1067],[-119.0722,50.0455,1354.1434],[-119.071,50.0415,1363.2258],[-119.0642,50.0364,1372.0908],[-119.0461,50.0409,1450.9523],[-119.0302,50.0396,1603.5908],[-118.9976,50.0456,1814.611],[-118.9867,50.0464,1835.9207],[-118.9819,50.044,1853.0323],[-118.9775,50.044,1862.6414],[-118.9673,50.0458,1863.2466],[-118.9582,50.0474,1841.0759],[-118.947,50.0569,1877.2935],[-118.9389,50.0499,1843.7272],[-118.9233,50.0428,1919.4833],[-118.9188,50.0431,1900.2201],[-118.9129,50.0524,1892.7828],[-118.9076,50.0539,1943.3335],[-118.899,50.0549,1936.8173],[-118.8894,50.0511,1967.1232],[-118.8792,50.0533,1922.6792],[-118.869,50.0527,1883.6876],[-118.8644,50.0425,1851.3347],[-118.8593,50.0365,1827.8027],[-118.8353,50.0357,1893.9321],[-118.8291,50.027,1841.6572],[-118.8234,50.0224,1873.6307],[-118.8149,50.0258,1906.1187],[-118.8102,50.0218,1900.0908],[-118.817,50.0073,1865.8906],[-118.8226,50.0044,1894.2375],[-118.8232,49.9999,1903.332],[-118.8095,49.9894,1953.1862],[-118.7984,49.9876,1978.0366],[-118.8031,49.9809,1948.627],[-118.8024,49.9664,2013.2769],[-118.8065,49.9645,2005.8423],[-118.8098,49.9555,2019.5222],[-118.8279,49.9522,2065.0576],[-118.8537,49.9578,2045.0322],[-118.8598,49.9568,2025.0522],[-118.8591,49.9514,2019.0212],[-118.8656,49.9411,2025.0723],[-118.8759,49.9405,1991.583],[-118.8802,49.9373,1974.9727],[-118.8942,49.9374,1897.2726],[-118.9046,49.9318,1850.2717],[-118.9117,49.9207,1835.0741],[-118.9036,49.9192,1838.7233],[-118.9032,49.9156,1843.3142],[-118.9081,49.9066,1892.9097],[-118.9153,49.9029,1884.6367],[-118.9237,49.906,1835.1912],[-118.9355,49.9156,1739.4961],[-118.9429,49.9139,1769.2722],[-118.9647,49.9036,1779.095],[-118.9694,49.8956,1763.0951],[-118.9773,49.8928,1676.9678],[-118.9761,49.8843,1730.0394],[-118.9771,49.8786,1728.0986],[-119.0078,49.8597,1492.8427],[-119.0114,49.852,1623.0181],[-119.015,49.8541,1520.0212],[-119.0223,49.8522,1580.142],[-119.0249,49.8459,1583.9865],[-119.0421,49.8292,1614.9443],[-119.0556,49.8123,1502.0138]],
[[-118.9658,50.2554,491.1647],[-118.966,50.2534,492.8208],[-118.9636,50.2529,493.2669],[-118.9624,50.2529,492.6876],[-118.9622,50.2569,491.8988],[-118.96,50.2567,493.9156],[-118.9599,50.2537,493.3125],[-118.9576,50.2526,493.3125],[-118.9489,50.2528,586.5716],[-118.9488,50.2491,501.6214],[-118.9512,50.2484,494.737],[-118.9511,50.246,494.3592],[-118.9534,50.2461,493.5276],[-118.9538,50.2414,493.6351],[-118.9617,50.2405,495.567],[-118.9662,50.2354,499.8857],[-118.9661,50.2373,497.2194],[-118.9876,50.2378,605.821],[-118.9871,50.2605,736.4006],[-118.9689,50.2603,500.2299],[-118.9696,50.2558,495.3527],[-118.9658,50.2554,491.1647]]]]}}