{"type": "Feature","bbox": [-120.5604,50.648,-119.6051,51.1029],"geometry": {"type": "MultiPolygon","coordinates": [[[[-119.6549,50.9395,418.0122],[-119.6578,50.9428,417.2596],[-119.6582,50.948,423.8976],[-119.6685,50.9557,454.0183],[-119.6688,50.9621,505.1786],[-119.678,50.9706,420.6491],[-119.6837,50.9716,406.9689],[-119.6894,50.9791,475.3612],[-119.7004,50.9838,489.1191],[-119.8041,50.9841,1000.3085],[-119.8042,50.9248,1521.7733],[-120.0963,50.925,1344.0183],[-120.0961,51.0114,1448.124],[-120.1151,51.0116,1318.4237],[-120.1147,51.0428,1208.429],[-120.1109,51.0428,1246.7217],[-120.1109,51.0691,1199.1721],[-120.1357,51.0694,1113.6301],[-120.1352,51.1022,585.5145],[-120.1431,51.1029,390.5148],[-120.1498,51.0989,374.4824],[-120.1698,51.1,367.0352],[-120.1779,51.0941,431.3544],[-120.5574,51.0889,1467.1082],[-120.5567,51.0405,1609.5916],[-120.5604,51.0405,1613.571],[-120.5596,51.0285,1632.9357],[-120.5134,51.0282,1748.6431],[-120.5126,51.0144,1772.9874],[-120.4665,51.013,1703.5197],[-120.468,50.997,1804.6119],[-120.5016,50.9971,1825.011],[-120.5108,50.9942,1825.5212],[-120.515,50.9908,1853.3071],[-120.5147,50.9865,1836.5425],[-120.5084,50.9826,1833.0753],[-120.5088,50.9674,1807.3663],[-120.4629,50.9523,1724.2527],[-120.4551,50.9604,1734.1921],[-120.4504,50.9612,1722.2484],[-120.4472,50.9553,1690.3789],[-120.4407,50.9545,1683.915],[-120.4379,50.9496,1645.2559],[-120.431,50.9479,1576.6251],[-120.4218,50.9431,1467.427],[-120.4185,50.9387,1482.0852],[-120.4291,50.9262,1511.8477],[-120.3954,50.9196,1348.1956],[-120.3938,50.9148,1307.3516],[-120.3875,50.9093,1263.7065],[-120.3787,50.9073,1201.9031],[-120.3703,50.9025,1148.3792],[-120.3576,50.9028,1108.6963],[-120.357,50.8952,1101.3518],[-120.3344,50.8951,988.4461],[-120.3343,50.8815,1018.6239],[-120.3135,50.8812,771.6368],[-120.3126,50.866,654.2253],[-120.2897,50.866,351.8705],[-120.2897,50.8642,348.3881],[-120.2875,50.8667,350.3373],[-120.2718,50.867,355.6382],[-120.2692,50.8703,347.375],[-120.2653,50.8687,352.4651],[-120.2652,50.866,354.9244],[-120.2461,50.8662,552.1616],[-120.2465,50.8593,514.5583],[-120.2546,50.8593,427.5281],[-120.2551,50.8556,493.4814],[-120.2608,50.8555,411.0505],[-120.2612,50.8382,469.04],[-120.2669,50.8375,442.1821],[-120.2672,50.83,446.1843],[-120.278,50.8301,444.2931],[-120.2779,50.8083,846.8718],[-120.29,50.8082,653.999],[-120.2899,50.8012,795.3029],[-120.3015,50.8006,585.9202],[-120.3015,50.7816,712.8176],[-120.1763,50.7802,906.9682],[-120.1776,50.7571,864.8469],[-120.1135,50.7565,954.4724],[-120.1066,50.7549,918.5696],[-120.0975,50.7489,859.1542],[-120.0823,50.7479,803.9459],[-120.0737,50.7422,828.6626],[-120.0554,50.7402,836.0658],[-120.0544,50.7377,816.5248],[-120.0569,50.7343,846.2639],[-120.0606,50.7359,816.2913],[-120.0744,50.7346,852.82],[-120.0883,50.7427,769.0],[-120.1107,50.7431,769.0],[-120.1164,50.7509,855.9223],[-120.1189,50.7516,876.3418],[-120.1772,50.7524,870.7193],[-120.179,50.6779,441.761],[-120.2093,50.6779,389.1144],[-120.2101,50.6706,351.8475],[-120.1478,50.6691,342.3636],[-120.1418,50.6662,350.4976],[-120.1236,50.662,348.0688],[-120.0883,50.659,340.5],[-120.065,50.6546,350.0962],[-120.0648,50.6627,370.6003],[-120.0716,50.6652,378.2268],[-120.0715,50.6683,445.9093],[-120.0681,50.6683,465.1485],[-120.0649,50.6678,479.9043],[-120.0648,50.6662,465.0374],[-120.0578,50.6661,436.908],[-120.0584,50.6607,363.4619],[-120.0546,50.659,343.8242],[-120.0548,50.6569,343.6319],[-120.0265,50.658,341.0],[-119.9969,50.6482,348.6674],[-119.9752,50.6525,344.3075],[-119.9554,50.6535,346.0665],[-119.9328,50.6495,341.5],[-119.9109,50.648,347.2352],[-119.8651,50.6668,343.4739],[-119.8547,50.6744,351.6437],[-119.8424,50.6782,351.2476],[-119.8019,50.7022,349.636],[-119.7825,50.723,369.359],[-119.7776,50.7265,348.5249],[-119.7719,50.7278,344.8068],[-119.7668,50.7409,348.242],[-119.7558,50.7508,350.5655],[-119.7473,50.7636,348.8656],[-119.7276,50.7737,342.6586],[-119.7178,50.783,343.0],[-119.7153,50.7897,343.0],[-119.717,50.8026,350.3421],[-119.7204,50.8081,343.0],[-119.7102,50.8219,344.0],[-119.7078,50.8226,349.3141],[-119.7057,50.8265,347.3882],[-119.6981,50.8308,350.1229],[-119.6953,50.8347,344.5],[-119.6882,50.8334,344.5],[-119.6788,50.8382,344.5],[-119.6694,50.8388,344.5],[-119.644,50.8478,344.5],[-119.6345,50.8537,344.5],[-119.6302,50.8589,344.5],[-119.6236,50.8622,344.5],[-119.6158,50.8587,344.5],[-119.6051,50.8655,345.5605],[-119.6129,50.8728,354.9601],[-119.6247,50.8785,347.4299],[-119.6305,50.8777,381.5124],[-119.6378,50.8718,347.1369],[-119.6441,50.8692,373.9137],[-119.6465,50.8615,344.5],[-119.6498,50.8591,347.6398],[-119.6696,50.8656,722.1748],[-119.6642,50.8677,747.7206],[-119.6644,50.9254,656.5775],[-119.6428,50.9257,401.6151],[-119.6549,50.9395,418.0122]],
[[-119.7545,50.8177,602.9362],[-119.7527,50.8235,678.6382],[-119.7543,50.8327,589.1232],[-119.7531,50.8374,583.667],[-119.6985,50.8371,430.5189],[-119.7024,50.8317,364.9143],[-119.7086,50.8282,377.186],[-119.7234,50.8094,372.5424],[-119.7205,50.8043,345.3843],[-119.72,50.7904,355.6444],[-119.7227,50.7822,363.1645],[-119.7274,50.7768,349.0794],[-119.7496,50.7655,372.1644],[-119.7585,50.7551,357.7851],[-119.759,50.7523,358.1889],[-119.7646,50.7536,380.7301],[-119.7771,50.7615,488.2781],[-119.7864,50.7631,518.7471],[-119.7745,50.7742,525.9598],[-119.7696,50.7764,578.8286],[-119.7689,50.7821,516.5],[-119.7643,50.7863,572.9792],[-119.7668,50.7916,516.5],[-119.7629,50.7961,516.5],[-119.7614,50.8029,528.4509],[-119.7579,50.8067,541.9435],[-119.7545,50.8177,602.9362]],
[[-120.2279,51.0041,358.4872],[-120.2382,50.9682,354.4956],[-120.2627,50.968,782.1296],[-120.2622,50.9833,613.0131],[-120.2508,50.9833,369.982],[-120.2507,50.9978,430.9523],[-120.2452,50.9978,364.2803],[-120.245,51.0064,383.3412],[-120.2282,51.006,357.8762],[-120.2279,51.0041,358.4872]]]]}
,"properties": {"GID_3": "CAN.2.28.91_1","GID_0": "CAN","country": "Canada","GID_1": "CAN.2_1","province": "BritishColumbia","NL_NAME_1": "NA","GID_2": "CAN.2.28_1","county": "Thompson-Nicola","NL_NAME_2": "NA","city": "Thompson-NicolaP","VARNAME_3": "NA","NL_NAME_3": "NA","TYPE_3": "RegionalDistrictElectoralArea","ENGTYPE_3": "RegionalDistrictElectoralArea","CC_3": "NA","HASC_3": "NA","name": "Thompson-Nicola_P.city","area_km2": 1629.487,"hist_schema_id": "Elevation0-9000","hist_area_km2": {"350": 45.858,"375": 18.679,"400": 20.613,"425": 15.818,"450": 9.985,"475": 10.997,"500": 14.941,"525": 15.709,"550": 15.663,"575": 17.03,"600": 18.261,"625": 19.196,"650": 19.969,"675": 19.167,"700": 21.215,"725": 21.162,"750": 26.362,"775": 32.962,"800": 30.414,"825": 32.679,"850": 32.917,"875": 34.678,"900": 35.93,"925": 34.175,"950": 38.112,"975": 36.236,"1000": 39.35,"1025": 39.249,"1050": 39.518,"1075": 40.511,"1100": 44.179,"1125": 45.874,"1150": 49.477,"1175": 44.484,"1200": 42.143,"1225": 39.142,"1250": 38.167,"1275": 36.743,"1300": 33.044,"1325": 34.115,"1350": 31.118,"1375": 28.947,"1400": 37.618,"1425": 33.898,"1450": 27.547,"1475": 23.077,"1500": 21.845,"1525": 20.892,"1550": 17.331,"1575": 17.212,"1600": 21.551,"1625": 22.113,"1650": 21.339,"1675": 14.858,"1700": 17.844,"1725": 17.724,"1750": 17.508,"1775": 11.13,"1800": 6.862,"1825": 4.367,"1850": 2.004,"1875": 1.123,"1900": 0.869,"1925": 0.682,"1950": 0.628,"1975": 0.909,"2000": 1.003,"2025": 0.936,"2050": 0.922,"2075": 0.642,"2100": 0.16,"2125": 0.094,"2150": 0.013}}}