{"type": "Feature","bbox": [-120.0,54.9378,-116.7675,56.3151],"geometry": {"type": "MultiPolygon","coordinates": [[[[-118.1973,55.5407,448.3793],[-118.1987,55.5435,441.2206],[-118.1623,55.5381,608.2053],[-118.1463,55.5382,576.7034],[-118.126,55.5415,519.9102],[-118.0982,55.5384,569.2745],[-118.0841,55.5393,541.4709],[-118.079,55.5402,535.8105],[-118.0662,55.5491,457.2821],[-118.0645,55.5554,423.5],[-118.0663,55.5582,437.1199],[-118.0669,55.5642,438.3912],[-118.0644,55.5663,438.6783],[-118.0575,55.5689,431.6671],[-118.0485,55.5694,448.632],[-118.0409,55.5667,520.9327],[-118.025,55.5662,562.722],[-117.9907,55.5758,457.6099],[-117.9787,55.5726,446.8154],[-117.9732,55.5666,428.2365],[-117.9762,55.5584,515.0052],[-117.9727,55.5541,525.9521],[-117.9623,55.5499,543.198],[-117.9551,55.5498,540.0466],[-117.9343,55.557,425.0565],[-117.9222,55.5566,433.1287],[-117.8949,55.5464,511.3177],[-117.8754,55.544,602.7898],[-117.8616,55.5477,516.673],[-117.857,55.5476,512.0784],[-117.8418,55.5433,622.1765],[-117.8284,55.5427,614.8756],[-117.8143,55.5474,483.279],[-117.7917,55.5463,600.3854],[-117.7701,55.5517,535.4192],[-117.7347,55.5513,550.8513],[-117.7157,55.5543,545.9181],[-117.7045,55.5569,540.0852],[-117.6945,55.5646,424.6774],[-117.6942,55.5687,404.4368],[-117.6997,55.5774,440.41],[-117.7096,55.5827,463.9647],[-117.7212,55.5929,534.7835],[-117.7217,55.6,426.4639],[-117.7152,55.6084,432.4365],[-117.7088,55.6116,441.8365],[-117.7022,55.6124,451.1957],[-117.6841,55.6122,450.8325],[-117.6638,55.6029,573.4301],[-117.6549,55.6016,582.4173],[-117.6501,55.6016,571.0981],[-117.6396,55.6064,530.8367],[-117.6255,55.6138,442.4359],[-117.6242,55.616,426.2343],[-117.6252,55.6214,400.3008],[-117.6239,55.6346,387.5],[-117.6213,55.6391,387.0],[-117.6291,55.6545,492.1173],[-117.6291,55.6635,410.0806],[-117.6316,55.665,418.3018],[-117.6285,55.6682,385.5],[-117.6213,55.6708,408.6512],[-117.6065,55.6666,504.2548],[-117.5998,55.6679,483.312],[-117.5953,55.6716,457.6183],[-117.5892,55.672,462.2083],[-117.5827,55.6688,460.6133],[-117.5782,55.6633,464.9312],[-117.5699,55.6621,418.7067],[-117.5688,55.6603,430.9047],[-117.5703,55.4606,615.3552],[-117.5393,55.4607,627.2545],[-117.5387,55.3749,778.5886],[-117.3086,55.3736,622.4192],[-117.1787,55.3748,632.5458],[-116.9743,55.3735,593.8843],[-116.7699,55.3742,623.481],[-116.7675,55.4611,605.5301],[-116.7927,55.4619,605.4764],[-116.7941,55.5871,628.6355],[-116.7933,55.7231,643.157],[-116.8437,55.7231,633.4945],[-116.8452,55.7379,625.5081],[-116.9196,55.7375,617.0],[-116.9217,55.8108,635.0548],[-116.9726,55.8118,631.5206],[-116.9763,55.9415,634.9626],[-117.2872,55.9412,617.9988],[-117.2883,55.9848,600.8007],[-117.5257,55.9854,351.0498],[-117.5197,56.0,339.1679],[-117.5058,56.0154,365.9883],[-117.4897,56.0249,413.0673],[-117.4799,56.0403,354.1165],[-117.4746,56.0446,355.4593],[-117.4579,56.0517,432.8174],[-117.4522,56.0739,343.1276],[-117.4448,56.0793,351.3794],[-117.44,56.0802,332.0435],[-117.4376,56.0856,332.8931],[-117.4161,56.1011,329.6667],[-117.4133,56.1089,322.5373],[-117.4069,56.1097,324.9569],[-117.3947,56.1081,324.4733],[-117.3835,56.1127,341.7017],[-117.3811,56.1182,353.6233],[-117.3717,56.1302,339.6205],[-117.3679,56.1507,318.5024],[-117.3652,56.1532,318.0],[-117.3435,56.1607,316.5],[-117.3347,56.1662,326.6501],[-117.3304,56.1737,322.0538],[-117.3328,56.1759,315.0],[-117.3255,56.1788,317.7525],[-117.327,56.183,320.0317],[-117.3205,56.1877,323.7022],[-117.3193,56.1906,320.2949],[-117.3076,56.1922,325.9966],[-117.2952,56.2004,350.2492],[-117.2918,56.2057,313.125],[-117.2728,56.2057,529.1506],[-117.2719,56.2189,440.5793],[-117.2734,56.2223,358.3865],[-117.2711,56.2233,358.3865],[-117.2718,56.2324,485.5332],[-117.2735,56.2325,485.5332],[-117.2754,56.2663,395.9286],[-117.2623,56.2667,505.9975],[-117.263,56.2746,433.2678],[-117.2735,56.2743,351.3475],[-117.287,56.2641,311.0],[-117.2945,56.2563,319.3263],[-117.3209,56.2564,348.0401],[-117.3207,56.2498,335.0666],[-117.9999,56.25,660.003],[-117.9999,56.1647,674.3261],[-118.0681,56.1641,659.3909],[-118.1477,56.1598,661.499],[-118.7839,56.16,618.2761],[-118.7839,56.1307,611.6631],[-118.8988,56.1307,368.113],[-118.907,56.1338,353.9726],[-118.9327,56.1483,376.4005],[-118.9382,56.1552,470.8698],[-118.9403,56.1623,424.4866],[-118.9401,56.1684,429.4665],[-118.9503,56.1806,355.0],[-118.9641,56.2052,364.1725],[-118.9658,56.2102,364.072],[-118.9663,56.2205,365.1838],[-118.9582,56.2365,356.5],[-118.9503,56.2437,366.8521],[-118.9477,56.254,358.9457],[-118.9445,56.2567,359.2687],[-118.9488,56.2643,359.5158],[-118.9547,56.2688,358.0],[-118.9658,56.2738,362.6982],[-118.9745,56.2729,362.5825],[-118.9897,56.2749,362.3932],[-119.0015,56.2725,360.6766],[-119.0391,56.2698,364.5281],[-119.0493,56.2715,360.5],[-119.0792,56.2811,422.3289],[-119.1168,56.2898,366.4607],[-119.1194,56.2916,380.9401],[-119.1196,56.2955,540.6567],[-119.1354,56.3102,362.5],[-119.1458,56.3147,366.0592],[-119.1592,56.3151,368.0965],[-119.1758,56.3107,369.1804],[-119.1835,56.3037,364.3589],[-119.2112,56.2927,364.0],[-119.2258,56.2885,367.6921],[-119.2576,56.2857,366.25],[-119.273,56.2808,374.3461],[-119.2894,56.2724,377.6848],[-119.2937,56.2677,380.9385],[-119.3065,56.2655,367.9546],[-119.3643,56.2397,376.9612],[-119.3948,56.2347,369.0],[-119.4424,56.2368,370.0],[-119.4626,56.2355,370.0],[-119.4856,56.2259,381.2014],[-119.5137,56.2204,373.2664],[-119.5355,56.2125,394.229],[-119.5728,56.1921,372.5],[-119.6203,56.1721,388.1926],[-119.6392,56.1666,416.4152],[-119.6598,56.1656,374.25],[-119.7228,56.1737,375.5],[-119.7493,56.1745,377.5394],[-119.7676,56.172,401.7899],[-119.7987,56.1648,415.2723],[-119.8146,56.1587,396.8215],[-119.8459,56.1451,382.2946],[-119.8602,56.1343,378.5727],[-119.881,56.1324,384.4595],[-119.9101,56.1329,379.125],[-119.9265,56.1355,383.3186],[-119.9678,56.1465,388.6193],[-120.0,56.1481,394.6082],[-119.9999,54.9378,929.6058],[-119.6144,54.9386,757.7534],[-119.5988,54.956,738.861],[-119.5861,54.9603,739.2126],[-119.5765,54.9616,741.9772],[-119.5643,54.9609,721.7007],[-119.552,54.9551,737.7349],[-119.5402,54.9545,738.6413],[-119.4933,54.9743,704.2351],[-119.4842,54.9745,677.2218],[-119.4656,54.9687,701.8213],[-119.4588,54.9697,669.132],[-119.4577,54.9729,603.0718],[-119.4595,54.9762,607.5089],[-119.4704,54.9837,683.2925],[-119.4728,54.9874,607.9284],[-119.4688,54.9932,618.0004],[-119.451,55.0014,681.2927],[-119.4308,55.0064,690.3406],[-119.4201,55.0061,683.8004],[-119.4028,55.004,669.5658],[-119.3885,54.999,670.6212],[-119.3813,54.9991,667.8014],[-119.3641,55.0052,653.616],[-119.329,55.0118,646.425],[-119.3195,55.0165,614.3754],[-119.3113,55.0282,584.7509],[-119.2861,55.0391,694.8697],[-119.2651,55.0385,694.7736],[-119.2434,55.0315,644.0278],[-119.2296,55.0304,693.5114],[-119.2252,55.0314,637.3195],[-119.2074,55.0432,615.3206],[-119.1858,55.0497,691.5664],[-119.1707,55.0499,692.8375],[-119.1138,55.0448,636.3085],[-119.0979,55.04,666.3097],[-119.0841,55.0391,687.3331],[-119.0751,55.0414,651.2311],[-119.058,55.0418,696.8503],[-119.0519,55.0434,687.2378],[-119.0372,55.0521,542.5992],[-119.0043,55.0593,670.0341],[-119.0,55.0665,569.2253],[-118.9937,55.0702,590.9517],[-118.9845,55.0708,601.4714],[-118.9686,55.0754,592.5764],[-118.9486,55.0763,545.1024],[-118.9403,55.0754,538.9653],[-118.936,55.0702,545.3254],[-118.9256,55.0667,535.8662],[-118.9261,55.0613,587.2385],[-118.923,55.0566,616.0031],[-118.9155,55.0557,571.172],[-118.9096,55.0509,651.1475],[-118.9029,55.05,663.7224],[-118.8683,55.0581,632.6321],[-118.8441,55.0568,672.0662],[-118.8181,55.0626,585.1381],[-118.7953,55.0726,525.124],[-118.7777,55.0728,592.4822],[-118.7641,55.0778,529.9379],[-118.7403,55.0768,548.9766],[-118.7325,55.0713,564.6136],[-118.7202,55.0707,537.7317],[-118.7025,55.0607,620.0934],[-118.6654,55.0572,576.6497],[-118.6545,55.0584,577.8],[-118.6446,55.0627,514.6146],[-118.6321,55.0643,568.2125],[-118.6246,55.0675,564.8169],[-118.6205,55.0726,511.7231],[-118.6151,55.0747,508.6506],[-118.608,55.0742,512.3809],[-118.6028,55.0702,545.6874],[-118.5977,55.0693,550.4288],[-118.5882,55.0726,510.8731],[-118.5534,55.0708,540.7003],[-118.545,55.0744,521.8389],[-118.5262,55.0874,510.41],[-118.4854,55.0883,575.0842],[-118.4729,55.0977,534.2485],[-118.4706,55.104,500.4459],[-118.4553,55.1094,513.6039],[-118.4501,55.1172,496.7525],[-118.4417,55.1142,583.4192],[-118.4316,55.1145,575.5034],[-118.4134,55.118,511.0278],[-118.4058,55.1143,525.7864],[-118.4018,55.1103,559.0038],[-118.3955,55.1096,563.8032],[-118.3856,55.1125,545.561],[-118.38,55.12,493.9436],[-118.3723,55.1218,534.1512],[-118.3633,55.1277,515.4308],[-118.3585,55.1389,493.9716],[-118.3542,55.1415,511.8015],[-118.3369,55.1427,504.1752],[-118.3323,55.1407,504.8852],[-118.3283,55.1335,594.9173],[-118.3081,55.1293,537.6102],[-118.3078,55.1324,493.3979],[-118.2972,55.1356,495.1432],[-118.2782,55.1365,497.582],[-118.2642,55.1433,503.5706],[-118.2512,55.1565,512.9584],[-118.2374,55.1641,514.3121],[-118.2212,55.1791,484.5233],[-118.2207,55.1865,479.4044],[-118.2237,55.1904,478.9195],[-118.2435,55.1981,483.3319],[-118.2599,55.1983,475.4622],[-118.272,55.1951,486.8236],[-118.2788,55.1968,491.5181],[-118.2745,55.2062,479.252],[-118.282,55.2138,477.2468],[-118.2806,55.2195,471.8745],[-118.2757,55.2243,478.2301],[-118.2609,55.2318,478.1772],[-118.2545,55.2384,477.5363],[-118.255,55.2448,472.2455],[-118.2599,55.2477,475.2172],[-118.2699,55.2477,473.1487],[-118.2856,55.2397,475.3266],[-118.2926,55.239,493.7074],[-118.2971,55.2409,506.5186],[-118.2978,55.2427,473.5042],[-118.2824,55.251,475.1911],[-118.2803,55.2613,491.0798],[-118.2896,55.2762,509.3913],[-118.296,55.2941,463.04],[-118.2951,55.3035,465.6989],[-118.284,55.327,461.0018],[-118.2781,55.3329,466.4066],[-118.2658,55.3398,475.0757],[-118.2425,55.3475,499.3167],[-118.2337,55.3489,487.4693],[-118.2235,55.3554,489.8385],[-118.2208,55.3617,458.6455],[-118.2202,55.3744,462.8978],[-118.2281,55.3823,457.4267],[-118.2297,55.3899,460.9934],[-118.2276,55.4122,477.3334],[-118.2223,55.417,500.0143],[-118.2047,55.4234,583.9276],[-118.198,55.4291,504.9866],[-118.1967,55.4337,493.9902],[-118.2001,55.4388,456.5294],[-118.2073,55.4427,455.3647],[-118.2219,55.4451,468.6372],[-118.2248,55.4484,447.1879],[-118.2229,55.4511,455.302],[-118.2116,55.4513,521.2738],[-118.1861,55.4455,549.3773],[-118.1737,55.4475,582.248],[-118.17,55.4525,543.572],[-118.1686,55.4653,443.653],[-118.1749,55.4735,442.3669],[-118.1516,55.4804,463.2624],[-118.1428,55.4906,469.6227],[-118.1404,55.4974,463.8803],[-118.1475,55.5063,451.8701],[-118.1847,55.5291,470.6951],[-118.191,55.5303,484.3976],[-118.2007,55.537,514.2386],[-118.2011,55.5412,439.2367],[-118.1973,55.5407,448.3793]]]]}
,"properties": {"GID_2": "CAN.1.10_1","GID_0": "CAN","country": "Canada","GID_1": "CAN.1_1","province": "Alberta","NL_NAME_1": "NA","county": "DivisionNo.19","VARNAME_2": "NA","NL_NAME_2": "NA","TYPE_2": "CensusDivision","ENGTYPE_2": "CensusDivision","CC_2": "19","HASC_2": "CA.AB.NT","name": "Division_No.19.county","area_km2": 20604.41,"hist_schema_id": "Elevation0-9000","hist_area_km2": {"300": 1.44,"325": 78.52,"350": 98.63,"375": 99.49,"400": 90.31,"425": 113.24,"450": 143.75,"475": 177.28,"500": 225.92,"525": 293.42,"550": 985.69,"575": 2613.76,"600": 1822.07,"625": 1847.17,"650": 2032.67,"675": 1729.43,"700": 1233.03,"725": 1231.11,"750": 1209.17,"775": 1144.55,"800": 1066.56,"825": 797.43,"850": 628.66,"875": 406.38,"900": 284.06,"925": 152.96,"950": 61.35,"975": 27.35,"1000": 8.28,"1025": 0.72}}}