{"type":"Feature","properties":{"GID_3":"CAN.3.14.18_1","GID_0":"CAN","country":"Canada","GID_1":"CAN.3_1","province":"Manitoba","NL_NAME_1":"NA","GID_2":"CAN.3.14_1","county":"DivisionNo.22","NL_NAME_2":"NA","city":"RedSuckerLake1976","VARNAME_3":"NA","NL_NAME_3":"NA","TYPE_3":"RéserveIndienne","ENGTYPE_3":"IndianReserve","CC_3":"NA","HASC_3":"NA","name":"Red_Sucker_Lake1976.city"},
"geometry":{"type": "MultiPolygon","coordinates": [[[[-93.5704,54.1605,232.1057],[-93.5744,54.155,221.2285],[-93.5698,54.1553,219.0],[-93.5557,54.1634,219.0],[-93.5337,54.1609,226.785],[-93.5288,54.1636,227.899],[-93.564,54.1678,226.078],[-93.5628,54.1656,226.019],[-93.565,54.1626,223.7931],[-93.5704,54.1605,232.1057]]]]}}