{"type": "Feature","bbox": [-54.8772,47.6508,-54.7417,47.8633],"geometry": {"type": "MultiPolygon","coordinates": [[[[-54.7754,47.8631,222.9084],[-54.8772,47.8633,174.2596],[-54.8772,47.7959,138.2361],[-54.8217,47.6589,0.5821],[-54.8258,47.6547,0.0],[-54.8228,47.6508,1.8746],[-54.8019,47.6572,31.2931],[-54.7989,47.6567,0.0],[-54.7958,47.6603,1.6334],[-54.7911,47.6606,34.2329],[-54.7864,47.665,23.7368],[-54.7883,47.6722,0.0],[-54.7872,47.6742,2.7234],[-54.7889,47.6764,10.4073],[-54.7819,47.6808,0.0],[-54.7828,47.6828,3.7387],[-54.7789,47.6894,0.0],[-54.7775,47.6842,0.0],[-54.7797,47.6803,18.8669],[-54.7855,47.6759,0.0],[-54.7814,47.6758,7.086],[-54.7775,47.6719,0.0],[-54.7758,47.6672,35.4568],[-54.7728,47.6664,0.0],[-54.7697,47.6686,0.0],[-54.76,47.6697,0.0],[-54.7583,47.6717,7.0271],[-54.7417,47.6772,81.3013],[-54.7452,47.7276,145.0533],[-54.7474,47.8632,269.9273],[-54.7754,47.8631,222.9084]]]]}
,"properties": {"GID_3": "CAN.5.4.20_1","GID_0": "CAN","country": "Canada","GID_1": "CAN.5_1","province": "NewfoundlandandLabrador","NL_NAME_1": "NA","GID_2": "CAN.5.4_1","county": "DivisionNo.2","NL_NAME_2": "NA","city": "GrandlePierre","VARNAME_3": "NA","NL_NAME_3": "NA","TYPE_3": "Town","ENGTYPE_3": "Town","CC_3": "NA","HASC_3": "NA","name": "Grandle_Pierre.city","area_km2": 187.4837,"hist_schema_id": "Elevation0-9000","hist_area_km2": {"0": 1.042,"25": 1.2847,"50": 1.5844,"75": 2.8113,"100": 5.708,"125": 9.0623,"150": 64.6603,"175": 54.1368,"200": 21.9456,"225": 11.2475,"250": 6.9427,"275": 5.0329,"300": 1.6685,"325": 0.3566}}}