{"type":"Feature","properties":{"GID_3":"CAN.9.37.3_1","GID_0":"CAN","country":"Canada","GID_1":"CAN.9_1","province":"Ontario","NL_NAME_1":"NA","GID_2":"CAN.9.37_1","county":"ParrySound","NL_NAME_2":"NA","city":"Carling","VARNAME_3":"NA","NL_NAME_3":"NA","TYPE_3":"Township","ENGTYPE_3":"Township","CC_3":"NA","HASC_3":"NA","name":"Carling.city"},
"geometry":{"type": "MultiPolygon","coordinates": [[[[-80.2524,45.2893,173.5],[-80.2569,45.2893,173.5],[-80.2592,45.2846,173.5],[-80.2556,45.2866,173.5],[-80.2512,45.2801,174.8282],[-80.2518,45.2827,173.5],[-80.2502,45.2867,173.5],[-80.2524,45.2893,173.5]]],
[[[-80.277,45.2944,174.3282],[-80.2755,45.2971,176.3284],[-80.2779,45.2997,175.0314],[-80.2867,45.303,178.8141],[-80.295,45.3008,185.2046],[-80.295,45.2962,177.6318],[-80.2907,45.2889,173.5],[-80.2869,45.2872,173.5],[-80.2837,45.2875,173.5],[-80.2807,45.2929,173.5],[-80.277,45.2944,174.3282]]],
[[[-80.3413,45.4169,180.0825],[-80.343,45.4135,173.5],[-80.3368,45.4083,189.184],[-80.3387,45.4053,184.005],[-80.3481,45.4055,186.2704],[-80.3499,45.3991,187.8626],[-80.349,45.3892,188.6833],[-80.3367,45.3663,173.5],[-80.3295,45.3663,174.4057],[-80.3258,45.3684,173.5],[-80.3231,45.3786,173.5],[-80.3186,45.3821,173.5],[-80.3134,45.3822,177.7462],[-80.311,45.3871,173.5],[-80.3154,45.4024,173.5],[-80.3142,45.4102,179.6808],[-80.3197,45.4104,173.5],[-80.3222,45.4077,173.5],[-80.3273,45.4088,191.7221],[-80.3281,45.4162,173.5],[-80.3413,45.4169,180.0825]]],
[[[-80.186,45.3233,173.5],[-80.1884,45.3254,185.5521],[-80.2006,45.3238,186.2021],[-80.205,45.321,173.5],[-80.2107,45.3233,200.8404],[-80.2195,45.3227,189.275],[-80.2271,45.3134,173.5],[-80.226,45.3106,173.5],[-80.2178,45.3114,184.6735],[-80.2147,45.3092,191.1895],[-80.2095,45.3097,205.2395],[-80.1996,45.3176,202.4182],[-80.1886,45.3195,205.4818],[-80.186,45.3233,173.5]]],
[[[-80.2465,45.3441,173.5],[-80.2576,45.3446,181.3881],[-80.2579,45.3402,173.5],[-80.2522,45.3336,173.5],[-80.2489,45.3348,173.5],[-80.2447,45.3422,173.5],[-80.2465,45.3441,173.5]]],
[[[-80.144,45.3382,173.5],[-80.1131,45.313,186.4296],[-80.088,45.3199,204.9633],[-80.0884,45.3305,216.2018],[-80.1095,45.375,173.5],[-80.1062,45.3754,173.5],[-80.1056,45.3837,173.5],[-80.109,45.3869,186.5445],[-80.1085,45.3892,173.5],[-80.1109,45.3931,173.5],[-80.1087,45.3961,173.5],[-80.1135,45.3974,179.0352],[-80.1072,45.3992,173.5],[-80.1091,45.4009,173.5],[-80.1181,45.4019,185.8156],[-80.1231,45.4,176.0068],[-80.1365,45.4247,207.142],[-80.1122,45.431399999999996,216.835],[-80.1574,45.5154,230.1302],[-80.387,45.4539,188.0218],[-80.3795,45.4348,176.0553],[-80.3739,45.4312,173.5],[-80.3568,45.4294,179.1859],[-80.352,45.4235,175.2974],[-80.3469,45.4217,185.7633],[-80.3455,45.4324,173.5],[-80.3414,45.4343,173.5],[-80.334,45.4331,186.3191],[-80.3213,45.4203,174.6623],[-80.2881,45.4195,194.0514],[-80.2853,45.4174,198.5115],[-80.2891,45.415,188.7651],[-80.3022,45.4139,191.9953],[-80.3046,45.4116,187.4984],[-80.3016,45.4042,192.463],[-80.3032,45.3873,186.3194],[-80.3084,45.3792,191.6714],[-80.3055,45.3739,175.2096],[-80.2958,45.368899999999996,194.4434],[-80.2989,45.3615,182.0288],[-80.2892,45.3524,188.1215],[-80.2732,45.3493,173.5],[-80.2699,45.3537,173.5],[-80.2508,45.3525,173.5],[-80.2446,45.3482,173.5],[-80.2374,45.3534,173.5],[-80.2319,45.3528,199.4771],[-80.2284,45.3476,198.6721],[-80.233,45.3429,192.2228],[-80.2329,45.34,173.5],[-80.2295,45.3375,173.5],[-80.2139,45.3367,173.5],[-80.2088,45.3434,173.5],[-80.2029,45.3441,173.5],[-80.1892,45.3404,173.5],[-80.166,45.3291,173.5],[-80.1599,45.3287,173.5],[-80.1538,45.3319,173.5],[-80.1629,45.3478,173.5],[-80.1718,45.3527,178.017],[-80.1767,45.3601,173.5],[-80.195,45.3617,215.933],[-80.2129,45.3767,181.9445],[-80.2128,45.3786,173.5],[-80.2023,45.3735,173.5],[-80.1948,45.3732,187.19],[-80.1939,45.3765,176.1335],[-80.1859,45.3723,173.5],[-80.1825,45.3679,173.5],[-80.144,45.3382,173.5]]]]}}