{"type":"Feature","properties":{"GID_2":"CAN.11.18_1","GID_0":"CAN","country":"Canada","GID_1":"CAN.11_1","province":"Québec","NL_NAME_1":"NA","county":"Coaticook","VARNAME_2":"NA","NL_NAME_2":"NA","TYPE_2":"RegionalCountyMunicipality","ENGTYPE_2":"RegionalCountyMunicipality","CC_2":"44","HASC_2":"CA.QC.CT","name":"Coaticook.county"},
"geometry":{"type": "MultiPolygon","coordinates": [[[[-71.7734,45.0108,443.2586],[-71.511,45.0134,393.4914],[-71.4998,45.0448,337.6635],[-71.5049,45.0482,338.1442],[-71.5,45.0526,339.3638],[-71.4891,45.0754,342.5166],[-71.4847,45.0809,347.7687],[-71.4756,45.0837,351.9498],[-71.4621,45.0905,378.3654],[-71.4484,45.1102,378.1311],[-71.4342,45.1202,392.587],[-71.4284,45.127,394.4231],[-71.4278,45.133,399.4847],[-71.4337,45.1395,412.089],[-71.4156,45.1884,483.8493],[-71.4103,45.1938,507.0488],[-71.4132,45.2202,544.6489],[-71.4341,45.2316,582.0667],[-71.438,45.2348,587.7285],[-71.4374,45.2362,595.662],[-71.4348,45.2371,606.6965],[-71.4163,45.2336,563.6229],[-71.4127,45.236,562.311],[-71.4024,45.2376,575.1184],[-71.3898,45.2356,625.236],[-71.3949,45.241,628.8874],[-71.4034,45.2426,588.1399],[-71.4591,45.2402,497.6654],[-71.5727,45.2391,432.5157],[-71.5822,45.2377,422.6701],[-71.5833,45.2389,424.0191],[-71.6051,45.2386,413.6283],[-71.6056,45.2481,389.6208],[-71.6434,45.2474,441.1185],[-71.6449,45.3065,422.5867],[-71.7467,45.3049,259.0134],[-71.8435,45.3062,236.9235],[-71.8429,45.2795,225.0613],[-71.8497,45.2796,204.4098],[-71.8495,45.2743,202.9799],[-71.8616,45.2758,193.6309],[-71.8617,45.2637,210.3458],[-71.9007,45.265,265.6635],[-71.9008,45.2703,256.0526],[-71.9193,45.2704,247.2438],[-71.9169,45.1601,402.7466],[-72.098,45.161,241.7329],[-72.0964,45.0338,313.8421],[-72.0768,45.0332,321.0465],[-72.0769,45.0229,326.7006],[-72.0409,45.0228,321.1138],[-72.0403,45.0066,375.9178],[-71.9528,45.0083,486.8564],[-71.9142,45.0075,489.4057],[-71.7734,45.0108,443.2586]]],
[[[-71.9201,45.2836,238.803],[-71.9199,45.2809,244.5922],[-71.901,45.2811,202.8775],[-71.9009,45.2969,239.6593],[-71.8832,45.2968,216.593],[-71.8827,45.3068,179.4575],[-71.9204,45.3072,161.4092],[-71.9201,45.2836,238.803]]]]}}