{"type": "Feature","bbox": [-64.0926,46.4485,-64.0594,46.4635],"geometry": {"type": "MultiPolygon","coordinates": [[[[-64.0795,46.4591,17.1744],[-64.0826,46.4635,9.3792],[-64.0856,46.4627,6.7088],[-64.083,46.456,18.4335],[-64.0873,46.4556,12.3942],[-64.0926,46.451,9.9514],[-64.0866,46.4485,21.743],[-64.0788,46.4489,31.4665],[-64.0757,46.4499,31.6368],[-64.0773,46.4539,34.6362],[-64.0624,46.4562,37.3308],[-64.0594,46.4582,40.7837],[-64.0786,46.4562,29.5395],[-64.0795,46.4591,17.1744]]]]}
,"properties": {"GID_3": "CAN.10.2.1_1","GID_0": "CAN","country": "Canada","GID_1": "CAN.10_1","province": "PrinceEdwardIsland","NL_NAME_1": "NA","GID_2": "CAN.10.2_1","county": "Prince","NL_NAME_2": "NA","city": "AbramsVillage","VARNAME_3": "NA","NL_NAME_3": "NA","TYPE_3": "Community","ENGTYPE_3": "Community","CC_3": "NA","HASC_3": "NA","name": "Abrams_Village.city","area_km2": 1.314616,"hist_schema_id": "Elevation0-9000","hist_area_km2": {"0": 0.102237,"25": 1.022497,"50": 0.189882}}}