{"type": "Feature","bbox": [-69.9102,47.1206,-69.5027,47.4727],"geometry": {"type": "MultiPolygon","coordinates": [[[[-69.571,47.1206,511.7565],[-69.5027,47.1884,547.9103],[-69.5772,47.2391,433.205],[-69.5466,47.2597,618.4064],[-69.5618,47.2694,509.7693],[-69.5574,47.2728,533.9663],[-69.573,47.2826,501.4155],[-69.5683,47.2863,523.5184],[-69.6852,47.3626,324.4375],[-69.6794,47.3668,335.8016],[-69.7978,47.4437,177.8884],[-69.794,47.4482,182.1425],[-69.8314,47.4727,87.5538],[-69.8349,47.4695,89.8092],[-69.841,47.4691,89.7231],[-69.8537,47.461,101.1172],[-69.8564,47.4628,116.3352],[-69.8858,47.4397,141.2613],[-69.8881,47.4342,111.5763],[-69.8908,47.4367,146.8394],[-69.9102,47.4261,171.1047],[-69.894,47.4144,134.5],[-69.889,47.4175,136.4101],[-69.8665,47.4029,180.0824],[-69.8715,47.3976,181.0719],[-69.8505,47.3835,219.7462],[-69.8396,47.3909,211.8473],[-69.8184,47.3775,254.1003],[-69.8091,47.3889,244.5851],[-69.7914,47.3774,302.2374],[-69.8476,47.2994,279.3801],[-69.7769,47.2515,390.2719],[-69.7542,47.2379,448.8404],[-69.7518,47.2398,433.5415],[-69.7313,47.2266,421.6311],[-69.571,47.1206,511.7565]]]]}
,"properties": {"GID_3": "CAN.11.28.3_1","GID_0": "CAN","country": "Canada","GID_1": "CAN.11_1","province": "Québec","NL_NAME_1": "NA","GID_2": "CAN.11.28_1","county": "Kamouraska","NL_NAME_2": "NA","city": "Mont-Carmel","VARNAME_3": "NA","NL_NAME_3": "NA","TYPE_3": "Municipalité","ENGTYPE_3": "Municipality","CC_3": "NA","HASC_3": "NA","name": "Mont-Carmel.city","area_km2": 437.3374,"hist_schema_id": "Elevation0-9000","hist_area_km2": {"100": 5.2762,"125": 3.2555,"150": 2.4239,"175": 12.4641,"200": 18.9213,"225": 15.9683,"250": 5.5397,"275": 6.403,"300": 18.8426,"325": 44.7754,"350": 26.5686,"375": 28.2874,"400": 35.3545,"425": 38.3006,"450": 42.1752,"475": 40.1984,"500": 36.4405,"525": 26.511,"550": 18.0738,"575": 7.6651,"600": 3.1282,"625": 0.6775,"650": 0.0865}}}