{"type": "Feature","bbox": [-79.4288,43.798,-79.1703,43.9634],"geometry": {"type": "MultiPolygon","coordinates": [[[[-79.2177,43.9634,265.978],[-79.3031,43.945,239.9732],[-79.311,43.9419,237.5843],[-79.3898,43.9237,244.8484],[-79.3709,43.847,191.6173],[-79.4288,43.8348,193.4997],[-79.42,43.798,194.0756],[-79.1703,43.8555,180.879],[-79.2143,43.953,246.7617],[-79.2177,43.9634,265.978]]]]}
,"properties": {"GID_3": "CAN.9.53.6_1","GID_0": "CAN","country": "Canada","GID_1": "CAN.9_1","province": "Ontario","NL_NAME_1": "NA","GID_2": "CAN.9.53_1","county": "York","NL_NAME_2": "NA","city": "Markham","VARNAME_3": "NA","NL_NAME_3": "NA","TYPE_3": "Town","ENGTYPE_3": "Town","CC_3": "NA","HASC_3": "NA","name": "Markham.city","area_km2": 212.2365,"hist_schema_id": "Elevation0-9000","hist_area_km2": {"150": 2.9057,"175": 58.9453,"200": 83.4969,"225": 48.9038,"250": 17.0843,"275": 0.9005}}}