{"type":"Feature","properties":{"GID_3":"CAN.11.59.3_1","GID_0":"CAN","country":"Canada","GID_1":"CAN.11_1","province":"Québec","NL_NAME_1":"NA","GID_2":"CAN.11.59_1","county":"LeRocher-Percé","NL_NAME_2":"NA","city":"Mont-Alexandre","VARNAME_3":"NA","NL_NAME_3":"NA","TYPE_3":"NonOrganisé","ENGTYPE_3":"Unorganized","CC_3":"NA","HASC_3":"NA","name":"Mont-Alexandre.city"},
"geometry":{"type": "MultiPolygon","coordinates": [[[[-64.9574,48.3284,171.3756],[-64.8119,48.4266,319.9074],[-64.8235,48.4407,272.8922],[-64.6368,48.5035,240.4649],[-64.6074,48.4633,167.8843],[-64.5111,48.4877,152.5831],[-64.517,48.4958,200.8291],[-64.4526,48.5179,200.5768],[-64.4507,48.6944,318.4485],[-65.0532,48.6944,445.508],[-65.0536,48.6795,459.6742],[-65.5012,48.679,370.9536],[-65.2246,48.5,408.612],[-65.1356,48.444,415.4471],[-64.9574,48.3284,171.3756]]]]}}