{"type":"Feature","properties":{"GID_3":"CAN.11.66.3_1","GID_0":"CAN","country":"Canada","GID_1":"CAN.11_1","province":"Québec","NL_NAME_1":"NA","GID_2":"CAN.11.66_1","county":"LesJardins-de-Napierville","NL_NAME_2":"NA","city":"Napierville","VARNAME_3":"NA","NL_NAME_3":"NA","TYPE_3":"Village","ENGTYPE_3":"Village","CC_3":"NA","HASC_3":"NA","name":"Napierville.city"},
"geometry":{"type": "MultiPolygon","coordinates": [[[[-73.3947,45.1961,49.116],[-73.398,45.2003,51.4861],[-73.4019,45.1958,53.0143],[-73.4053,45.1956,51.0653],[-73.4033,45.1973,49.4852],[-73.4114,45.1974,54.3016],[-73.4117,45.1955,54.5099],[-73.4172,45.1953,58.3669],[-73.4156,45.194,57.0444],[-73.4183,45.1949,58.3669],[-73.4176,45.1806,58.1645],[-73.4093,45.1807,56.7874],[-73.4103,45.1792,57.9829],[-73.4034,45.1746,54.2295],[-73.4019,45.1757,53.9615],[-73.4005,45.1748,53.9879],[-73.3958,45.1787,53.4448],[-73.3974,45.1799,54.5619],[-73.3849,45.1901,48.5293],[-73.3942,45.1905,48.8234],[-73.3943,45.192,48.8234],[-73.3823,45.1919,48.1181],[-73.3806,45.1935,48.8239],[-73.382,45.1954,53.0705],[-73.3947,45.1961,49.116]]]]}}