{"type":"Feature","properties":{"GID_3":"CAN.11.11.7_1","GID_0":"CAN","country":"Canada","GID_1":"CAN.11_1","province":"Québec","NL_NAME_1":"NA","GID_2":"CAN.11.11_1","county":"Bécancour","NL_NAME_2":"NA","city":"Saint-Pierre-les-Becquets","VARNAME_3":"NA","NL_NAME_3":"NA","TYPE_3":"Municipalité","ENGTYPE_3":"Municipality","CC_3":"NA","HASC_3":"NA","name":"Saint-Pierre-les-Becquets.city"},
"geometry":{"type": "MultiPolygon","coordinates": [[[[-72.1874,46.41,45.5788],[-72.1787,46.4263,37.7495],[-72.1733,46.4478,23.6962],[-72.1696,46.458,41.0136],[-72.1635,46.465,45.9619],[-72.1626,46.4712,47.416],[-72.16,46.4733,47.3329],[-72.1615,46.4743,47.3009],[-72.1345,46.4932,46.6805],[-72.1289,46.4986,50.3304],[-72.1735,46.5293,5.3794],[-72.1751,46.5261,29.9674],[-72.1809,46.5226,2.0494],[-72.1942,46.5176,0.5],[-72.2047,46.5033,25.2542],[-72.2078,46.4955,0.5],[-72.2074,46.4823,39.5115],[-72.2127,46.4723,37.4426],[-72.213,46.4617,36.5653],[-72.2241,46.4369,39.4944],[-72.1874,46.41,45.5788]]]]}}