{"type": "Feature","bbox": [-125.3686,50.5475,-125.3551,50.5615],"geometry": {"type": "MultiPolygon","coordinates": [[[[-125.3686,50.5547,0.4496],[-125.3619,50.5542,12.5124],[-125.3623,50.55,0.0],[-125.3607,50.5475,27.7037],[-125.3551,50.5476,54.9328],[-125.3552,50.5561,61.3039],[-125.3569,50.559,50.2103],[-125.3595,50.5592,46.9307],[-125.3612,50.5615,17.5363],[-125.3686,50.5547,0.4496]]]]}
,"properties": {"GID_3": "CAN.2.9.22_1","GID_0": "CAN","country": "Canada","GID_1": "CAN.2_1","province": "BritishColumbia","NL_NAME_1": "NA","GID_2": "CAN.2.9_1","county": "Comox-Strathcona","NL_NAME_2": "NA","city": "Matsayno5","VARNAME_3": "NA","NL_NAME_3": "NA","TYPE_3": "RéserveIndienne","ENGTYPE_3": "IndianReserve","CC_3": "NA","HASC_3": "NA","name": "Matsayno5.city","area_km2": 0.8217179,"hist_schema_id": "Elevation0-9000","hist_area_km2": {"0": 0.1885894,"25": 0.1481818,"50": 0.3502329,"75": 0.1347138}}}