{"type": "Feature","bbox": [-82.3508,45.7682,-82.1143,46.0561],"geometry": {"type": "MultiPolygon","coordinates": [[[[-82.345,45.974,181.112],[-82.3502,45.978,181.2534],[-82.3508,45.8231,229.6036],[-82.2718,45.8227,212.0],[-82.2718,45.7682,250.6954],[-82.1538,45.7689,199.8598],[-82.1535,45.7735,200.7724],[-82.1544,45.7756,204.3201],[-82.1567,45.7756,196.0],[-82.1547,45.7799,199.2046],[-82.1575,45.7846,196.933],[-82.1652,45.7901,196.0],[-82.1714,45.7895,196.0],[-82.1696,45.7916,202.1129],[-82.1705,45.7943,210.0038],[-82.182,45.7989,201.3076],[-82.1965,45.8003,196.0],[-82.1999,45.7978,214.5439],[-82.1996,45.793,196.0],[-82.2045,45.79,198.3091],[-82.205,45.7876,196.9334],[-82.2137,45.7861,198.1111],[-82.2133,45.8143,264.0994],[-82.2084,45.8142,221.7731],[-82.209,45.8323,282.2321],[-82.2138,45.8324,285.3503],[-82.2141,45.8504,221.3373],[-82.1768,45.8509,182.2734],[-82.1716,45.8603,173.5],[-82.1716,45.8661,178.0012],[-82.1696,45.8701,173.5],[-82.1851,45.8912,173.5],[-82.1942,45.8961,180.7845],[-82.1985,45.9007,173.5],[-82.2034,45.9121,173.5],[-82.2067,45.9152,184.0371],[-82.2142,45.9192,173.5],[-82.2169,45.9196,173.5],[-82.2194,45.9174,173.5],[-82.2215,45.9181,175.8151],[-82.2205,45.9259,182.4639],[-82.2164,45.9305,176.6557],[-82.2182,45.9327,183.465],[-82.2176,45.9367,182.5111],[-82.2078,45.9412,173.5],[-82.2089,45.9445,175.4619],[-82.2162,45.9394,176.125],[-82.2196,45.9403,175.8536],[-82.2147,45.9461,173.7969],[-82.2233,45.941,174.3671],[-82.2271,45.9421,173.5],[-82.2354,45.9389,174.9266],[-82.2354,45.9344,180.7625],[-82.2498,45.9232,187.2534],[-82.2566,45.9107,175.8065],[-82.2586,45.9096,176.0199],[-82.263,45.9126,173.5],[-82.275,45.9151,185.6637],[-82.2831,45.9205,178.0138],[-82.2847,45.926,173.5],[-82.2888,45.9277,188.5717],[-82.2892,45.9332,181.9278],[-82.2862,45.9358,189.5835],[-82.2887,45.9398,189.6815],[-82.2878,45.9459,177.9419],[-82.2891,45.9496,185.7556],[-82.2867,45.9518,176.1339],[-82.2869,45.9558,190.6367],[-82.2836,45.9575,173.5],[-82.2803,45.9624,175.2991],[-82.287,45.964,180.5191],[-82.2852,45.9721,175.9755],[-82.2863,45.9756,186.8973],[-82.2833,45.9808,173.5],[-82.2833,45.9874,175.7975],[-82.293,45.99,186.5833],[-82.3091,45.9852,184.3012],[-82.3213,45.9769,188.0876],[-82.345,45.974,181.112]]],
[[[-82.2351,46.0051,173.5],[-82.2366,46.0044,173.5],[-82.2366,46.0015,178.5706],[-82.2315,46.0028,174.5366],[-82.2327,46.0051,177.9674],[-82.2351,46.0051,173.5]]],
[[[-82.2659,46.0077,178.5593],[-82.2671,46.0091,178.6786],[-82.266,46.0153,180.9073],[-82.2684,46.0162,173.5],[-82.284,46.0139,173.5],[-82.2868,46.013,174.6971],[-82.2875,46.0108,174.1419],[-82.2831,46.0117,186.1952],[-82.2704,46.0062,185.9403],[-82.2659,46.0077,178.5593]]],
[[[-82.2953,46.0155,174.4712],[-82.289,46.0155,181.1962],[-82.2875,46.0188,173.5],[-82.2904,46.0173,178.8114],[-82.2926,46.0188,173.5],[-82.2953,46.0155,174.4712]]],
[[[-82.1392,45.8494,173.5],[-82.1412,45.8441,173.5],[-82.1405,45.7687,235.44],[-82.1143,45.7686,229.6281],[-82.1155,45.7755,239.1911],[-82.1156,45.8031,226.5613],[-82.1143,45.8054,230.689],[-82.1157,45.8866,176.2255],[-82.126,45.877,173.5],[-82.1392,45.8494,173.5]]],
[[[-82.2187,45.9892,173.5],[-82.2194,45.9873,174.4993],[-82.2167,45.9908,173.5],[-82.2178,45.9904,175.3932],[-82.2187,45.9892,173.5]]],
[[[-82.2329,45.9931,175.3675],[-82.2277,45.992,177.6985],[-82.2247,45.9935,181.554],[-82.2246,45.9951,183.8325],[-82.2255,45.9962,173.7107],[-82.2289,45.9946,174.2065],[-82.232,45.9951,174.5649],[-82.2329,45.9931,175.3675]]],
[[[-82.1993,46.0347,185.5187],[-82.195,46.0357,184.8407],[-82.194,46.0376,173.5],[-82.1957,46.0386,173.5],[-82.2024,46.036,175.9618],[-82.1993,46.0347,185.5187]]],
[[[-82.2222,45.999,192.6765],[-82.2207,45.9953,177.4529],[-82.2158,45.995,182.0915],[-82.2156,45.9928,181.6707],[-82.2129,45.9915,176.3017],[-82.2082,45.9913,180.0354],[-82.2071,45.9871,183.3761],[-82.2046,45.9853,175.3034],[-82.202,45.9846,179.6909],[-82.2,45.9911,183.0033],[-82.1976,45.9919,178.4904],[-82.1984,45.9962,184.0095],[-82.1962,46.0017,184.4391],[-82.1978,46.0037,180.7846],[-82.1967,46.0099,175.8589],[-82.1982,46.0139,173.5],[-82.2015,46.0146,173.5],[-82.2056,46.0182,173.5],[-82.21,46.0186,187.0423],[-82.2116,46.0215,181.7298],[-82.2115,46.0246,184.1633],[-82.2031,46.0266,179.9177],[-82.2011,46.0293,175.7092],[-82.2016,46.0304,175.7092],[-82.2058,46.0286,187.366],[-82.2089,46.0297,181.424],[-82.2124,46.0346,186.1848],[-82.2113,46.039,180.1854],[-82.2042,46.0373,181.7764],[-82.2009,46.0417,175.0107],[-82.2073,46.0508,173.5],[-82.2247,46.0523,173.5],[-82.2282,46.0561,173.5],[-82.2367,46.0557,173.5],[-82.2477,46.0475,173.5],[-82.2464,46.0426,177.574],[-82.2573,46.035,173.5],[-82.2571,46.0332,182.7023],[-82.252,46.0328,182.5608],[-82.2522,46.0293,173.5],[-82.2491,46.0315,180.0297],[-82.2462,46.0313,175.8427],[-82.2528,46.0252,175.4099],[-82.2573,46.0259,174.7827],[-82.2595,46.0241,173.7185],[-82.2666,46.0262,181.2149],[-82.2671,46.0281,174.2582],[-82.2717,46.0259,173.5],[-82.2713,46.0226,181.4206],[-82.2664,46.0226,190.3441],[-82.264,46.0199,174.4021],[-82.262,46.021,193.0436],[-82.2628,46.0146,176.2837],[-82.2562,46.0124,180.2592],[-82.2566,46.0066,176.9426],[-82.2551,46.0039,183.2433],[-82.2531,46.0037,177.4351],[-82.2515,46.0066,190.0196],[-82.2409,46.0113,185.7928],[-82.2322,46.0128,190.3198],[-82.2291,46.0122,194.0561],[-82.224,46.0077,188.7681],[-82.2226,46.0048,182.3752],[-82.224,46.0002,187.8434],[-82.2222,45.999,192.6765]]]]}
,"properties": {"GID_3": "CAN.9.29.3_1","GID_0": "CAN","country": "Canada","GID_1": "CAN.9_1","province": "Ontario","NL_NAME_1": "NA","GID_2": "CAN.9.29_1","county": "Manitoulin","NL_NAME_2": "NA","city": "Billings","VARNAME_3": "NA","NL_NAME_3": "NA","TYPE_3": "Township","ENGTYPE_3": "Township","CC_3": "NA","HASC_3": "NA","name": "Billings.city","area_km2": 253.4895,"hist_schema_id": "Elevation0-9000","hist_area_km2": {"175": 14.5974,"200": 73.0625,"225": 87.3081,"250": 48.5972,"275": 24.3841,"300": 3.1619,"325": 2.083,"350": 0.2954}}}