{"type": "Feature","bbox": [-115.7875,49.0001,-114.7007,49.5196],"geometry": {"type": "MultiPolygon","coordinates": [[[[-115.2009,49.5196,1757.7003],[-115.2129,49.5162,1591.7144],[-115.2233,49.5173,1611.8789],[-115.2347,49.5139,1969.4674],[-115.2421,49.5084,2016.152],[-115.2434,49.5005,2035.834],[-115.2561,49.4931,1852.4886],[-115.258,49.4883,1896.3796],[-115.2496,49.4855,1852.757],[-115.2508,49.4674,2011.6233],[-115.2433,49.4654,1974.9858],[-115.2372,49.4589,2070.1558],[-115.2394,49.4532,1993.322],[-115.2168,49.4392,2125.3799],[-115.2081,49.4274,2074.6038],[-115.2844,49.4263,899.116],[-115.3757,49.4276,944.4699],[-115.3753,49.3911,877.7791],[-115.5051,49.3937,1469.2388],[-115.6053,49.3933,1269.0624],[-115.6047,49.3883,1262.7047],[-115.6009,49.3866,1325.6765],[-115.5999,49.383,1254.4395],[-115.6,49.3797,1257.5864],[-115.6045,49.3798,1286.1934],[-115.6054,49.3866,1260.022],[-115.6098,49.3867,1296.666],[-115.6101,49.394,1258.5498],[-115.623,49.3936,1371.1687],[-115.6249,49.3921,1319.6006],[-115.6319,49.3728,1385.6532],[-115.6312,49.3692,1415.139],[-115.6048,49.3502,1818.4855],[-115.5821,49.3414,1954.5895],[-115.5786,49.3315,1889.6866],[-115.5825,49.3279,1945.1838],[-115.5966,49.3304,1929.7694],[-115.5949,49.3257,1895.7166],[-115.5963,49.3224,1899.2576],[-115.6131,49.325,1869.6414],[-115.6194,49.323,1866.9725],[-115.6285,49.315,2027.1333],[-115.6282,49.3107,2063.2432],[-115.6339,49.3103,2120.7256],[-115.6451,49.3051,2146.9932],[-115.6477,49.3001,2107.1641],[-115.6505,49.3001,2075.2629],[-115.6497,49.2982,2052.2334],[-115.653,49.299,2055.9551],[-115.6552,49.2962,1984.8329],[-115.6606,49.2959,1914.1527],[-115.6986,49.2827,1705.9924],[-115.7117,49.2853,1658.0747],[-115.7184,49.284,1727.5476],[-115.728,49.2777,1641.1417],[-115.7263,49.2707,1729.223],[-115.7275,49.2691,1821.2974],[-115.734,49.2682,1762.1824],[-115.7492,49.2729,1820.3284],[-115.7622,49.2685,1982.6167],[-115.7664,49.2615,2071.2334],[-115.7652,49.2533,2065.9087],[-115.7611,49.2476,2001.7244],[-115.7584,49.2366,1855.1178],[-115.7614,49.229,1858.1433],[-115.7622,49.2209,1663.3823],[-115.7691,49.2139,1754.7484],[-115.7809,49.2075,1919.9594],[-115.7875,49.1963,1989.4323],[-115.7822,49.1841,1982.2457],[-115.7811,49.1749,1968.9694],[-115.7445,49.1849,1936.2471],[-115.729,49.204,1901.7991],[-115.7196,49.2086,1707.0564],[-115.7042,49.2078,1732.3519],[-115.7004,49.1979,2070.4468],[-115.6884,49.1918,2001.2885],[-115.6724,49.1968,1796.5417],[-115.6639,49.2065,1714.6979],[-115.6516,49.21,1723.3022],[-115.6341,49.2127,1701.4908],[-115.6208,49.2113,1636.9679],[-115.6182,49.202,1647.067],[-115.6191,49.1882,1593.8005],[-115.6133,49.1802,1431.5869],[-115.6089,49.1694,1298.998],[-115.5921,49.156,1636.9137],[-115.5959,49.1539,1599.0837],[-115.5882,49.1335,1201.266],[-115.557,49.1199,1753.4769],[-115.5525,49.1145,1852.5112],[-115.5508,49.1007,1574.8119],[-115.5545,49.0901,1707.7043],[-115.5551,49.0802,1726.6482],[-115.5477,49.0693,1867.3771],[-115.5467,49.0511,1741.2747],[-115.5335,49.0439,1971.0331],[-115.536,49.0378,1905.0182],[-115.5319,49.03,1603.7917],[-115.5351,49.0217,1701.4038],[-115.5328,49.0144,1931.8186],[-115.52,49.0007,1929.197],[-115.1282,49.0001,782.8853],[-115.1287,49.0942,822.2931],[-115.0748,49.0942,890.2568],[-115.0747,49.0036,869.871],[-115.0507,49.0035,873.5435],[-115.0509,49.0019,876.2892],[-115.0479,49.0017,915.4489],[-115.048,49.0001,918.6544],[-114.7262,49.0001,2021.4181],[-114.7396,49.0122,2208.887],[-114.7414,49.0197,2135.1531],[-114.7444,49.0229,2212.4412],[-114.7574,49.0295,2264.929],[-114.7578,49.036,2222.2896],[-114.7543,49.0388,2095.3555],[-114.7421,49.0431,2084.0339],[-114.7375,49.0497,2161.3484],[-114.7348,49.049,2128.1094],[-114.7298,49.0543,1989.4976],[-114.7187,49.0612,2068.6824],[-114.7178,49.0638,2108.834],[-114.713,49.0639,2009.2679],[-114.702,49.0706,2348.3582],[-114.7091,49.0764,2288.1016],[-114.7159,49.0858,2250.2754],[-114.726,49.0925,2266.625],[-114.7334,49.1015,2289.0759],[-114.7386,49.1044,2296.5391],[-114.7475,49.1154,2247.8464],[-114.7535,49.1184,2236.6865],[-114.756,49.1215,2156.3467],[-114.7559,49.1253,2346.4717],[-114.7457,49.1261,1940.8586],[-114.7249,49.1379,2059.1821],[-114.7291,49.1445,2091.6765],[-114.7222,49.1468,1982.4894],[-114.7195,49.1514,2038.0752],[-114.7123,49.1533,2034.7292],[-114.7101,49.1559,2010.2739],[-114.7094,49.158,2071.5391],[-114.7152,49.166,1984.0199],[-114.7101,49.1685,1949.9065],[-114.708,49.1713,2005.1213],[-114.7185,49.1781,2094.5264],[-114.7236,49.187,2345.6311],[-114.7275,49.1876,2268.1475],[-114.734,49.1921,2202.9685],[-114.7381,49.1977,2391.2583],[-114.746,49.1993,2410.3687],[-114.7525,49.2042,2605.9045],[-114.7489,49.2089,2325.8279],[-114.7494,49.2121,2402.8081],[-114.7548,49.2184,2537.1128],[-114.7417,49.2233,2472.7698],[-114.7406,49.2277,2529.2827],[-114.7421,49.2291,2542.5457],[-114.7417,49.2338,2344.9636],[-114.7445,49.2375,2499.855],[-114.7391,49.2467,2201.0691],[-114.7427,49.2502,2269.606],[-114.7342,49.2598,2269.175],[-114.7351,49.2623,2354.4124],[-114.7332,49.2641,2305.3555],[-114.7284,49.2639,2229.1414],[-114.7218,49.2667,2149.7502],[-114.7158,49.2713,2154.5752],[-114.717,49.2789,1860.9771],[-114.7007,49.2888,2139.4978],[-114.7159,49.2962,2028.6318],[-114.7191,49.3,1960.7617],[-114.7326,49.3045,1989.5219],[-114.7318,49.3097,2033.6189],[-114.7257,49.3151,2183.6221],[-114.7441,49.3181,2141.7168],[-114.7679,49.3182,1755.9641],[-114.7728,49.3215,1784.2507],[-114.797,49.3274,2009.7769],[-114.7988,49.3314,2071.0767],[-114.8118,49.3336,1935.3267],[-114.8261,49.3282,2043.3831],[-114.8373,49.3306,2086.686],[-114.8421,49.3299,2164.4817],[-114.844,49.327,2221.1851],[-114.8461,49.327,2206.4399],[-114.8632,49.3307,2052.0405],[-114.8714,49.3347,2034.6458],[-114.8779,49.336,2059.0813],[-114.8861,49.3416,2062.1843],[-114.8893,49.3462,2143.9443],[-114.8862,49.3503,2026.8516],[-114.8856,49.3554,1971.1802],[-114.8803,49.3582,1906.8868],[-114.8834,49.365,1925.6658],[-114.8826,49.3704,2008.0424],[-114.8729,49.3744,1909.2576],[-114.8728,49.3762,1913.5791],[-114.8779,49.3833,1956.1748],[-114.8864,49.3865,1920.8799],[-114.8814,49.3882,1892.3036],[-114.8743,49.3941,1833.3151],[-114.868,49.4028,1954.0303],[-114.8603,49.4081,1874.7086],[-114.8581,49.4135,1852.4286],[-114.8627,49.4197,1824.7292],[-114.8908,49.4301,1666.095],[-114.9052,49.4263,1587.8052],[-114.9092,49.4142,1533.3843],[-114.9225,49.4066,1443.6409],[-114.9305,49.3988,1337.3936],[-114.9308,49.3875,1167.2554],[-114.9387,49.3815,1127.8645],[-114.97,49.3685,1026.6888],[-114.9809,49.3674,992.8696],[-114.9858,49.3606,968.2064],[-114.9926,49.3604,957.2178],[-114.9949,49.3579,956.884],[-115.0024,49.3573,945.5553],[-115.004,49.352,941.7972],[-115.0108,49.3476,995.3727],[-115.0575,49.3479,1705.4526],[-115.0571,49.3646,1722.5553],[-115.0412,49.3655,1829.9414],[-115.0416,49.4049,1038.4175],[-115.0523,49.4051,1267.5439],[-115.0522,49.4177,1126.4188],[-115.0628,49.4179,1434.816],[-115.0628,49.4203,1387.2659],[-115.0856,49.4203,1995.3914],[-115.0856,49.4348,1579.1078],[-115.1073,49.435,1715.4408],[-115.1073,49.4527,1703.8718],[-115.1293,49.4524,1857.0547],[-115.129,49.4671,1682.2163],[-115.1521,49.4673,1591.8347],[-115.1515,49.4819,1681.9305],[-115.1576,49.4819,1878.1694],[-115.1578,49.4891,1429.1938],[-115.2024,49.489,2151.5208],[-115.2009,49.5196,1757.7003]]]]}
,"properties": {"GID_3": "CAN.2.11.6_1","GID_0": "CAN","country": "Canada","GID_1": "CAN.2_1","province": "BritishColumbia","NL_NAME_1": "NA","GID_2": "CAN.2.11_1","county": "EastKootenay","NL_NAME_2": "NA","city": "EastKootenayB","VARNAME_3": "NA","NL_NAME_3": "NA","TYPE_3": "RegionalDistrictElectoralArea","ENGTYPE_3": "RegionalDistrictElectoralArea","CC_3": "NA","HASC_3": "NA","name": "East_Kootenay_B.city","area_km2": 2846.728,"hist_schema_id": "Elevation0-9000","hist_area_km2": {"750": 77.394,"775": 44.626,"800": 87.054,"825": 99.845,"850": 134.573,"875": 129.942,"900": 75.014,"925": 56.748,"950": 44.827,"975": 34.154,"1000": 38.715,"1025": 45.879,"1050": 39.127,"1075": 37.725,"1100": 36.113,"1125": 33.895,"1150": 38.324,"1175": 42.34,"1200": 43.365,"1225": 46.204,"1250": 49.293,"1275": 51.458,"1300": 50.693,"1325": 52.398,"1350": 52.881,"1375": 54.016,"1400": 54.142,"1425": 50.778,"1450": 50.739,"1475": 51.685,"1500": 50.907,"1525": 52.407,"1550": 52.683,"1575": 52.994,"1600": 53.477,"1625": 52.881,"1650": 54.557,"1675": 52.27,"1700": 54.057,"1725": 52.952,"1750": 50.929,"1775": 49.15,"1800": 48.163,"1825": 48.302,"1850": 44.145,"1875": 44.354,"1900": 42.59,"1925": 37.869,"1950": 36.044,"1975": 33.286,"2000": 30.768,"2025": 27.25,"2050": 23.703,"2075": 20.838,"2100": 16.455,"2125": 13.211,"2150": 10.647,"2175": 8.608,"2200": 6.751,"2225": 5.226,"2250": 4.198,"2275": 2.951,"2300": 2.244,"2325": 1.676,"2350": 1.122,"2375": 0.845,"2400": 0.789,"2425": 0.415,"2450": 0.291,"2475": 0.305,"2500": 0.166,"2525": 0.097,"2550": 0.028,"2575": 0.097,"2600": 0.083}}}