{"type":"Feature","properties":{"GID_3":"CAN.11.43.7_1","GID_0":"CAN","country":"Canada","GID_1":"CAN.11_1","province":"Québec","NL_NAME_1":"NA","GID_2":"CAN.11.43_1","county":"LaRégion-Sherbrookoise","NL_NAME_2":"NA","city":"Saint-Élie-d'Orford","VARNAME_3":"NA","NL_NAME_3":"NA","TYPE_3":"Municipalité","ENGTYPE_3":"Municipality","CC_3":"NA","HASC_3":"NA","name":"Saint-Élie-d'Orford.city"},
"geometry":{"type": "MultiPolygon","coordinates": [[[[-72.0312,45.3605,217.0843],[-72.0312,45.3653,219.2745],[-72.0129,45.3655,245.5928],[-72.012,45.3759,249.3266],[-71.9952,45.3755,247.3892],[-71.9952,45.3848,236.1465],[-71.9852,45.3849,224.1167],[-71.985,45.4088,251.1954],[-71.9758,45.4174,213.1499],[-71.9758,45.4429,220.6712],[-71.993,45.4443,227.6391],[-72.0045,45.4425,246.7643],[-72.0686,45.4425,251.3505],[-72.0667,45.4005,323.1567],[-72.0847,45.3992,300.0384],[-72.1052,45.3955,318.9421],[-72.1439,45.3983,236.7811],[-72.1458,45.3246,299.5979],[-72.1067,45.3218,255.7744],[-72.1069,45.3326,269.3749],[-72.0874,45.3369,294.4322],[-72.0865,45.3473,281.2675],[-72.069,45.3488,270.1964],[-72.0685,45.354,270.7028],[-72.0502,45.3537,211.7848],[-72.0501,45.359,233.0551],[-72.0312,45.3605,217.0843]]]]}}