{"type":"Feature","properties":{"GID_3":"CAN.11.99.14_1","GID_0":"CAN","country":"Canada","GID_1":"CAN.11_1","province":"Québec","NL_NAME_1":"NA","GID_2":"CAN.11.99_1","county":"Vaudreuil-Soulanges","NL_NAME_2":"NA","city":"Saint-Lazare","VARNAME_3":"NA","NL_NAME_3":"NA","TYPE_3":"MunicipalitéDeParoisse","ENGTYPE_3":"ParishMunicipality","CC_3":"NA","HASC_3":"NA","name":"Saint-Lazare.city"},
"geometry":{"type": "MultiPolygon","coordinates": [[[[-74.1817,45.4504,69.6443],[-74.1937,45.4285,94.6943],[-74.218,45.4348,61.761],[-74.2193,45.4304,71.8275],[-74.2298,45.4318,66.7825],[-74.2427,45.3888,66.0103],[-74.0959,45.372,60.9936],[-74.0852,45.3776,53.7651],[-74.0855,45.379,50.5557],[-74.0779,45.3763,55.7317],[-74.072,45.3785,54.8508],[-74.0849,45.3909,50.8182],[-74.0816,45.3927,52.6707],[-74.0985,45.4085,52.2025],[-74.107,45.4144,56.6905],[-74.1044,45.4157,50.6405],[-74.1119,45.4228,63.2817],[-74.1203,45.4181,56.0525],[-74.1336,45.4297,83.0122],[-74.1362,45.4285,77.6524],[-74.1461,45.4362,93.6592],[-74.155,45.4393,111.0424],[-74.154,45.4418,109.0201],[-74.1817,45.4504,69.6443]]]]}}