{"type": "Feature","bbox": [-72.5,46.4453,-72.3576,46.5357],"geometry": {"type": "MultiPolygon","coordinates": [[[[-72.3619,46.4933,33.3616],[-72.389,46.5124,31.4696],[-72.3922,46.5103,29.4559],[-72.4094,46.5214,41.8454],[-72.4211,46.5133,42.9844],[-72.4426,46.5272,50.1222],[-72.4555,46.5179,46.868899999999996],[-72.4832,46.5357,87.6289],[-72.5,46.5219,68.0063],[-72.4575,46.4921,50.5451],[-72.4712,46.4812,43.9693],[-72.4821,46.4786,42.897],[-72.4353,46.4464,35.7119],[-72.4223,46.4487,31.4313],[-72.4175,46.4453,27.6097],[-72.4139,46.4478,35.8958],[-72.4111,46.4461,25.5584],[-72.4082,46.4484,26.1579],[-72.4186,46.4553,32.4569],[-72.4118,46.4623,34.2513],[-72.4087,46.4602,34.1029],[-72.396,46.4678,32.9966],[-72.394,46.4663,31.4764],[-72.3856,46.4701,31.2785],[-72.3631,46.4725,37.0594],[-72.3746,46.4809,31.6653],[-72.3642,46.4812,30.4051],[-72.3651,46.4819,30.4051],[-72.3576,46.4893,37.2334],[-72.3628,46.4926,33.3616],[-72.3619,46.4933,33.3616]]]]}
,"properties": {"GID_3": "CAN.11.26.7_1","GID_0": "CAN","country": "Canada","GID_1": "CAN.11_1","province": "Québec","NL_NAME_1": "NA","GID_2": "CAN.11.26_1","county": "Francheville","NL_NAME_2": "NA","city": "Saint-Luc-de-Vincennes","VARNAME_3": "NA","NL_NAME_3": "NA","TYPE_3": "Municipalité","ENGTYPE_3": "Municipality","CC_3": "NA","HASC_3": "NA","name": "Saint-Luc-de-Vincennes.city","area_km2": 53.90735,"hist_schema_id": "Elevation0-9000","hist_area_km2": {"25": 27.40372,"50": 24.98647,"75": 1.51717}}}