{"type": "Feature","bbox": [-70.4403,46.7331,-69.6253,47.341],"geometry": {"type": "MultiPolygon","coordinates": [[[[-69.6854,47.1053,497.9736],[-69.874,47.225,330.8568],[-69.9744,47.2914,224.2801],[-70.0031,47.2787,245.8099],[-70.0711,47.3227,34.4686],[-70.0811,47.3277,27.7587],[-70.0792,47.3288,29.1794],[-70.0982,47.341,0.0],[-70.1094,47.3336,2.7487],[-70.1411,47.3216,2.7415],[-70.145,47.3172,1.9155],[-70.1517,47.3172,0.0],[-70.1603,47.3144,0.0],[-70.1717,47.3161,1.1143],[-70.1731,47.3136,1.9152],[-70.1806,47.3111,1.4721],[-70.1831,47.3116,2.1613],[-70.1889,47.3086,4.3504],[-70.1928,47.3094,1.2319],[-70.2072,47.2961,0.0],[-70.2128,47.2874,4.1551],[-70.2164,47.2866,3.3831],[-70.2208,47.2788,1.2734],[-70.2247,47.2772,0.6102],[-70.2297,47.2716,14.4184],[-70.2281,47.2624,7.7687],[-70.2369,47.2569,2.2948],[-70.235,47.2555,7.9642],[-70.2343,47.2488,3.5663],[-70.2411,47.243,1.8382],[-70.2414,47.2386,12.6399],[-70.2444,47.2372,0.0],[-70.2456,47.2341,14.1905],[-70.2525,47.228,16.8766],[-70.2725,47.2152,9.0265],[-70.2731,47.2097,0.0],[-70.2819,47.2033,0.0],[-70.2797,47.2019,6.986],[-70.2822,47.1988,0.0],[-70.3006,47.1859,0.0],[-70.3044,47.1802,3.2188],[-70.3052,47.1763,5.1953],[-70.3081,47.178,0.0],[-70.3117,47.1748,3.2527],[-70.3136,47.1713,3.7532],[-70.3128,47.168,3.0705],[-70.3183,47.1638,0.0],[-70.3153,47.1614,10.2849],[-70.3239,47.1594,2.5181],[-70.3412,47.1462,2.8383],[-70.3625,47.1338,0.0],[-70.3697,47.1344,0.0],[-70.3711,47.1324,1.4274],[-70.3697,47.1305,0.0],[-70.3789,47.1252,0.5842],[-70.3787,47.1209,0.0],[-70.3806,47.1188,0.0],[-70.3911,47.1122,0.29],[-70.3919,47.1099,6.9804],[-70.4047,47.1027,0.0],[-70.4331,47.0797,5.1059],[-70.297,46.9846,324.2013],[-70.2986,46.9826,324.6917],[-70.2679,46.9614,377.037],[-70.2422,46.9383,379.6582],[-70.2145,46.9575,378.056],[-70.1704,46.9274,401.21],[-70.204,46.9051,404.4815],[-69.9619,46.7331,386.3148],[-69.8124,46.8787,358.7837],[-69.6253,47.067,388.7704],[-69.6854,47.1053,497.9736]]],
[[[-70.3603,47.2054,0.0],[-70.3584,47.2061,0.0],[-70.3634,47.2061,0.0],[-70.365,47.2043,0.0],[-70.3634,47.2053,0.0],[-70.3603,47.2054,0.0]]],
[[[-70.4403,47.2297,0.0],[-70.44,47.229,0.0],[-70.4375,47.2314,0.0],[-70.4392,47.2311,0.0],[-70.4403,47.2297,0.0]]],
[[[-70.4228,47.2361,2.1657],[-70.4225,47.2387,2.1441],[-70.4268,47.2384,1.4624],[-70.4332,47.2334,1.7893],[-70.4333,47.2317,0.7269],[-70.4256,47.2342,3.17],[-70.4228,47.2361,2.1657]]],
[[[-70.4342,47.2378,0.0],[-70.4362,47.2393,0.0],[-70.4338,47.2352,0.0],[-70.4347,47.2339,0.0],[-70.4327,47.2353,0.0],[-70.4342,47.2378,0.0]]]]}
,"properties": {"GID_2": "CAN.11.33_1","GID_0": "CAN","country": "Canada","GID_1": "CAN.11_1","province": "Québec","NL_NAME_1": "NA","county": "L'Islet","VARNAME_2": "NA","NL_NAME_2": "NA","TYPE_2": "RegionalCountyMunicipality","ENGTYPE_2": "RegionalCountyMunicipality","CC_2": "17","HASC_2": "CA.QC.IS","name": "L'Islet.county","area_km2": 2110.688,"hist_schema_id": "Elevation0-9000","hist_area_km2": {"0": 11.392,"25": 78.284,"50": 87.771,"75": 30.476,"100": 23.441,"125": 22.027,"150": 22.782,"175": 20.63,"200": 19.22,"225": 35.525,"250": 48.979,"275": 77.462,"300": 127.328,"325": 189.19,"350": 303.34,"375": 351.789,"400": 286.563,"425": 185.496,"450": 103.353,"475": 51.167,"500": 19.274,"525": 8.286,"550": 3.622,"575": 1.947,"600": 0.808,"625": 0.418,"650": 0.115}}}