{"type": "Feature","bbox": [-123.2596,55.2161,-123.0128,55.3972],"geometry": {"type": "MultiPolygon","coordinates": [[[[-123.095,55.3972,1145.8741],[-123.2596,55.3959,667.5],[-123.2587,55.3412,744.1201],[-123.2528,55.3409,728.6198],[-123.2506,55.3268,770.9291],[-123.2425,55.3271,746.0826],[-123.2375,55.2866,750.2109],[-123.2317,55.2867,766.1089],[-123.2267,55.2514,778.5192],[-123.2027,55.2514,719.4565],[-123.2044,55.2161,739.8994],[-123.0894,55.2167,696.0341],[-123.0889,55.2923,709.2003],[-123.0128,55.292,762.0287],[-123.0135,55.3319,806.103],[-123.0437,55.3322,909.0861],[-123.0436,55.3682,1062.0807],[-123.0935,55.3682,737.4728],[-123.095,55.3972,1145.8741]]]]}
,"properties": {"GID_3": "CAN.2.12.9_1","GID_0": "CAN","country": "Canada","GID_1": "CAN.2_1","province": "BritishColumbia","NL_NAME_1": "NA","GID_2": "CAN.2.12_1","county": "Fraser-FortGeorge","NL_NAME_2": "NA","city": "Mackenzie","VARNAME_3": "NA","NL_NAME_3": "NA","TYPE_3": "DistrictMunicipality","ENGTYPE_3": "DistrictMunicipality","CC_3": "NA","HASC_3": "NA","name": "Mackenzie.city","area_km2": 220.413,"hist_schema_id": "Elevation0-9000","hist_area_km2": {"675": 84.8762,"700": 59.0762,"725": 28.6163,"750": 23.6676,"775": 12.8797,"800": 3.2201,"825": 1.4228,"850": 1.0007,"875": 0.9405,"900": 0.868,"925": 0.6389,"950": 0.6268,"975": 0.5424,"1000": 0.5062,"1025": 0.3616,"1050": 0.3134,"1075": 0.2531,"1100": 0.1808,"1125": 0.1446,"1150": 0.0844,"1175": 0.1084,"1200": 0.0482,"1225": 0.0361}}}