{"type": "Feature","bbox": [-76.7698,44.8578,-76.2272,45.31],"geometry": {"type": "MultiPolygon","coordinates": [[[[-76.6086,44.8578,186.0798],[-76.5374,44.9049,224.2233],[-76.5339,44.9019,223.7551],[-76.5183,44.9111,220.6399],[-76.2272,45.0922,150.3063],[-76.2838,45.1349,180.8302],[-76.3662,45.2015,181.6532],[-76.5056,45.31,162.5986],[-76.5217,45.3021,161.0],[-76.583,45.2638,194.5173],[-76.7698,45.1423,273.1939],[-76.6086,44.8578,186.0798]]]]}
,"properties": {"GID_3": "CAN.9.26.5_1","GID_0": "CAN","country": "Canada","GID_1": "CAN.9_1","province": "Ontario","NL_NAME_1": "NA","GID_2": "CAN.9.26_1","county": "Lanark","NL_NAME_2": "NA","city": "LanarkHighlands","VARNAME_3": "NA","NL_NAME_3": "NA","TYPE_3": "Township","ENGTYPE_3": "Township","CC_3": "NA","HASC_3": "NA","name": "Lanark_Highlands.city","area_km2": 1098.8327,"hist_schema_id": "Elevation0-9000","hist_area_km2": {"125": 0.2097,"150": 100.885,"175": 225.2835,"200": 281.9426,"225": 170.886,"250": 116.1985,"275": 93.5269,"300": 71.3996,"325": 30.8438,"350": 6.7898,"375": 0.8674}}}