{"type":"Feature","properties":{"GID_3":"CAN.12.7.1_1","GID_0":"CAN","country":"Canada","GID_1":"CAN.12_1","province":"Saskatchewan","NL_NAME_1":"NA","GID_2":"CAN.12.7_1","county":"DivisionNo.16","NL_NAME_2":"NA","city":"Ahtahkakoop104","VARNAME_3":"NA","NL_NAME_3":"NA","TYPE_3":"RéserveIndienne","ENGTYPE_3":"IndianReserve","CC_3":"NA","HASC_3":"NA","name":"Ahtahkakoop104.city"},
"geometry":{"type": "MultiPolygon","coordinates": [[[[-106.9889,53.4424,513.4036],[-107.0067,53.4424,511.9834],[-107.0059,53.3402,579.7462],[-106.7651,53.3399,504.4507],[-106.7654,53.4419,528.2936],[-106.9889,53.4424,513.4036]]]]}}