{"type":"Feature","properties":{"GID_3":"CAN.9.49.5_1","GID_0":"CAN","country":"Canada","GID_1":"CAN.9_1","province":"Ontario","NL_NAME_1":"NA","GID_2":"CAN.9.49_1","county":"Timiskaming","NL_NAME_2":"NA","city":"Charlton","VARNAME_3":"NA","NL_NAME_3":"NA","TYPE_3":"Town","ENGTYPE_3":"Town","CC_3":"NA","HASC_3":"NA","name":"Charlton.city"},
"geometry":{"type": "MultiPolygon","coordinates": [[[[-80.0167,47.8119,273.9394],[-80.0167,47.8052,278.0765],[-80.0,47.8054,276.4188],[-80.0,47.8025,279.8203],[-79.9956,47.8025,277.0406],[-79.9955,47.8054,275.5013],[-79.987,47.8055,268.5989],[-79.9868,47.8203,262.1605],[-79.9885,47.8183,255.7875],[-79.9976,47.8152,264.6021],[-79.9999,47.8127,257.3112],[-80.0167,47.8119,273.9394]]]]}}