{"type": "Feature","bbox": [-97.7758,49.1853,-97.753,49.1993],"geometry": {"type": "MultiPolygon","coordinates": [[[[-97.753,49.1856,252.9975],[-97.7531,49.1993,252.5661],[-97.7757,49.1989,253.5168],[-97.7758,49.1853,254.523],[-97.753,49.1856,252.9975]]]]}
,"properties": {"GID_3": "CAN.3.17.10_1","GID_0": "CAN","country": "Canada","GID_1": "CAN.3_1","province": "Manitoba","NL_NAME_1": "NA","GID_2": "CAN.3.17_1","county": "DivisionNo.3","NL_NAME_2": "NA","city": "PlumCoulee","VARNAME_3": "NA","NL_NAME_3": "NA","TYPE_3": "Town","ENGTYPE_3": "Town","CC_3": "NA","HASC_3": "NA","name": "Plum_Coulee.city","area_km2": 2.632675,"hist_schema_id": "Elevation0-9000","hist_area_km2": {"250": 2.632675}}}