{"type":"Feature","properties":{"GID_3":"CAN.9.20.21_1","GID_0":"CAN","country":"Canada","GID_1":"CAN.9_1","province":"Ontario","NL_NAME_1":"NA","GID_2":"CAN.9.20_1","county":"Kenora","NL_NAME_2":"NA","city":"LacSeul28","VARNAME_3":"NA","NL_NAME_3":"NA","TYPE_3":"RéserveIndienne","ENGTYPE_3":"IndianReserve","CC_3":"NA","HASC_3":"NA","name":"Lac_Seul28.city"},
"geometry":{"type": "MultiPolygon","coordinates": [[[[-92.2622,50.1089,413.1024],[-92.2625,50.1023,360.9295],[-92.2556,50.1056,362.4315],[-92.2514,50.1031,361.7376],[-92.2483,50.1031,363.3975],[-92.2168,50.1132,354.5],[-92.1962,50.1144,361.954],[-92.1756,50.1133,359.5871],[-92.1674,50.1152,364.6007],[-92.1475,50.1115,357.0291],[-92.1373,50.1126,356.4317],[-92.1355,50.1139,354.5],[-92.1371,50.1268,354.5],[-92.1418,50.1303,354.5],[-92.1532,50.1345,354.5],[-92.1517,50.1424,373.0016],[-92.1478,50.1412,361.2619],[-92.1103,50.1454,382.7359],[-92.1093,50.1477,375.6602],[-92.121,50.1554,368.024],[-92.1217,50.1573,360.8426],[-92.1198,50.2738,386.0258],[-92.1228,50.3358,363.3211],[-92.2026,50.3368,354.5],[-92.2168,50.3174,354.5],[-92.2526,50.3103,354.5],[-92.3027,50.3137,354.5],[-92.3158,50.3086,354.5],[-92.3464,50.303,354.5],[-92.4604,50.3181,354.5],[-92.4738,50.3218,354.5],[-92.5023,50.3117,354.5],[-92.5187,50.3076,354.5],[-92.5382,50.3094,354.5],[-92.5398,50.2431,397.0021],[-92.2582,50.2381,401.8162],[-92.2622,50.1089,413.1024]]]]}}