{"type": "Feature","bbox": [-73.3918,45.3189,-73.2515,45.4131],"geometry": {"type": "MultiPolygon","coordinates": [[[[-73.2899,45.3933,35.9874],[-73.3062,45.4046,33.3494],[-73.3236,45.3917,36.1583],[-73.3268,45.3832,38.5577],[-73.339,45.3858,42.4059],[-73.3469,45.3898,36.8443],[-73.3486,45.3862,36.2276],[-73.3868,45.4131,18.6263],[-73.3859,45.4106,17.9628],[-73.3918,45.4106,17.4986],[-73.3813,45.4023,20.6998],[-73.3854,45.3989,39.5049],[-73.3877,45.384,44.7848],[-73.373,45.3772,37.2427],[-73.3705,45.3746,35.9841],[-73.3732,45.3669,36.5136],[-73.3713,45.3642,35.6995],[-73.3668,45.3619,36.534],[-73.3675,45.3606,36.534],[-73.346,45.3534,35.854],[-73.3438,45.3495,36.6005],[-73.3103,45.3386,37.3595],[-73.3109,45.3359,37.1975],[-73.3069,45.3345,37.9422],[-73.3084,45.3335,37.7642],[-73.3068,45.3284,38.4737],[-73.3083,45.3269,38.0584],[-73.3013,45.3236,38.4709],[-73.2996,45.3189,40.2346],[-73.2955,45.3194,39.4072],[-73.2981,45.3301,38.1646],[-73.2868,45.3322,38.2034],[-73.2882,45.3408,43.6796],[-73.2626,45.3407,26.5],[-73.2608,45.3506,32.2758],[-73.2543,45.3592,25.0],[-73.2525,45.3668,24.25],[-73.2515,45.375,32.2696],[-73.2555,45.3833,22.0],[-73.2575,45.3823,29.9793],[-73.2747,45.3826,40.3991],[-73.2899,45.3933,35.9874]]]]}
,"properties": {"GID_3": "CAN.11.55.13_1","GID_0": "CAN","country": "Canada","GID_1": "CAN.11_1","province": "Québec","NL_NAME_1": "NA","GID_2": "CAN.11.55_1","county": "LeHaut-Richelieu","NL_NAME_2": "NA","city": "Saint-Luc","VARNAME_3": "NA","NL_NAME_3": "NA","TYPE_3": "Ville","ENGTYPE_3": "Ville","CC_3": "NA","HASC_3": "NA","name": "Saint-Luc.city","area_km2": 51.65753,"hist_schema_id": "Elevation0-9000","hist_area_km2": {"25": 38.18921,"50": 13.46831}}}