{"type":"Feature","properties":{"GID_3":"CAN.5.10.26_1","GID_0":"CAN","country":"Canada","GID_1":"CAN.5_1","province":"NewfoundlandandLabrador","NL_NAME_1":"NA","GID_2":"CAN.5.10_1","county":"DivisionNo.8","NL_NAME_2":"NA","city":"DivisionNo.8,Subd.P","VARNAME_3":"NA","NL_NAME_3":"NA","TYPE_3":"SubdivisionofUnorganized","ENGTYPE_3":"SubdivisionofUnorganized","CC_3":"NA","HASC_3":"NA","name":"Division_No.8,Subd.P.city"},
"geometry":{"type": "MultiPolygon","coordinates": [[[[-56.44,49.4618,46.0],[-56.4156,49.4724,76.8583],[-56.3927,49.4778,61.0644],[-56.374,49.4746,54.8688],[-56.3614,49.4791,72.8906],[-56.3423,49.4677,60.5396],[-56.3335,49.4644,51.0906],[-56.3175,49.4631,69.6132],[-56.3107,49.4645,74.5254],[-56.2822,49.4778,137.5468],[-56.2721,49.4808,126.1138],[-56.2468,49.4806,50.632],[-56.2376,49.4821,64.6234],[-56.2186,49.4896,70.1465],[-56.1928,49.4959,60.6162],[-56.1753,49.4945,26.9514],[-56.1682,49.4959,30.1449],[-56.14,49.5087,21.6607],[-56.1223,49.5113,18.0304],[-56.1027,49.5218,22.1226],[-56.1013,49.5256,59.3349],[-56.0908,49.5339,27.0538],[-56.0839,49.5422,24.5],[-56.0757,49.547,24.5],[-56.0657,49.5498,24.5],[-56.0614,49.553,24.5],[-56.0612,49.5558,30.5018],[-56.0684,49.5638,114.5305],[-56.0698,49.5735,104.9581],[-56.0676,49.5814,142.222],[-56.0648,49.5853,154.524],[-56.0567,49.5903,106.8495],[-56.0295,49.5974,102.8775],[-56.0193,49.6058,57.2317],[-56.0192,49.6083,71.5995],[-56.0341,49.623,80.2913],[-56.029,49.633,107.2896],[-56.0253,49.6361,131.1186],[-56.0158,49.6395,174.2347],[-56.0058,49.651,95.2493],[-55.9998,49.6555,105.86],[-55.978,49.6638,66.0423],[-55.9598,49.6738,23.7963],[-55.9591,49.6726,26.9969],[-55.9547,49.6733,0.0],[-55.9581,49.675,17.6655],[-55.9675,49.6744,16.2858],[-55.9719,49.67,19.1158],[-55.9795,49.6665,34.7389],[-55.9954,49.6645,6.5581],[-56.0073,49.6582,2.9532],[-56.0051,49.6609,6.4107],[-56.006,49.6618,6.4107],[-56.0136,49.6612,4.6206],[-56.013,49.6629,20.8675],[-56.0065,49.6665,0.0],[-56.0018,49.6671,5.8104],[-55.9973,49.6721,5.3085],[-55.9867,49.6764,0.0],[-55.9833,49.6806,10.3592],[-55.9763,49.6813,1.8417],[-55.9739,49.6797,2.5471],[-55.9819,49.6758,4.7573],[-55.9817,49.6733,1.7733],[-55.9786,49.6731,4.5459],[-55.9681,49.68,1.9781],[-55.9633,49.68,0.0],[-55.9622,49.6808,4.1351],[-55.9633,49.6822,16.9967],[-55.9495,49.6859,16.7131],[-55.9363,49.6968,0.4115],[-55.9297,49.699,2.5518],[-55.9292,49.6956,0.0],[-55.931399999999996,49.6964,5.243],[-55.9392,49.6931,0.0],[-55.9364,49.6914,0.0],[-55.9311,49.6928,1.9331],[-55.9243,49.6979,0.0],[-55.913,49.6996,12.7866],[-55.9017,49.7077,40.1914],[-55.8964,49.7081,0.0],[-55.8894,49.7133,0.0],[-55.8931,49.7167,5.6548],[-55.8953,49.7133,18.3874],[-55.9003,49.7143,0.0],[-55.9039,49.71,16.4217],[-55.9094,49.7122,0.0],[-55.9207,49.7072,0.0],[-55.9239,49.7031,4.7251],[-55.9272,49.7036,22.1616],[-55.9286,49.7081,17.95],[-55.9311,49.7078,8.5703],[-55.9419,49.7008,26.8959],[-55.9536,49.7017,34.4727],[-55.97,49.6933,1.9435],[-55.9786,49.6944,9.6337],[-55.9789,49.6975,1.1875],[-55.9843,49.6989,0.0],[-55.9892,49.695,13.4396],[-55.9931,49.6961,3.4538],[-55.9944,49.6903,0.0],[-55.9983,49.6858,3.1299],[-56.0036,49.6859,0.0],[-56.004,49.689,0.0],[-56.0084,49.6907,0.0],[-56.01,49.6864,19.0109],[-56.0167,49.6854,42.5861],[-56.0198,49.6826,3.2822],[-56.026,49.682,42.6957],[-56.0276,49.6836,19.6412],[-56.0319,49.6835,3.8763],[-56.0372,49.681399999999996,26.3956],[-56.0404,49.6768,9.4593],[-56.0472,49.674,2.527],[-56.05,49.6697,32.1322],[-56.0553,49.6698,14.779],[-56.0598,49.6664,47.0898],[-56.0628,49.6666,22.2575],[-56.0752,49.6621,0.0],[-56.0839,49.6567,10.2205],[-56.0938,49.6458,0.0],[-56.1101,49.6338,0.0],[-56.1173,49.6311,5.7813],[-56.1415,49.6146,13.0904],[-56.148,49.6123,0.6732],[-56.1494,49.6022,0.0],[-56.1544,49.598,0.0],[-56.1554,49.5952,11.6167],[-56.1599,49.5937,2.5103],[-56.1609,49.5909,11.2085],[-56.153,49.5871,4.7595],[-56.1527,49.5854,12.6235],[-56.1714,49.5751,9.0709],[-56.1663,49.5707,135.8805],[-56.2159,49.5471,153.5583],[-56.2343,49.5685,172.3775],[-56.1876,49.6085,62.3365],[-56.1797,49.6178,22.665],[-56.1675,49.6248,0.9556],[-56.1516,49.628,0.0],[-56.1426,49.6315,0.0],[-56.1185,49.6458,41.7455],[-56.1118,49.6479,19.0006],[-56.1096,49.6507,72.0686],[-56.1096,49.6538,72.8575],[-56.1005,49.6619,0.0],[-56.0889,49.667,0.0],[-56.087,49.6694,67.0924],[-56.0592,49.681399999999996,4.0547],[-56.0575,49.6852,0.0],[-56.0469,49.6876,0.0],[-56.0458,49.6922,5.3765],[-56.1651,49.6782,332.8523],[-56.1638,49.6794,341.3474],[-56.1624,49.6993,29.3444],[-56.1667,49.6992,41.0169],[-56.2292,49.6863,255.4383],[-56.2813,49.6704,222.1165],[-56.3066,49.6647,240.9083],[-56.2976,49.6591,312.1095],[-56.2696,49.6529,364.1265],[-56.2625,49.647,338.5002],[-56.2649,49.641,367.7169],[-56.2937,49.6203,399.7603],[-56.2953,49.608,379.0823],[-56.3083,49.594,382.9796],[-56.3077,49.5912,380.8267],[-56.2994,49.5842,387.9731],[-56.2985,49.579,377.8547],[-56.3003,49.5678,384.5105],[-56.3027,49.5633,355.2196],[-56.3085,49.5615,380.0569],[-56.3133,49.5623,376.5782],[-56.3271,49.571,350.7453],[-56.3389,49.568,377.1185],[-56.3453,49.5638,402.3493],[-56.3522,49.5494,257.7157],[-56.3637,49.5403,273.382],[-56.4406,49.5,139.9183],[-56.4457,49.4874,109.055],[-56.4467,49.4787,88.1307],[-56.44,49.4618,46.0]]],
[[[-55.8819,49.7239,14.0268],[-55.8853,49.725,0.0],[-55.8894,49.7206,0.0],[-55.8892,49.7183,8.0148],[-55.8869,49.7164,0.0],[-55.8834,49.7182,9.0406],[-55.8806,49.7214,0.0],[-55.8819,49.7239,14.0268]]]]}}