{"type":"Feature","properties":{"featurecla":"River","scalerank":6,"rivernum":248,"dissolve":"248River","name":"Rupert3","name_alt":null,"note":null,"min_zoom":5.0,"strokeweig":0.2,"name_en":"Rupert","min_label":6.0},
"geometry":{"type": "LineString","coordinates": [[-75.26318359375,51.445672918744116,308.4981],[-75.270605468749991,51.453143621869117,362.1387],[-75.230419921875,51.48187897343162,323.6776],[-75.217822265624989,51.49823639530662,317.0066],[-75.225927734374991,51.518329168744117,311.9921],[-75.249682617187489,51.53656647343162,303.8474],[-75.27099609375,51.54230377811912,303.5],[-75.292724609375,51.54035065311912,303.5],[-75.317797851562489,51.535028387494116,309.6609],[-75.377539062499991,51.53229401249412,317.9285],[-75.497998046875,51.54938385624412,279.3566],[-75.557958984374991,51.54938385624412,300.6727],[-75.6826171875,51.53131744999412,267.9911],[-75.742968749999989,51.50092194218162,265.8085],[-75.822363281249991,51.49396393436912,273.4312],[-75.863623046874991,51.47113678593162,261.7403],[-75.887451171875,51.471063543744116,272.6222],[-75.91357421875,51.47479889530662,284.0804],[-75.941577148437489,51.473651434369117,258.3059],[-75.950488281249989,51.46954987186912,262.2557],[-75.967041015625,51.45709869999412,260.847],[-75.975683593749991,51.453143621869117,282.7998],[-75.988867187499991,51.452508856244116,284.4297],[-76.024169921875,51.459979559369117,278.9095],[-76.04443359375,51.45795319218162,254.0275],[-76.084399414062489,51.44855377811912,251.8553],[-76.270361328124991,51.42999909061912,250.1482],[-76.303515624999989,51.41461823124412,245.151],[-76.366137695312489,51.39850494999412,267.216],[-76.419848632812489,51.37372467655662,260.5089],[-76.458349609374991,51.368036199994116,288.5624],[-76.516943359374991,51.350116278119117,241.5915],[-76.542529296874989,51.34857819218162,244.7127],[-76.591064453125,51.353143621869116,247.4016],[-76.613134765624991,51.350116278119117,247.7083]]}}