{"type":"Feature","properties":{"featurecla":"Lake Centerline","scalerank":6,"rivernum":248,"dissolve":"248Lake Centerline","name":"Rupert1","name_alt":null,"note":null,"min_zoom":5.0,"strokeweig":0.2,"name_en":"Rupert","min_label":6.0},
"geometry":{"type": "LineString","coordinates": [[-75.26318359375,51.445672918744116,308.4981],[-75.24951171875,51.44440338749412,307.5],[-75.243994140624991,51.445086981244117,311.2393],[-75.221533203124991,51.445672918744116,384.8971],[-75.201831054687489,51.43891022343162,307.5],[-75.171240234374991,51.429559637494116,334.4307],[-75.139746093749991,51.423944403119116,332.7338],[-75.123632812499991,51.42023346561912,356.4111],[-75.10009765625,51.423944403119116,307.5],[-75.047900390624989,51.43891022343162,317.6202],[-75.026660156249989,51.44122955936912,311.6935],[-75.008154296874991,51.416522528119117,311.0],[-74.991259765624989,51.39105866093162,311.0],[-74.951098632812489,51.35785553593162,311.0],[-74.921240234374991,51.351922918744116,327.6868],[-74.895068359374989,51.355340887494116,316.0867],[-74.875341796874991,51.364374090619116,311.0],[-74.860449218749991,51.37543366093162,311.0],[-74.845556640624991,51.385516668744117,311.0],[-74.828125,51.401141668744117,311.0],[-74.818164062499989,51.41217682499412,311.0]]}}