{"type":"Feature","properties":{"featurecla":"Lake Centerline","scalerank":12,"rivernum":20393,"dissolve":"20393Lake Centerline","name":"la Marte","name_alt":null,"note":"ID is link back to CEC data","name_full":"Rivire  la Marte","min_zoom":7.0,"strokeweig":0.2,"uident":1681101,"min_label":8.0},
"geometry":{"type": "LineString","coordinates": [[-75.3607478506454,51.122992254681527,303.8042],[-75.412098762103739,51.115301824994027,304.3734],[-75.453114387103739,51.101629949994027,301.0],[-75.476551887103739,51.109442449994027,319.7413],[-75.479359504291239,51.147731838014863,310.021]]}}