{"type":"Feature","properties":{"GID_2":"CAN.11.59_1","GID_0":"CAN","country":"Canada","GID_1":"CAN.11_1","province":"Québec","NL_NAME_1":"NA","county":"LeRocher-Percé","VARNAME_2":"Pabok","NL_NAME_2":"NA","TYPE_2":"MunicipalitéRégionaledeComté","ENGTYPE_2":"RegionalCountyMunicipality","CC_2":"02","HASC_2":"CA.QC.PB","name":"Le_Rocher-Percé.county"},
"geometry":{"type": "MultiPolygon","coordinates": [[[[-65.1363,48.2455,356.8965],[-65.137,48.2445,370.1947],[-65.032,48.1065,10.2864],[-65.0228,48.1133,0.0],[-65.0097,48.1183,0.0],[-65.0017,48.1247,0.0],[-64.9904,48.1295,0.0],[-64.9823,48.1354,0.0],[-64.9713,48.1395,3.3948],[-64.9567,48.1485,0.0],[-64.9486,48.1511,0.0],[-64.9515,48.1527,2.0442],[-64.9583,48.1525,11.9173],[-64.9694,48.155,20.0333],[-64.9775,48.1594,4.0761],[-64.9768,48.1675,4.3894],[-64.9725,48.1747,0.573],[-64.9761,48.1747,2.1],[-64.9772,48.1767,3.7396],[-64.9731,48.1775,1.8671],[-64.9706,48.18,8.5027],[-64.9753,48.1892,3.4516],[-64.9739,48.19,-0.8244],[-64.9747,48.1928,4.6463],[-64.9772,48.1958,12.7275],[-64.9728,48.1989,2.0138],[-64.9667,48.195,0.8221],[-64.9636,48.1947,2.8497],[-64.9608,48.1819,0.0],[-64.9548,48.182,0.0],[-64.9504,48.1779,3.4508],[-64.9402,48.1801,0.0],[-64.9364,48.1762,1.9433],[-64.9217,48.1828,5.3841],[-64.9067,48.1839,23.5224],[-64.8997,48.1867,0.0],[-64.8881,48.1882,4.1849],[-64.8843,48.1851,0.0],[-64.8763,48.1863,12.0416],[-64.8658,48.1854,0.0],[-64.8556,48.1936,0.0],[-64.8494,48.1943,6.1333],[-64.8426,48.1925,3.3834],[-64.8386,48.1957,13.1619],[-64.8309,48.1969,0.0],[-64.8175,48.2034,0.0],[-64.797,48.2003,0.0],[-64.784,48.2014,0.0],[-64.7807,48.2044,1.4103],[-64.7736,48.2056,0.438],[-64.7719,48.2106,0.0],[-64.7754,48.2106,6.6939],[-64.7761,48.2119,6.6939],[-64.7722,48.2148,0.0],[-64.7722,48.2194,0.0],[-64.7602,48.2264,0.0],[-64.7618,48.2281,4.5982],[-64.7581,48.2339,0.8406],[-64.7621,48.2358,0.0],[-64.7626,48.2406,8.8194],[-64.7593,48.2418,0.0],[-64.7594,48.2442,9.1561],[-64.7558,48.2478,0.0],[-64.7561,48.2514,0.0],[-64.754,48.2542,0.8967],[-64.7466,48.257,0.0],[-64.7478,48.2597,0.0],[-64.7431,48.2631,0.0],[-64.7431,48.2658,8.1004],[-64.7394,48.2678,0.0],[-64.7378,48.2731,0.5974],[-64.7414,48.2758,0.5698],[-64.7411,48.2814,4.5069],[-64.7344,48.2819,0.0],[-64.7281,48.2867,4.8234],[-64.7217,48.2856,2.6237],[-64.7136,48.2875,3.6459],[-64.7128,48.29,0.0],[-64.7171,48.2906,5.626],[-64.717,48.2937,0.0],[-64.7101,48.2987,0.0],[-64.7048,48.3002,3.1302],[-64.7022,48.3038,10.738],[-64.6953,48.3039,2.3451],[-64.6965,48.3068,7.6638],[-64.7006,48.3094,7.4748],[-64.6992,48.3117,2.4482],[-64.7011,48.3131,0.6599],[-64.7106,48.3136,6.4162],[-64.6994,48.3164,1.3363],[-64.6969,48.3214,4.7155],[-64.6942,48.3226,0.0],[-64.6939,48.3264,0.0],[-64.6951,48.3276,0.0],[-64.7036,48.325,13.8286],[-64.7108,48.3207,3.1363],[-64.7173,48.3223,0.0],[-64.73,48.3225,6.9144],[-64.7178,48.3261,2.7092],[-64.7214,48.3287,9.6724],[-64.72,48.3308,0.0],[-64.724,48.3304,8.0824],[-64.7308,48.3343,3.0119],[-64.7322,48.3361,3.6228],[-64.7303,48.3394,3.511],[-64.7188,48.3399,0.8964],[-64.7108,48.3378,0.0905],[-64.7036,48.3439,7.2371],[-64.6886,48.3361,-0.2932],[-64.6924,48.3295,0.3375],[-64.692,48.3276,0.2824],[-64.6854,48.3361,0.0],[-64.6746,48.3458,1.3995],[-64.6584,48.346,1.7051],[-64.6482,48.3528,2.959],[-64.6325,48.3574,5.2345],[-64.6164,48.3585,0.0],[-64.5972,48.3647,0.0],[-64.5917,48.3697,4.0649],[-64.5965,48.3787,0.7444],[-64.5961,48.3825,0.1117],[-64.5819,48.3775,1.9565],[-64.5802,48.3753,0.0],[-64.5664,48.3781,5.3819],[-64.5558,48.3781,0.0],[-64.5416,48.3829,0.7091],[-64.5263,48.3851,0.0],[-64.5166,48.3882,0.0],[-64.5067,48.3969,0.0],[-64.5,48.3972,7.767],[-64.4953,48.3954,0.0],[-64.4931,48.3922,0.0],[-64.49,48.3926,1.0483],[-64.4881,48.3956,7.2379],[-64.4697,48.4036,2.0072],[-64.4617,48.4032,0.0],[-64.4539,48.4055,9.145],[-64.4242,48.4056,9.6194],[-64.3886,48.4166,1.8023],[-64.3818,48.4165,2.0313],[-64.3791,48.4144,0.0],[-64.3703,48.4127,4.4552],[-64.3414,48.4192,7.5145],[-64.3297,48.4151,0.0],[-64.3219,48.4158,4.7141],[-64.3169,48.4181,0.0],[-64.3163,48.4248,0.0],[-64.3203,48.428,0.0],[-64.3261,48.4291,9.4371],[-64.3286,48.4334,5.4492],[-64.3285,48.4368,4.9165],[-64.32,48.453,20.2628],[-64.3069,48.4724,1.486],[-64.2878,48.4828,5.2322],[-64.2794,48.4856,24.406],[-64.2433,48.4938,6.8648],[-64.2274,48.5014,8.906],[-64.2177,48.4999,0.0],[-64.2164,48.5022,0.0],[-64.2197,48.5071,0.0],[-64.2194,48.5136,6.8229],[-64.2125,48.5211,0.0],[-64.2043,48.5256,0.0],[-64.2122,48.5269,4.7265],[-64.2127,48.5307,0.0],[-64.2171,48.5331,22.0914],[-64.2331,48.5366,41.9248],[-64.2469,48.5431,9.3209],[-64.2543,48.5434,39.7067],[-64.261,48.5462,4.2822],[-64.2778,48.5471,0.0],[-64.289,48.5534,4.6254],[-64.292,48.5633,3.525],[-64.2898,48.5872,0.9759],[-64.2835,48.6014,2.4075],[-64.2744,48.6144,0.0],[-64.2753,48.6156,0.0],[-64.2833,48.6056,0.0],[-64.2903,48.5914,1.1508],[-64.2939,48.5681,0.7355],[-64.2972,48.5703,1.8407],[-64.2986,48.5747,0.26],[-64.3054,48.5819,1.3842],[-64.3028,48.5861,3.3601],[-64.2991,48.5836,0.1696],[-64.2969,48.5842,0.1213],[-64.2956,48.5869,1.8538],[-64.3015,48.5923,1.5023],[-64.2981,48.5936,0.0],[-64.2967,48.5969,0.0],[-64.3175,48.6,1.056],[-64.3228,48.6044,3.2598],[-64.3161,48.6039,7.524],[-64.3131,48.6056,1.1786],[-64.3197,48.6081,7.1199],[-64.3225,48.6108,1.4521],[-64.3136,48.6111,0.4061],[-64.3139,48.6144,3.6339],[-64.3081,48.6161,4.7209],[-64.2715,48.6171,1.3239],[-64.2566,48.6222,17.2603],[-64.2416,48.6242,6.6509],[-64.2341,48.6236,0.0],[-64.2303,48.6251,0.0],[-64.2283,48.6233,0.0],[-64.2225,48.6233,0.0],[-64.2209,48.6217,0.0],[-64.2085,48.6236,0.0],[-64.2057,48.6222,1.5714],[-64.1997,48.6231,3.5297],[-64.1965,48.6195,1.5392],[-64.1917,48.6183,0.0],[-64.1888,48.6203,0.0],[-64.1771,48.6166,0.0],[-64.174,48.6172,6.758],[-64.1722,48.6208,3.1342],[-64.1675,48.6233,0.0],[-64.1676,48.6259,0.0],[-64.1699,48.6286,1.0554],[-64.1731,48.6272,0.0],[-64.175,48.6283,3.0469],[-64.1762,48.6345,4.9978],[-64.1796,48.6351,4.0685],[-64.1821,48.6386,26.0563],[-64.1811,48.6431,0.0],[-64.186,48.6441,0.0],[-64.1861,48.6472,0.0],[-64.1964,48.6487,15.745],[-64.1974,48.6508,2.5641],[-64.2003,48.6505,0.0],[-64.2083,48.6561,5.6917],[-64.2129,48.6568,13.5201],[-64.2164,48.66,8.2658],[-64.2176,48.6645,5.5137],[-64.2214,48.665,1.1597],[-64.2247,48.6633,16.8065],[-64.2347,48.6679,0.0],[-64.2532,48.686,0.0],[-64.257,48.6967,24.2708],[-64.4441,48.6944,304.7609],[-65.0532,48.6944,445.508],[-65.0536,48.6795,459.6742],[-65.5012,48.679,370.9536],[-64.9574,48.3284,171.3756],[-65.1363,48.2455,356.8965]]],
[[[-64.6993,48.3311,4.5617],[-64.6995,48.3324,0.0],[-64.7062,48.3313,0.0],[-64.7041,48.3299,0.0],[-64.6993,48.3311,4.5617]]],
[[[-64.1557,48.5053,59.4793],[-64.1617,48.5081,10.9192],[-64.1693,48.5081,12.1584],[-64.1736,48.5052,28.9864],[-64.1777,48.4928,18.9097],[-64.1771,48.4888,6.2542],[-64.1721,48.4849,0.0],[-64.1633,48.4831,0.0],[-64.1508,48.4866,0.0],[-64.1442,48.4913,11.3065],[-64.1432,48.4957,0.0],[-64.1502,48.498,0.0],[-64.1515,48.5028,26.0849],[-64.1557,48.5053,59.4793]]],
[[[-64.1962,48.5237,0.0],[-64.2014,48.5254,5.0314],[-64.2026,48.5249,5.0314],[-64.1952,48.5221,0.0],[-64.1962,48.5237,0.0]]],
[[[-64.1569,48.6268,1.0667],[-64.1564,48.6243,0.0682],[-64.1548,48.6285,0.0],[-64.1558,48.6286,1.0527],[-64.1569,48.6268,1.0667]]]]}}