{"type":"Feature","properties":{"GID_2":"CAN.9.31_1","GID_0":"CAN","country":"Canada","GID_1":"CAN.9_1","province":"Ontario","NL_NAME_1":"NA","county":"Muskoka","VARNAME_2":"NA","NL_NAME_2":"NA","TYPE_2":"DistrictMunicipality","ENGTYPE_2":"DistrictMunicipality","CC_2":"44","HASC_2":"CA.ON.MU","name":"Muskoka.county"},
"geometry":{"type": "MultiPolygon","coordinates": [[[[-79.8084,44.8293,173.5],[-79.8052,44.8273,173.5],[-79.801,44.8276,173.5],[-79.7999,44.8296,173.5],[-79.8018,44.8338,173.5],[-79.8046,44.8351,174.7029],[-79.815,44.8335,195.0558],[-79.8084,44.8293,173.5]]],
[[[-79.7902,44.8372,179.0481],[-79.7865,44.8428,176.1294],[-79.7895,44.8457,189.0496],[-79.8004,44.8461,177.6994],[-79.8011,44.8416,178.988],[-79.7931,44.8369,173.5],[-79.7902,44.8372,179.0481]]],
[[[-79.8295,44.8909,199.2178],[-79.835,44.8969,188.6872],[-79.8455,44.8987,178.8683],[-79.8506,44.8957,190.9742],[-79.861,44.895,183.5102],[-79.8567,44.8884,179.6413],[-79.8717,44.8899,191.3461],[-79.8807,44.8834,173.5],[-79.8799,44.8816,173.5],[-79.8735,44.8797,178.7778],[-79.8632,44.8804,193.2134],[-79.8624,44.8781,193.031],[-79.8678,44.8714,212.3008],[-79.8701,44.8509,209.7605],[-79.8666,44.8305,176.9033],[-79.8639,44.8279,173.5],[-79.8603,44.8285,173.5],[-79.8575,44.8311,173.5],[-79.8524,44.8655,174.9203],[-79.8425,44.8644,173.5],[-79.8394,44.8668,187.4219],[-79.8464,44.8719,173.5],[-79.848,44.8846,173.5],[-79.8451,44.8882,181.7226],[-79.824,44.8854,173.5],[-79.8204,44.8823,177.6267],[-79.8093,44.8835,173.5],[-79.8154,44.8878,176.5794],[-79.8226,44.8904,199.3358],[-79.8258,44.8869,189.1737],[-79.8295,44.8909,199.2178]]],
[[[-79.8224,44.8773,188.1943],[-79.824,44.8818,173.5],[-79.8327,44.8773,189.7826],[-79.831,44.8713,173.5],[-79.8333,44.8627,181.0968],[-79.8322,44.8566,179.9733],[-79.8348,44.8519,174.546],[-79.834,44.8498,173.5],[-79.8278,44.8503,173.5],[-79.8225,44.848,173.5],[-79.8211,44.8583,173.5],[-79.825,44.8697,173.5],[-79.8224,44.8773,188.1943]]],
[[[-79.8825,44.9287,173.5],[-79.8886,44.9324,174.7936],[-79.8913,44.9318,173.5],[-79.8925,44.9284,184.8327],[-79.8894,44.9233,173.5],[-79.8851,44.9205,173.5],[-79.8809,44.9206,173.5],[-79.8805,44.9247,173.5],[-79.8825,44.9287,173.5]]],
[[[-79.929,45.1005,211.4845],[-79.9482,45.1041,196.0725],[-79.9643,45.1102,176.8819],[-79.9673,45.1163,191.294],[-80.0545,45.093,173.5],[-80.0463,45.086,194.4338],[-80.0639,45.0844,192.5511],[-80.0823,45.0849,185.1297],[-80.0867,45.0828,176.9724],[-80.0404,45.0699,186.6203],[-80.0391,45.0667,188.4607],[-80.0629,45.0688,181.8101],[-80.0649,45.0672,183.6532],[-80.0353,45.0567,173.5],[-80.0179,45.0557,173.5],[-80.0123,45.061,176.4898],[-79.9962,45.0556,186.8779],[-79.9938,45.0509,179.951],[-80.0,45.0496,187.0743],[-79.9954,45.0414,178.037],[-79.9972,45.0357,182.4768],[-80.0072,45.0232,182.3628],[-80.0045,45.0199,173.5],[-79.9773,45.0199,187.7424],[-79.9685,45.0173,179.9867],[-79.9591,45.0098,181.5487],[-79.9682,45.0051,173.5],[-79.9622,45.0,173.5],[-79.9579,45.0008,173.5],[-79.9486,44.9993,187.1361],[-79.9493,44.9943,181.3903],[-79.9555,44.9892,184.865],[-79.9502,44.9826,176.4985],[-79.9386,44.9828,183.3909],[-79.9413,44.9774,173.5],[-79.9395,44.9753,173.5],[-79.9297,44.9763,186.917],[-79.9244,44.9742,187.3157],[-79.9237,44.9703,187.4919],[-79.9278,44.956,184.1425],[-79.9206,44.9413,175.359],[-79.9168,44.9397,185.451],[-79.9163,44.9412,183.8451],[-79.9137,44.9343,184.0887],[-79.9144,44.9302,182.3387],[-79.9067,44.9292,186.2371],[-79.8971,44.9355,185.3819],[-79.8835,44.9407,173.5],[-79.8799,44.9465,178.2207],[-79.8742,44.9467,183.5907],[-79.8708,44.9534,173.5],[-79.8638,44.9555,185.0843],[-79.8531,44.9518,194.9609],[-79.8454,44.951,192.6813],[-79.8407,44.946,196.2266],[-79.836,44.9437,180.7354],[-79.8292,44.9357,201.4247],[-79.8255,44.9417,194.9203],[-79.8211,44.9401,191.7185],[-79.8196,44.931399999999996,190.2839],[-79.8154,44.9273,199.0609],[-79.8214,44.9248,190.5264],[-79.8237,44.9201,178.3113],[-79.8191,44.9128,198.1223],[-79.822,44.9099,195.5849],[-79.8341,44.9074,200.4608],[-79.8341,44.9042,188.5699],[-79.8283,44.8998,196.5727],[-79.8035,44.8873,173.5],[-79.7901,44.8891,173.5],[-79.7875,44.8933,186.5273],[-79.783,44.8934,203.8216],[-79.7828,44.8878,202.8609],[-79.7849,44.8852,185.2949],[-79.7971,44.8788,199.4531],[-79.7983,44.8761,190.0587],[-79.7959,44.8735,180.3641],[-79.7843,44.8732,173.5],[-79.7775,44.8773,186.2311],[-79.7708,44.8766,193.0518],[-79.7639,44.8703,204.0891],[-79.7663,44.8686,201.8474],[-79.7784,44.87,177.9854],[-79.7735,44.8636,191.2555],[-79.7781,44.8626,181.5769],[-79.7911,44.8692,177.2149],[-79.8103,44.8713,183.0411],[-79.8139,44.8671,193.5519],[-79.8105,44.8567,188.7317],[-79.8057,44.8526,182.5315],[-79.7857,44.8483,182.3087],[-79.7702,44.8488,180.3642],[-79.7672,44.8454,185.577],[-79.7702,44.841,185.9149],[-79.7654,44.8364,189.4692],[-79.7662,44.8312,193.3708],[-79.7722,44.828,186.1225],[-79.7826,44.8117,175.749],[-79.7819,44.8091,173.5],[-79.778,44.8085,173.5],[-79.7708,44.8103,182.9592],[-79.768,44.8095,185.4966],[-79.764,44.8026,177.6957],[-79.7534,44.8026,181.0863],[-79.7486,44.794,189.9633],[-79.7434,44.7905,182.3851],[-79.7305,44.7865,173.5],[-79.7286,44.7899,173.5],[-79.7312,44.7944,173.5],[-79.7303,44.7964,173.5],[-79.7207,44.7955,173.9247],[-79.7198,44.7994,176.8186],[-79.7239,44.8037,183.0981],[-79.7226,44.8075,176.375],[-79.7014,44.8266,177.0],[-79.6921,44.8296,200.951],[-79.68,44.8283,178.0],[-79.6824,44.8307,179.4587],[-79.6811,44.8329,183.3826],[-79.6832,44.8333,178.0],[-79.6942,44.8482,178.5],[-79.6935,44.8532,188.9274],[-79.6956,44.8626,179.5],[-79.6947,44.8674,181.5523],[-79.6887,44.8715,212.7228],[-79.6846,44.8716,208.4888],[-79.6732,44.8801,198.1381],[-79.6684,44.8801,212.6933],[-79.6617,44.8829,199.0],[-79.659,44.8846,205.026],[-79.6608,44.886,208.1111],[-79.6546,44.8909,217.8185],[-79.6485,44.8934,203.3865],[-79.6396,44.8935,217.1957],[-79.6316,44.8959,196.5],[-79.6258,44.8944,196.5],[-79.6087,44.8792,196.5],[-79.5875,44.8697,224.272],[-79.5432,44.8586,222.4027],[-79.5128,44.8438,210.3054],[-79.5093,44.8433,225.0202],[-79.5022,44.847,222.7601],[-79.4868,44.8461,215.2185],[-79.4543,44.8416,228.9933],[-79.4535,44.8388,222.9962],[-79.4484,44.836,230.6374],[-79.441,44.8349,242.5821],[-79.4371,44.8351,236.0349],[-79.4281,44.8403,241.9909],[-79.4002,44.8411,212.0],[-79.3964,44.8377,231.587],[-79.3969,44.8307,213.9951],[-79.3949,44.8284,212.0],[-79.3887,44.822,212.0],[-79.3798,44.8181,212.0],[-79.3789,44.8114,212.0],[-79.3925,44.7959,215.472],[-79.3843,44.7812,235.5076],[-79.3743,44.7731,221.3754],[-79.3496,44.7703,231.8674],[-79.3393,44.7668,226.1133],[-79.2132,44.7942,252.3893],[-79.2086,44.7964,244.535],[-79.2092,44.8,250.1903],[-79.0629,44.8401,277.5045],[-79.1187,44.9501,305.2542],[-79.0999,44.9546,302.2709],[-79.0936,44.9429,310.5552],[-78.9344,44.9856,353.9736],[-79.001,45.1053,350.3145],[-78.8425,45.145,349.1947],[-78.8459,45.1512,347.7256],[-78.8444,45.1581,337.9522],[-78.8526,45.167,354.6396],[-78.8556,45.1746,349.6748],[-78.8633,45.1788,350.705],[-78.871,45.178,364.8242],[-78.8669,45.182,373.9833],[-78.87,45.1894,373.8846],[-78.8666,45.1923,389.8142],[-78.8665,45.1944,385.7851],[-78.8712,45.1975,383.0299],[-78.8716,45.2032,389.9817],[-78.8744,45.2069,379.1321],[-78.8679,45.2129,413.0165],[-78.8818,45.2151,393.9526],[-78.8842,45.2215,430.3438],[-78.8839,45.2254,415.6704],[-78.8865,45.2258,399.4497],[-78.8863,45.2299,393.3854],[-78.8948,45.2401,369.3221],[-78.892,45.2428,330.0933],[-78.8918,45.2475,316.843],[-78.8888,45.2506,361.5452],[-78.9004,45.2558,384.2538],[-78.9034,45.2656,344.9843],[-78.9066,45.2706,405.7163],[-78.9061,45.2745,403.1781],[-78.913,45.2785,372.3391],[-78.9177,45.2851,385.2848],[-78.9233,45.2981,390.6714],[-78.9353,45.314,406.8212],[-78.9366,45.3209,420.0292],[-78.935,45.3235,404.1787],[-78.9355,45.3272,421.6907],[-78.9432,45.3389,374.8201],[-78.9432,45.3449,396.7875],[-78.947,45.3467,429.8883],[-78.95,45.3514,404.596],[-78.9516,45.3598,445.031],[-78.9583,45.3633,389.2435],[-78.957,45.3708,394.9243],[-78.9676,45.3724,411.04],[-78.9683,45.3768,375.5233],[-78.9732,45.3798,431.2672],[-78.9714,45.3844,442.5817],[-78.8594,45.4145,413.4861],[-78.9249,45.5337,481.7623],[-79.0015,45.5129,398.2208],[-79.0033,45.516,429.8885],[-79.0657,45.5009,410.0823],[-79.1727,45.4701,356.2558],[-79.6725,45.3344,315.3814],[-79.6272,45.2505,277.5126],[-79.6208,45.2311,225.0],[-79.6063,45.2149,225.0],[-79.9573,45.119,208.8557],[-79.958,45.1157,209.5976],[-79.9553,45.1129,196.0938],[-79.9351,45.1068,177.6122],[-79.927,45.1067,176.7165],[-79.9139,45.1036,209.293],[-79.9059,45.1065,193.0079],[-79.8988,45.1057,223.4901],[-79.8735,45.0944,214.9128],[-79.8819,45.0943,212.7484],[-79.8976,45.1011,192.0],[-79.904,45.1018,216.093],[-79.9094,45.0991,217.2059],[-79.929,45.1005,211.4845]]],
[[[-79.972,44.9975,173.5],[-79.9723,45.0016,173.5],[-79.9758,45.0063,183.6123],[-79.9827,45.0096,174.4921],[-79.9831,45.0046,177.2508],[-79.9783,45.0,173.5],[-79.9755,44.9924,173.5],[-79.972,44.9975,173.5]]],
[[[-79.8634,44.9408,198.5297],[-79.868,44.9276,173.5],[-79.8684,44.9231,182.926],[-79.8663,44.9205,174.3331],[-79.8631,44.9201,178.5537],[-79.8625,44.9274,177.3145],[-79.8536,44.9342,188.5613],[-79.8478,44.9335,198.1367],[-79.8441,44.928,180.1641],[-79.8376,44.9239,194.9613],[-79.8321,44.9245,184.6799],[-79.8305,44.9275,174.5823],[-79.8334,44.9322,173.5],[-79.8518,44.9439,176.1168],[-79.8657,44.9443,193.418],[-79.8634,44.9408,198.5297]]]]}}