{"type": "Feature","bbox": [-84.1767,49.7885,-84.084,49.8394],"geometry": {"type": "MultiPolygon","coordinates": [[[[-84.1547,49.7901,245.0632],[-84.1339,49.7892,243.6296],[-84.1339,49.796,247.0252],[-84.085,49.7938,253.3304],[-84.084,49.8182,234.3853],[-84.0914,49.8184,244.4075],[-84.0916,49.8284,235.0914],[-84.0858,49.8285,222.9553],[-84.0858,49.8394,225.4711],[-84.1711,49.8389,267.6584],[-84.1696,49.8155,240.3373],[-84.176,49.8164,241.2306],[-84.1767,49.8026,257.2899],[-84.1677,49.7887,255.8168],[-84.1589,49.7885,244.5421],[-84.1547,49.7901,245.0632]]]]}
,"properties": {"GID_3": "CAN.9.5.7_1","GID_0": "CAN","country": "Canada","GID_1": "CAN.9_1","province": "Ontario","NL_NAME_1": "NA","GID_2": "CAN.9.5_1","county": "Cochrane","NL_NAME_2": "NA","city": "ConstanceLake92","VARNAME_3": "NA","NL_NAME_3": "NA","TYPE_3": "RéserveIndienne","ENGTYPE_3": "IndianReserve","CC_3": "NA","HASC_3": "NA","name": "Constance_Lake92.city","area_km2": 32.16355,"hist_schema_id": "Elevation0-9000","hist_area_km2": {"200": 0.08205,"225": 3.54247,"250": 27.18515,"275": 1.35388}}}