{"type":"Feature","properties":{"featurecla":"River","scalerank":11,"rivernum":20817,"dissolve":"20817River","name":"Salmon3","name_alt":null,"note":"ID is link back to CEC data","name_full":"Salmon River","min_zoom":6.7,"strokeweig":0.2,"uident":1598901,"min_label":7.7},
"geometry":{"type": "LineString","coordinates": [[-123.64317786366622,54.464056707806527,797.7828],[-123.62730872304122,54.464667059369027,802.786],[-123.5277400381454,54.443426824994027,784.2606],[-123.43199622304122,54.434190171348192,789.5017],[-123.38377844960372,54.419256903119027,772.4927],[-123.32502193918705,54.407294012494027,858.8853],[-123.21593176991622,54.401068426556527,799.3749],[-123.16974850168705,54.395778713014863,764.5665],[-123.13719641835372,54.387966213014863,749.2118],[-123.11510169179122,54.383164780723192,783.6793],[-123.0995173818954,54.363592840619027,764.0027],[-123.07957923085372,54.332383530723192,753.0433],[-123.05308997304122,54.308620509889863,753.6702],[-123.04100501210372,54.279730535931527,749.7484],[-123.04906165272872,54.244737046348192,742.2973],[-123.0367732412704,54.225856838014863,754.8845],[-123.01402747304122,54.205633856244027,744.6389],[-122.98688717356205,54.196153061973192,739.3081],[-122.96593176991622,54.198268947389863,741.6577],[-122.94334876210372,54.210150457806527,708.7974],[-122.90880286366622,54.251166082806527,729.2894],[-122.88170325429122,54.260931707806527,695.2819],[-122.86774654856205,54.265936590619027,705.9262],[-122.83332272043705,54.265814520306527,755.863],[-122.8036189443954,54.254950262494027,745.0871],[-122.77415930897872,54.225449936973192,725.7157],[-122.7186580068954,54.175808009889863,708.9141],[-122.6971736318954,54.157090561973192,646.1169],[-122.6559138662704,54.117458400514863,664.0908],[-122.63097083241622,54.090196030723192,604.7133],[-122.60968990793705,54.063177801556527,595.5378]]}}