{"type": "Feature","bbox": [-80.0187,47.8412,-79.8696,47.9399],"geometry": {"type": "MultiPolygon","coordinates": [[[[-79.8883,47.8413,199.3923],[-79.8767,47.8413,202.1943],[-79.8768,47.8602,205.759],[-79.8696,47.86,193.923],[-79.8722,47.8629,204.6044],[-79.8755,47.8717,212.0375],[-79.8703,47.8843,214.1012],[-79.8719,47.9052,245.3378],[-79.8836,47.9202,214.891],[-79.8882,47.9225,216.1919],[-79.8882,47.9387,244.9265],[-80.0165,47.9399,292.9517],[-80.0179,47.9343,305.9655],[-80.0158,47.9141,301.7668],[-80.0174,47.9118,299.9868],[-80.0167,47.8903,292.0934],[-80.0187,47.8783,271.7404],[-80.0171,47.8749,284.6957],[-80.0167,47.8412,284.1911],[-79.8883,47.8413,199.3923]]]]}
,"properties": {"GID_3": "CAN.9.49.4_1","GID_0": "CAN","country": "Canada","GID_1": "CAN.9_1","province": "Ontario","NL_NAME_1": "NA","GID_2": "CAN.9.49_1","county": "Timiskaming","NL_NAME_2": "NA","city": "Chamberlain","VARNAME_3": "NA","NL_NAME_3": "NA","TYPE_3": "Township","ENGTYPE_3": "Township","CC_3": "NA","HASC_3": "NA","name": "Chamberlain.city","area_km2": 113.55442,"hist_schema_id": "Elevation0-9000","hist_area_km2": {"175": 0.2986,"200": 12.53104,"225": 25.77568,"250": 25.24155,"275": 32.54657,"300": 17.16098}}}