{"type": "Feature","bbox": [-121.9145,50.7185,-121.9058,50.7228],"geometry": {"type": "MultiPolygon","coordinates": [[[[-121.9058,50.7204,545.1788],[-121.9059,50.7227,609.3714],[-121.9145,50.7228,305.0912],[-121.9119,50.7189,320.4388],[-121.9058,50.7185,526.8782],[-121.9058,50.7204,545.1788]]]]}
,"properties": {"GID_3": "CAN.2.25.8_1","GID_0": "CAN","country": "Canada","GID_1": "CAN.2_1","province": "BritishColumbia","NL_NAME_1": "NA","GID_2": "CAN.2.25_1","county": "Squamish-Lillooet","NL_NAME_2": "NA","city": "Fountain11","VARNAME_3": "NA","NL_NAME_3": "NA","TYPE_3": "RéserveIndienne","ENGTYPE_3": "IndianReserve","CC_3": "NA","HASC_3": "NA","name": "Fountain11.city","area_km2": 0.2416152,"hist_schema_id": "Elevation0-9000","hist_area_km2": {"325": 0.0268467,"350": 0.0402688,"375": 0.0134231,"400": 0.0134229,"425": 0.0536927,"450": 0.04027,"475": 0.0134229,"500": 0.0134229,"525": 0.0134226,"575": 0.0134226}}}