{"type":"Feature","properties":{"featurecla":"River","scalerank":5,"rivernum":154,"dissolve":"154River","name":"null147","name_alt":null,"note":null,"min_zoom":4.7,"strokeweig":0.2,"name_en":null,"min_label":5.7},
"geometry":{"type": "LineString","coordinates": [[-72.991308593749991,46.17743561405662,7.6095],[-73.033203125,46.160516668744116,12.2234],[-73.067919921874989,46.16425202030662,5.4049],[-73.107666015625,46.15436432499412,6.5362],[-73.131201171874991,46.13568756718162,7.2748],[-73.14609375,46.11334869999412,7.2816],[-73.169677734375,46.093524481244117,8.1236],[-73.179296874999991,46.05304596561912,5.2487]]}}