{"type":"Feature","properties":{"GID_3":"CAN.1.2.49_1","GID_0":"CAN","country":"Canada","GID_1":"CAN.1_1","province":"Alberta","NL_NAME_1":"NA","GID_2":"CAN.1.2_1","county":"DivisionNo.11","NL_NAME_2":"NA","city":"Wetaskiwin","VARNAME_3":"NA","NL_NAME_3":"NA","TYPE_3":"Cité","ENGTYPE_3":"City","CC_3":"NA","HASC_3":"NA","name":"Wetaskiwin.city"},
"geometry":{"type": "MultiPolygon","coordinates": [[[[-113.342,52.9967,755.0682],[-113.3663,52.9963,754.9694],[-113.3662,52.9889,760.0435],[-113.378,52.9889,760.2202],[-113.378,52.9845,760.1792],[-113.3761,52.9814,761.3267],[-113.4145,52.9817,766.5973],[-113.4144,52.9676,762.9925],[-113.4169,52.9693,764.0552],[-113.4188,52.9681,765.7612],[-113.4165,52.9665,764.2539],[-113.4254,52.9666,767.1696],[-113.4258,52.9599,768.1765],[-113.4144,52.9598,763.5183],[-113.4144,52.9563,763.4907],[-113.401,52.9564,758.1815],[-113.4008,52.9529,758.8022],[-113.3903,52.953,759.8301],[-113.3903,52.9518,758.2574],[-113.3662,52.9527,757.3438],[-113.3662,52.9599,757.5732],[-113.3596,52.9599,755.7239],[-113.3589,52.9672,758.8683],[-113.3535,52.9672,757.9813],[-113.3531,52.9745,757.3596],[-113.342,52.9746,757.7966],[-113.342,52.9967,755.0682]]]]}}