{"type":"Feature","properties":{"GID_3":"CAN.3.8.12_1","GID_0":"CAN","country":"Canada","GID_1":"CAN.3_1","province":"Manitoba","NL_NAME_1":"NA","GID_2":"CAN.3.8_1","county":"DivisionNo.17","NL_NAME_2":"NA","city":"Lawrence","VARNAME_3":"NA","NL_NAME_3":"NA","TYPE_3":"RuralMunicipality","ENGTYPE_3":"RuralMunicipality","CC_3":"NA","HASC_3":"NA","name":"Lawrence.city"},
"geometry":{"type": "MultiPolygon","coordinates": [[[[-99.4337,51.4493,255.6684],[-99.4329,51.5365,253.5246],[-99.712,51.5373,259.0694],[-99.7139,51.4496,264.5533],[-99.909,51.4496,259.5],[-99.9078,51.4479,259.5],[-99.9034,51.4476,259.5],[-99.8979,51.4448,259.5],[-99.8867,51.4436,259.5],[-99.8826,51.4411,259.5],[-99.8784,51.4345,259.5],[-99.8724,51.4317,259.5],[-99.8611,51.4045,259.5],[-99.8575,51.4009,259.5],[-99.8407,51.3916,259.5],[-99.8175,51.3728,259.5],[-99.8031,51.3588,259.5],[-99.7919,51.3436,259.5],[-99.7567,51.3237,259.5],[-99.7082,51.2883,259.5],[-99.6932,51.2745,259.5],[-99.6793,51.2715,259.5],[-99.6744,51.2643,259.5],[-99.6564,51.2504,259.5],[-99.6333,51.2398,259.5],[-99.6243,51.2308,259.5],[-99.6157,51.2265,259.5],[-99.6102,51.218,259.5],[-99.5923,51.2047,259.5],[-99.5771,51.1995,259.5],[-99.5707,51.2069,260.1288],[-99.5707,51.1847,259.5],[-99.43,51.1845,272.0796],[-99.4293,51.2447,270.646],[-99.4338,51.3617,262.9171],[-99.4337,51.4493,255.6684]]]]}}