{"type": "Feature","bbox": [-126.0882,49.801,-126.0659,49.8284],"geometry": {"type": "MultiPolygon","coordinates": [[[[-126.0805,49.8262,151.4912],[-126.0882,49.8206,260.6885],[-126.0807,49.815,187.9097],[-126.0756,49.8022,158.7499],[-126.0685,49.801,108.4672],[-126.0692,49.8039,114.7446],[-126.0659,49.8129,167.9986],[-126.0689,49.8197,180.8463],[-126.0746,49.8257,168.4984],[-126.0795,49.8284,184.8888],[-126.0805,49.8262,151.4912]]]]}
,"properties": {"GID_3": "CAN.2.9.33_1","GID_0": "CAN","country": "Canada","GID_1": "CAN.2_1","province": "BritishColumbia","NL_NAME_1": "NA","GID_2": "CAN.2.9_1","county": "Comox-Strathcona","NL_NAME_2": "NA","city": "TsaXana18","VARNAME_3": "NA","NL_NAME_3": "NA","TYPE_3": "RéserveIndienne","ENGTYPE_3": "IndianReserve","CC_3": "NA","HASC_3": "NA","name": "Tsa_Xana18.city","area_km2": 2.435191,"hist_schema_id": "Elevation0-9000","hist_area_km2": {"100": 0.068417,"125": 0.218912,"150": 0.861927,"175": 0.766108,"200": 0.369355,"225": 0.123113,"250": 0.027359}}}