{"type":"Feature","properties":{"GID_3":"CAN.2.28.85_1","GID_0":"CAN","country":"Canada","GID_1":"CAN.2_1","province":"BritishColumbia","NL_NAME_1":"NA","GID_2":"CAN.2.28_1","county":"Thompson-Nicola","NL_NAME_2":"NA","city":"Thompson-NicolaI","VARNAME_3":"NA","NL_NAME_3":"NA","TYPE_3":"RegionalDistrictElectoralArea","ENGTYPE_3":"RegionalDistrictElectoralArea","CC_3":"NA","HASC_3":"NA","name":"Thompson-Nicola_I.city"},
"geometry":{"type": "MultiPolygon","coordinates": [[[[-121.5611,50.1071,242.9819],[-121.561,50.1071,242.9819],[-121.5603,50.1106,262.9425],[-121.5629,50.1073,125.6114],[-121.5611,50.1071,242.9819]]],
[[[-121.5418,50.0524,197.7071],[-121.3148,50.0527,1872.8778],[-121.3159,50.0605,1824.5348],[-121.3083,50.0689,1748.5111],[-121.3172,50.0826,1486.3397],[-121.3168,50.0858,1590.8828],[-121.3137,50.0886,1674.7152],[-121.3158,50.0923,1800.6528],[-121.3155,50.0979,1868.9685],[-121.3077,50.1042,2001.9058],[-121.3203,50.1144,1875.7832],[-121.3187,50.1185,1852.2343],[-121.3221,50.1262,1865.4312],[-121.3013,50.1332,1726.3452],[-121.2938,50.1398,1809.2747],[-121.2927,50.1491,1857.2361],[-121.2983,50.1524,1980.7181],[-121.2868,50.1561,1939.1637],[-121.2796,50.1566,1922.5907],[-121.2676,50.1499,1869.6576],[-121.2487,50.1454,1789.2244],[-121.236,50.1483,1831.6813],[-121.2399,50.1585,1741.8121],[-121.2332,50.1714,1774.4529],[-121.2201,50.1793,1846.567],[-121.221,50.1889,1708.946],[-121.2103,50.1915,1645.8486],[-121.1917,50.1896,1624.4822],[-121.1696,50.1934,1549.2648],[-121.1463,50.1997,1404.5829],[-121.1402,50.1981,1429.4432],[-121.1409,50.2271,1170.1083],[-121.0999,50.2271,524.8713],[-121.0998,50.2315,477.2881],[-121.1052,50.2316,516.0424],[-121.1052,50.2359,446.6678],[-121.0951,50.2314,461.9669],[-121.0916,50.2314,503.739],[-121.0915,50.2271,460.9049],[-120.9704,50.2281,1496.347],[-120.9523,50.2417,1383.5267],[-120.9456,50.2521,1452.106],[-120.9491,50.2554,1463.1934],[-120.9484,50.2633,1437.3198],[-120.9557,50.2643,1456.7141],[-120.9649,50.261,1479.2007],[-120.9683,50.2702,1496.3333],[-120.9571,50.2835,1430.6711],[-120.9459,50.2883,1376.7484],[-120.9432,50.3059,1353.7745],[-120.9167,50.3106,1427.692],[-120.9124,50.3185,1394.5182],[-120.9125,50.3242,1343.2393],[-120.9047,50.3363,1395.899],[-120.9034,50.3411,1448.3337],[-120.8962,50.3445,1434.6559],[-120.8918,50.3538,1442.2247],[-120.8896,50.363,1429.1261],[-120.8943,50.3816,1442.0702],[-120.9024,50.3908,1459.9672],[-120.935,50.4163,1552.8464],[-120.9582,50.4163,1620.8101],[-120.9587,50.3876,1601.6138],[-121.0747,50.3881,1748.5654],[-121.0735,50.4306,1684.5688],[-121.1423,50.4317,1588.3157],[-121.1408,50.4893,1577.791],[-121.1217,50.4893,1508.7637],[-121.1217,50.5177,1475.5541],[-121.1397,50.5174,1543.6278],[-121.1394,50.5319,1458.8092],[-121.2356,50.5324,989.1907],[-121.2356,50.5471,993.0784],[-121.2888,50.547,255.4704],[-121.2893,50.552,314.2386],[-121.2992,50.5668,254.7997],[-121.2981,50.5754,265.9754],[-121.2864,50.5752,457.0024],[-121.2855,50.5615,557.9314],[-121.2129,50.5621,1222.2954],[-121.2129,50.5758,1309.215],[-121.0982,50.5746,1554.3213],[-121.0979,50.5626,1521.0814],[-121.0516,50.5621,1686.9733],[-121.0521,50.5319,1480.7957],[-121.0284,50.5321,1645.2791],[-121.028,50.5471,1813.3671],[-121.0191,50.5472,1877.963],[-121.0185,50.5572,1834.4705],[-121.0103,50.5617,1808.2438],[-121.0103,50.5746,1941.1918],[-121.0231,50.5811,1879.0045],[-121.0543,50.589,1902.7722],[-121.0661,50.5988,1949.0068],[-121.0534,50.6124,1826.7828],[-121.0451,50.6132,1814.6738],[-121.0485,50.6229,1728.1638],[-121.0487,50.6291,1643.6658],[-121.0412,50.6358,1557.7476],[-121.0503,50.6498,1420.6221],[-121.046,50.6594,1346.9385],[-121.0404,50.6642,1364.7627],[-121.0122,50.6765,1523.5286],[-120.9868,50.6713,1591.9807],[-120.9631,50.6685,1531.6119],[-120.9501,50.6701,1484.1875],[-120.9402,50.6652,1408.411],[-120.9338,50.6697,1373.1554],[-120.9279,50.6703,1383.176],[-120.923,50.6625,1360.6765],[-120.9142,50.6575,1326.9189],[-120.9106,50.6615,1320.8105],[-120.9111,50.7432,337.1292],[-120.9201,50.7433,369.5125],[-120.9255,50.7498,336.0018],[-120.9319,50.7522,336.6752],[-120.942,50.761,339.4904],[-120.9477,50.7636,325.8412],[-120.956,50.7619,324.4254],[-120.9597,50.7587,327.8866],[-120.9613,50.7619,334.5477],[-120.9569,50.7647,343.8425],[-120.9575,50.7693,479.1287],[-120.9552,50.7699,460.0773],[-120.9515,50.7754,496.979],[-120.9629,50.7829,583.7324],[-120.9706,50.791,641.5593],[-120.9762,50.7931,679.485],[-120.9847,50.8028,740.7241],[-120.9912,50.8056,783.2443],[-121.0148,50.8375,1309.9233],[-121.0503,50.8381,1493.2783],[-121.0495,50.925,1392.0015],[-121.3993,50.9257,724.8405],[-121.4,50.9376,845.4837],[-121.4471,50.9376,861.6067],[-121.4468,50.9257,906.95],[-121.6259,50.9252,1778.4448],[-121.625,50.8963,1440.7529],[-121.6483,50.8959,1530.7002],[-121.6485,50.882,1678.9022],[-121.6722,50.8818,1861.4122],[-121.6716,50.8531,1659.3169],[-121.6955,50.853,1735.2018],[-121.6957,50.8383,959.463],[-121.7191,50.838,1272.6847],[-121.7198,50.794,1939.1086],[-121.742,50.794,1741.7906],[-121.7426,50.7507,2006.7358],[-121.765,50.7506,1896.665],[-121.7656,50.5758,1033.4702],[-121.7611,50.5758,1101.7589],[-121.7612,50.5467,437.2313],[-121.7657,50.5467,514.3766],[-121.7659,50.5398,358.6454],[-121.7692,50.5399,311.0652],[-121.7693,50.5366,323.2206],[-121.7771,50.5357,171.0],[-121.7753,50.531,254.0146],[-121.7831,50.5311,338.8173],[-121.7832,50.5174,845.1567],[-121.8057,50.5178,1508.8861],[-121.8237,50.504,2119.2764],[-121.831,50.4882,2480.1509],[-121.8384,50.4856,2404.7834],[-121.8404,50.4788,2329.8599],[-121.8541,50.4722,2397.7632],[-121.8616,50.4612,2520.8247],[-121.8584,50.4584,2462.5674],[-121.8567,50.4529,2487.7285],[-121.8542,50.4502,2611.7778],[-121.8675,50.4369,2262.6736],[-121.8669,50.4337,2219.0969],[-121.8638,50.4305,2290.3923],[-121.8645,50.4278,2358.8503],[-121.8696,50.4227,2141.5239],[-121.8823,50.4195,2109.4919],[-121.9043,50.4208,2304.6589],[-121.9187,50.4193,2178.5425],[-121.9212,50.4161,2111.1042],[-121.9264,50.4145,2113.29],[-121.9257,50.4108,2079.2771],[-121.9285,50.4083,2134.6072],[-121.942,50.4053,2013.5106],[-121.9488,50.4059,2064.916],[-121.9543,50.4015,2251.241],[-121.9654,50.4075,2119.0278],[-121.9663,50.4109,2102.2744],[-121.9643,50.4136,2175.6106],[-121.9677,50.4175,2301.2739],[-121.9898,50.4163,2269.5989],[-122.0107,50.4122,2303.6785],[-122.0144,50.4145,2405.8289],[-122.0193,50.4144,2450.0317],[-122.0229,50.4165,2363.1885],[-122.0419,50.4208,2337.9128],[-122.0456,50.4312,2518.5422],[-122.054,50.4296,2400.6453],[-122.0607,50.4258,2462.7607],[-122.0723,50.4254,2258.7734],[-122.0835,50.4309,2339.6843],[-122.0924,50.4333,2332.2354],[-122.1035,50.4325,2333.5115],[-122.1076,50.4304,2448.9341],[-122.1194,50.4328,2650.0957],[-122.1289,50.4296,2599.2917],[-122.1308,50.4284,2530.2451],[-122.1306,50.4268,2486.0342],[-122.1186,50.4181,2287.3484],[-122.1178,50.4153,2424.9321],[-122.1231,50.4131,2316.325],[-122.1273,50.4082,2415.1611],[-122.132,50.4056,2418.356],[-122.1295,50.4001,2416.1848],[-122.1389,50.3972,2372.8193],[-122.1375,50.3937,2357.3818],[-122.1405,50.389,2400.3325],[-122.1395,50.387,2426.2266],[-122.1435,50.3848,2315.0503],[-122.1502,50.3844,2349.2771],[-122.1545,50.3797,2220.0051],[-122.1542,50.3762,2222.2217],[-122.1635,50.3727,2459.1123],[-122.1625,50.3712,2388.6553],[-122.1507,50.3684,2343.689],[-122.1448,50.3603,2258.0435],[-122.1504,50.3577,2240.7166],[-122.1534,50.354,2424.8188],[-122.1524,50.3515,2284.4929],[-122.1538,50.3501,2267.2354],[-122.1669,50.3464,2310.0762],[-122.1719,50.3354,2358.6426],[-122.1808,50.3347,2277.9136],[-122.1917,50.3392,2082.6296],[-122.2009,50.3379,2359.4727],[-122.2044,50.3347,2267.1392],[-122.2134,50.3327,2483.0938],[-122.2149,50.3258,2409.3838],[-122.2339,50.3245,2095.3406],[-122.2416,50.3221,2225.592],[-122.2435,50.3165,2338.3623],[-122.2384,50.3143,2338.8823],[-122.237,50.3119,2331.8997],[-122.2491,50.3054,2180.9443],[-122.2487,50.2964,2175.7205],[-122.2464,50.2915,2207.2778],[-122.2369,50.2866,2125.676],[-122.236,50.2825,2197.6582],[-122.2371,50.2804,2216.2878],[-122.2344,50.2749,2271.1875],[-122.2399,50.2744,2081.4055],[-122.2474,50.2711,1959.8459],[-122.2584,50.2641,2083.2925],[-122.2628,50.2587,2360.5586],[-122.2719,50.2601,2527.3289],[-122.2773,50.2567,2392.6653],[-122.2956,50.2536,2083.5078],[-122.303,50.2491,2128.6155],[-122.2956,50.2386,2197.0322],[-122.2971,50.2355,2266.8901],[-122.3005,50.2334,2298.1099],[-122.3016,50.2295,2377.5083],[-122.2866,50.2241,2305.7268],[-122.2751,50.2247,2336.0061],[-122.2678,50.2227,2291.4392],[-122.2692,50.2192,2103.7771],[-122.2775,50.2143,2158.5066],[-122.2781,50.2036,2028.74],[-122.2834,50.2003,1912.4042],[-122.2951,50.2014,2242.4531],[-122.3032,50.1989,2291.0552],[-122.3016,50.1929,2284.3652],[-122.3163,50.1874,2427.8074],[-122.3136,50.1726,2473.4153],[-122.2984,50.174,2263.4512],[-122.2909,50.1578,2296.8008],[-122.2863,50.1528,2000.7314],[-122.2712,50.1455,2185.2979],[-122.276,50.1415,2210.6689],[-122.2586,50.1239,2129.1094],[-122.2559,50.1221,2133.4133],[-122.2431,50.1269,2296.9141],[-122.2361,50.1255,2377.2571],[-122.2259,50.1265,2292.1826],[-122.2212,50.1195,2535.4026],[-122.2298,50.1108,2476.583],[-122.2222,50.1111,2404.9407],[-122.2109,50.109,2405.9246],[-122.2045,50.111,2351.3743],[-122.1787,50.1098,2577.0151],[-122.17,50.1132,2396.2781],[-122.1532,50.1148,2387.0654],[-122.1507,50.1115,2348.3774],[-122.1459,50.11,2310.373],[-122.1311,50.1126,2372.9658],[-122.1164,50.1076,2328.219],[-122.1143,50.1134,2252.9014],[-122.1065,50.1166,2112.1648],[-122.1033,50.1222,2151.405],[-122.0991,50.1246,2209.2793],[-122.096,50.1251,2152.24],[-122.0838,50.1213,2206.3164],[-122.0702,50.1267,2208.9014],[-122.0662,50.1229,1978.4229],[-122.0675,50.1216,2129.3718],[-122.0564,50.1151,2094.1833],[-122.0571,50.1097,2163.2676],[-122.0522,50.1046,2339.9175],[-122.0423,50.0991,2259.6133],[-122.0399,50.0956,2420.4849],[-122.0316,50.0943,2506.7207],[-122.0238,50.0862,2502.2998],[-122.0105,50.0845,2524.3547],[-122.0057,50.0858,2553.9971],[-122.0048,50.0879,2559.1011],[-122.0013,50.0879,2617.741],[-121.9978,50.0847,2525.0081],[-121.9925,50.0847,2504.8457],[-121.9905,50.0822,2529.9961],[-121.9813,50.0804,2580.4338],[-121.9726,50.0838,2317.8643],[-121.9647,50.0829,2487.8879],[-121.9596,50.085,2502.1379],[-121.9565,50.0911,2638.6279],[-121.9536,50.091,2601.2683],[-121.9508,50.0887,2510.0059],[-121.9524,50.083,2439.7947],[-121.9509,50.0799,2496.3911],[-121.9482,50.0787,2454.9177],[-121.9398,50.0792,2577.916],[-121.936,50.0776,2625.845],[-121.9351,50.0745,2672.8789],[-121.9282,50.0746,2528.1646],[-121.925,50.0723,2548.6533],[-121.9201,50.0721,2499.7668],[-121.9129,50.0635,2350.2908],[-121.9106,50.0551,2403.4243],[-121.9041,50.0525,2295.2625],[-121.9006,50.0534,2228.116],[-121.896,50.05,2107.7969],[-121.873,50.0519,2247.7207],[-121.8632,50.0471,2387.5737],[-121.8587,50.0467,2387.7637],[-121.8559,50.0508,2211.936],[-121.8512,50.0531,2207.0911],[-121.8561,50.0578,1996.369],[-121.8488,50.0627,2262.4919],[-121.8531,50.0691,2094.5562],[-121.8488,50.0734,2025.3821],[-121.8497,50.0756,2070.6079],[-121.8483,50.0766,2070.6079],[-121.8368,50.0791,1972.7227],[-121.8296,50.0788,2089.1938],[-121.8232,50.0813,2270.0107],[-121.8085,50.0837,2469.8232],[-121.8015,50.0855,2256.7312],[-121.794,50.0904,2100.1272],[-121.7782,50.0887,1910.4601],[-121.7538,50.0927,2070.3799],[-121.7375,50.0883,1817.1851],[-121.715,50.0866,2025.7451],[-121.7073,50.0822,1884.949],[-121.7052,50.0766,1810.3783],[-121.7031,50.0753,1813.3743],[-121.6873,50.076,1836.1204],[-121.682,50.079,1778.0056],[-121.6762,50.0787,1735.3871],[-121.6627,50.0814,1908.02],[-121.6585,50.0799,1839.6654],[-121.6581,50.0761,1841.9622],[-121.6551,50.0717,1877.0299],[-121.6617,50.0654,1743.6392],[-121.656,50.0638,1732.6836],[-121.6539,50.0613,1693.4678],[-121.6415,50.0586,1612.0128],[-121.6375,50.0591,1617.9442],[-121.6358,50.054,1597.6046],[-121.6266,50.0513,1583.4363],[-121.6102,50.0423,1753.9659],[-121.5906,50.05,1534.2994],[-121.5655,50.0526,757.2579],[-121.5418,50.0524,197.7071]],
[[-121.306,50.7174,449.0899],[-121.3167,50.7187,459.2482],[-121.3199,50.7208,470.1653],[-121.3174,50.7247,482.6269],[-121.3447,50.7333,751.5341],[-121.3447,50.7572,981.2567],[-121.3116,50.7568,472.9971],[-121.3123,50.7351,487.3478],[-121.2815,50.7345,361.1028],[-121.2816,50.7444,444.9015],[-121.2702,50.7445,395.9529],[-121.2678,50.7432,306.973],[-121.2686,50.7445,316.7632],[-121.2635,50.7446,382.9256],[-121.2632,50.7411,312.857],[-121.261,50.7397,301.7677],[-121.2499,50.7484,295.4554],[-121.2437,50.7506,293.6825],[-121.2368,50.7508,307.1852],[-121.2297,50.7486,341.47],[-121.2292,50.7367,480.8023],[-121.2576,50.7367,344.9863],[-121.2574,50.7327,368.5314],[-121.2552,50.7308,427.6713],[-121.2575,50.7293,429.4578],[-121.2572,50.7257,488.5755],[-121.264,50.7251,415.8374],[-121.264,50.7214,475.1794],[-121.2695,50.7215,406.0903],[-121.2692,50.7148,490.3148],[-121.2747,50.715,432.1414],[-121.2748,50.7073,470.3567],[-121.2852,50.7074,286.213],[-121.2832,50.7143,286.4827],[-121.286,50.7228,292.2748],[-121.2826,50.7279,337.3719],[-121.2867,50.7237,303.4633],[-121.2846,50.7151,286.4827],[-121.2888,50.7053,290.4194],[-121.2998,50.6991,287.9327],[-121.3044,50.7028,340.6728],[-121.3102,50.7117,454.5104],[-121.306,50.7174,449.0899]],
[[-121.3727,50.6115,743.8904],[-121.3728,50.6051,771.4109],[-121.385,50.6051,823.2491],[-121.3852,50.6122,794.2817],[-121.3962,50.6123,859.2596],[-121.3962,50.6196,809.0123],[-121.3725,50.6197,651.2473],[-121.3727,50.6115,743.8904]],
[[-121.3186,50.6225,323.6082],[-121.3185,50.6204,319.6453],[-121.3132,50.6147,260.5],[-121.3161,50.6101,308.1529],[-121.3109,50.6103,295.223],[-121.304,50.5954,276.5625],[-121.3044,50.5937,259.2869],[-121.3109,50.59,256.25],[-121.3351,50.5895,630.8218],[-121.3372,50.6089,488.9042],[-121.3485,50.6092,544.2762],[-121.3483,50.6163,540.2169],[-121.337,50.6162,463.4216],[-121.337,50.6206,473.1318],[-121.3336,50.6206,426.7642],[-121.3335,50.6297,432.5511],[-121.3287,50.6297,395.4052],[-121.328,50.6483,508.2035],[-121.3126,50.6477,378.5487],[-121.3131,50.6369,332.913],[-121.3172,50.6356,365.5961],[-121.3115,50.6346,316.7992],[-121.3186,50.6225,323.6082]],
[[-121.3503,50.8496,766.8168],[-121.3497,50.8319,486.7413],[-121.3546,50.8343,530.9155],[-121.3608,50.8284,554.2213],[-121.3663,50.8303,554.924],[-121.4024,50.8302,1066.2185],[-121.4024,50.8378,837.823],[-121.3962,50.8377,714.1399],[-121.3964,50.845,637.3008],[-121.39,50.845,506.9383],[-121.3891,50.843,544.8299],[-121.3837,50.8452,482.0932],[-121.3801,50.8469,477.3784],[-121.3804,50.8521,526.474],[-121.3502,50.8517,800.8392],[-121.3503,50.8496,766.8168]],
[[-121.3252,50.8174,508.7242],[-121.3047,50.8166,571.2124],[-121.3048,50.812,514.8976],[-121.2947,50.8093,530.4371],[-121.2947,50.8069,531.3497],[-121.2992,50.8013,524.2099],[-121.2897,50.7973,522.3513],[-121.2925,50.7946,564.1113],[-121.3049,50.8068,525.8164],[-121.3044,50.7731,430.0564],[-121.3116,50.7732,490.5564],[-121.3117,50.7803,504.8685],[-121.3384,50.7806,834.6937],[-121.3391,50.8121,581.6182],[-121.3336,50.8121,476.4474],[-121.3337,50.8142,479.5414],[-121.329,50.8163,462.3519],[-121.3296,50.8174,458.729],[-121.3252,50.8174,508.7242]],
[[-121.676,50.3995,187.573],[-121.6721,50.3996,253.023],[-121.673,50.3899,228.8048],[-121.6808,50.3905,205.5027],[-121.6807,50.3995,254.7184],[-121.676,50.3995,187.573]],
[[-121.3408,50.4638,610.3542],[-121.3355,50.4636,570.1709],[-121.3356,50.4618,598.4626],[-121.3414,50.4621,615.8705],[-121.3408,50.4638,610.3542]],
[[-121.3458,50.4494,601.3789],[-121.3427,50.4493,602.7045],[-121.3429,50.4453,588.1406],[-121.3458,50.4455,597.0431],[-121.3458,50.4494,601.3789]],
[[-121.6392,50.294,172.7689],[-121.614,50.2746,148.1105],[-121.6144,50.2687,231.1451],[-121.6175,50.2688,243.6336],[-121.6176,50.2704,243.6336],[-121.6344,50.2705,270.5705],[-121.6345,50.2816,199.4659],[-121.6394,50.2817,228.9412],[-121.6497,50.2994,299.9633],[-121.6543,50.2995,356.5422],[-121.6538,50.3092,317.6759],[-121.6553,50.3093,358.6622],[-121.6553,50.3171,304.3468],[-121.6583,50.3172,304.3468],[-121.659,50.3315,223.6836],[-121.6635,50.3316,433.9576],[-121.6632,50.3353,326.7672],[-121.6664,50.3353,437.4478],[-121.6664,50.3424,236.4369],[-121.6779,50.3424,615.6713],[-121.6778,50.3552,366.8589],[-121.6734,50.3552,195.2622],[-121.6639,50.3463,153.9426],[-121.645,50.3459,597.1082],[-121.6457,50.3278,387.8347],[-121.655,50.3277,202.3191],[-121.6539,50.3241,156.5086],[-121.6469,50.317,213.3829],[-121.6415,50.2999,149.2558],[-121.6141,50.2996,822.7057],[-121.6139,50.2926,463.4573],[-121.6223,50.2926,367.4439],[-121.6223,50.2854,206.2809],[-121.6288,50.2892,150.3386],[-121.6305,50.2923,166.2854],[-121.6392,50.294,172.7689]],
[[-121.5876,50.2681,358.6376],[-121.5973,50.2649,221.394],[-121.5986,50.2663,222.3139],[-121.5934,50.2682,294.4734],[-121.5983,50.2769,276.0715],[-121.5878,50.2769,367.841],[-121.5876,50.2681,358.6376]],
[[-121.5819,50.1824,168.2982],[-121.5835,50.1871,168.6351],[-121.5959,50.1872,441.8884],[-121.5961,50.1979,381.8515],[-121.5897,50.198,223.1607],[-121.5907,50.2149,286.924],[-121.581,50.2187,181.6814],[-121.5824,50.2198,164.3865],[-121.5813,50.2372,163.06],[-121.5773,50.2387,204.13],[-121.5671,50.2487,263.0468],[-121.5593,50.2487,313.5562],[-121.5591,50.239,515.3221],[-121.5541,50.2389,683.9771],[-121.5542,50.2263,757.353],[-121.5636,50.2262,473.0506],[-121.5635,50.2158,519.397],[-121.5688,50.2159,383.5603],[-121.5688,50.2047,366.0402],[-121.5766,50.2045,250.6374],[-121.577,50.2024,226.6185],[-121.5696,50.2025,346.8608],[-121.5695,50.1996,348.2056],[-121.5745,50.1995,265.2859],[-121.5744,50.1976,265.8384],[-121.5823,50.199,184.0047],[-121.5832,50.1965,131.5],[-121.5743,50.1964,260.7253],[-121.5741,50.1923,265.5961],[-121.5739,50.1823,261.7729],[-121.5819,50.1824,168.2982]],
[[-121.565,50.1058,122.8151],[-121.5684,50.1091,142.0434],[-121.5671,50.1152,162.7855],[-121.5615,50.1188,147.964],[-121.5572,50.1187,304.1278],[-121.5569,50.115,351.0838],[-121.5535,50.1149,458.8912],[-121.553,50.0995,386.2824],[-121.5618,50.0995,128.7689],[-121.565,50.1058,122.8151]],
[[-121.3982,50.3277,228.0043],[-121.3951,50.3248,201.071],[-121.3939,50.3202,211.7831],[-121.3964,50.3178,235.868],[-121.402,50.3184,351.6307],[-121.4015,50.3216,335.1378],[-121.4074,50.3237,415.4073],[-121.4066,50.3272,418.4149],[-121.4034,50.327,293.332],[-121.4028,50.3307,233.3876],[-121.4005,50.3305,233.3876],[-121.3982,50.3277,228.0043]],
[[-121.5777,50.257,457.3318],[-121.5792,50.257,458.091],[-121.5791,50.2515,380.7838],[-121.5941,50.2518,149.5387],[-121.5977,50.2539,145.0878],[-121.602,50.2605,184.8208],[-121.6012,50.2625,220.1345],[-121.595,50.2624,262.9889],[-121.5928,50.26,275.4018],[-121.5836,50.263,362.5285],[-121.586,50.2661,352.8046],[-121.579,50.266,399.5762],[-121.5789,50.2679,394.4062],[-121.5652,50.2676,569.2826],[-121.5649,50.2569,334.085],[-121.5777,50.257,457.3318]],
[[-121.2341,50.3605,422.851],[-121.2341,50.3546,339.4559],[-121.2398,50.3557,315.5878],[-121.2413,50.3607,327.7721],[-121.2405,50.3656,325.1195],[-121.2465,50.3661,302.4934],[-121.2487,50.3679,318.5381],[-121.2476,50.3695,299.6285],[-121.2341,50.369,541.3932],[-121.2341,50.3605,422.851]],
[[-121.317,50.4217,234.1912],[-121.3221,50.4237,233.0878],[-121.3173,50.4273,220.4617],[-121.3166,50.4259,226.4344],[-121.317,50.4217,234.1912]],
[[-121.4688,50.8791,659.7549],[-121.4999,50.8795,780.1276],[-121.4997,50.8701,1092.975],[-121.5241,50.8703,697.6914],[-121.5239,50.89,1021.6747],[-121.4456,50.8895,624.9788],[-121.4453,50.8787,761.1001],[-121.4688,50.8791,659.7549]],
[[-121.7049,50.4476,258.9041],[-121.7018,50.4523,159.625],[-121.6954,50.4491,159.0],[-121.6976,50.4432,163.4036],[-121.7042,50.4433,324.2646],[-121.704,50.4374,337.0571],[-121.7376,50.4378,675.4072],[-121.7376,50.4397,681.0747],[-121.7279,50.4396,510.8812],[-121.7251,50.4427,501.7571],[-121.7049,50.4476,258.9041]],
[[-121.6959,50.4316,162.3781],[-121.6958,50.425,242.9456],[-121.7105,50.4249,430.6573],[-121.7105,50.4228,390.6934],[-121.7192,50.4226,492.0532],[-121.719,50.4289,600.4462],[-121.7017,50.4289,308.2154],[-121.7016,50.4317,320.4736],[-121.6959,50.4316,162.3781]],
[[-121.6702,50.8292,1139.0306],[-121.67,50.8235,865.0096],[-121.6585,50.8236,1047.5212],[-121.6584,50.8198,901.0761],[-121.6448,50.8198,1163.1221],[-121.6444,50.8108,844.4103],[-121.6582,50.8109,902.8167],[-121.6583,50.8141,835.8434],[-121.6698,50.8142,1125.9146],[-121.67,50.8199,848.0674],[-121.6817,50.82,1120.1194],[-121.6818,50.8292,856.7188],[-121.6702,50.8292,1139.0306]],
[[-121.4089,50.2642,205.9704],[-121.406,50.2678,363.8883],[-121.394,50.2672,356.4527],[-121.394,50.2622,405.5894],[-121.4112,50.2602,322.6117],[-121.4119,50.2621,201.7779],[-121.4089,50.2642,205.9704]],
[[-121.5953,50.2501,154.8573],[-121.5936,50.2484,145.6557],[-121.5955,50.2476,163.3966],[-121.597,50.2489,154.8573],[-121.6007,50.2474,182.4766],[-121.6023,50.2489,185.3385],[-121.5997,50.2501,167.3941],[-121.5998,50.2533,138.875],[-121.5953,50.2501,154.8573]],
[[-121.3102,50.6195,264.482],[-121.3092,50.617,263.105],[-121.3105,50.6163,263.105],[-121.3145,50.6215,262.9653],[-121.314,50.6218,262.9653],[-121.3102,50.6195,264.482]],
[[-121.5875,50.2343,155.9737],[-121.5891,50.2343,219.6287],[-121.589,50.2227,265.3278],[-121.5975,50.2227,501.4712],[-121.5974,50.2376,258.8001],[-121.6004,50.2377,258.8001],[-121.6003,50.2394,250.9093],[-121.59,50.2398,166.3516],[-121.5866,50.2365,156.4459],[-121.5875,50.2343,155.9737]],
[[-121.2693,50.5142,477.476],[-121.2692,50.5089,439.8195],[-121.2402,50.509,862.8333],[-121.2399,50.4873,865.8755],[-121.2425,50.4873,841.4952],[-121.2423,50.4764,894.3839],[-121.2513,50.4765,815.5319],[-121.2515,50.4545,621.4408],[-121.2675,50.4633,539.6704],[-121.2865,50.4633,344.4288],[-121.2933,50.4648,279.2166],[-121.3012,50.4729,329.8982],[-121.2995,50.482,238.2648],[-121.2847,50.495,242.375],[-121.2825,50.5199,272.0042],[-121.2836,50.5251,257.3006],[-121.2753,50.525,390.478],[-121.2748,50.5143,322.7091],[-121.2693,50.5142,477.476]],
[[-121.7381,50.5078,171.1878],[-121.7278,50.5029,186.7296],[-121.7258,50.4944,169.3817],[-121.7221,50.489,289.5504],[-121.7401,50.4915,527.3596],[-121.7381,50.5078,171.1878]],
[[-121.2186,50.3113,362.8564],[-121.2088,50.3075,373.1617],[-121.1993,50.3074,494.984],[-121.1991,50.3039,401.5187],[-121.1965,50.3039,417.6056],[-121.1965,50.3023,402.04],[-121.1808,50.3003,540.2468],[-121.1806,50.2966,433.3523],[-121.1751,50.2966,502.2094],[-121.1749,50.2948,465.5509],[-121.1631,50.2948,535.7079],[-121.1629,50.2907,459.5618],[-121.1553,50.2907,535.2283],[-121.1552,50.2872,435.4788],[-121.139,50.2871,626.5129],[-121.1389,50.2802,461.1691],[-121.1276,50.2798,538.66],[-121.1276,50.2778,509.8605],[-121.1248,50.2778,530.8232],[-121.1247,50.2741,431.0284],[-121.1162,50.2739,594.1676],[-121.1162,50.2649,491.8969],[-121.1223,50.265,434.7872],[-121.1239,50.271,420.7287],[-121.1277,50.2736,424.4554],[-121.1359,50.2742,415.3509],[-121.1446,50.2787,413.8355],[-121.1445,50.264,650.4951],[-121.1863,50.2644,884.6242],[-121.1866,50.2717,707.4381],[-121.2111,50.2719,1049.1782],[-121.2115,50.2827,995.6725],[-121.2448,50.2827,1210.6418],[-121.2439,50.3153,846.4235],[-121.2196,50.3149,389.1143],[-121.2212,50.3127,413.7698],[-121.2186,50.3113,362.8564]],
[[-121.5682,50.1428,329.9907],[-121.5677,50.1359,311.0363],[-121.5646,50.1359,401.7585],[-121.5643,50.1313,204.545],[-121.5692,50.1312,137.8619],[-121.5732,50.1337,165.0127],[-121.5752,50.1427,138.963],[-121.5682,50.1428,329.9907]],
[[-121.575,50.1507,280.0422],[-121.5787,50.151,177.1882],[-121.5796,50.1539,246.9922],[-121.5821,50.1539,155.4582],[-121.5832,50.158,156.3952],[-121.573,50.157,347.1778],[-121.5728,50.1512,280.0422],[-121.5675,50.1513,478.51369999999997],[-121.5674,50.1462,331.3496],[-121.5697,50.1458,322.1099],[-121.575,50.1507,280.0422]],
[[-121.5754,50.1745,305.5496],[-121.5767,50.1703,276.1537],[-121.5828,50.1713,145.7092],[-121.5821,50.1758,128.625],[-121.5754,50.1745,305.5496]],
[[-121.3582,50.4154,239.843],[-121.3582,50.4137,292.6457],[-121.3638,50.4141,214.9556],[-121.3607,50.4166,214.5435],[-121.3583,50.417,228.7907],[-121.3582,50.4154,239.843]],
[[-121.3318,50.4263,240.7719],[-121.3334,50.426,240.7719],[-121.3338,50.4301,325.7326],[-121.331,50.4306,467.7578],[-121.3304,50.4265,240.7719],[-121.3318,50.4263,240.7719]],
[[-121.5465,50.0571,126.5604],[-121.5506,50.0655,147.7063],[-121.5427,50.0648,476.2195],[-121.5423,50.0579,272.6954],[-121.5465,50.0571,126.5604]],
[[-121.5427,50.8232,895.1503],[-121.561,50.8232,775.1646],[-121.5609,50.8087,1047.9153],[-121.5752,50.8087,870.2673],[-121.5753,50.7977,1053.5984],[-121.6066,50.7979,819.7272],[-121.6069,50.8089,1008.3433],[-121.5922,50.8087,820.436],[-121.5922,50.8271,951.2698],[-121.5667,50.8267,834.424],[-121.5666,50.8341,1013.3428],[-121.543,50.8343,756.2291],[-121.5427,50.8232,895.1503]],
[[-121.2758,50.6627,538.0375],[-121.2763,50.6707,478.1422],[-121.2533,50.6711,760.386],[-121.2528,50.6568,738.7864],[-121.2673,50.6568,622.0865],[-121.267,50.648,685.7439],[-121.2809,50.648,600.7187],[-121.281,50.6564,519.7747],[-121.2732,50.6533,608.6874],[-121.2664,50.6617,581.6074],[-121.2742,50.6646,516.5346],[-121.2758,50.6627,538.0375]],
[[-121.6704,50.3781,306.3578],[-121.6709,50.372,291.8774],[-121.6755,50.3687,151.25],[-121.6829,50.3687,256.7896],[-121.6832,50.3777,331.2886],[-121.6704,50.3781,306.3578]]],
[[[-121.3793,50.6056,760.5696],[-121.3758,50.6059,762.2073],[-121.3778,50.6114,772.1428],[-121.3806,50.6111,769.281],[-121.3793,50.6056,760.5696]]],
[[[-121.3305,50.6118,472.8867],[-121.3304,50.6093,494.2494],[-121.3192,50.61,392.2732],[-121.3213,50.6209,316.4048],[-121.331,50.6228,410.0792],[-121.3305,50.6118,472.8867]]]]}}