{"type":"Feature","properties":{"featurecla":"River","scalerank":11,"rivernum":20755,"dissolve":"20755River","name":"Kakwa1","name_alt":null,"note":"ID is link back to CEC data","name_full":"Kakwa River","min_zoom":6.7,"strokeweig":0.2,"uident":1614101,"min_label":7.7},
"geometry":{"type": "LineString","coordinates": [[-119.6175837881454,54.149196681764863,1393.7915],[-119.59825598866622,54.164821681764863,1185.3622],[-119.57188880116622,54.208929754681527,1160.4391],[-119.56920325429122,54.222845770306527,1181.0216],[-119.56623287668705,54.238470770306527,1196.3997],[-119.53197180897872,54.262030340619027,1210.0312],[-119.50182044179122,54.273464259889863,1279.8975],[-119.45872962147872,54.274196681764863,1249.7732],[-119.39972897043705,54.270127671348192,1402.2278],[-119.3138728506454,54.273952541139863,1206.0146],[-119.26280676991622,54.282416082806527,1198.4498],[-119.19945227772872,54.304795640098192,1096.4285],[-119.18195553293705,54.306992905723192,1113.1807],[-119.0577693350204,54.307237046348192,1094.8837],[-118.99156653554122,54.296332098431527,1082.3982],[-118.92503821522872,54.271673895306527,1145.8477],[-118.88206946522872,54.273952541139863,1083.1902],[-118.83405514231205,54.287054754681527,1000.6214],[-118.76475989491622,54.310736395306527,987.6301],[-118.70905514231205,54.331000067181527,845.9366],[-118.62043209543705,54.367865301556527,916.3551],[-118.5721736318954,54.399237371869027,914.94],[-118.5091853506454,54.455877996869027,879.1815],[-118.47154700429122,54.493923244264863,868.0358],[-118.4313044912704,54.547186590619027,886.3401],[-118.4327693350204,54.563421942181527,840.6429],[-118.4449763662704,54.577175197389863,760.139],[-118.46910559804122,54.584662176556527,747.6948],[-118.48509680897872,54.589178778119027,795.4797],[-118.47789466054122,54.603867905723192,707.6677],[-118.46043860585372,54.617783921348192,715.8371]]}}