{"type":"Feature","properties":{"featurecla":"River","scalerank":11,"rivernum":20727,"dissolve":"20727River","name":"Simonette1","name_alt":null,"note":"ID is link back to CEC data","name_full":"Simonette River","min_zoom":6.7,"strokeweig":0.2,"uident":1623401,"min_label":7.7},
"geometry":{"type": "LineString","coordinates": [[-118.27472897043705,55.172878322389863,607.2628],[-118.25267493397872,55.159247137494027,486.2942],[-118.20811926991622,55.136053778119027,498.9613],[-118.15111243397872,55.122870184369027,619.6805],[-118.1009822256454,55.124619858848192,522.8785],[-118.04645748606205,55.129258530723192,562.6771],[-118.01927649647872,55.122381903119027,537.4616],[-118.00519772043705,55.110785223431527,536.8513],[-118.00072180897872,55.089707749473192,544.7947],[-118.03880774647872,55.041042384889863,591.0198],[-118.0450740225204,55.012030340619027,560.1244],[-118.0392146475204,54.998602606244027,650.0863],[-118.00841223866622,54.976019598431527,660.6891],[-117.9354548818954,54.947943426556527,588.5856],[-117.90782630116622,54.930202541139863,618.9907],[-117.82127844960372,54.851874090619027,667.0953],[-117.79088294179122,54.834662176556527,624.7473],[-117.71703040272872,54.799383856244027,642.364],[-117.70661373606205,54.783392645306527,696.6411],[-117.70872962147872,54.771918035931527,714.0292],[-117.74266516835372,54.760850327598192,723.5069],[-117.7530818350204,54.747585353639863,741.7715],[-117.7594294912704,54.731756903119027,700.2534],[-117.75987708241622,54.691758530723192,734.8813],[-117.7457576162704,54.654852606244027,706.9581],[-117.7254939443954,54.629217840619027,761.1911],[-117.72374426991622,54.626979884889863,745.981],[-117.72468014231205,54.610907293744027,792.1496],[-117.73167884022872,54.595078843223192,769.7487],[-117.76203365793705,54.578436590619027,828.4858],[-117.76244055897872,54.578314520306527,828.4858],[-117.8273005850204,54.560858465619027,864.1975],[-117.85728919179122,54.548773504681527,848.1112],[-117.87852942616622,54.518500067181527,882.3618],[-117.8963923818954,54.507147528119027,881.3366],[-117.98619544179122,54.485419012494027,925.7152],[-118.03351803293705,54.471218166139863,917.4575],[-118.0799861318954,54.446112371869027,958.1753],[-118.1231990225204,54.414007879681527,958.5023],[-118.16893469960372,54.363633530723192,970.3863],[-118.19001217356205,54.335557358848192,1000.3805],[-118.20710201731205,54.325222072389863,1018.891],[-118.28425045481205,54.288275457806527,1084.5767],[-118.34382076731205,54.236192124473192,1209.8198],[-118.3710017568954,54.207220770306527,1189.7843],[-118.37254798085372,54.206325588014863,1185.4368]]}}