{"type":"Feature","properties":{"GID_3":"CAN.4.14.19_1","GID_0":"CAN","country":"Canada","GID_1":"CAN.4_1","province":"NewBrunswick","NL_NAME_1":"NA","GID_2":"CAN.4.14_1","county":"Westmorland","NL_NAME_2":"NA","city":"Westmorland","VARNAME_3":"NA","NL_NAME_3":"NA","TYPE_3":"Parish","ENGTYPE_3":"Parish","CC_3":"NA","HASC_3":"NA","name":"Westmorland.city"},
"geometry":{"type": "MultiPolygon","coordinates": [[[[-64.1521,46.0882,13.1157],[-64.2023,46.0178,39.8163],[-64.2381,45.9944,14.9327],[-64.2367,45.9935,16.3251],[-64.2441,45.9827,11.7668],[-64.2411,45.9795,7.1239],[-64.2416,45.976,6.5933],[-64.2514,45.9724,6.0558],[-64.2611,45.9626,6.0214],[-64.2611,45.9603,6.2759],[-64.2816,45.9438,5.4309],[-64.2674,45.9021,3.4115],[-64.2718,45.9009,3.3295],[-64.2727,45.8971,3.8167],[-64.2799,45.8959,3.4981],[-64.2811,45.8933,3.4743],[-64.288,45.8974,3.5805],[-64.2917,45.8974,3.8151],[-64.2915,45.894,4.6776],[-64.2949,45.8915,2.3869],[-64.2948,45.889,2.7263],[-64.2981,45.8861,2.7589],[-64.2999,45.8806,2.3056],[-64.3042,45.8798,2.2409],[-64.308,45.8833,3.4023],[-64.3185,45.8793,4.3274],[-64.3186,45.8732,2.3544],[-64.3208,45.8714,0.673],[-64.32,45.8706,0.673],[-64.3236,45.8635,0.7179],[-64.2994,45.8544,2.9844],[-64.28,45.8339,0.0],[-64.2759,45.8368,2.057],[-64.2749,45.842,6.0342],[-64.2698,45.8424,4.1861],[-64.2692,45.8449,4.0719],[-64.2707,45.8469,5.9292],[-64.2743,45.8476,4.8086],[-64.273,45.8524,4.6288],[-64.2723,45.8541,5.0465],[-64.2668,45.8529,5.4873],[-64.2623,45.8581,5.355],[-64.2632,45.8595,5.5764],[-64.2665,45.8595,6.0832],[-64.2675,45.8613,5.7825],[-64.259,45.8675,4.8637],[-64.2607,45.8715,5.3475],[-64.2544,45.8761,5.3784],[-64.2547,45.8796,6.1972],[-64.2464,45.8847,5.5068],[-64.2436,45.8898,5.5591],[-64.2388,45.89,5.5627],[-64.2372,45.8935,3.1907],[-64.2318,45.8929,3.0991],[-64.2271,45.8957,6.043],[-64.2271,45.8987,6.0688],[-64.2232,45.8993,5.4717],[-64.2203,45.9017,7.5119],[-64.2198,45.9081,5.757],[-64.2117,45.9135,5.455],[-64.2099,45.9165,6.142],[-64.2062,45.9161,6.0539],[-64.1646,45.9608,6.8428],[-64.1591,45.9753,11.0188],[-64.1496,45.9799,9.7477],[-64.0469,45.9769,7.5522],[-64.0505,45.9807,6.2121],[-64.0469,45.9817,1.8137],[-64.0489,45.9858,9.9888],[-64.045,45.9878,0.0],[-64.0461,45.9911,0.0],[-64.0431,45.9925,1.1615],[-64.0431,45.9942,0.3116],[-64.0567,45.9947,2.675],[-64.0567,45.9981,6.56],[-64.0553,45.9989,1.4375],[-64.0585,46.0009,0.0],[-64.0639,46.0008,0.0],[-64.0669,45.9989,0.137],[-64.0656,46.0,0.326],[-64.0666,46.0022,0.5631],[-64.0623,46.0062,0.0],[-64.0677,46.0053,6.763],[-64.0728,46.0075,0.0],[-64.0762,46.0058,0.0],[-64.0781,46.0087,0.0805],[-64.0749,46.0151,0.0],[-64.0711,46.0175,0.1735],[-64.0715,46.0193,0.0405],[-64.0819,46.02,2.9112],[-64.0839,46.0217,0.4009],[-64.0817,46.025,0.0745],[-64.0842,46.025,0.0575],[-64.0858,46.0222,0.0321],[-64.0931,46.0236,0.015],[-64.0931,46.025,0.0742],[-64.0886,46.0239,0.0],[-64.0911,46.0272,0.1874],[-64.0862,46.033,0.0],[-64.076,46.0364,0.0],[-64.0764,46.0379,0.8092],[-64.0708,46.0419,0.0],[-64.0703,46.0433,0.0],[-64.0731,46.0453,1.3205],[-64.0736,46.0503,2.8706],[-64.0862,46.0441,11.692],[-64.0895,46.039,7.3604],[-64.0983,46.0423,13.5349],[-64.1004,46.0476,17.5772],[-64.0973,46.0568,4.6374],[-64.095,46.0572,5.6122],[-64.1521,46.0882,13.1157]]]]}}