{"type": "Feature","bbox": [-72.4966,45.5283,-72.3144,45.6741],"geometry": {"type": "MultiPolygon","coordinates": [[[[-72.4966,45.6041,101.5482],[-72.4395,45.6037,159.554],[-72.4419,45.5738,149.6017],[-72.3995,45.5713,187.4569],[-72.4023,45.5283,195.5279],[-72.3787,45.529,206.984],[-72.3781,45.5657,199.4515],[-72.3608,45.5667,190.8882],[-72.3597,45.589,174.2025],[-72.3508,45.5889,198.6012],[-72.3502,45.5942,194.3767],[-72.3442,45.594,198.5328],[-72.3436,45.5984,209.134],[-72.3144,45.5971,205.8431],[-72.4454,45.6741,115.2781],[-72.4714,45.6736,113.9501],[-72.4734,45.6303,119.1809],[-72.4956,45.6302,118.2234],[-72.4966,45.6041,101.5482]]]]}
,"properties": {"GID_3": "CAN.11.3.7_1","GID_0": "CAN","country": "Canada","GID_1": "CAN.11_1","province": "Québec","NL_NAME_1": "NA","GID_2": "CAN.11.3_1","county": "Acton","NL_NAME_2": "NA","city": "Sainte-Christine","VARNAME_3": "NA","NL_NAME_3": "NA","TYPE_3": "MunicipalitéDeParoisse","ENGTYPE_3": "ParishMunicipality","CC_3": "NA","HASC_3": "NA","name": "Sainte-Christine.city","area_km2": 92.65297,"hist_schema_id": "Elevation0-9000","hist_area_km2": {"100": 2.14883,"125": 15.74141,"150": 24.29042,"175": 27.61863,"200": 21.44384,"225": 1.40983}}}