{"type":"Feature","properties":{"GID_3":"CAN.9.20.16_1","GID_0":"CAN","country":"Canada","GID_1":"CAN.9_1","province":"Ontario","NL_NAME_1":"NA","GID_2":"CAN.9.20_1","county":"Kenora","NL_NAME_2":"NA","city":"Kenora","VARNAME_3":"NA","NL_NAME_3":"NA","TYPE_3":"Cité","ENGTYPE_3":"City","CC_3":"NA","HASC_3":"NA","name":"Kenora.city"},
"geometry":{"type": "MultiPolygon","coordinates": [[[[-94.3597,49.7433,366.2069],[-94.3555,49.7433,368.2641],[-94.3547,49.7383,376.7655],[-94.3465,49.7381,397.5774],[-94.3477,49.7562,370.5012],[-94.3432,49.7586,345.0],[-94.342,49.7645,354.0347],[-94.3449,49.767,347.0748],[-94.3433,49.769,347.1134],[-94.3441,49.7731,345.0],[-94.343,49.7731,345.0],[-94.3435,49.8007,378.4964],[-94.346,49.8007,365.168],[-94.3459,49.8038,380.9662],[-94.3435,49.8039,367.4777],[-94.3427,49.8132,315.5],[-94.3451,49.8175,315.5],[-94.3498,49.8206,315.5],[-94.3491,49.8287,315.5],[-94.3425,49.8294,320.1042],[-94.3422,49.8432,346.0111],[-94.3447,49.8432,369.477],[-94.3446,49.8472,330.0],[-94.3422,49.8472,338.8799],[-94.3413,49.9047,342.1361],[-94.505,49.9041,348.242],[-94.5069,49.856,324.5652],[-94.5215,49.8509,326.5574],[-94.5449,49.8455,314.5],[-94.5472,49.8251,341.8037],[-94.5403,49.8207,336.3874],[-94.5368,49.821,314.5],[-94.5253,49.8306,332.3214],[-94.5217,49.8296,335.162],[-94.522,49.822,329.2098],[-94.5118,49.8111,334.6915],[-94.5001,49.81,317.4214],[-94.4972,49.808,323.8559],[-94.502,49.8056,320.4349],[-94.5077,49.8054,315.8231],[-94.5119,49.7999,331.4194],[-94.5165,49.7995,314.5],[-94.5164,49.7972,314.5],[-94.5124,49.7948,330.5047],[-94.5049,49.7936,316.0614],[-94.4937,49.7806,366.5162],[-94.5465,49.7826,314.5],[-94.5462,49.7863,318.384],[-94.5186,49.7867,322.0557],[-94.5174,49.7853,318.4152],[-94.5192,49.7901,314.5],[-94.525,49.7905,323.3157],[-94.5189,49.792,314.5],[-94.5271,49.7921,337.373],[-94.539,49.8038,333.4686],[-94.5499,49.8047,318.4793],[-94.571,49.7914,316.519],[-94.5896,49.7899,329.4619],[-94.5919,49.7613,331.586],[-94.5913,49.7504,345.1974],[-94.5501,49.7541,320.0],[-94.5455,49.7568,320.0],[-94.5338,49.746,320.0],[-94.5122,49.7477,320.0],[-94.5027,49.7461,320.0],[-94.4934,49.7476,320.0],[-94.4894,49.747,320.0],[-94.4837,49.7431,336.4667],[-94.4777,49.7425,331.7291],[-94.4028,49.744,381.706],[-94.3597,49.7433,366.2069]]]]}}