{"type": "Feature","bbox": [-121.6779,50.3401,-121.6636,50.3552],"geometry": {"type": "MultiPolygon","coordinates": [[[[-121.6636,50.346,153.9426],[-121.6734,50.3552,195.2622],[-121.6778,50.3552,366.8589],[-121.6779,50.3424,615.6713],[-121.6664,50.3424,236.4369],[-121.6664,50.3401,306.4673],[-121.664,50.342,256.229],[-121.6636,50.346,153.9426]]]]}
,"properties": {"GID_3": "CAN.2.28.96_1","GID_0": "CAN","country": "Canada","GID_1": "CAN.2_1","province": "BritishColumbia","NL_NAME_1": "NA","GID_2": "CAN.2.28_1","county": "Thompson-Nicola","NL_NAME_2": "NA","city": "Yawaucht11","VARNAME_3": "NA","NL_NAME_3": "NA","TYPE_3": "RéserveIndienne","ENGTYPE_3": "IndianReserve","CC_3": "NA","HASC_3": "NA","name": "Yawaucht11.city","area_km2": 1.122975,"hist_schema_id": "Elevation0-9000","hist_area_km2": {"150": 0.0676471,"175": 0.0811752,"200": 0.1488259,"225": 0.1758885,"250": 0.1488226,"275": 0.1488271,"300": 0.0811809,"325": 0.0676481,"350": 0.0541219,"375": 0.0270607,"400": 0.0270609,"425": 0.0270614,"450": 0.0541233,"500": 0.0135312}}}