{"type":"Feature","properties":{"GID_3":"CAN.12.15.30_1","GID_0":"CAN","country":"Canada","GID_1":"CAN.12_1","province":"Saskatchewan","NL_NAME_1":"NA","GID_2":"CAN.12.15_1","county":"DivisionNo.6","NL_NAME_2":"NA","city":"FrancisNo.127","VARNAME_3":"NA","NL_NAME_3":"NA","TYPE_3":"RuralMunicipality","ENGTYPE_3":"RuralMunicipality","CC_3":"NA","HASC_3":"NA","name":"Francis_No.127.city"},
"geometry":{"type": "MultiPolygon","coordinates": [[[[-103.6437,50.0471,623.7424],[-103.646,50.2221,661.0864],[-103.6563,50.2223,658.6758],[-103.6575,50.3094,663.8788],[-103.6563,50.3969,617.7378],[-104.0681,50.3969,671.2848],[-104.0685,50.2231,601.0774],[-104.0536,50.2231,602.9333],[-104.0532,50.048,582.8178],[-103.6437,50.0471,623.7424]],
[[-103.861,50.1049,602.6989],[-103.861,50.0985,601.2372],[-103.8726,50.0985,600.4219],[-103.8726,50.1049,602.2423],[-103.861,50.1049,602.6989]],
[[-103.7736,50.2798,655.6533],[-103.7936,50.2798,658.3378],[-103.7936,50.2873,657.6689],[-103.7739,50.2873,654.3552],[-103.7736,50.2798,655.6533]],
[[-104.0086,50.1646,597.2213],[-104.02,50.1645,595.0823],[-104.0199,50.179,594.9119],[-104.0086,50.1791,595.682],[-104.0086,50.1646,597.2213]],
[[-103.9424,50.3375,668.5509],[-103.9413,50.3313,668.5837],[-103.9548,50.3314,666.923],[-103.9549,50.3381,667.8672],[-103.9424,50.3375,668.5509]]]]}}