{"type": "Feature","bbox": [-80.1574,45.3305,-79.8862,45.5616],"geometry": {"type": "MultiPolygon","coordinates": [[[[-80.0884,45.3305,216.2018],[-80.0851,45.3405,225.0508],[-80.0827,45.3411,222.6813],[-80.0783,45.339,195.206],[-80.063,45.3391,173.5],[-80.0622,45.3373,187.4578],[-80.0644,45.3341,203.542],[-80.0619,45.3324,209.8911],[-80.0533,45.3334,206.6571],[-80.0747,45.3603,173.5],[-80.0574,45.3641,219.911],[-80.0562,45.3678,217.3606],[-80.0247,45.3738,231.3736],[-80.0218,45.367,217.9626],[-80.0175,45.37,205.4889],[-80.0144,45.3696,205.9942],[-80.0123,45.3684,194.1734],[-80.0157,45.3667,191.0],[-80.0158,45.3648,210.1618],[-80.0105,45.3627,198.7642],[-80.0118,45.3621,198.7642],[-80.0012,45.3429,217.5],[-79.8862,45.3739,286.4546],[-79.9467,45.4847,254.9302],[-79.9497,45.488,250.272],[-79.952,45.488,249.8438],[-79.9506,45.491,255.1542],[-79.9885,45.5616,265.9087],[-80.0469,45.5445,266.8799],[-80.1574,45.5154,230.1302],[-80.1122,45.431399999999996,216.835],[-80.1365,45.4247,207.142],[-80.1231,45.4,176.0068],[-80.1181,45.4019,185.8156],[-80.1091,45.4009,173.5],[-80.1072,45.3992,173.5],[-80.1135,45.3974,179.0352],[-80.1087,45.3961,173.5],[-80.1109,45.3931,173.5],[-80.1085,45.3892,173.5],[-80.109,45.3869,186.5445],[-80.1056,45.3837,173.5],[-80.1062,45.3754,173.5],[-80.1095,45.375,173.5],[-80.1084,45.371,173.5],[-80.0884,45.3305,216.2018]]]]}
,"properties": {"GID_3": "CAN.9.37.12_1","GID_0": "CAN","country": "Canada","GID_1": "CAN.9_1","province": "Ontario","NL_NAME_1": "NA","GID_2": "CAN.9.37_1","county": "ParrySound","NL_NAME_2": "NA","city": "McDougall","VARNAME_3": "NA","NL_NAME_3": "NA","TYPE_3": "Township","ENGTYPE_3": "Township","CC_3": "NA","HASC_3": "NA","name": "Mc_Dougall.city","area_km2": 318.6725,"hist_schema_id": "Elevation0-9000","hist_area_km2": {"175": 21.2829,"200": 26.1904,"225": 68.0708,"250": 122.1516,"275": 79.994,"300": 0.9828}}}