{"type": "Feature","bbox": [-112.3609,60.0856,-112.2111,60.1572],"geometry": {"type": "MultiPolygon","coordinates": [[[[-112.3344,60.0881,191.1746],[-112.3333,60.0856,187.1922],[-112.2111,60.0889,164.0],[-112.2461,60.1572,171.6631],[-112.3609,60.1508,181.4718],[-112.3344,60.0881,191.1746]]]]}
,"properties": {"GID_3": "CAN.6.1.18_1","GID_0": "CAN","country": "Canada","GID_1": "CAN.6_1","province": "NorthwestTerritories","NL_NAME_1": "NA","GID_2": "CAN.6.1_1","county": "FortSmith","NL_NAME_2": "NA","city": "SaltPlains195","VARNAME_3": "NA","NL_NAME_3": "NA","TYPE_3": "RéserveIndienne","ENGTYPE_3": "IndianReserve","CC_3": "NA","HASC_3": "NA","name": "Salt_Plains195.city","area_km2": 49.66487,"hist_schema_id": "Elevation0-9000","hist_area_km2": {"175": 37.00775,"200": 12.65712}}}