{"type":"Feature","properties":{"featurecla":"River","scalerank":10,"rivernum":20278,"dissolve":"20278River","name":"null260","name_alt":null,"note":"ID is link back to CEC data","name_full":null,"min_zoom":6.0,"strokeweig":0.15,"uident":1760501,"min_label":7.0},
"geometry":{"type": "LineString","coordinates": [[-114.68236243397872,49.627752996869027,1351.1602],[-114.66661536366622,49.640326239056527,1688.141],[-114.6612849600204,49.642889715619027,1563.5029],[-114.60411536366622,49.6522077494732,1441.9415],[-114.5462947256454,49.656032619264863,1510.9111],[-114.4884333975204,49.649440822389863,1497.8557],[-114.4852595693954,49.6490339213482,1519.8781],[-114.48102779856205,49.646999416139863,1472.4922],[-114.43639075429122,49.6248639994732,1481.3287],[-114.43529212147872,49.624457098431527,1519.603],[-114.38084876210372,49.603054103639863,1403.2236],[-114.3641658193954,49.5796979838482,1295.084],[-114.34406490793705,49.5694440775982,1383.0973],[-114.31810462147872,49.564642645306527,1298.9696],[-114.2745662100204,49.566595770306527,1221.7853],[-114.22459876210372,49.5882429057232,1271.5763],[-114.1705623037704,49.608343817181527,1182.6033],[-114.10773678293705,49.619330145306527,1180.6796],[-114.06822669179122,49.622097072389863,1160.2236],[-114.00812740793705,49.621852931764863,1218.3584]]}}