{"type":"Feature","properties":{"featurecla":"River","scalerank":4,"rivernum":117,"dissolve":"117River","name":"North10","name_alt":null,"note":null,"min_zoom":4.0,"strokeweig":0.15,"name_en":"North Saskatchewan","min_label":5.0},
"geometry":{"type": "LineString","coordinates": [[-117.13249511718749,52.014032293744116,1603.4237],[-117.11540527343749,52.02069733280662,1551.999],[-117.10068359375,52.03253815311912,1546.5334],[-117.076171875,52.06061432499412,2017.8492],[-117.06884765625,52.066913153119117,2020.1248],[-117.06059570312499,52.07135651249412,1702.6422],[-117.006201171875,52.091180731244116,2338.1333],[-116.97038574218749,52.097674871869117,1523.0989],[-116.938818359375,52.089471746869116,1472.9878],[-116.90202636718749,52.04035065311912,1911.942],[-116.83769531249999,51.993426824994117,1566.9344]]}}