{"type":"Feature","properties":{"featurecla":"River","scalerank":11,"rivernum":20349,"dissolve":"20349River","name":"Highwood1","name_alt":null,"note":"ID is link back to CEC data","name_full":"Highwood River","min_zoom":6.7,"strokeweig":0.2,"uident":1738601,"min_label":7.7},
"geometry":{"type": "LineString","coordinates": [[-114.5775447256454,50.397243556764863,1644.3097],[-114.50670325429122,50.418280340619027,1493.308],[-114.49738522043705,50.422674871869027,1483.6703],[-114.4518123037704,50.4439557963482,1510.4084],[-114.4430232412704,50.449408270306527,1471.9404],[-114.42564856679122,50.4854597025982,1369.9392],[-114.42121334543705,50.515651759889863,1350.0796],[-114.38117428293705,50.559637762494027,1332.1635],[-114.31371009022872,50.5731061869732,1365.2131],[-114.30138098866622,50.569647528119027,1311.691],[-114.27424068918705,50.565741278119027,1282.4069],[-114.26398678293705,50.557643947389863,1300.0929],[-114.24461829335372,50.542303778119027,1246.9575],[-114.1986384756454,50.522284246869027,1213.9875],[-114.1532283193954,50.510565496869027,1192.3665],[-114.14818274647872,50.5088972025982,1187.3655],[-114.12462317616622,50.510687567181527,1169.806],[-114.1022029287704,50.521795965619027,1150.2517],[-114.0978083975204,50.5262311869732,1147.1199],[-114.08983313710372,50.533270574994027,1145.2655],[-114.04499264231205,50.5533307963482,1143.6106],[-114.03062903554122,50.567409572389863,1119.5809],[-114.00007076731205,50.5733503275982,1104.1168],[-113.94904537668705,50.584499416139863,1063.8695],[-113.90534420481205,50.5997175150982,1046.8292],[-113.8895564443954,50.597357489056527,1041.2891],[-113.87677975168705,50.6016706400982,1035.1108]]}}