{"type": "Feature","bbox": [-68.9145,47.6821,-68.4644,47.9618],"geometry": {"type": "MultiPolygon","coordinates": [[[[-68.7697,47.9504,267.7689],[-68.8503,47.8953,289.0882],[-68.8685,47.8989,269.2422],[-68.8991,47.896,229.0156],[-68.9145,47.8908,196.8723],[-68.8862,47.8857,189.4074],[-68.8723,47.8779,210.5836],[-68.8617,47.8758,206.4502],[-68.8563,47.8717,197.1691],[-68.8502,47.8603,186.1792],[-68.8557,47.8494,199.6705],[-68.854,47.8393,181.4718],[-68.8564,47.8327,159.1713],[-68.8513,47.8199,160.3422],[-68.8588,47.8071,147.5],[-68.863,47.8069,147.5],[-68.8649,47.8037,147.5],[-68.8606,47.7996,147.5],[-68.8658,47.7776,147.5],[-68.8653,47.7739,147.5],[-68.8753,47.7629,147.5],[-68.8765,47.7592,147.5],[-68.8851,47.7528,147.5],[-68.8889,47.7424,147.5],[-68.894,47.7388,147.5],[-68.8984,47.7266,147.5],[-68.9013,47.7245,147.5],[-68.9052,47.7151,147.5],[-68.9048,47.7123,147.5],[-68.8947,47.7019,147.5],[-68.8982,47.6991,147.5],[-68.8926,47.7004,147.5],[-68.8899,47.6958,147.5],[-68.8844,47.691,147.5],[-68.8732,47.6884,147.5],[-68.8648,47.6821,147.5],[-68.7713,47.7305,192.2119],[-68.7701,47.7497,158.0161],[-68.7715,47.7575,171.1513],[-68.7609,47.7871,175.3549],[-68.7558,47.7906,160.9603],[-68.753,47.7974,181.6673],[-68.7415,47.8049,158.5958],[-68.7384,47.8163,172.3806],[-68.7329,47.8202,160.3746],[-68.7322,47.8255,158.9178],[-68.7366,47.8307,164.2244],[-68.7325,47.8341,165.8821],[-68.7349,47.838,164.1833],[-68.734,47.845,159.7739],[-68.7198,47.8291,226.7237],[-68.7176,47.7961,216.2217],[-68.6289,47.8558,260.1836],[-68.5862,47.8266,280.5756],[-68.5686,47.8385,314.0834],[-68.5219,47.8079,324.4374],[-68.4644,47.8466,275.1875],[-68.5714,47.9176,375.8508],[-68.6283,47.8785,302.8822],[-68.7532,47.9618,187.4231],[-68.7697,47.9504,267.7689]]]]}
,"properties": {"GID_3": "CAN.11.96.19_1","GID_0": "CAN","country": "Canada","GID_1": "CAN.11_1","province": "Québec","NL_NAME_1": "NA","GID_2": "CAN.11.96_1","county": "Témiscouata","NL_NAME_2": "NA","city": "Saint-Michel-du-Squatec","VARNAME_3": "NA","NL_NAME_3": "NA","TYPE_3": "MunicipalitéDeParoisse","ENGTYPE_3": "ParishMunicipality","CC_3": "NA","HASC_3": "NA","name": "Saint-Michel-du-Squatec.city","area_km2": 385.2027,"hist_schema_id": "Elevation0-9000","hist_area_km2": {"150": 26.6423,"175": 36.6295,"200": 33.975,"225": 35.1591,"250": 41.0396,"275": 52.3058,"300": 47.3121,"325": 35.5534,"350": 28.0371,"375": 23.3584,"400": 15.42,"425": 5.4757999999999996,"450": 3.5267,"475": 0.6968,"500": 0.0711}}}