{"type":"Feature","properties":{"GID_3":"CAN.7.4.5_1","GID_0":"CAN","country":"Canada","GID_1":"CAN.7_1","province":"NovaScotia","NL_NAME_1":"NA","GID_2":"CAN.7.4_1","county":"Colchester","NL_NAME_2":"NA","city":"Stewiacke","VARNAME_3":"NA","NL_NAME_3":"NA","TYPE_3":"Town","ENGTYPE_3":"Town","CC_3":"NA","HASC_3":"NA","name":"Stewiacke.city"},
"geometry":{"type": "MultiPolygon","coordinates": [[[[-63.3873,45.1379,6.7197],[-63.3984,45.1312,26.8826],[-63.3572,45.1116,17.8689],[-63.3506,45.1135,14.9365],[-63.3484,45.1174,15.1957],[-63.3444,45.1177,28.9654],[-63.3436,45.1203,20.6845],[-63.3375,45.1217,19.2529],[-63.3293,45.12,16.3759],[-63.3259,45.1173,18.592],[-63.3133,45.119,20.5549],[-63.3141,45.1222,25.7639],[-63.3128,45.1227,22.7533],[-63.3218,45.1434,31.9753],[-63.3168,45.1562,9.718],[-63.321,45.156,7.7401],[-63.3336,45.1599,8.8722],[-63.3386,45.1583,13.172],[-63.3448,45.1482,15.263],[-63.3496,45.1453,6.7358],[-63.3722,45.1466,7.3954],[-63.3756,45.1451,7.446],[-63.3781,45.1393,3.5],[-63.3873,45.1379,6.7197]]]]}}