{"type":"Feature","properties":{"featurecla":"Lake","scalerank":9,"name":"null196","name_abb":null,"name_alt":null,"note":"_untitled_138","delta":null,"dam_name":null,"year":-99,"admin":null,"min_zoom":7.0,"min_label":8.0},
"geometry":{"type": "Polygon","coordinates": [[[-93.074400617631525,69.826228374975358,18.1725],[-92.901903239132366,69.873326635316431,18.059],[-92.915002442789728,69.878330825477661,43.0692],[-92.927365736129246,69.8886335699273,17.739],[-92.935902295816064,69.901585591521069,18.0179],[-92.937226934388164,69.914243248987731,17.8415],[-92.9241277307308,69.930727640107108,18.0201],[-92.901903239132366,69.935731830268338,18.3093],[-92.854069068473464,69.934848737886966,48.556399999999996],[-92.8297840279851,69.9389698356668,18.4758],[-92.780478036690553,69.955748590913316,18.9506],[-92.742946610481255,69.97517662330398,19.111],[-92.703354635382055,70.0031412153815,20.5693],[-92.64521772027355,70.007262313161334,19.9754],[-92.635650886141761,70.01373832395825,20.3615],[-92.6480141794813,70.022274883645053,129.7713],[-92.6759787715588,70.025807253170626,85.2445],[-92.7238129422177,70.024041068407854,58.0792],[-92.74176915397274,70.017859421738081,20.6545],[-92.791958237648686,69.9893061014063,53.3618],[-92.860986625461067,69.969583704888493,21.1891],[-92.974169632343191,69.955159862659031,18.296],[-92.988151928381939,69.958986596311746,63.4214],[-93.025977718718366,69.974293530922608,17.8616],[-93.045847297299744,69.975765351558266,28.7089],[-93.0370163734858,69.968700612507092,27.7614],[-93.025683354591223,69.962813329964462,30.7971],[-93.015969338395891,69.955748590913316,29.7561],[-93.011701058552475,69.94515148233657,17.9867],[-93.010523602043946,69.933965645505566,19.0919],[-93.006108140136973,69.92925581947145,22.7248],[-92.983736466474966,69.9204248956575,24.3773],[-92.992714572352483,69.916009433750531,25.6039],[-92.997130034259456,69.913065792479216,25.7635],[-92.998454672831556,69.910416515335015,25.3287],[-92.997424398386585,69.9074728740637,26.448],[-93.139013543536919,69.842124037840478,29.0085],[-93.148874741795836,69.842124037840478,36.454],[-93.162121127516755,69.843595858476135,35.3151],[-93.1774280621276,69.8394747606963,33.7087],[-93.191999086420623,69.832410021645131,32.8114],[-93.203479287378755,69.8247565543397,41.3693],[-93.125031247498171,69.8247565543397,28.1437],[-93.074400617631525,69.826228374975358,18.1725]]]}}