{"type":"Feature","properties":{"featurecla":"Lake","scalerank":9,"name":"null204","name_abb":null,"name_alt":null,"note":"_untitled_130","delta":null,"dam_name":null,"year":-99,"admin":null,"min_zoom":7.0,"min_label":8.0},
"geometry":{"type": "Polygon","coordinates": [[[-110.1722465779474,68.9984764494811,109.6724],[-110.14707844507765,69.006129916786534,84.7111],[-110.12544268173347,69.012605927583422,92.7135],[-110.09291544568542,69.0170213894904,91.3496],[-110.06583394598931,69.023791764414426,84.4288],[-110.06082975582808,69.037332514262488,84.79],[-110.07805005726527,69.0438085250594,84.7029],[-110.17062757524819,69.05764363903458,84.9266],[-110.17563176540942,69.063825285704354,84.8724],[-110.18210777620632,69.069712568246985,84.8008],[-110.18976124351174,69.074422394281072,89.7964],[-110.19800343907143,69.078249127933788,84.8768],[-110.13442078761099,69.088551872383391,89.7968],[-110.11602302966526,69.09856025270588,89.9934],[-110.12735604855983,69.108568633028369,86.8609],[-110.12411804316139,69.116810828588058,88.6885],[-110.11160756775828,69.1229924752578,91.6604],[-110.09556472282961,69.1265248447834,84.7456],[-110.22626239527607,69.132706491453149,84.6032],[-110.27586275069775,69.1238755676392,94.2716],[-110.30294425039388,69.121520654622145,88.762],[-110.31471881547914,69.129762850181834,87.4657],[-110.32443283167449,69.1332952197074,95.6745],[-110.34577423089154,69.133589583834549,106.5347],[-110.36711563010857,69.126819208910518,103.9424],[-110.37668246424036,69.109157361282627,95.7296],[-110.37359164090547,69.087374415874876,98.1266],[-110.37889019519385,69.080898405077988,87.6143],[-110.39714077107601,69.072067481264042,89.2079],[-110.42186735775506,69.065885834594269,84.6225],[-110.44821294713336,69.065297106340012,84.9509],[-110.67899442280458,69.091789877781849,89.2534],[-110.84913688828668,69.085019502857818,110.5384],[-110.78761478571617,69.067946383484184,103.3365],[-110.59583655688988,69.037332514262488,95.8616],[-110.52872153590387,69.012017199329165,94.1545],[-110.50340622097053,69.009367922184992,112.6566],[-110.49457529715659,69.011134106947765,119.1267],[-110.45866287364653,69.023497400287312,84.9671],[-110.39360840155042,69.029679046957057,105.6331],[-110.36137552962951,69.027912862194285,84.8934],[-110.2088949117753,68.999065177735389,104.1023],[-110.1722465779474,68.9984764494811,109.6724]]]}}