{"type":"Feature","properties":{"GID_3":"CAN.4.4.10_1","GID_0":"CAN","country":"Canada","GID_1":"CAN.4_1","province":"NewBrunswick","NL_NAME_1":"NA","GID_2":"CAN.4.4_1","county":"Gloucester","NL_NAME_2":"NA","city":"Grande-Anse","VARNAME_3":"NA","NL_NAME_3":"NA","TYPE_3":"Village","ENGTYPE_3":"Village","CC_3":"NA","HASC_3":"NA","name":"Grande-Anse.city"},
"geometry":{"type": "MultiPolygon","coordinates": [[[[-65.2173,47.8073,0.0],[-65.2017,47.7854,23.8294],[-65.1933,47.7879,18.2841],[-65.1894,47.7831,25.8308],[-65.178,47.7869,23.4296],[-65.1725,47.7787,30.9103],[-65.1602,47.7822,25.8175],[-65.1618,47.785,27.9694],[-65.1595,47.7866,18.3924],[-65.1556,47.7787,25.1388],[-65.1534,47.7794,21.1786],[-65.1516,47.7777,18.4433],[-65.1292,47.7837,19.6931],[-65.1391,47.8025,15.853],[-65.1258,47.8065,24.9088],[-65.1266,47.8083,22.7215],[-65.1178,47.8109,17.8648],[-65.1265,47.8266,4.7634],[-65.1414,47.8233,5.1412],[-65.1475,47.825,7.6864],[-65.1631,47.8178,7.2478],[-65.1708,47.8161,6.2027],[-65.18,47.8192,0.0],[-65.1906,47.8172,0.0],[-65.1975,47.8131,5.6311],[-65.2083,47.8119,11.1829],[-65.2108,47.8092,10.45],[-65.2173,47.8073,0.0]]]]}}