{"type":"Feature","properties":{"GID_3":"CAN.9.6.8_1","GID_0":"CAN","country":"Canada","GID_1":"CAN.9_1","province":"Ontario","NL_NAME_1":"NA","GID_2":"CAN.9.6_1","county":"Dufferin","NL_NAME_2":"NA","city":"Shelburne","VARNAME_3":"NA","NL_NAME_3":"NA","TYPE_3":"Town","ENGTYPE_3":"Town","CC_3":"NA","HASC_3":"NA","name":"Shelburne.city"},
"geometry":{"type": "MultiPolygon","coordinates": [[[[-80.188,44.0816,485.8652],[-80.1899,44.0894,481.8799],[-80.1983,44.0882,483.3138],[-80.1987,44.0901,477.3148],[-80.2153,44.0878,495.9544],[-80.2128,44.0766,496.2227],[-80.2146,44.0763,496.4631],[-80.2135,44.071,493.8708],[-80.2042,44.0728,490.8788],[-80.203,44.068,496.5314],[-80.1793,44.0729,488.444],[-80.1808,44.0765,490.8286],[-80.1833,44.076,488.7053],[-80.1857,44.082,487.6669],[-80.188,44.0799,487.7692],[-80.1873,44.0764,485.759],[-80.1906,44.0757,489.663],[-80.1921,44.0808,486.9918],[-80.188,44.0816,485.8652]]]]}}