{"type":"Feature","properties":{"GID_3":"CAN.2.13.16_1","GID_0":"CAN","country":"Canada","GID_1":"CAN.2_1","province":"BritishColumbia","NL_NAME_1":"NA","GID_2":"CAN.2.13_1","county":"FraserValley","NL_NAME_2":"NA","city":"Franks10","VARNAME_3":"NA","NL_NAME_3":"NA","TYPE_3":"RéserveIndienne","ENGTYPE_3":"IndianReserve","CC_3":"NA","HASC_3":"NA","name":"Franks10.city"},
"geometry":{"type": "MultiPolygon","coordinates": [[[[-122.2951,49.8866,118.5756],[-122.2953,49.8921,214.5795],[-122.3081,49.8925,98.3349],[-122.3002,49.8857,74.4109],[-122.2951,49.8866,118.5756]]]]}}