{"type": "Feature","bbox": [-53.86,47.6431,-53.7921,47.7039],"geometry": {"type": "MultiPolygon","coordinates": [[[[-53.8472,47.6997,0.6048],[-53.86,47.6745,205.0021],[-53.8522,47.6431,86.3355],[-53.7921,47.6466,5.3251],[-53.7989,47.6569,35.4683],[-53.7992,47.6606,40.0485],[-53.7978,47.6619,0.0],[-53.8008,47.6642,29.7179],[-53.8008,47.6706,6.6337],[-53.8044,47.6722,0.0],[-53.8036,47.6747,0.0],[-53.8051,47.6767,11.7427],[-53.8074,47.6773,0.0],[-53.8101,47.6731,15.0976],[-53.8131,47.6731,0.2644],[-53.8175,47.6753,1.4999],[-53.8156,47.6772,3.6293],[-53.8177,47.6793,0.0],[-53.8192,47.6775,8.2999],[-53.8276,47.6778,7.9688],[-53.8289,47.6792,0.0],[-53.8278,47.6808,2.8855],[-53.8225,47.6819,0.0],[-53.8206,47.6839,0.0],[-53.8241,47.687,47.1753],[-53.8242,47.6897,0.0],[-53.826,47.6893,5.2885],[-53.8289,47.6914,0.0],[-53.8278,47.6958,0.0],[-53.8347,47.6986,15.7051],[-53.8361,47.7019,9.538],[-53.84,47.7039,0.0],[-53.8436,47.7031,12.4544],[-53.8472,47.6997,0.6048]]]]}
,"properties": {"GID_3": "CAN.5.3.16_1","GID_0": "CAN","country": "Canada","GID_1": "CAN.5_1","province": "NewfoundlandandLabrador","NL_NAME_1": "NA","GID_2": "CAN.5.3_1","county": "DivisionNo.1","NL_NAME_2": "NA","city": "ChanceCove","VARNAME_3": "NA","NL_NAME_3": "NA","TYPE_3": "Town","ENGTYPE_3": "Town","CC_3": "NA","HASC_3": "NA","name": "Chance_Cove.city","area_km2": 20.57496,"hist_schema_id": "Elevation0-9000","hist_area_km2": {"0": 1.4417,"25": 2.71252,"50": 4.9399,"75": 4.36943,"100": 2.75589,"125": 2.21337,"150": 1.31377,"175": 0.38559,"200": 0.21423,"225": 0.17141,"250": 0.05714}}}