{"type":"Feature","properties":{"featurecla":"River","scalerank":6,"rivernum":322,"dissolve":"322River","name":"Beaver","name_alt":null,"note":null,"min_zoom":5.0,"strokeweig":0.15,"name_en":"Beaver","min_label":6.0},
"geometry":{"type": "LineString","coordinates": [[-112.7408935546875,54.39960358280662,652.0128],[-112.73544921874999,54.418963934369117,650.4218],[-112.74755859375,54.43549225468162,627.2335],[-112.7631103515625,54.451288153119116,619.5],[-112.76816406249999,54.46845123905662,619.5],[-112.76318359375,54.47724030155662,619.5],[-112.75537109375,54.48175690311912,619.5],[-112.746337890625,54.485614324994117,619.5],[-112.7374755859375,54.49201080936912,626.1876],[-112.73369140625,54.500506903119117,676.3971],[-112.73154296874999,54.521356512494116,626.2053],[-112.7272216796875,54.529901434369116,627.8883],[-112.71958007812499,54.53314850468162,627.108],[-112.69755859375,54.536004949994116,637.1685],[-112.6893798828125,54.539813543744117,666.89],[-112.6815673828125,54.54950592655662,670.3988],[-112.66513671874999,54.57770416874412,650.5626],[-112.651611328125,54.59064362186912,613.9661],[-112.63486328124999,54.602313543744117,613.8148],[-112.6162109375,54.612079168744117,648.356],[-112.596923828125,54.619256903119116,645.5128],[-112.603759765625,54.619256903119116,638.067],[-112.53251953125,54.61554596561912,616.1641]]}}