{"type": "Feature","bbox": [-101.6162,51.08,-101.5989,51.0887],"geometry": {"type": "MultiPolygon","coordinates": [[[[-101.5989,51.0887,507.8178],[-101.6098,51.0886,507.9272],[-101.6099,51.0862,508.6761],[-101.6162,51.0887,509.3658],[-101.6161,51.0867,509.8563],[-101.6099,51.0855,508.6761],[-101.6093,51.08,508.0337],[-101.5996,51.0801,507.7772],[-101.5989,51.0887,507.8178]]]]}
,"properties": {"GID_3": "CAN.12.14.32_1","GID_0": "CAN","country": "Canada","GID_1": "CAN.12_1","province": "Saskatchewan","NL_NAME_1": "NA","GID_2": "CAN.12.14_1","county": "DivisionNo.5","NL_NAME_2": "NA","city": "MacNutt","VARNAME_3": "NA","NL_NAME_3": "NA","TYPE_3": "Village","ENGTYPE_3": "Village","CC_3": "NA","HASC_3": "NA","name": "Mac_Nutt.city","area_km2": 0.785793,"hist_schema_id": "Elevation0-9000","hist_area_km2": {"500": 0.785793}}}