{"type":"Feature","properties":{"GID_3":"CAN.1.9.4_1","GID_0":"CAN","country":"Canada","GID_1":"CAN.1_1","province":"Alberta","NL_NAME_1":"NA","GID_2":"CAN.1.9_1","county":"DivisionNo.18","NL_NAME_2":"NA","city":"SturgeonLake154","VARNAME_3":"NA","NL_NAME_3":"NA","TYPE_3":"RéserveIndienne","ENGTYPE_3":"IndianReserve","CC_3":"NA","HASC_3":"NA","name":"Sturgeon_Lake154.city"},
"geometry":{"type": "MultiPolygon","coordinates": [[[[-117.5455,55.0694,697.017],[-117.5426,55.0725,682.2413],[-117.5479,55.074,683.2858],[-117.5479,55.0768,675.2341],[-117.5615,55.0799,694.4833],[-117.5714,55.0916,696.8799],[-117.5841,55.0917,710.2598],[-117.5887,55.0306,735.2659],[-117.3626,55.0305,739.5034],[-117.3621,55.0916,681.5865],[-117.4724,55.0912,675.6551],[-117.4744,55.0876,674.2963],[-117.4869,55.0784,688.9388],[-117.4747,55.0751,695.152],[-117.4784,55.0714,699.4709],[-117.4934,55.076,699.0656],[-117.5076,55.0709,673.8302],[-117.5107,55.0651,684.0676],[-117.5237,55.0636,686.9983],[-117.5368,55.0707,691.8293],[-117.5403,55.0674,699.6366],[-117.5455,55.0694,697.017]]]]}}