{"type": "Feature","bbox": [-110.9742,53.6513,-110.9617,53.6572],"geometry": {"type": "MultiPolygon","coordinates": [[[[-110.9621,53.6572,627.827],[-110.9723,53.6569,621.5538],[-110.9742,53.6535,611.3743],[-110.9651,53.6513,615.7962],[-110.9617,53.6534,609.7565],[-110.9621,53.6572,627.827]]]]}
,"properties": {"GID_3": "CAN.1.1.10_1","GID_0": "CAN","country": "Canada","GID_1": "CAN.1_1","province": "Alberta","NL_NAME_1": "NA","GID_2": "CAN.1.1_1","county": "DivisionNo.10","NL_NAME_2": "NA","city": "Derwent","VARNAME_3": "NA","NL_NAME_3": "NA","TYPE_3": "Village","ENGTYPE_3": "Village","CC_3": "NA","HASC_3": "NA","name": "Derwent.city","area_km2": 0.376966,"hist_schema_id": "Elevation0-9000","hist_area_km2": {"600": 0.1130926,"625": 0.2638734}}}