{"type": "Feature","bbox": [-74.6209,45.6149,-74.5832,45.6426],"geometry": {"type": "MultiPolygon","coordinates": [[[[-74.5882,45.6149,40.0],[-74.5832,45.6328,68.5058],[-74.5954,45.6344,58.9624],[-74.5936,45.6417,60.8848],[-74.6005,45.6426,57.9186],[-74.6029,45.6337,48.1959],[-74.6095,45.6345,40.0],[-74.6209,45.6303,40.0],[-74.6099,45.6227,40.0],[-74.5882,45.6149,40.0]]]]}
,"properties": {"GID_3": "CAN.11.5.4_1","GID_0": "CAN","country": "Canada","GID_1": "CAN.11_1","province": "Québec","NL_NAME_1": "NA","GID_2": "CAN.11.5_1","county": "Argenteuil","NL_NAME_2": "NA","city": "Grenville","VARNAME_3": "NA","NL_NAME_3": "NA","TYPE_3": "Village","ENGTYPE_3": "Village","CC_3": "NA","HASC_3": "NA","name": "Grenville.city","area_km2": 4.299825,"hist_schema_id": "Elevation0-9000","hist_area_km2": {"50": 3.988446,"75": 0.311379}}}