{"type":"Feature","properties":{"featurecla":"River","scalerank":11,"rivernum":21154,"dissolve":"21154River","name":"Kingurutik1","name_alt":null,"note":"ID is link back to CEC data","name_full":"Kingurutik River","min_zoom":6.7,"strokeweig":0.2,"uident":1433701,"min_label":7.7},
"geometry":{"type": "LineString","coordinates": [[-63.640492316791239,57.036078192181527,550.7715],[-63.600982225645396,57.038356838014863,577.6135],[-63.554839647520396,57.031439520306527,557.4488],[-63.531605598041239,57.026068426556527,578.8237],[-63.487660285541239,57.022406317181527,551.0367],[-63.439035611062067,57.044989324994027,593.2352],[-63.404855923562067,57.050238348431527,600.7266],[-63.394927538145396,57.072333074994027,527.762],[-63.390370246478739,57.082464910931527,547.5955],[-63.355865038145396,57.095974025514863,518.9077],[-63.335519986062067,57.119452215619027,368.2239],[-63.298573371478739,57.131537176556527,484.7792],[-63.272775845437067,57.129258530723192,359.8051],[-63.243072069395396,57.105576890098192,423.3943],[-63.132720506895396,57.044216213014863,265.337],[-63.098622199603739,57.030625718223192,291.5829],[-63.054676887103739,57.016628322389863,399.0021],[-63.026600715228739,57.017442124473192,369.8591],[-62.934722460020396,57.033392645306527,482.1379],[-62.865712043353739,57.037868556764863,462.2238],[-62.832630988666239,57.031927801556527,497.244],[-62.802601691791239,57.008124090619027,219.3637],[-62.784006314187067,56.972113348431527,117.6389],[-62.781646288145396,56.967718817181527,91.6485],[-62.753854946999567,56.959580796348192,412.0518],[-62.705230272520396,56.951931056764863,215.3362],[-62.705189582416239,56.951931056764863,215.3362],[-62.704945441791239,56.951605535931527,215.3362],[-62.692209439187067,56.933539129681527,196.4276],[-62.686024543353739,56.924831447389863,73.417],[-62.666371223041239,56.901922918744027,64.8772],[-62.611317512103739,56.881537176556527,42.4669],[-62.544667121478739,56.839463608848192,10.6743]]}}