{"type":"Feature","properties":{"featurecla":"River","scalerank":10,"rivernum":20265,"dissolve":"20265River","name":"Oldman2","name_alt":null,"note":"ID is link back to CEC data","name_full":"Oldman River","min_zoom":6.0,"strokeweig":0.2,"uident":1762801,"min_label":7.0},
"geometry":{"type": "LineString","coordinates": [[-114.00812740793705,49.621852931764863,1218.3584],[-113.95348059804122,49.604559637494027,1138.5618],[-113.9420466787704,49.603338934369027,1153.1733],[-113.8617244131454,49.571722723431527,1123.2241],[-113.8146052725204,49.558294989056527,1037.3835],[-113.76475989491622,49.550604559369027,1028.347],[-113.73908443918705,49.559271551556527,1052.5801],[-113.72020423085372,49.577175197389863,1019.3777],[-113.71735592356205,49.588324285931527,1019.5764],[-113.7047419912704,49.629217840619027,1007.4703],[-113.67707272043705,49.652858791139863,1032.4823],[-113.65892493397872,49.658026434369027,1031.311],[-113.6488337881454,49.6558698588482,1029.3279],[-113.62507076731205,49.650824285931527,1003.0366],[-113.6107478506454,49.665798244264863,983.1017],[-113.60993404856205,49.666693426556527,983.1017],[-113.59727942616622,49.6917585307232,973.1079],[-113.57664954335372,49.7115339213482,984.5735],[-113.55479895741622,49.722967840619027,977.8104],[-113.47752844960372,49.738104559369027,961.9912],[-113.4313044912704,49.755926824994027,940.4023],[-113.38410397043705,49.777533270306527,968.9486],[-113.33381100168705,49.7925886088482,959.5334],[-113.3182673818954,49.806179103639863,916.4572],[-113.31676184804122,49.820583400514863,958.9297],[-113.28620357981205,49.837103582806527,908.1295],[-113.26121985585372,49.8419050150982,946.7408],[-113.23741614491622,49.837713934369027,951.6643],[-113.20689856679122,49.818793035931527,895.3394],[-113.07494055897872,49.778387762494027,890.1079]]}}