{"type":"Feature","properties":{"featurecla":"River","scalerank":11,"rivernum":20240,"dissolve":"20240River","name":"Qu'Appelle","name_alt":null,"note":"ID is link back to CEC data","name_full":"Qu'Appelle River","min_zoom":6.7,"strokeweig":0.2,"uident":1751701,"min_label":7.7},
"geometry":{"type": "LineString","coordinates": [[-106.34215247304122,50.995550848431527,568.8284],[-106.3219294912704,51.001410223431527,568.005],[-106.27741451731205,51.0081647807232,565.7175],[-106.21003170481205,51.0020612650982,573.6451],[-106.19123287668705,50.993963934369027,572.3412],[-106.16779537668705,50.969061590619027,573.0],[-106.12336178293705,50.9378522807232,573.0901],[-106.06053626210372,50.908758856244027,565.7295],[-106.03184973866622,50.903509832806527,565.1166],[-105.95319576731205,50.895046291139863,587.654],[-105.9427791006454,50.8875593119732,588.8715],[-105.89659583241622,50.8582624369732,590.8],[-105.80382239491622,50.837673244264863,592.1224],[-105.74791419179122,50.802516994264863,593.6801],[-105.71393795481205,50.7872175150982,595.2004],[-105.6561580068954,50.774684963014863,588.0777],[-105.6222224600204,50.759466864056527,595.5673],[-105.48420162668705,50.669501043744027,583.2366],[-105.44994055897872,50.652533270306527,580.3226],[-105.39549719960372,50.630926824994027,580.8749],[-105.36042232981205,50.620917059369027,578.0922],[-105.32624264231207,50.614203192181527,574.9556],[-105.26768958241622,50.606634832806527,568.6812]]}}