{"type": "Feature","bbox": [-80.8444,49.0004,-80.8332,49.0149],"geometry": {"type": "MultiPolygon","coordinates": [[[[-80.8432,49.0005,238.0937],[-80.8434,49.0008,238.0937],[-80.8441,49.0019,258.3174],[-80.8441,49.0004,265.2693],[-80.8432,49.0005,238.0937]]],
[[[-80.8354,49.0144,266.9085],[-80.8444,49.0149,264.4648],[-80.844,49.003,244.2544],[-80.8418,49.0005,238.0937],[-80.8334,49.0009,265.8878],[-80.8332,49.0133,264.7609],[-80.8354,49.0144,266.9085]]]]}
,"properties": {"GID_3": "CAN.9.5.20_1","GID_0": "CAN","country": "Canada","GID_1": "CAN.9_1","province": "Ontario","NL_NAME_1": "NA","GID_2": "CAN.9.5_1","county": "Cochrane","NL_NAME_2": "NA","city": "NewPost69A","VARNAME_3": "NA","NL_NAME_3": "NA","TYPE_3": "RéserveIndienne","ENGTYPE_3": "IndianReserve","CC_3": "NA","HASC_3": "NA","name": "New_Post69_A.city","area_km2": 1.1404381,"hist_schema_id": "Elevation0-9000","hist_area_km2": {"225": 0.0695467,"250": 0.2503491,"275": 0.8205423}}}