{"type": "Feature","bbox": [-114.3791,53.951,-114.3672,53.9558],"geometry": {"type": "MultiPolygon","coordinates": [[[[-114.3695,53.9549,686.5846],[-114.3672,53.9549,674.6976],[-114.3704,53.9558,694.0435],[-114.3791,53.9546,709.7789],[-114.3791,53.951,698.2629],[-114.3698,53.951,685.6232],[-114.3708,53.9522,688.6052],[-114.3695,53.9549,686.5846]]]]}
,"properties": {"GID_3": "CAN.1.4.7_1","GID_0": "CAN","country": "Canada","GID_1": "CAN.1_1","province": "Alberta","NL_NAME_1": "NA","GID_2": "CAN.1.4_1","county": "DivisionNo.13","NL_NAME_2": "NA","city": "BirchCove","VARNAME_3": "NA","NL_NAME_3": "NA","TYPE_3": "SummerVillage","ENGTYPE_3": "SummerVillage","CC_3": "NA","HASC_3": "NA","name": "Birch_Cove.city","area_km2": 0.2495262,"hist_schema_id": "Elevation0-9000","hist_area_km2": {"675": 0.0623826,"700": 0.1871437}}}