{"type": "Feature","bbox": [-57.6106,50.2054,-57.5609,50.2663],"geometry": {"type": "MultiPolygon","coordinates": [[[[-57.6106,50.2073,0.0],[-57.6027,50.2054,21.8667],[-57.5922,50.2089,8.4439],[-57.5936,50.2128,19.2945],[-57.5893,50.2193,21.1998],[-57.5834,50.2221,19.2639],[-57.5718,50.222,5.8038],[-57.5609,50.2615,16.8461],[-57.5692,50.2663,4.1878],[-57.5779,50.2482,16.6],[-57.5848,50.2417,14.3917],[-57.5913,50.2407,0.0],[-57.5882,50.2321,7.0916],[-57.5907,50.2276,12.1555],[-57.6029,50.2157,10.0601],[-57.6064,50.2141,0.0],[-57.6068,50.2095,3.8345],[-57.6106,50.2073,0.0]]]]}
,"properties": {"GID_3": "CAN.5.11.8_1","GID_0": "CAN","country": "Canada","GID_1": "CAN.5_1","province": "NewfoundlandandLabrador","NL_NAME_1": "NA","GID_2": "CAN.5.11_1","county": "DivisionNo.9","NL_NAME_2": "NA","city": "Daniel'sHarbour","VARNAME_3": "NA","NL_NAME_3": "NA","TYPE_3": "Town","ENGTYPE_3": "Town","CC_3": "NA","HASC_3": "NA","name": "Daniel's_Harbour.city","area_km2": 7.201422,"hist_schema_id": "Elevation0-9000","hist_area_km2": {"0": 1.803879,"25": 5.397544}}}