{"type": "Feature","bbox": [-65.205771245567846,44.134127358923251,-64.949821637026858,44.283369971379017],"geometry": {"type": "Polygon","coordinates": [[[-64.986469970854756,44.249812460886005,90.5717],[-65.003984636419091,44.241275901199174,97.2221],[-65.018702842775667,44.230678792622456,85.4029],[-65.042840701200461,44.199181831019359,79.0],[-65.051818807077979,44.194472004985244,80.6544],[-65.058589182002009,44.198298738637959,89.9781],[-65.065212374862469,44.205363477689133,101.3423],[-65.0733073883586,44.209778939596106,91.826],[-65.09244105662215,44.205363477689133,94.7326],[-65.1025966190082,44.205657841816247,91.8845],[-65.1068648988516,44.213311309121679,102.0498],[-65.108042355360126,44.216549314520137,107.1665],[-65.110544450440756,44.218315499282909,113.3788],[-65.113193727584928,44.22096477642711,102.2004],[-65.114371184093457,44.227146423096855,86.8599],[-65.112163453139971,44.23097315674957,79.0],[-65.107600809169426,44.23097315674957,79.0],[-65.102890983135325,44.23009006436817,79.0],[-65.100683252181838,44.230678792622456,79.0],[-65.099652977736881,44.240687172944916,79.0],[-65.100683252181838,44.261292661844124,96.148],[-65.096267790274865,44.264530667242582,81.6076],[-65.08670095614309,44.264236303115467,80.3577],[-65.0771341220113,44.2665912161325,106.5398],[-65.0733073883586,44.278071417090644,87.7991],[-65.0831685866175,44.283369971379017,97.6578],[-65.0978867929741,44.2804263301077,108.2285],[-65.114812730284157,44.274833411692185,87.0397],[-65.131738667594234,44.27188977042087,79.5186],[-65.149694879349255,44.272478498675127,98.69],[-65.158967349353915,44.271595406293756,92.2841],[-65.1658849063415,44.268063036768154,81.1613],[-65.1710362785663,44.259820841208466,95.9449],[-65.172802463329091,44.243925178343375,81.8733],[-65.175746104600421,44.237154803419344,79.0],[-65.181780569206609,44.233328069766628,79.0],[-65.197087503817457,44.2292069719868,91.8955],[-65.202974786360087,44.223319689444139,79.0],[-65.20282760429653,44.216254950392994,79.0],[-65.198412142389557,44.208601483087563,79.0],[-65.195468501118242,44.200653651655017,79.0],[-65.205771245567846,44.17916507037441,79.0],[-65.201650147788,44.164741228144948,80.2909],[-65.191494585401955,44.152966663059686,81.2326],[-65.175157376346149,44.145901924008513,79.0],[-65.169122911739947,44.141192097974425,82.5396],[-65.16146944443453,44.136187907813166,94.3653],[-65.152196974429884,44.134127358923251,85.9153],[-65.149694879349255,44.136776636067452,87.4366],[-65.146604056014382,44.150023021788371,79.0],[-65.141599865853138,44.154438483695344,79.0],[-65.0733073883586,44.151200478296886,102.3627],[-65.066389831371,44.141780826228683,89.0126],[-65.050346986442321,44.14236955448294,82.2135],[-65.032096410560158,44.147962472898456,102.6908],[-65.018702842775667,44.154438483695344,110.5316],[-65.004867728800477,44.164446864017805,104.1872],[-64.99633116911366,44.174160880213151,99.3942],[-64.983967875774127,44.195355097366644,96.0127],[-64.997950171812889,44.211839488486021,94.1679],[-65.005014910864048,44.217138042774394,81.2403],[-64.987647427363271,44.222142232935624,87.2691],[-64.963951115129177,44.243042085961974,91.0296],[-64.949821637026858,44.250695553267406,81.5],[-64.949821637026858,44.258054656445694,82.3943],[-64.96792503084545,44.255699743428636,93.8479],[-64.986469970854756,44.249812460886005,90.5717]]]}
,"properties": {"featurecla": "Lake","scalerank": 5,"name": "Lake Rossignol","name_abb": "L. Rossignol","name_alt": null,"note": null,"delta": null,"dam_name": null,"year": -99,"admin": null,"min_zoom": 4.7,"min_label": 6.0,"area_km2": 168.6565,"hist_schema_id": "Elevation0-9000","hist_area_km2": {"75": 145.1438,"100": 23.1328,"125": 0.3798}}}