{"type": "Feature","bbox": [-69.5859,47.7556,-69.4325,47.8912],"geometry": {"type": "MultiPolygon","coordinates": [[[[-69.5198,47.759,104.4937],[-69.5112,47.7663,103.9939],[-69.4639,47.8277,97.3014],[-69.4487,47.8179,100.7533],[-69.4325,47.8365,100.1677],[-69.4424,47.843,96.9384],[-69.4691,47.8535,102.3332],[-69.4674,47.8545,106.5706],[-69.4608,47.8519,98.3128],[-69.4562,47.8558,100.1116],[-69.4838,47.8667,77.8381],[-69.49,47.8616,90.9112],[-69.5129,47.8761,35.2301],[-69.5141,47.8754,42.7364],[-69.5341,47.8912,21.9009],[-69.5507,47.876,0.0],[-69.5465,47.8773,6.3421],[-69.5427,47.8759,0.7984],[-69.5419,47.8741,2.1327],[-69.5434,47.8703,17.6321],[-69.5681,47.8472,1.7036],[-69.5653,47.8475,4.8219],[-69.5602,47.8512,0.3921],[-69.5508,47.8531,0.3894],[-69.5382,47.8464,1.7795],[-69.5408,47.845,3.212],[-69.5475,47.8508,0.344],[-69.5528,47.8517,0.0],[-69.5515,47.8444,0.1606],[-69.5534,47.8387,0.3846],[-69.5716,47.821,-0.2942],[-69.5758,47.8148,2.356],[-69.5843,47.812,4.7715],[-69.5859,47.8096,2.2919],[-69.5651,47.7955,120.1143],[-69.5668,47.7945,125.1557],[-69.5645,47.7925,129.4241],[-69.5673,47.7908,128.1848],[-69.5647,47.7891,138.0597],[-69.5653,47.787,133.8182],[-69.5746,47.7816,131.1626],[-69.5673,47.7769,130.9435],[-69.573,47.7704,135.8188],[-69.552,47.7556,115.1992],[-69.5427,47.762,113.2646],[-69.5364,47.7625,111.4155],[-69.5339,47.7642,95.9028],[-69.5304,47.7616,108.1888],[-69.5198,47.759,104.4937]]]]}
,"properties": {"GID_3": "CAN.11.89.4_1","GID_0": "CAN","country": "Canada","GID_1": "CAN.11_1","province": "Québec","NL_NAME_1": "NA","GID_2": "CAN.11.89_1","county": "Rivière-du-Loup","NL_NAME_2": "NA","city": "Rivière-du-Loup","VARNAME_3": "NA","NL_NAME_3": "NA","TYPE_3": "Ville","ENGTYPE_3": "Ville","CC_3": "NA","HASC_3": "NA","name": "Rivière-du-Loup.city","area_km2": 84.56211,"hist_schema_id": "Elevation0-9000","hist_area_km2": {"0": 5.56327,"25": 8.87761,"50": 6.58921,"75": 4.32571,"100": 45.43925,"125": 11.9444,"150": 1.82265}}}