{"type": "Feature","bbox": [-53.2658,47.5229,-53.1844,47.5724],"geometry": {"type": "MultiPolygon","coordinates": [[[[-53.1851,47.5612,0.0],[-53.1844,47.5641,0.0],[-53.1881,47.567,0.0],[-53.1881,47.5692,7.8009],[-53.185,47.5714,0.0],[-53.1951,47.5724,0.0],[-53.206,47.5665,12.4133],[-53.2156,47.5589,0.9088],[-53.2206,47.5525,0.0],[-53.2328,47.5461,0.5967],[-53.2347,47.5481,1.8897],[-53.2253,47.5539,3.5885],[-53.2269,47.5578,23.6766],[-53.2245,47.5589,0.0],[-53.2286,47.5597,10.7746],[-53.23,47.5625,0.0],[-53.2385,47.5588,0.0],[-53.2435,47.5561,0.0],[-53.2442,47.5508,73.0935],[-53.2485,47.5441,96.4371],[-53.2652,47.5288,64.6157],[-53.2635,47.5271,65.0244],[-53.2658,47.5255,62.762],[-53.2637,47.5229,69.8075],[-53.2579,47.5275,57.3858],[-53.2423,47.5288,25.7838],[-53.2059,47.5473,95.063],[-53.1851,47.5612,0.0]]]]}
,"properties": {"GID_3": "CAN.5.3.23_1","GID_0": "CAN","country": "Canada","GID_1": "CAN.5_1","province": "NewfoundlandandLabrador","NL_NAME_1": "NA","GID_2": "CAN.5.3_1","county": "DivisionNo.1","NL_NAME_2": "NA","city": "Cupids","VARNAME_3": "NA","NL_NAME_3": "NA","TYPE_3": "Town","ENGTYPE_3": "Town","CC_3": "NA","HASC_3": "NA","name": "Cupids.city","area_km2": 11.176685,"hist_schema_id": "Elevation0-9000","hist_area_km2": {"0": 1.101784,"25": 3.134145,"50": 3.320033,"75": 2.447206,"100": 1.173518}}}