{"type": "Feature","bbox": [-74.9409,45.9441,-74.6782,46.1349],"geometry": {"type": "MultiPolygon","coordinates": [[[[-74.7117,46.0996,355.5317],[-74.75,46.1,417.1317],[-74.7497,46.1278,316.7175],[-74.7704,46.128,333.43],[-74.7704,46.1349,383.4093],[-74.8935,46.1326,352.4947],[-74.8938,46.1197,265.6371],[-74.9271,46.1191,257.238],[-74.9269,46.1061,254.6978],[-74.94,46.1062,296.841],[-74.9409,46.0618,356.3687],[-74.8592,46.062,261.2808],[-74.858,46.017,230.2882],[-74.8372,46.0174,282.2501],[-74.8368,46.0025,351.7125],[-74.8318,46.0026,348.3301],[-74.8314,45.9735,319.2526],[-74.8074,45.9733,370.5691],[-74.8076,45.9583,322.9796],[-74.8014,45.9585,217.0157],[-74.8022,45.9441,203.7154],[-74.7642,45.9454,326.4335],[-74.7634,45.973,304.2809],[-74.6975,45.9723,260.1073],[-74.6838,46.0191,275.7597],[-74.6782,46.0474,325.9704],[-74.7116,46.0469,328.7514],[-74.7117,46.0996,355.5317]]]]}
,"properties": {"GID_3": "CAN.11.67.1_1","GID_0": "CAN","country": "Canada","GID_1": "CAN.11_1","province": "Québec","NL_NAME_1": "NA","GID_2": "CAN.11.67_1","county": "LesLaurentides","NL_NAME_2": "NA","city": "Amherst","VARNAME_3": "NA","NL_NAME_3": "NA","TYPE_3": "MunicipalitéDeCanton","ENGTYPE_3": "CantonMunicipality","CC_3": "NA","HASC_3": "NA","name": "Amherst.city","area_km2": 249.3749,"hist_schema_id": "Elevation0-9000","hist_area_km2": {"200": 5.1565,"225": 30.3038,"250": 33.9096,"275": 33.2961,"300": 41.9329,"325": 37.2389,"350": 28.2794,"375": 19.1137,"400": 10.256,"425": 5.6648,"450": 2.413,"475": 1.3097,"500": 0.4415,"525": 0.0589}}}