{"type": "Feature","bbox": [-102.8427,50.7463,-102.8193,50.7612],"geometry": {"type": "MultiPolygon","coordinates": [[[[-102.8425,50.7611,554.1161],[-102.8427,50.7463,555.4302],[-102.8194,50.7463,553.4164],[-102.8193,50.7612,551.772],[-102.8425,50.7611,554.1161]]]]}
,"properties": {"GID_3": "CAN.12.14.25_1","GID_0": "CAN","country": "Canada","GID_1": "CAN.12_1","province": "Saskatchewan","NL_NAME_1": "NA","GID_2": "CAN.12.14_1","county": "DivisionNo.5","NL_NAME_2": "NA","city": "Killaly","VARNAME_3": "NA","NL_NAME_3": "NA","TYPE_3": "Village","ENGTYPE_3": "Village","CC_3": "NA","HASC_3": "NA","name": "Killaly.city","area_km2": 2.655908,"hist_schema_id": "Elevation0-9000","hist_area_km2": {"550": 2.629078,"575": 0.02683}}}