{"type": "Feature","bbox": [-110.4228,50.8986,-110.0047,51.2703],"geometry": {"type": "MultiPolygon","coordinates": [[[[-110.0047,50.9664,585.7699],[-110.0051,51.2699,712.5815],[-110.4221,51.2703,731.3997],[-110.4198,51.2409,733.894],[-110.4198,51.2095,738.6035],[-110.4228,50.9544,610.2922],[-110.4161,50.9531,611.7292],[-110.3821,50.9333,597.8212],[-110.3701,50.9292,594.4121],[-110.3473,50.9255,596.7077],[-110.338,50.9213,594.9514],[-110.3128,50.9156,594.1953],[-110.2742,50.8986,593.3495],[-110.2458,50.9005,593.9845],[-110.2403,50.9022,591.4952],[-110.2252,50.9119,592.5029],[-110.2222,50.9182,592.1226],[-110.2316,50.9317,592.0565],[-110.2268,50.9357,591.3276],[-110.2142,50.9349,591.374],[-110.2058,50.931399999999996,590.3888],[-110.195,50.9232,590.2534],[-110.1673,50.9298,589.6288],[-110.1601,50.9344,588.49],[-110.148,50.9367,588.1216],[-110.1372,50.9408,586.0754],[-110.1109,50.9426,587.3137],[-110.0996,50.949,584.9505],[-110.0716,50.9505,588.7365],[-110.0644,50.9547,586.5402],[-110.06,50.9664,587.9651],[-110.0501,50.9688,587.9423],[-110.0267,50.9654,582.0439],[-110.0047,50.9664,585.7699]]]]}
,"properties": {"GID_3": "CAN.1.14.1_1","GID_0": "CAN","country": "Canada","GID_1": "CAN.1_1","province": "Alberta","NL_NAME_1": "NA","GID_2": "CAN.1.14_1","county": "DivisionNo.4","NL_NAME_2": "NA","city": "AcadiaNo.34","VARNAME_3": "NA","NL_NAME_3": "NA","TYPE_3": "MunicipalDistrict","ENGTYPE_3": "MunicipalDistrict","CC_3": "NA","HASC_3": "NA","name": "Acadia_No.34.city","area_km2": 1087.8412,"hist_schema_id": "Elevation0-9000","hist_area_km2": {"575": 8.9737,"600": 63.1475,"625": 38.321,"650": 38.6104,"675": 102.9686,"700": 147.4934,"725": 266.9556,"750": 270.4527,"775": 134.2329,"800": 16.6853}}}