{"type":"Feature","properties":{"featurecla":"River","scalerank":10,"rivernum":20328,"dissolve":"20328River","name":"Kootenay5","name_alt":null,"note":"ID is link back to CEC data","name_full":"Kootenay River","min_zoom":6.0,"strokeweig":0.25,"uident":1751901,"min_label":7.0},
"geometry":{"type": "LineString","coordinates": [[-117.5414119131454,49.453436590619027,643.5865],[-117.5240779287704,49.454901434369027,500.3962],[-117.50560462147872,49.466335353639863,653.1824],[-117.42682857981205,49.499090887494027,880.7419],[-117.35509192616622,49.509466864056527,1088.1862],[-117.3172908193954,49.505194403119027,886.9727],[-117.29124915272872,49.5167097025982,740.1754],[-117.26842200429122,49.5374616557232,765.8693],[-117.26622473866622,49.541937567181527,736.2889],[-117.2569880850204,49.560492254681527,652.6251],[-117.23192298085372,49.583522853639863,622.5929],[-117.19188391835372,49.602565822389863,928.5637],[-117.13988196522872,49.618475653119027,817.1715],[-117.09007727772872,49.618231512494027,749.4882],[-117.08812415272872,49.618475653119027,734.7728],[-117.08690344960372,49.618597723431527,734.7728],[-117.02721106679122,49.624212957806527,892.0722],[-116.9862361318954,49.636786199994027,975.7104],[-116.94517981679122,49.653509832806527,649.298]]}}