{"type":"Feature","properties":{"featurecla":"River","scalerank":10,"rivernum":20321,"dissolve":"20321River","name":"Kootenay4","name_alt":null,"note":"ID is link back to CEC data","name_full":"Kootenay River","min_zoom":6.0,"strokeweig":0.25,"uident":1753901,"min_label":7.0},
"geometry":{"type": "LineString","coordinates": [[-117.5414119131454,49.453436590619027,643.5865],[-117.54271399647872,49.4171003275982,520.0986],[-117.54816647043705,49.383327541139863,463.653],[-117.56456458241622,49.368597723431527,456.5015],[-117.58429928293705,49.354681707806527,521.2091],[-117.65794837147872,49.318548895306527,437.8665]]}}