{"type": "Feature","bbox": [-101.205,51.9687,-100.7515,52.3187],"geometry": {"type": "MultiPolygon","coordinates": [[[[-100.8222,52.3181,293.8797],[-101.2042,52.3187,343.6931],[-101.2049,52.2562,306.8976],[-101.2039,52.246,305.3625],[-101.1984,52.246,306.4425],[-101.1987,52.2317,306.2283],[-101.205,52.2317,307.8841],[-101.2048,51.9687,415.9349],[-100.7515,51.9709,601.7825],[-100.7529,52.144,338.14],[-100.7517,52.2622,316.1398],[-100.7531,52.3182,285.9245],[-100.8222,52.3181,293.8797]],
[[-101.0497,52.0857,333.2096],[-101.0483,52.0857,333.5149],[-101.0484,52.0932,326.4206],[-101.0252,52.0933,327.4324],[-101.0248,52.0859,331.2052],[-101.0381,52.0844,332.1408],[-101.038,52.0785,335.1321],[-101.0482,52.0784,335.814],[-101.0483,52.0843,332.8642],[-101.0497,52.0857,333.2096]]]]}
,"properties": {"GID_3": "CAN.3.12.5_1","GID_0": "CAN","country": "Canada","GID_1": "CAN.3_1","province": "Manitoba","NL_NAME_1": "NA","GID_2": "CAN.3.12_1","county": "DivisionNo.20","NL_NAME_2": "NA","city": "Minitonas","VARNAME_3": "NA","NL_NAME_3": "NA","TYPE_3": "RuralMunicipality","ENGTYPE_3": "RuralMunicipality","CC_3": "NA","HASC_3": "NA","name": "Minitonas.city","area_km2": 1194.8279,"hist_schema_id": "Elevation0-9000","hist_area_km2": {"275": 80.8876,"300": 425.8035,"325": 278.4988,"350": 90.3088,"375": 26.8361,"400": 50.3433,"425": 39.5067,"450": 22.2852,"475": 29.2058,"500": 26.7341,"525": 40.0133,"550": 33.5966,"575": 12.4156,"600": 14.4674,"625": 15.279,"650": 7.8886,"675": 0.7575}}}