{"type":"Feature","properties":{"GID_3":"CAN.2.28.58_1","GID_0":"CAN","country":"Canada","GID_1":"CAN.2_1","province":"BritishColumbia","NL_NAME_1":"NA","GID_2":"CAN.2.28_1","county":"Thompson-Nicola","NL_NAME_2":"NA","city":"OregonJackCreek3","VARNAME_3":"NA","NL_NAME_3":"NA","TYPE_3":"RéserveIndienne","ENGTYPE_3":"IndianReserve","CC_3":"NA","HASC_3":"NA","name":"Oregon_Jack_Creek3.city"},
"geometry":{"type": "MultiPolygon","coordinates": [[[[-121.321,50.6208,316.4048],[-121.3192,50.61,392.2732],[-121.3161,50.6101,308.1529],[-121.3133,50.615,303.4426],[-121.3169,50.6193,288.4718],[-121.321,50.6208,316.4048]]],
[[[-121.3105,50.6163,263.105],[-121.3092,50.617,263.105],[-121.3102,50.6195,264.482],[-121.3145,50.6215,262.9653],[-121.3117,50.6169,261.1469],[-121.3105,50.6163,263.105]]]]}}