{"type": "Feature","bbox": [-107.2609,51.0088,-106.6189,51.2713],"geometry": {"type": "MultiPolygon","coordinates": [[[[-106.8829,51.2713,501.0561],[-107.2593,51.2713,627.9647],[-107.2609,51.1415,707.9673],[-107.2603,51.0094,619.1225],[-106.8847,51.0088,552.0],[-106.8776,51.0174,552.0],[-106.8696,51.022,552.0],[-106.8513,51.0265,552.0],[-106.8327,51.0289,552.0],[-106.8089,51.0279,552.0],[-106.8043,51.031,552.0],[-106.7923,51.0317,552.0],[-106.7867,51.0298,552.0],[-106.7844,51.0347,552.0],[-106.7728,51.0383,552.0],[-106.724,51.0447,552.0],[-106.7154,51.0475,552.0],[-106.6684,51.0752,552.0],[-106.6456,51.0849,552.0],[-106.6371,51.0854,552.0],[-106.6227,51.0916,552.0],[-106.6189,51.1005,552.0],[-106.6297,51.1108,552.0],[-106.6499,51.1111,552.0],[-106.6667,51.1178,552.0],[-106.6918,51.1198,552.0],[-106.7061,51.1241,552.0],[-106.7794,51.156,552.0],[-106.7826,51.1611,552.0],[-106.7934,51.17,552.0],[-106.8048,51.1867,552.0],[-106.8069,51.1966,552.0],[-106.818,51.2101,552.0],[-106.8212,51.22,552.0],[-106.824,51.223,552.0],[-106.8248,51.229,552.0],[-106.8307,51.2347,552.0],[-106.8486,51.232,552.0],[-106.8524,51.2299,573.1577],[-106.8558,51.2335,577.3211],[-106.8612,51.234,577.2827],[-106.8612,51.2359,567.0389],[-106.8692,51.2394,582.5975],[-106.8843,51.2494,552.0],[-106.8829,51.2713,501.0561]],
[[-106.9807,51.0928,594.9896],[-106.9874,51.0927,596.4077],[-106.9875,51.1015,599.1505],[-106.9756,51.1026,596.7064],[-106.9752,51.0949,596.629],[-106.9807,51.0948,597.8591],[-106.9807,51.0928,594.9896]],
[[-106.8116,51.1604,552.0],[-106.822,51.1642,564.5811],[-106.822,51.1695,552.0],[-106.8159,51.1696,552.0],[-106.8116,51.1604,552.0]]]]}
,"properties": {"GID_3": "CAN.12.16.15_1","GID_0": "CAN","country": "Canada","GID_1": "CAN.12_1","province": "Saskatchewan","NL_NAME_1": "NA","GID_2": "CAN.12.16_1","county": "DivisionNo.7","NL_NAME_2": "NA","city": "CoteauNo.255","VARNAME_3": "NA","NL_NAME_3": "NA","TYPE_3": "RuralMunicipality","ENGTYPE_3": "RuralMunicipality","CC_3": "NA","HASC_3": "NA","name": "Coteau_No.255.city","area_km2": 999.143,"hist_schema_id": "Elevation0-9000","hist_area_km2": {"500": 0.199,"525": 0.4113,"550": 78.868,"575": 300.8589,"600": 215.8177,"625": 111.1984,"650": 40.9188,"675": 59.6064,"700": 65.0926,"725": 81.4826,"750": 40.8228,"775": 3.8268,"800": 0.0399}}}