{"type":"Feature","properties":{"GID_3":"CAN.1.12.18_1","GID_0":"CAN","country":"Canada","GID_1":"CAN.1_1","province":"Alberta","NL_NAME_1":"NA","GID_2":"CAN.1.12_1","county":"DivisionNo.2","NL_NAME_2":"NA","city":"Taber","VARNAME_3":"NA","NL_NAME_3":"NA","TYPE_3":"Town","ENGTYPE_3":"Town","CC_3":"NA","HASC_3":"NA","name":"Taber.city"},
"geometry":{"type": "MultiPolygon","coordinates": [[[[-112.1507,49.8147,807.0543],[-112.1522,49.8147,806.6125],[-112.1523,49.8211,783.8917],[-112.1498,49.8211,796.9808],[-112.1498,49.8222,783.863],[-112.1554,49.8221,780.0309],[-112.1612,49.8164,771.973],[-112.1613,49.8112,807.4464],[-112.1663,49.8108,784.1019],[-112.1663,49.8095,804.4879],[-112.1716,49.807,804.4144],[-112.1718,49.7779,814.1557],[-112.1597,49.7802,814.4706],[-112.1596,49.7744,817.5068],[-112.1385,49.7747,817.959],[-112.1384,49.7788,815.9146],[-112.1363,49.7787,815.6144],[-112.136,49.7812,814.7972],[-112.1382,49.7825,814.9083],[-112.1277,49.7824,814.1641],[-112.1276,49.7859,811.9545],[-112.1159,49.7858,811.0406],[-112.116,49.7885,809.6114],[-112.1048,49.7906,807.4625],[-112.1048,49.7934,806.1721],[-112.1159,49.7945,805.8303],[-112.1159,49.8043,805.475],[-112.1277,49.8043,806.4398],[-112.1278,49.8148,804.9727],[-112.1507,49.8147,807.0543]]]]}}