{"type": "Feature","bbox": [-127.8178,54.4933,-126.6228,55.0077],"geometry": {"type": "MultiPolygon","coordinates": [[[[-127.7716,54.4947,1963.251],[-127.2127,54.4956,1739.4214],[-126.7641,54.4933,786.6768],[-126.7636,54.4972,794.425],[-126.7273,54.4974,838.4353],[-126.7268,54.5063,887.5363],[-126.6228,54.5071,1080.5114],[-126.6252,54.626,1243.4247],[-126.6303,54.6382,1294.1055],[-126.6408,54.6401,1331.8728],[-126.6607,54.6495,1250.5264],[-126.6717,54.6598,1281.1844],[-126.6789,54.6612,1326.7703],[-126.676,54.6681,1370.8883],[-126.6798,54.6728,1453.9388],[-126.6813,54.6793,1424.093],[-126.6912,54.681399999999996,1437.3103],[-126.6995,54.6801,1448.1494],[-126.7294,54.671,1435.1093],[-126.7315,54.6796,1504.4395],[-126.7291,54.6858,1495.8782],[-126.7359,54.6909,1467.5331],[-126.7466,54.6932,1442.9536],[-126.7473,54.7056,1349.3079],[-126.7432,54.7118,1306.7083],[-126.7417,54.7198,1178.8309],[-126.7537,54.7262,1273.928],[-126.7689,54.7283,1261.2755],[-126.7754,54.7339,1241.6576],[-126.7726,54.7407,1295.4226],[-126.7717,54.7499,1331.6986],[-126.7566,54.7613,1313.5629],[-126.7484,54.7608,1343.3269],[-126.7395,54.7568,1365.9351],[-126.7074,54.7616,1525.4504],[-126.7075,54.765,1524.962],[-126.7123,54.7719,1523.0385],[-126.7058,54.7741,1516.5779],[-126.7005,54.7943,1431.7501],[-126.7056,54.7996,1458.4257],[-126.7123,54.8037,1530.2811],[-126.7245,54.8052,1560.4261],[-126.7608,54.7948,1278.0352],[-126.7766,54.7964,1207.9524],[-126.7898,54.8105,1045.2085],[-126.8168,54.8149,1374.2214],[-126.8288,54.8225,1582.6909],[-126.8286,54.8282,1605.5234],[-126.8215,54.8306,1596.2445],[-126.8405,54.8378,1659.1166],[-126.8496,54.8447,1749.3666],[-126.8571,54.848,1772.428],[-126.8535,54.8549,1654.0619],[-126.836,54.8604,1940.5732],[-126.8336,54.8619,1921.8269],[-126.8337,54.8652,1981.4852],[-126.8357,54.8688,1728.9515],[-126.8629,54.8723,1733.699],[-126.8647,54.8783,1736.8141],[-126.8572,54.8848,1979.5533],[-126.8559,54.8954,2159.6362],[-126.8596,54.9059,1798.4426],[-126.8634,54.9098,1785.2334],[-126.8589,54.9206,2022.6499],[-126.8588,54.9287,2010.1072],[-126.8613,54.9375,1886.6406],[-126.8753,54.9466,1739.1086],[-126.893,54.9555,1728.031],[-126.9119,54.9751,1666.0565],[-126.917,54.9837,1848.9275],[-126.9335,54.9911,1725.6357],[-126.9366,55.0001,1853.6804],[-127.2406,55.0,759.8395],[-127.2423,55.0068,808.675],[-127.2719,55.0077,555.5338],[-127.2734,55.0001,526.5162],[-127.3438,55.0001,421.1968],[-127.3437,54.993899999999996,417.6393],[-127.3672,54.9937,584.6754],[-127.3675,55.0003,558.4835],[-127.8178,55.0009,620.9694],[-127.8012,55.0001,533.7606],[-127.801,54.9919,500.2644],[-127.7998,54.6319,2058.0054],[-127.7974,54.6305,2058.0054],[-127.7969,54.6267,2037.9119],[-127.7998,54.6234,1956.1526],[-127.801,54.6162,1934.5188],[-127.8104,54.6061,1966.6261],[-127.8042,54.5987,2165.4868],[-127.792,54.5987,1969.2015],[-127.7779,54.6039,2123.7495],[-127.7552,54.5955,1967.9081],[-127.7388,54.5922,1716.5563],[-127.7157,54.5921,1620.5353],[-127.6959,54.5845,1442.847],[-127.6875,54.578,1146.7627],[-127.6986,54.5623,1268.0012],[-127.6947,54.5553,1664.6411],[-127.7004,54.5468,1831.8025],[-127.711,54.5478,1730.1904],[-127.7238,54.5449,1958.0916],[-127.7295,54.5466,2272.4536],[-127.7573,54.5374,1979.2444],[-127.761,54.5309,2139.063],[-127.7713,54.5256,2107.6436],[-127.7766,54.5169,2089.1472],[-127.7732,54.5104,2272.4397],[-127.766,54.5067,2297.3516],[-127.7741,54.4974,2056.4038],[-127.7716,54.4947,1963.251]],
[[-127.1777,54.8363,530.3722],[-127.1775,54.8328,522.7194],[-127.1722,54.8329,491.021],[-127.1704,54.815,449.3354],[-127.1689,54.8126,452.6465],[-127.1731,54.811,454.3401],[-127.1743,54.8078,463.2339],[-127.1706,54.805,458.5915],[-127.1709,54.8026,469.2388],[-127.1664,54.8002,479.7712],[-127.1665,54.7966,469.1123],[-127.1636,54.7968,462.6498],[-127.1679,54.7962,501.0518],[-127.1675,54.794,489.1299],[-127.163,54.7948,456.7047],[-127.1609,54.7891,465.3292],[-127.1569,54.7885,464.3987],[-127.1529,54.7845,477.4579],[-127.145,54.7846,462.9424],[-127.1407,54.7772,476.5727],[-127.1262,54.7781,474.7836],[-127.1236,54.7764,472.1621],[-127.1232,54.7728,467.9069],[-127.1314,54.766,467.375],[-127.1263,54.7604,473.4914],[-127.1328,54.7606,474.7249],[-127.1327,54.7532,478.2619],[-127.1424,54.7531,491.059],[-127.134,54.746,487.5464],[-127.146,54.7459,533.106],[-127.1474,54.7529,513.1783],[-127.1571,54.7528,542.1389],[-127.1577,54.764,499.2955],[-127.1624,54.7674,496.8899],[-127.1762,54.7676,536.2866],[-127.1796,54.7741,498.1138],[-127.1825,54.7741,541.2766],[-127.1825,54.7781,498.4534],[-127.1888,54.7783,680.6797],[-127.1891,54.7815,551.4024],[-127.195,54.7813,639.9172],[-127.195,54.7837,564.6536],[-127.1844,54.7837,496.2342],[-127.1985,54.7939,495.2395],[-127.1983,54.7964,488.2022],[-127.1916,54.7963,485.7339],[-127.193,54.7985,488.8995],[-127.1914,54.7992,491.3211],[-127.1889,54.7975,496.8414],[-127.1847,54.7985,511.3717],[-127.1785,54.7929,490.9958],[-127.1706,54.7936,491.5259],[-127.1718,54.8035,502.5689],[-127.1767,54.8034,517.1198],[-127.1769,54.8106,479.2775],[-127.1894,54.8105,525.3166],[-127.1894,54.8174,524.4022],[-127.197,54.8177,518.3937],[-127.1903,54.8232,508.0504],[-127.1905,54.8361,522.2044],[-127.1777,54.8363,530.3722]],
[[-127.0259,54.7414,714.257],[-127.0271,54.7414,714.257],[-127.0265,54.75,726.3821],[-127.0,54.75,816.4235],[-127.0,54.7433,812.0226],[-127.002,54.7418,798.6203],[-127.0259,54.7414,714.257]],
[[-127.0479,54.7103,552.3137],[-127.0466,54.7091,552.3137],[-127.0464,54.702,555.2831],[-127.0406,54.7021,562.826],[-127.0404,54.6986,548.8195],[-127.0332,54.6986,524.5928],[-127.0327,54.6852,517.6857],[-127.0388,54.6866,517.9814],[-127.0426,54.6896,533.5962],[-127.0448,54.689,511.0523],[-127.0466,54.6911,507.2029],[-127.047,54.6775,549.816],[-127.0594,54.6776,583.1023],[-127.0592,54.681,549.5211],[-127.0684,54.6804,542.3962],[-127.073,54.6781,537.7631],[-127.0733,54.673,545.2429],[-127.0685,54.6721,537.1429],[-127.0597,54.6672,531.8375],[-127.0463,54.667,568.7767],[-127.0465,54.6594,530.4352],[-127.0739,54.6598,546.9629],[-127.0734,54.6703,546.7041],[-127.0789,54.6728,546.6168],[-127.0746,54.6742,542.6194],[-127.0764,54.6762,541.2299],[-127.0682,54.6812,535.4903],[-127.0717,54.6811,529.3707],[-127.0721,54.6878,515.5239],[-127.0551,54.6948,506.2542],[-127.0657,54.7034,514.0329],[-127.0731,54.707,508.5816],[-127.0648,54.7096,507.1775],[-127.0528,54.7091,538.9404],[-127.0479,54.7103,552.3137]]]]}
,"properties": {"GID_3": "CAN.2.2.6_1","GID_0": "CAN","country": "Canada","GID_1": "CAN.2_1","province": "BritishColumbia","NL_NAME_1": "NA","GID_2": "CAN.2.2_1","county": "Bulkley-Nechako","NL_NAME_2": "NA","city": "Bulkley-NechakoA","VARNAME_3": "NA","NL_NAME_3": "NA","TYPE_3": "RegionalDistrictElectoralArea","ENGTYPE_3": "RegionalDistrictElectoralArea","CC_3": "NA","HASC_3": "NA","name": "Bulkley-Nechako_A.city","area_km2": 3711.085,"hist_schema_id": "Elevation0-9000","hist_area_km2": {"375": 1.338,"400": 5.635,"425": 8.206,"450": 19.695,"475": 39.892,"500": 58.961,"525": 83.36,"550": 74.354,"575": 77.64,"600": 69.626,"625": 73.081,"650": 72.833,"675": 64.621,"700": 66.938,"725": 79.901,"750": 71.56,"775": 75.646,"800": 92.662,"825": 104.788,"850": 115.114,"875": 114.715,"900": 106.985,"925": 106.351,"950": 103.858,"975": 99.392,"1000": 93.33,"1025": 91.438,"1050": 96.505,"1075": 91.176,"1100": 85.029,"1125": 86.788,"1150": 83.338,"1175": 76.25,"1200": 75.131,"1225": 72.232,"1250": 70.998,"1275": 73.336,"1300": 65.766,"1325": 63.192,"1350": 58.383,"1375": 56.091,"1400": 53.172,"1425": 50.297,"1450": 46.981,"1475": 43.509,"1500": 41.549,"1525": 40.983,"1550": 40.9,"1575": 37.512,"1600": 34.681,"1625": 32.767,"1650": 30.913,"1675": 29.35,"1700": 26.611,"1725": 23.471,"1750": 21.255,"1775": 18.311,"1800": 15.822,"1825": 13.069,"1850": 11.073,"1875": 9.688,"1900": 8.957,"1925": 7.055,"1950": 6.64,"1975": 5.584,"2000": 4.691,"2025": 4.592,"2050": 3.955,"2075": 3.256,"2100": 2.779,"2125": 2.498,"2150": 1.958,"2175": 1.762,"2200": 1.775,"2225": 1.652,"2250": 1.177,"2275": 1.187,"2300": 0.821,"2325": 0.54,"2350": 0.613,"2375": 0.43,"2400": 0.319,"2425": 0.331,"2450": 0.184,"2475": 0.184,"2500": 0.061,"2525": 0.037}}}