{"type":"Feature","properties":{"featurecla":"River","scalerank":11,"rivernum":20642,"dissolve":"20642River","name":"Martineau","name_alt":null,"note":"ID is link back to CEC data","name_full":"Martineau River","min_zoom":6.7,"strokeweig":0.2,"uident":1630001,"min_label":7.7},
"geometry":{"type": "LineString","coordinates": [[-109.65851803293705,54.851996160931527,618.5089],[-109.6573787100204,54.840521551556527,614.0261],[-109.6481013662704,54.832953192181527,600.5104],[-109.62242591054122,54.822333074994027,602.783],[-109.61827551991622,54.812323309369027,600.7786],[-109.64024817616622,54.798773504681527,598.4996],[-109.74640865793705,54.782334702598192,602.6264],[-109.77965247304122,54.774237371869027,609.7526],[-109.83039303293705,54.749538478639863,609.9658],[-109.85570227772872,54.744248765098192,596.5486],[-109.8856501943954,54.750677801556527,605.9768],[-109.9110408193954,54.738226629681527,591.4535],[-109.9652400381454,54.721869207806527,594.8473],[-110.00348873606205,54.704128322389863,598.3404],[-110.01463782460372,54.689886785931527,572.369],[-110.03327389231205,54.666367905723192,599.4236],[-110.03522701731205,54.643581447389863,558.343],[-110.04088294179122,54.624701239056527,533.7604]]}}