{"type":"Feature","properties":{"GID_3":"CAN.12.3.24_1","GID_0":"CAN","country":"Canada","GID_1":"CAN.12_1","province":"Saskatchewan","NL_NAME_1":"NA","GID_2":"CAN.12.3_1","county":"DivisionNo.12","NL_NAME_2":"NA","city":"Mosquito109","VARNAME_3":"NA","NL_NAME_3":"NA","TYPE_3":"RéserveIndienne","ENGTYPE_3":"IndianReserve","CC_3":"NA","HASC_3":"NA","name":"Mosquito109.city"},
"geometry":{"type": "MultiPolygon","coordinates": [[[[-108.3413,52.5515,700.275],[-108.3431,52.465,699.677],[-108.2014,52.4649,727.0062],[-108.2005,52.553,682.6392],[-108.3413,52.5515,700.275]]]]}}