{"type":"Feature","properties":{"GID_3":"CAN.11.24.4_1","GID_0":"CAN","country":"Canada","GID_1":"CAN.11_1","province":"Québec","NL_NAME_1":"NA","GID_2":"CAN.11.24_1","county":"Deux-Montagnes","NL_NAME_2":"NA","city":"Pointe-Calumet","VARNAME_3":"NA","NL_NAME_3":"NA","TYPE_3":"Municipalité","ENGTYPE_3":"Municipality","CC_3":"NA","HASC_3":"NA","name":"Pointe-Calumet.city"},
"geometry":{"type": "MultiPolygon","coordinates": [[[[-73.9729,45.4744,20.0],[-73.9528,45.4891,19.5],[-73.9404,45.51,19.0],[-73.9528,45.5185,28.7797],[-73.9979,45.4928,25.153],[-73.9729,45.4744,20.0]]]]}}